<?xml version="1.0" encoding="UTF-8"?>
<gpx xmlns="http://www.topografix.com/GPX/1/1" xmlns:gpxtpx="http://www.garmin.com/xmlschemas/TrackPointExtension/v1" xmlns:xsi="http://www.w3.org/2001/XMLSchema-instance" xsi:schemaLocation="http://www.topografix.com/GPX/1/1 http://www.topografix.com/GPX/1/1/gpx.xsd" version="1.1" creator="gpx.py -- https://github.com/tkrajina/gpxpy">
  <trk>
    <name>gpx from keep</name>
    <type>Ride</type>
    <trkseg>
      <trkpt lat="24.937260481418242" lon="118.5738794695027">
        <ele>12.51316219381988</ele>
        <time>2024-09-25T09:47:27Z</time>
      </trkpt>
      <trkpt lat="24.937181676768557" lon="118.57387429753685">
        <ele>12.520250361412764</ele>
        <time>2024-09-25T09:47:32Z</time>
      </trkpt>
      <trkpt lat="24.93712493315146" lon="118.57382015247481">
        <ele>12.898853941820562</ele>
        <time>2024-09-25T09:47:35Z</time>
      </trkpt>
      <trkpt lat="24.937045171791315" lon="118.57377454616908">
        <ele>12.998768131248653</ele>
        <time>2024-09-25T09:47:38Z</time>
      </trkpt>
      <trkpt lat="24.93684659495394" lon="118.57370315508597">
        <ele>14.458988528698683</ele>
        <time>2024-09-25T09:47:43Z</time>
      </trkpt>
      <trkpt lat="24.9367713201541" lon="118.57364714201532">
        <ele>14.572846227325499</ele>
        <time>2024-09-25T09:47:45Z</time>
      </trkpt>
      <trkpt lat="24.93669176820273" lon="118.573621492809">
        <ele>14.167793017812073</ele>
        <time>2024-09-25T09:47:47Z</time>
      </trkpt>
      <trkpt lat="24.936560981353907" lon="118.57350881188752">
        <ele>14.81643287371844</ele>
        <time>2024-09-25T09:47:51Z</time>
      </trkpt>
      <trkpt lat="24.936403771882514" lon="118.57344489236579">
        <ele>14.470211521722376</ele>
        <time>2024-09-25T09:47:55Z</time>
      </trkpt>
      <trkpt lat="24.936258948500438" lon="118.5733193392027">
        <ele>15.024550994858146</ele>
        <time>2024-09-25T09:47:58Z</time>
      </trkpt>
      <trkpt lat="24.936070150422232" lon="118.57323615973314">
        <ele>14.99049273505807</ele>
        <time>2024-09-25T09:48:02Z</time>
      </trkpt>
      <trkpt lat="24.935823897974146" lon="118.57304790810538">
        <ele>13.411102376878262</ele>
        <time>2024-09-25T09:48:09Z</time>
      </trkpt>
      <trkpt lat="24.93569972527666" lon="118.57303349095902">
        <ele>15.03177459537983</ele>
        <time>2024-09-25T09:48:13Z</time>
      </trkpt>
      <trkpt lat="24.935595254875327" lon="118.57304915048367">
        <ele>14.797150968573987</ele>
        <time>2024-09-25T09:48:16Z</time>
      </trkpt>
      <trkpt lat="24.935503288609926" lon="118.57303759965808">
        <ele>14.74415540508926</ele>
        <time>2024-09-25T09:48:19Z</time>
      </trkpt>
      <trkpt lat="24.93544703657193" lon="118.5729517831812">
        <ele>15.023357793688774</ele>
        <time>2024-09-25T09:48:21Z</time>
      </trkpt>
      <trkpt lat="24.935369909705038" lon="118.57289117552118">
        <ele>14.184538321569562</ele>
        <time>2024-09-25T09:48:24Z</time>
      </trkpt>
      <trkpt lat="24.935281325517796" lon="118.5729196437834">
        <ele>14.402018797583878</ele>
        <time>2024-09-25T09:48:28Z</time>
      </trkpt>
      <trkpt lat="24.93525566124793" lon="118.57282396707802">
        <ele>14.734219899401069</ele>
        <time>2024-09-25T09:48:31Z</time>
      </trkpt>
      <trkpt lat="24.935184137717634" lon="118.57280060794723">
        <ele>14.883481919765472</ele>
        <time>2024-09-25T09:48:34Z</time>
      </trkpt>
      <trkpt lat="24.934959996266254" lon="118.57265530345553">
        <ele>14.828018405474722</ele>
        <time>2024-09-25T09:48:42Z</time>
      </trkpt>
      <trkpt lat="24.934867789096998" lon="118.57270210141237">
        <ele>14.462227079086006</ele>
        <time>2024-09-25T09:48:44Z</time>
      </trkpt>
      <trkpt lat="24.934791645729906" lon="118.57269737380098">
        <ele>14.662278084084392</ele>
        <time>2024-09-25T09:48:47Z</time>
      </trkpt>
      <trkpt lat="24.934708378196206" lon="118.57262424973501">
        <ele>14.029246016405523</ele>
        <time>2024-09-25T09:48:50Z</time>
      </trkpt>
      <trkpt lat="24.934663500383035" lon="118.57253347713568">
        <ele>14.568518310785294</ele>
        <time>2024-09-25T09:48:53Z</time>
      </trkpt>
      <trkpt lat="24.934537081247836" lon="118.5724074287116">
        <ele>13.679232907481492</ele>
        <time>2024-09-25T09:48:59Z</time>
      </trkpt>
      <trkpt lat="24.934368234173604" lon="118.57237305033436">
        <ele>14.31603430584073</ele>
        <time>2024-09-25T09:49:05Z</time>
      </trkpt>
      <trkpt lat="24.934287985068924" lon="118.57230685101408">
        <ele>12.996446209959686</ele>
        <time>2024-09-25T09:49:10Z</time>
      </trkpt>
      <trkpt lat="24.934147087260797" lon="118.57225045069801">
        <ele>12.717786413617432</ele>
        <time>2024-09-25T09:49:18Z</time>
      </trkpt>
      <trkpt lat="24.934045406954375" lon="118.57210536280685">
        <ele>12.940801694057882</ele>
        <time>2024-09-25T09:49:25Z</time>
      </trkpt>
      <trkpt lat="24.933970659287354" lon="118.5720687813327">
        <ele>12.22558833938092</ele>
        <time>2024-09-25T09:49:29Z</time>
      </trkpt>
      <trkpt lat="24.933883678229904" lon="118.5719953157669">
        <ele>12.490836053155363</ele>
        <time>2024-09-25T09:49:34Z</time>
      </trkpt>
      <trkpt lat="24.933768329161968" lon="118.57181990876168">
        <ele>12.490927819162607</ele>
        <time>2024-09-25T09:49:38Z</time>
      </trkpt>
      <trkpt lat="24.93272263337486" lon="118.57121700837261">
        <ele>12.608109103515744</ele>
        <time>2024-09-25T09:49:39Z</time>
      </trkpt>
      <trkpt lat="24.93267764854178" lon="118.57111195742102">
        <ele>12.393708118237555</ele>
        <time>2024-09-25T09:49:41Z</time>
      </trkpt>
      <trkpt lat="24.93258309903503" lon="118.57104652734827">
        <ele>12.16732351668179</ele>
        <time>2024-09-25T09:49:44Z</time>
      </trkpt>
      <trkpt lat="24.932342953911213" lon="118.5709302595085">
        <ele>11.85379121080041</ele>
        <time>2024-09-25T09:49:48Z</time>
      </trkpt>
      <trkpt lat="24.932191076148538" lon="118.57082746930499">
        <ele>11.286422913894057</ele>
        <time>2024-09-25T09:49:50Z</time>
      </trkpt>
      <trkpt lat="24.931995004272412" lon="118.57064616413665">
        <ele>10.73062516655773</ele>
        <time>2024-09-25T09:49:53Z</time>
      </trkpt>
      <trkpt lat="24.931528054416855" lon="118.57031256238496">
        <ele>11.351561838760972</ele>
        <time>2024-09-25T09:50:00Z</time>
      </trkpt>
      <trkpt lat="24.930915452885564" lon="118.57012250078652">
        <ele>11.610871101729572</ele>
        <time>2024-09-25T09:50:02Z</time>
      </trkpt>
      <trkpt lat="24.930837901919897" lon="118.57004529589993">
        <ele>11.840369661338627</ele>
        <time>2024-09-25T09:50:04Z</time>
      </trkpt>
      <trkpt lat="24.93073939358494" lon="118.56987220808868">
        <ele>12.188905748538673</ele>
        <time>2024-09-25T09:50:07Z</time>
      </trkpt>
      <trkpt lat="24.93067229964292" lon="118.56978381231875">
        <ele>12.512467941269279</ele>
        <time>2024-09-25T09:50:09Z</time>
      </trkpt>
      <trkpt lat="24.930430649366055" lon="118.56931478805711">
        <ele>11.263694357126951</ele>
        <time>2024-09-25T09:50:19Z</time>
      </trkpt>
      <trkpt lat="24.93025262078492" lon="118.56899994732888">
        <ele>10.696492749266326</ele>
        <time>2024-09-25T09:50:26Z</time>
      </trkpt>
      <trkpt lat="24.930105801578485" lon="118.56881187434408">
        <ele>10.048138269223273</ele>
        <time>2024-09-25T09:50:30Z</time>
      </trkpt>
      <trkpt lat="24.929973047504223" lon="118.56848970028052">
        <ele>8.46080980449915</ele>
        <time>2024-09-25T09:50:36Z</time>
      </trkpt>
      <trkpt lat="24.92994514569249" lon="118.56836358030138">
        <ele>8.343894495628774</ele>
        <time>2024-09-25T09:50:38Z</time>
      </trkpt>
      <trkpt lat="24.929950395245886" lon="118.56826851278691">
        <ele>7.62907112762332</ele>
        <time>2024-09-25T09:50:40Z</time>
      </trkpt>
      <trkpt lat="24.929921469163364" lon="118.56818919654191">
        <ele>7.839370149187744</ele>
        <time>2024-09-25T09:50:42Z</time>
      </trkpt>
      <trkpt lat="24.929870421688236" lon="118.56811397444885">
        <ele>8.618118427693844</ele>
        <time>2024-09-25T09:50:44Z</time>
      </trkpt>
      <trkpt lat="24.929800747801803" lon="118.56806481408019">
        <ele>8.573810495436192</ele>
        <time>2024-09-25T09:50:46Z</time>
      </trkpt>
      <trkpt lat="24.92962488748354" lon="118.568006858739">
        <ele>10.259478661231697</ele>
        <time>2024-09-25T09:50:50Z</time>
      </trkpt>
      <trkpt lat="24.929112280032683" lon="118.56801755351212">
        <ele>9.697329191491008</ele>
        <time>2024-09-25T09:51:00Z</time>
      </trkpt>
      <trkpt lat="24.929026472127735" lon="118.56803687021754">
        <ele>9.344750792719424</ele>
        <time>2024-09-25T09:51:02Z</time>
      </trkpt>
      <trkpt lat="24.928855610420896" lon="118.56800112689749">
        <ele>9.756882356479764</ele>
        <time>2024-09-25T09:51:07Z</time>
      </trkpt>
      <trkpt lat="24.9287523336586" lon="118.56802194688605">
        <ele>9.196522819809616</ele>
        <time>2024-09-25T09:51:09Z</time>
      </trkpt>
      <trkpt lat="24.928515705695965" lon="118.5680204751016">
        <ele>8.969354531727731</ele>
        <time>2024-09-25T09:51:13Z</time>
      </trkpt>
      <trkpt lat="24.928057409697786" lon="118.56810019317913">
        <ele>9.989934800192714</ele>
        <time>2024-09-25T09:51:21Z</time>
      </trkpt>
      <trkpt lat="24.927661774730836" lon="118.56811228745416">
        <ele>9.651530407369137</ele>
        <time>2024-09-25T09:51:28Z</time>
      </trkpt>
      <trkpt lat="24.927218693964928" lon="118.56821343399088">
        <ele>10.52303539775312</ele>
        <time>2024-09-25T09:51:36Z</time>
      </trkpt>
      <trkpt lat="24.927125955108558" lon="118.56823670793949">
        <ele>9.727392640896142</ele>
        <time>2024-09-25T09:51:38Z</time>
      </trkpt>
      <trkpt lat="24.926690234589756" lon="118.56823318806606">
        <ele>10.202445342205465</ele>
        <time>2024-09-25T09:51:46Z</time>
      </trkpt>
      <trkpt lat="24.926258052522652" lon="118.56828199985107">
        <ele>9.994621381163597</ele>
        <time>2024-09-25T09:51:54Z</time>
      </trkpt>
      <trkpt lat="24.926162591222884" lon="118.5682697598447">
        <ele>10.115006206557155</ele>
        <time>2024-09-25T09:51:56Z</time>
      </trkpt>
      <trkpt lat="24.925964372453414" lon="118.56831395575894">
        <ele>10.395337943919003</ele>
        <time>2024-09-25T09:52:04Z</time>
      </trkpt>
      <trkpt lat="24.925767271477692" lon="118.56830050524846">
        <ele>9.735069387592375</ele>
        <time>2024-09-25T09:52:08Z</time>
      </trkpt>
      <trkpt lat="24.925493525541743" lon="118.56837726432155">
        <ele>10.869021689519286</ele>
        <time>2024-09-25T09:52:14Z</time>
      </trkpt>
      <trkpt lat="24.925420479706922" lon="118.56841721446375">
        <ele>9.48197998572141</ele>
        <time>2024-09-25T09:52:16Z</time>
      </trkpt>
      <trkpt lat="24.925106070525914" lon="118.5684499662416">
        <ele>9.684988324530423</ele>
        <time>2024-09-25T09:52:22Z</time>
      </trkpt>
      <trkpt lat="24.924751010368986" lon="118.568459987062">
        <ele>10.325885095633566</ele>
        <time>2024-09-25T09:52:29Z</time>
      </trkpt>
      <trkpt lat="24.924313694392854" lon="118.56851883026458">
        <ele>9.63540344685316</ele>
        <time>2024-09-25T09:52:37Z</time>
      </trkpt>
      <trkpt lat="24.92400641457763" lon="118.56850967025471">
        <ele>10.0793925113976</ele>
        <time>2024-09-25T09:52:43Z</time>
      </trkpt>
      <trkpt lat="24.923804776053316" lon="118.56853404825175">
        <ele>9.822786653414369</ele>
        <time>2024-09-25T09:52:47Z</time>
      </trkpt>
      <trkpt lat="24.92368539799479" lon="118.56853007710698">
        <ele>9.41957500576973</ele>
        <time>2024-09-25T09:52:50Z</time>
      </trkpt>
      <trkpt lat="24.923591940201927" lon="118.56855321572051">
        <ele>9.957880691625178</ele>
        <time>2024-09-25T09:52:52Z</time>
      </trkpt>
      <trkpt lat="24.92340656108818" lon="118.56855318392184">
        <ele>9.7336016735062</ele>
        <time>2024-09-25T09:52:56Z</time>
      </trkpt>
      <trkpt lat="24.923297720774762" lon="118.56857493778897">
        <ele>9.188014059327543</ele>
        <time>2024-09-25T09:52:58Z</time>
      </trkpt>
      <trkpt lat="24.923092879562443" lon="118.56858766297718">
        <ele>9.049200090579689</ele>
        <time>2024-09-25T09:53:01Z</time>
      </trkpt>
      <trkpt lat="24.922962783215233" lon="118.56856933625848">
        <ele>10.281245307065547</ele>
        <time>2024-09-25T09:53:03Z</time>
      </trkpt>
      <trkpt lat="24.92277869319006" lon="118.56861958941218">
        <ele>10.869500181637704</ele>
        <time>2024-09-25T09:53:07Z</time>
      </trkpt>
      <trkpt lat="24.9224088675023" lon="118.56863733485174">
        <ele>9.328560787253082</ele>
        <time>2024-09-25T09:53:15Z</time>
      </trkpt>
      <trkpt lat="24.922047315048577" lon="118.56862030833813">
        <ele>9.683422242291272</ele>
        <time>2024-09-25T09:53:22Z</time>
      </trkpt>
      <trkpt lat="24.921954874437798" lon="118.56864414826303">
        <ele>9.894828735850751</ele>
        <time>2024-09-25T09:53:24Z</time>
      </trkpt>
      <trkpt lat="24.92186251527713" lon="118.56863356133576">
        <ele>9.351928925141692</ele>
        <time>2024-09-25T09:53:26Z</time>
      </trkpt>
      <trkpt lat="24.921490775840685" lon="118.56869257597931">
        <ele>9.807663599960506</ele>
        <time>2024-09-25T09:53:34Z</time>
      </trkpt>
      <trkpt lat="24.921319225647796" lon="118.56873900958385">
        <ele>9.516621219925582</ele>
        <time>2024-09-25T09:53:38Z</time>
      </trkpt>
      <trkpt lat="24.921108089615227" lon="118.56876974683126">
        <ele>9.584078751504421</ele>
        <time>2024-09-25T09:53:42Z</time>
      </trkpt>
      <trkpt lat="24.920786237233475" lon="118.56874541361742">
        <ele>8.758342399261892</ele>
        <time>2024-09-25T09:53:47Z</time>
      </trkpt>
      <trkpt lat="24.920623868288416" lon="118.56883073820039">
        <ele>8.880720001645386</ele>
        <time>2024-09-25T09:53:52Z</time>
      </trkpt>
      <trkpt lat="24.92051282018991" lon="118.56881506789537">
        <ele>8.215692151337862</ele>
        <time>2024-09-25T09:53:54Z</time>
      </trkpt>
      <trkpt lat="24.920380981217697" lon="118.56883285517134">
        <ele>9.692965043708682</ele>
        <time>2024-09-25T09:53:56Z</time>
      </trkpt>
      <trkpt lat="24.92004464138544" lon="118.56896081061653">
        <ele>9.043845213018358</ele>
        <time>2024-09-25T09:54:04Z</time>
      </trkpt>
      <trkpt lat="24.919786588897434" lon="118.56901677470849">
        <ele>8.677351906895638</ele>
        <time>2024-09-25T09:54:10Z</time>
      </trkpt>
      <trkpt lat="24.9196733087505" lon="118.5690141111679">
        <ele>9.263979678973556</ele>
        <time>2024-09-25T09:54:12Z</time>
      </trkpt>
      <trkpt lat="24.91918669377178" lon="118.5692029470322">
        <ele>10.049264527857304</ele>
        <time>2024-09-25T09:54:25Z</time>
      </trkpt>
      <trkpt lat="24.91897139998162" lon="118.56925055115755">
        <ele>10.634341708384454</ele>
        <time>2024-09-25T09:54:29Z</time>
      </trkpt>
      <trkpt lat="24.918877651541084" lon="118.56921749078052">
        <ele>10.44886931590736</ele>
        <time>2024-09-25T09:54:31Z</time>
      </trkpt>
      <trkpt lat="24.91880948739265" lon="118.56924443574">
        <ele>9.862495106644928</ele>
        <time>2024-09-25T09:54:34Z</time>
      </trkpt>
      <trkpt lat="24.918751860067452" lon="118.56929743873359">
        <ele>10.175764334388077</ele>
        <time>2024-09-25T09:54:36Z</time>
      </trkpt>
      <trkpt lat="24.918688558529816" lon="118.56947700183211">
        <ele>9.922796257771552</ele>
        <time>2024-09-25T09:54:41Z</time>
      </trkpt>
      <trkpt lat="24.918643506887943" lon="118.56955040877165">
        <ele>9.784847611561418</ele>
        <time>2024-09-25T09:54:44Z</time>
      </trkpt>
      <trkpt lat="24.918483519956133" lon="118.5695750484224">
        <ele>10.147840869612992</ele>
        <time>2024-09-25T09:54:50Z</time>
      </trkpt>
      <trkpt lat="24.918407823760436" lon="118.5695581787037">
        <ele>9.87387980427593</ele>
        <time>2024-09-25T09:54:53Z</time>
      </trkpt>
      <trkpt lat="24.918329646361613" lon="118.56958830472233">
        <ele>9.747214678674936</ele>
        <time>2024-09-25T09:54:57Z</time>
      </trkpt>
      <trkpt lat="24.918242927954125" lon="118.56957238438379">
        <ele>9.781728400848806</ele>
        <time>2024-09-25T09:55:00Z</time>
      </trkpt>
      <trkpt lat="24.918133270284866" lon="118.56958614743961">
        <ele>9.751151931472123</ele>
        <time>2024-09-25T09:55:10Z</time>
      </trkpt>
      <trkpt lat="24.918059249417897" lon="118.56955627089069">
        <ele>9.738762974739075</ele>
        <time>2024-09-25T09:55:13Z</time>
      </trkpt>
      <trkpt lat="24.917988952189976" lon="118.56957577954616">
        <ele>9.859553157351911</ele>
        <time>2024-09-25T09:55:21Z</time>
      </trkpt>
      <trkpt lat="24.917813475991245" lon="118.56934063118207">
        <ele>9.912781457416713</ele>
        <time>2024-09-25T09:55:34Z</time>
      </trkpt>
      <trkpt lat="24.91774634526239" lon="118.56921668608878">
        <ele>10.060799689032137</ele>
        <time>2024-09-25T09:55:37Z</time>
      </trkpt>
      <trkpt lat="24.917629234987647" lon="118.56907638347353">
        <ele>9.869967645965517</ele>
        <time>2024-09-25T09:55:46Z</time>
      </trkpt>
      <trkpt lat="24.917527842020665" lon="118.56890555709991">
        <ele>9.603355850093067</ele>
        <time>2024-09-25T09:55:50Z</time>
      </trkpt>
      <trkpt lat="24.91747565274903" lon="118.5687859228954">
        <ele>9.88776267785579</ele>
        <time>2024-09-25T09:55:52Z</time>
      </trkpt>
      <trkpt lat="24.917467115584063" lon="118.56869176143658">
        <ele>9.777879596687853</ele>
        <time>2024-09-25T09:55:54Z</time>
      </trkpt>
      <trkpt lat="24.917478691661444" lon="118.56859420017021">
        <ele>9.64525907393545</ele>
        <time>2024-09-25T09:55:56Z</time>
      </trkpt>
      <trkpt lat="24.917527761553668" lon="118.56852176744856">
        <ele>9.703482351265848</ele>
        <time>2024-09-25T09:56:00Z</time>
      </trkpt>
      <trkpt lat="24.917528930374967" lon="118.56843073205383">
        <ele>9.617918047122657</ele>
        <time>2024-09-25T09:56:04Z</time>
      </trkpt>
      <trkpt lat="24.917506678294988" lon="118.56834101189371">
        <ele>9.919465721584857</ele>
        <time>2024-09-25T09:56:07Z</time>
      </trkpt>
      <trkpt lat="24.917554315136503" lon="118.56785683269212">
        <ele>9.675995526835322</ele>
        <time>2024-09-25T09:56:15Z</time>
      </trkpt>
      <trkpt lat="24.91758031641046" lon="118.56774800227979">
        <ele>9.547550411894917</ele>
        <time>2024-09-25T09:56:17Z</time>
      </trkpt>
      <trkpt lat="24.917583363051886" lon="118.56725167771627">
        <ele>9.744832632131875</ele>
        <time>2024-09-25T09:56:25Z</time>
      </trkpt>
      <trkpt lat="24.91758097092653" lon="118.5671707956821">
        <ele>10.002041008323431</ele>
        <time>2024-09-25T09:56:26Z</time>
      </trkpt>
      <trkpt lat="24.917632433044894" lon="118.56677471411052">
        <ele>9.14031681790948</ele>
        <time>2024-09-25T09:56:32Z</time>
      </trkpt>
      <trkpt lat="24.91767836713115" lon="118.56619423105441">
        <ele>9.320769592188299</ele>
        <time>2024-09-25T09:56:40Z</time>
      </trkpt>
      <trkpt lat="24.917680484172596" lon="118.56590238566399">
        <ele>8.886715866625309</ele>
        <time>2024-09-25T09:56:44Z</time>
      </trkpt>
      <trkpt lat="24.917587108928462" lon="118.56535667771483">
        <ele>9.648788209073246</ele>
        <time>2024-09-25T09:56:52Z</time>
      </trkpt>
      <trkpt lat="24.917439117945325" lon="118.564855546654">
        <ele>10.242191585712135</ele>
        <time>2024-09-25T09:57:02Z</time>
      </trkpt>
      <trkpt lat="24.917296642933923" lon="118.56453642386144">
        <ele>10.604526484385133</ele>
        <time>2024-09-25T09:57:08Z</time>
      </trkpt>
      <trkpt lat="24.917056612900826" lon="118.5641215175293">
        <ele>10.096038139425218</ele>
        <time>2024-09-25T09:57:16Z</time>
      </trkpt>
      <trkpt lat="24.916891617023282" lon="118.56385282850502">
        <ele>9.851126306690276</ele>
        <time>2024-09-25T09:57:23Z</time>
      </trkpt>
      <trkpt lat="24.91681719652256" lon="118.5638139608776">
        <ele>9.980378732085228</ele>
        <time>2024-09-25T09:57:25Z</time>
      </trkpt>
      <trkpt lat="24.91654573189739" lon="118.56343711537903">
        <ele>10.65786868147552</ele>
        <time>2024-09-25T09:57:37Z</time>
      </trkpt>
      <trkpt lat="24.916265160243206" lon="118.56303155378492">
        <ele>12.076708629727364</ele>
        <time>2024-09-25T09:57:48Z</time>
      </trkpt>
      <trkpt lat="24.91599520676561" lon="118.56262825413465">
        <ele>7.883985457010567</ele>
        <time>2024-09-25T09:57:56Z</time>
      </trkpt>
      <trkpt lat="24.915667958530722" lon="118.56216217719569">
        <ele>3.8509229505434632</ele>
        <time>2024-09-25T09:58:05Z</time>
      </trkpt>
      <trkpt lat="24.915375460394813" lon="118.56173652579837">
        <ele>2.987317217513919</ele>
        <time>2024-09-25T09:58:13Z</time>
      </trkpt>
      <trkpt lat="24.91528957824401" lon="118.56158107240984">
        <ele>2.518054386600852</ele>
        <time>2024-09-25T09:58:17Z</time>
      </trkpt>
      <trkpt lat="24.915087245261198" lon="118.56131583341558">
        <ele>2.93745750002563</ele>
        <time>2024-09-25T09:58:23Z</time>
      </trkpt>
      <trkpt lat="24.91502289298326" lon="118.56120998095192">
        <ele>3.113201044499874</ele>
        <time>2024-09-25T09:58:25Z</time>
      </trkpt>
      <trkpt lat="24.91494410016155" lon="118.56112715164974">
        <ele>2.427972490899265</ele>
        <time>2024-09-25T09:58:27Z</time>
      </trkpt>
      <trkpt lat="24.91490830253721" lon="118.56104202422384">
        <ele>3.3087262753397226</ele>
        <time>2024-09-25T09:58:29Z</time>
      </trkpt>
      <trkpt lat="24.9148542528678" lon="118.56097886917622">
        <ele>2.4274821309372783</ele>
        <time>2024-09-25T09:58:31Z</time>
      </trkpt>
      <trkpt lat="24.914773829901424" lon="118.56079281088677">
        <ele>5.253971051424742</ele>
        <time>2024-09-25T09:58:35Z</time>
      </trkpt>
      <trkpt lat="24.91462742460786" lon="118.56053573091654">
        <ele>9.420794046483934</ele>
        <time>2024-09-25T09:58:41Z</time>
      </trkpt>
      <trkpt lat="24.914536373579676" lon="118.56050726151729">
        <ele>10.632976547814906</ele>
        <time>2024-09-25T09:58:44Z</time>
      </trkpt>
      <trkpt lat="24.91457217598277" lon="118.56043311021625">
        <ele>11.248824501410127</ele>
        <time>2024-09-25T09:58:48Z</time>
      </trkpt>
      <trkpt lat="24.91452516528644" lon="118.5603361045697">
        <ele>11.681186560541391</ele>
        <time>2024-09-25T09:58:53Z</time>
      </trkpt>
      <trkpt lat="24.91424099723122" lon="118.55991461932697">
        <ele>11.347947433590889</ele>
        <time>2024-09-25T09:59:04Z</time>
      </trkpt>
      <trkpt lat="24.913904136262925" lon="118.55955942447893">
        <ele>12.090264641679823</ele>
        <time>2024-09-25T09:59:10Z</time>
      </trkpt>
      <trkpt lat="24.913817264837377" lon="118.55948174807232">
        <ele>12.411199581809342</ele>
        <time>2024-09-25T09:59:12Z</time>
      </trkpt>
      <trkpt lat="24.91371312251957" lon="118.55930007895415">
        <ele>12.76230511534959</ele>
        <time>2024-09-25T09:59:16Z</time>
      </trkpt>
      <trkpt lat="24.913679190749342" lon="118.55920627076613">
        <ele>13.284368540160358</ele>
        <time>2024-09-25T09:59:18Z</time>
      </trkpt>
      <trkpt lat="24.91342451569743" lon="118.55892507467338">
        <ele>13.313064528629184</ele>
        <time>2024-09-25T09:59:24Z</time>
      </trkpt>
      <trkpt lat="24.913396736082912" lon="118.55884376274147">
        <ele>13.120599524118006</ele>
        <time>2024-09-25T09:59:26Z</time>
      </trkpt>
      <trkpt lat="24.913327991633793" lon="118.55876640473659">
        <ele>12.436369580216706</ele>
        <time>2024-09-25T09:59:28Z</time>
      </trkpt>
      <trkpt lat="24.913276379034528" lon="118.5585862306885">
        <ele>12.389504665508866</ele>
        <time>2024-09-25T09:59:34Z</time>
      </trkpt>
      <trkpt lat="24.913248091368985" lon="118.55838847924392">
        <ele>12.574631402269006</ele>
        <time>2024-09-25T09:59:40Z</time>
      </trkpt>
      <trkpt lat="24.91309408345393" lon="118.55823971313215">
        <ele>12.638272065669298</ele>
        <time>2024-09-25T09:59:46Z</time>
      </trkpt>
      <trkpt lat="24.913039877665163" lon="118.5581096103044">
        <ele>11.504969454370439</ele>
        <time>2024-09-25T09:59:49Z</time>
      </trkpt>
      <trkpt lat="24.913031508743572" lon="118.55801168962532">
        <ele>10.490473230369389</ele>
        <time>2024-09-25T09:59:53Z</time>
      </trkpt>
      <trkpt lat="24.912923899225277" lon="118.55785132634247">
        <ele>10.421575678512454</ele>
        <time>2024-09-25T09:59:58Z</time>
      </trkpt>
      <trkpt lat="24.912899185948618" lon="118.55776380739155">
        <ele>9.597121929749846</ele>
        <time>2024-09-25T10:00:00Z</time>
      </trkpt>
      <trkpt lat="24.912715142961943" lon="118.55735976774216">
        <ele>8.042233301326632</ele>
        <time>2024-09-25T10:00:08Z</time>
      </trkpt>
      <trkpt lat="24.91261757268337" lon="118.55716532958635">
        <ele>7.757215300574899</ele>
        <time>2024-09-25T10:00:12Z</time>
      </trkpt>
      <trkpt lat="24.91248326767806" lon="118.5567011630707">
        <ele>7.811414533294737</ele>
        <time>2024-09-25T10:00:20Z</time>
      </trkpt>
      <trkpt lat="24.91243310026564" lon="118.55657600304305">
        <ele>7.775839840993285</ele>
        <time>2024-09-25T10:00:22Z</time>
      </trkpt>
      <trkpt lat="24.91237228512417" lon="118.55633684940027">
        <ele>7.204958122223616</ele>
        <time>2024-09-25T10:00:26Z</time>
      </trkpt>
      <trkpt lat="24.912189711558852" lon="118.55589708033887">
        <ele>5.807935944758356</ele>
        <time>2024-09-25T10:00:33Z</time>
      </trkpt>
      <trkpt lat="24.912167225897456" lon="118.55582052760124">
        <ele>7.444172667339444</ele>
        <time>2024-09-25T10:00:34Z</time>
      </trkpt>
      <trkpt lat="24.912159018298095" lon="118.55567330870397">
        <ele>6.924821766093373</ele>
        <time>2024-09-25T10:00:36Z</time>
      </trkpt>
      <trkpt lat="24.911978077026163" lon="118.55525052465401">
        <ele>7.202471695840359</ele>
        <time>2024-09-25T10:00:43Z</time>
      </trkpt>
      <trkpt lat="24.911893242218238" lon="118.55513443774873">
        <ele>6.993012564256787</ele>
        <time>2024-09-25T10:00:45Z</time>
      </trkpt>
      <trkpt lat="24.911771780137045" lon="118.55485683545253">
        <ele>7.672708355821669</ele>
        <time>2024-09-25T10:00:52Z</time>
      </trkpt>
      <trkpt lat="24.911798520731484" lon="118.55476525848324">
        <ele>7.4748576786369085</ele>
        <time>2024-09-25T10:00:54Z</time>
      </trkpt>
      <trkpt lat="24.911769991007375" lon="118.5546679780186">
        <ele>7.485468929633498</ele>
        <time>2024-09-25T10:00:58Z</time>
      </trkpt>
      <trkpt lat="24.91164559979548" lon="118.55451497371229">
        <ele>7.411649766378105</ele>
        <time>2024-09-25T10:01:04Z</time>
      </trkpt>
      <trkpt lat="24.911564352604938" lon="118.55444047140344">
        <ele>7.306169664487243</ele>
        <time>2024-09-25T10:01:07Z</time>
      </trkpt>
      <trkpt lat="24.91150816854526" lon="118.55433626736398">
        <ele>8.002236489206553</ele>
        <time>2024-09-25T10:01:09Z</time>
      </trkpt>
      <trkpt lat="24.91147668881167" lon="118.55423078601235">
        <ele>7.815994897857308</ele>
        <time>2024-09-25T10:01:11Z</time>
      </trkpt>
      <trkpt lat="24.911280097771634" lon="118.5538018997325">
        <ele>7.058195158839226</ele>
        <time>2024-09-25T10:01:18Z</time>
      </trkpt>
      <trkpt lat="24.91120915152072" lon="118.55356682639359">
        <ele>7.303647261112928</ele>
        <time>2024-09-25T10:01:22Z</time>
      </trkpt>
      <trkpt lat="24.911122113706355" lon="118.55337388212979">
        <ele>7.154409918934107</ele>
        <time>2024-09-25T10:01:26Z</time>
      </trkpt>
      <trkpt lat="24.91110320532202" lon="118.5532868648048">
        <ele>7.399871928617358</ele>
        <time>2024-09-25T10:01:28Z</time>
      </trkpt>
      <trkpt lat="24.91105991237995" lon="118.55319528076156">
        <ele>7.405482726171613</ele>
        <time>2024-09-25T10:01:30Z</time>
      </trkpt>
      <trkpt lat="24.91104032937026" lon="118.55310044052176">
        <ele>7.255988068878651</ele>
        <time>2024-09-25T10:01:33Z</time>
      </trkpt>
      <trkpt lat="24.911093855621804" lon="118.5530315039938">
        <ele>7.627597568556666</ele>
        <time>2024-09-25T10:01:37Z</time>
      </trkpt>
      <trkpt lat="24.911158662827386" lon="118.55306782704079">
        <ele>7.062266533263028</ele>
        <time>2024-09-25T10:02:04Z</time>
      </trkpt>
      <trkpt lat="24.911128990601053" lon="118.55297270395576">
        <ele>7.414343573153019</ele>
        <time>2024-09-25T10:02:08Z</time>
      </trkpt>
      <trkpt lat="24.911036443677695" lon="118.55279525034824">
        <ele>7.382740020751953</ele>
        <time>2024-09-25T10:02:16Z</time>
      </trkpt>
      <trkpt lat="24.910969873965193" lon="118.552708718781">
        <ele>7.096421882510185</ele>
        <time>2024-09-25T10:02:19Z</time>
      </trkpt>
      <trkpt lat="24.910787420310818" lon="118.55236470513617">
        <ele>7.373743734322488</ele>
        <time>2024-09-25T10:02:27Z</time>
      </trkpt>
      <trkpt lat="24.91064452644083" lon="118.55200263742985">
        <ele>7.928876373916864</ele>
        <time>2024-09-25T10:02:33Z</time>
      </trkpt>
      <trkpt lat="24.910491731979747" lon="118.55147343190198">
        <ele>7.681178406812251</ele>
        <time>2024-09-25T10:02:41Z</time>
      </trkpt>
      <trkpt lat="24.910332492239156" lon="118.5512833389867">
        <ele>7.327412634156644</ele>
        <time>2024-09-25T10:02:45Z</time>
      </trkpt>
      <trkpt lat="24.91022769698109" lon="118.55107562987276">
        <ele>8.136615306138992</ele>
        <time>2024-09-25T10:02:49Z</time>
      </trkpt>
      <trkpt lat="24.910199774308676" lon="118.55097713070559">
        <ele>7.304330963641405</ele>
        <time>2024-09-25T10:02:51Z</time>
      </trkpt>
      <trkpt lat="24.910088475199466" lon="118.5507967837323">
        <ele>8.082014941610396</ele>
        <time>2024-09-25T10:02:54Z</time>
      </trkpt>
      <trkpt lat="24.910033543208353" lon="118.55067550092433">
        <ele>7.820217187516391</ele>
        <time>2024-09-25T10:02:56Z</time>
      </trkpt>
      <trkpt lat="24.910006911135124" lon="118.55057646164228">
        <ele>7.589084846898913</ele>
        <time>2024-09-25T10:02:58Z</time>
      </trkpt>
      <trkpt lat="24.90986044832437" lon="118.55037859691343">
        <ele>8.213503173552454</ele>
        <time>2024-09-25T10:03:02Z</time>
      </trkpt>
      <trkpt lat="24.909817268384984" lon="118.55017031484056">
        <ele>7.2978124134242535</ele>
        <time>2024-09-25T10:03:06Z</time>
      </trkpt>
      <trkpt lat="24.909661730643677" lon="118.54980220259425">
        <ele>7.736224320717156</ele>
        <time>2024-09-25T10:03:14Z</time>
      </trkpt>
      <trkpt lat="24.9096560439723" lon="118.5497047405139">
        <ele>7.724456663243473</ele>
        <time>2024-09-25T10:03:16Z</time>
      </trkpt>
      <trkpt lat="24.909577053414367" lon="118.54947886410235">
        <ele>6.7324693240225315</ele>
        <time>2024-09-25T10:03:21Z</time>
      </trkpt>
      <trkpt lat="24.909478221805834" lon="118.5492698478212">
        <ele>8.388850528746843</ele>
        <time>2024-09-25T10:03:25Z</time>
      </trkpt>
      <trkpt lat="24.90935310618893" lon="118.54892193299114">
        <ele>7.114922518841922</ele>
        <time>2024-09-25T10:03:31Z</time>
      </trkpt>
      <trkpt lat="24.909149378758183" lon="118.5485955272079">
        <ele>8.231589961796999</ele>
        <time>2024-09-25T10:03:37Z</time>
      </trkpt>
      <trkpt lat="24.90910018517204" lon="118.5484190706715">
        <ele>8.138063134625554</ele>
        <time>2024-09-25T10:03:41Z</time>
      </trkpt>
      <trkpt lat="24.908951175957657" lon="118.54815792399215">
        <ele>6.962765504606068</ele>
        <time>2024-09-25T10:03:47Z</time>
      </trkpt>
      <trkpt lat="24.908946122743934" lon="118.5480459471179">
        <ele>8.106477099470794</ele>
        <time>2024-09-25T10:03:52Z</time>
      </trkpt>
      <trkpt lat="24.908893661530488" lon="118.54791439093957">
        <ele>7.183409865014255</ele>
        <time>2024-09-25T10:03:55Z</time>
      </trkpt>
      <trkpt lat="24.908833915238272" lon="118.54784200875802">
        <ele>7.331450516358018</ele>
        <time>2024-09-25T10:03:59Z</time>
      </trkpt>
      <trkpt lat="24.90876615656447" lon="118.54762499826373">
        <ele>7.550045631825924</ele>
        <time>2024-09-25T10:04:04Z</time>
      </trkpt>
      <trkpt lat="24.908560278178808" lon="118.54723716962191">
        <ele>7.33577732834965</ele>
        <time>2024-09-25T10:04:12Z</time>
      </trkpt>
      <trkpt lat="24.908531945845233" lon="118.54695639258742">
        <ele>7.10975515563041</ele>
        <time>2024-09-25T10:04:18Z</time>
      </trkpt>
      <trkpt lat="24.908327407706206" lon="118.5464941152921">
        <ele>7.020830060355365</ele>
        <time>2024-09-25T10:04:26Z</time>
      </trkpt>
      <trkpt lat="24.90813003317413" lon="118.54604624238489">
        <ele>7.391200004145503</ele>
        <time>2024-09-25T10:04:33Z</time>
      </trkpt>
      <trkpt lat="24.90793923838775" lon="118.54553941532365">
        <ele>7.7053571958094835</ele>
        <time>2024-09-25T10:04:41Z</time>
      </trkpt>
      <trkpt lat="24.907788860551683" lon="118.54506964100494">
        <ele>7.226020852103829</ele>
        <time>2024-09-25T10:04:48Z</time>
      </trkpt>
      <trkpt lat="24.90771563319482" lon="118.54484801754978">
        <ele>7.655470037832856</ele>
        <time>2024-09-25T10:04:51Z</time>
      </trkpt>
      <trkpt lat="24.907578720375813" lon="118.54463576905839">
        <ele>8.436518113128841</ele>
        <time>2024-09-25T10:04:54Z</time>
      </trkpt>
      <trkpt lat="24.907451620483553" lon="118.5444990974391">
        <ele>7.693665410391986</ele>
        <time>2024-09-25T10:04:56Z</time>
      </trkpt>
      <trkpt lat="24.9074326996245" lon="118.54441674824253">
        <ele>7.952481545507908</ele>
        <time>2024-09-25T10:04:57Z</time>
      </trkpt>
      <trkpt lat="24.90738674340611" lon="118.54432159852519">
        <ele>8.752028793096542</ele>
        <time>2024-09-25T10:04:59Z</time>
      </trkpt>
      <trkpt lat="24.9074013853305" lon="118.5442303181892">
        <ele>8.103286439552903</ele>
        <time>2024-09-25T10:05:02Z</time>
      </trkpt>
      <trkpt lat="24.907341665882647" lon="118.54415802616602">
        <ele>8.450404840521514</ele>
        <time>2024-09-25T10:05:03Z</time>
      </trkpt>
      <trkpt lat="24.907345056271698" lon="118.54385442598982">
        <ele>8.182343857362866</ele>
        <time>2024-09-25T10:05:09Z</time>
      </trkpt>
      <trkpt lat="24.907434316986176" lon="118.54382933860384">
        <ele>8.05604600161314</ele>
        <time>2024-09-25T10:05:11Z</time>
      </trkpt>
      <trkpt lat="24.907426229750723" lon="118.54380324258709">
        <ele>7.736648020334542</ele>
        <time>2024-09-25T10:05:20Z</time>
      </trkpt>
    </trkseg>
  </trk>
</gpx>