<?xml version="1.0" encoding="UTF-8"?>
<gpx xmlns="http://www.topografix.com/GPX/1/1" xmlns:gpxtpx="http://www.garmin.com/xmlschemas/TrackPointExtension/v1" xmlns:xsi="http://www.w3.org/2001/XMLSchema-instance" xsi:schemaLocation="http://www.topografix.com/GPX/1/1 http://www.topografix.com/GPX/1/1/gpx.xsd" version="1.1" creator="gpx.py -- https://github.com/tkrajina/gpxpy">
  <trk>
    <name>gpx from keep</name>
    <type>Run</type>
    <trkseg>
      <trkpt lat="24.91074715968257" lon="118.53859926676931">
        <ele>9.943289178423584</ele>
        <time>2024-07-12T12:56:55Z</time>
      </trkpt>
      <trkpt lat="24.910672129845526" lon="118.53859111609437">
        <ele>9.938918635249138</ele>
        <time>2024-07-12T12:56:58Z</time>
      </trkpt>
      <trkpt lat="24.91058136305359" lon="118.5385450550393">
        <ele>9.876114073209465</ele>
        <time>2024-07-12T12:57:01Z</time>
      </trkpt>
      <trkpt lat="24.91029271406161" lon="118.53847079240391">
        <ele>10.440067714080215</ele>
        <time>2024-07-12T12:57:10Z</time>
      </trkpt>
      <trkpt lat="24.910218069573475" lon="118.53848710824036">
        <ele>10.144534545950592</ele>
        <time>2024-07-12T12:57:13Z</time>
      </trkpt>
      <trkpt lat="24.909938726262475" lon="118.53842143434032">
        <ele>9.937905855476856</ele>
        <time>2024-07-12T12:57:22Z</time>
      </trkpt>
      <trkpt lat="24.909661280526947" lon="118.53837765472245">
        <ele>8.443244319409132</ele>
        <time>2024-07-12T12:57:31Z</time>
      </trkpt>
      <trkpt lat="24.909494431403324" lon="118.53834055187767">
        <ele>8.241519362665713</ele>
        <time>2024-07-12T12:57:37Z</time>
      </trkpt>
      <trkpt lat="24.90940234632156" lon="118.53833573633354">
        <ele>6.623694744892418</ele>
        <time>2024-07-12T12:57:40Z</time>
      </trkpt>
      <trkpt lat="24.909318755393958" lon="118.53835825860368">
        <ele>7.140360961668193</ele>
        <time>2024-07-12T12:57:43Z</time>
      </trkpt>
      <trkpt lat="24.909193619617326" lon="118.5382581719247">
        <ele>7.446627575904131</ele>
        <time>2024-07-12T12:57:49Z</time>
      </trkpt>
      <trkpt lat="24.90915978002078" lon="118.53816583082029">
        <ele>6.614730389788747</ele>
        <time>2024-07-12T12:57:52Z</time>
      </trkpt>
      <trkpt lat="24.90927713176403" lon="118.53779841297278">
        <ele>7.949092650786042</ele>
        <time>2024-07-12T12:57:58Z</time>
      </trkpt>
      <trkpt lat="24.909337301590472" lon="118.5377015926429">
        <ele>8.35179980378598</ele>
        <time>2024-07-12T12:58:01Z</time>
      </trkpt>
      <trkpt lat="24.909402112198105" lon="118.53763512247538">
        <ele>9.066357089206576</ele>
        <time>2024-07-12T12:58:04Z</time>
      </trkpt>
      <trkpt lat="24.909457832312032" lon="118.53746449205035">
        <ele>9.615803131833673</ele>
        <time>2024-07-12T12:58:10Z</time>
      </trkpt>
      <trkpt lat="24.90950585691378" lon="118.53708670630202">
        <ele>9.869352859444916</ele>
        <time>2024-07-12T12:58:22Z</time>
      </trkpt>
      <trkpt lat="24.909550511371993" lon="118.53701366656439">
        <ele>9.552054998464882</ele>
        <time>2024-07-12T12:58:25Z</time>
      </trkpt>
      <trkpt lat="24.909476413153353" lon="118.53688221632724">
        <ele>10.374920728616416</ele>
        <time>2024-07-12T12:58:31Z</time>
      </trkpt>
      <trkpt lat="24.909486144433235" lon="118.53677849519157">
        <ele>9.424466147087514</ele>
        <time>2024-07-12T12:58:34Z</time>
      </trkpt>
      <trkpt lat="24.909599393585008" lon="118.5363955350017">
        <ele>10.1248444262892</ele>
        <time>2024-07-12T12:58:46Z</time>
      </trkpt>
      <trkpt lat="24.90960546555544" lon="118.53618155552525">
        <ele>9.786894695833325</ele>
        <time>2024-07-12T12:58:53Z</time>
      </trkpt>
      <trkpt lat="24.909666589869786" lon="118.53579109239593">
        <ele>9.879250100813806</ele>
        <time>2024-07-12T12:59:05Z</time>
      </trkpt>
      <trkpt lat="24.90973784573895" lon="118.535385908518">
        <ele>9.77665136102587</ele>
        <time>2024-07-12T12:59:16Z</time>
      </trkpt>
      <trkpt lat="24.90977791100437" lon="118.53499551688938">
        <ele>8.731882435269654</ele>
        <time>2024-07-12T12:59:28Z</time>
      </trkpt>
      <trkpt lat="24.909787133907088" lon="118.53490008794927">
        <ele>8.30502240266651</ele>
        <time>2024-07-12T12:59:31Z</time>
      </trkpt>
      <trkpt lat="24.90985139386675" lon="118.53486198521352">
        <ele>8.115329789929092</ele>
        <time>2024-07-12T12:59:34Z</time>
      </trkpt>
      <trkpt lat="24.90994322684717" lon="118.53488023970644">
        <ele>8.302690715529025</ele>
        <time>2024-07-12T12:59:37Z</time>
      </trkpt>
      <trkpt lat="24.910010200289012" lon="118.53492957552584">
        <ele>7.919087323360145</ele>
        <time>2024-07-12T12:59:40Z</time>
      </trkpt>
      <trkpt lat="24.91032044713801" lon="118.53504705944864">
        <ele>9.42821532767266</ele>
        <time>2024-07-12T12:59:52Z</time>
      </trkpt>
      <trkpt lat="24.91059833309012" lon="118.5351728643643">
        <ele>10.318647233769298</ele>
        <time>2024-07-12T13:00:01Z</time>
      </trkpt>
      <trkpt lat="24.91085990733921" lon="118.53528386955053">
        <ele>10.812563610263169</ele>
        <time>2024-07-12T13:00:10Z</time>
      </trkpt>
      <trkpt lat="24.91101971995398" lon="118.53534502651075">
        <ele>10.231457605957985</ele>
        <time>2024-07-12T13:00:16Z</time>
      </trkpt>
      <trkpt lat="24.911254320430217" lon="118.5354779682107">
        <ele>10.2146683530882</ele>
        <time>2024-07-12T13:00:25Z</time>
      </trkpt>
      <trkpt lat="24.91149737172374" lon="118.5355506086106">
        <ele>9.79320977255702</ele>
        <time>2024-07-12T13:00:34Z</time>
      </trkpt>
      <trkpt lat="24.911732577510147" lon="118.53570820102846">
        <ele>9.651710991747677</ele>
        <time>2024-07-12T13:00:43Z</time>
      </trkpt>
      <trkpt lat="24.91188985222365" lon="118.5358047229007">
        <ele>10.016695509664714</ele>
        <time>2024-07-12T13:00:49Z</time>
      </trkpt>
      <trkpt lat="24.91207152226572" lon="118.53583503705585">
        <ele>9.893782035447657</ele>
        <time>2024-07-12T13:00:55Z</time>
      </trkpt>
      <trkpt lat="24.912341142548556" lon="118.53598162246571">
        <ele>9.912091831676662</ele>
        <time>2024-07-12T13:01:05Z</time>
      </trkpt>
      <trkpt lat="24.912488011090183" lon="118.53606647349535">
        <ele>9.988086346536875</ele>
        <time>2024-07-12T13:01:11Z</time>
      </trkpt>
      <trkpt lat="24.912818940710196" lon="118.53618538223574">
        <ele>10.166683639399707</ele>
        <time>2024-07-12T13:01:24Z</time>
      </trkpt>
      <trkpt lat="24.913066769600206" lon="118.53626522516389">
        <ele>11.84018466528505</ele>
        <time>2024-07-12T13:01:33Z</time>
      </trkpt>
      <trkpt lat="24.913143252765465" lon="118.53631016551573">
        <ele>11.993590612895787</ele>
        <time>2024-07-12T13:01:36Z</time>
      </trkpt>
      <trkpt lat="24.913486867172956" lon="118.5364284622653">
        <ele>12.811452866531909</ele>
        <time>2024-07-12T13:01:48Z</time>
      </trkpt>
      <trkpt lat="24.913751584312436" lon="118.53652949234596">
        <ele>12.773760533891618</ele>
        <time>2024-07-12T13:01:57Z</time>
      </trkpt>
      <trkpt lat="24.913826515772595" lon="118.53660375899257">
        <ele>13.490800712257624</ele>
        <time>2024-07-12T13:02:00Z</time>
      </trkpt>
      <trkpt lat="24.914142259987237" lon="118.5367519726446">
        <ele>12.503939111717045</ele>
        <time>2024-07-12T13:02:12Z</time>
      </trkpt>
      <trkpt lat="24.91422896180556" lon="118.53677245622244">
        <ele>12.800703886896372</ele>
        <time>2024-07-12T13:02:15Z</time>
      </trkpt>
      <trkpt lat="24.91448022060164" lon="118.53689493412409">
        <ele>13.760039608925581</ele>
        <time>2024-07-12T13:02:24Z</time>
      </trkpt>
      <trkpt lat="24.91472961649476" lon="118.5370140295305">
        <ele>14.341759060509503</ele>
        <time>2024-07-12T13:02:33Z</time>
      </trkpt>
      <trkpt lat="24.914819528211325" lon="118.53701256719572">
        <ele>14.952920694835484</ele>
        <time>2024-07-12T13:02:36Z</time>
      </trkpt>
      <trkpt lat="24.915131406658098" lon="118.53716891670386">
        <ele>15.068648649379611</ele>
        <time>2024-07-12T13:02:48Z</time>
      </trkpt>
      <trkpt lat="24.91526767717735" lon="118.5374342593">
        <ele>14.88580234721303</ele>
        <time>2024-07-12T13:02:57Z</time>
      </trkpt>
      <trkpt lat="24.915286450514444" lon="118.5375335175262">
        <ele>15.079569357447326</ele>
        <time>2024-07-12T13:03:00Z</time>
      </trkpt>
      <trkpt lat="24.915371763530104" lon="118.53764006409985">
        <ele>14.992241366766393</ele>
        <time>2024-07-12T13:03:04Z</time>
      </trkpt>
      <trkpt lat="24.91548788678621" lon="118.53801636257023">
        <ele>14.97441341355443</ele>
        <time>2024-07-12T13:03:16Z</time>
      </trkpt>
      <trkpt lat="24.915615508718844" lon="118.53835642411187">
        <ele>15.775315503589809</ele>
        <time>2024-07-12T13:03:28Z</time>
      </trkpt>
      <trkpt lat="24.915734504540776" lon="118.53872135701234">
        <ele>16.278983901254833</ele>
        <time>2024-07-12T13:03:40Z</time>
      </trkpt>
      <trkpt lat="24.915788682077626" lon="118.5389321416612">
        <ele>15.13365172687918</ele>
        <time>2024-07-12T13:03:46Z</time>
      </trkpt>
      <trkpt lat="24.9158539064654" lon="118.53911583239648">
        <ele>14.767731266096234</ele>
        <time>2024-07-12T13:03:52Z</time>
      </trkpt>
      <trkpt lat="24.915931956480385" lon="118.53940961069893">
        <ele>14.385528140701354</ele>
        <time>2024-07-12T13:04:01Z</time>
      </trkpt>
      <trkpt lat="24.9159980955641" lon="118.53959909351131">
        <ele>13.103374183177948</ele>
        <time>2024-07-12T13:04:07Z</time>
      </trkpt>
      <trkpt lat="24.916080622565115" lon="118.53998178433581">
        <ele>12.306001363322139</ele>
        <time>2024-07-12T13:04:19Z</time>
      </trkpt>
      <trkpt lat="24.916122909573822" lon="118.54020612743871">
        <ele>12.394008574075997</ele>
        <time>2024-07-12T13:04:25Z</time>
      </trkpt>
      <trkpt lat="24.916218008364687" lon="118.54052526393708">
        <ele>11.557467666454613</ele>
        <time>2024-07-12T13:04:34Z</time>
      </trkpt>
      <trkpt lat="24.916292811799718" lon="118.5408105226799">
        <ele>12.48814479727298</ele>
        <time>2024-07-12T13:04:43Z</time>
      </trkpt>
      <trkpt lat="24.916285954532977" lon="118.5409132681355">
        <ele>12.26361227966845</ele>
        <time>2024-07-12T13:04:46Z</time>
      </trkpt>
      <trkpt lat="24.916382473809172" lon="118.54121419482264">
        <ele>12.967388520948589</ele>
        <time>2024-07-12T13:04:55Z</time>
      </trkpt>
      <trkpt lat="24.916475736850973" lon="118.54159961153793">
        <ele>12.051188836805522</ele>
        <time>2024-07-12T13:05:07Z</time>
      </trkpt>
      <trkpt lat="24.916554888827395" lon="118.54172509023722">
        <ele>11.969427664764225</ele>
        <time>2024-07-12T13:05:11Z</time>
      </trkpt>
      <trkpt lat="24.916494573777705" lon="118.54187854782391">
        <ele>11.567987168207765</ele>
        <time>2024-07-12T13:05:15Z</time>
      </trkpt>
      <trkpt lat="24.91618843919236" lon="118.54197765173262">
        <ele>12.210845586843789</ele>
        <time>2024-07-12T13:05:23Z</time>
      </trkpt>
      <trkpt lat="24.915919064478512" lon="118.54206715319049">
        <ele>12.547051600180566</ele>
        <time>2024-07-12T13:05:32Z</time>
      </trkpt>
      <trkpt lat="24.91562667788782" lon="118.54218893807173">
        <ele>12.261739778332412</ele>
        <time>2024-07-12T13:05:41Z</time>
      </trkpt>
      <trkpt lat="24.915443552101866" lon="118.54223901719602">
        <ele>12.653726276010275</ele>
        <time>2024-07-12T13:05:47Z</time>
      </trkpt>
      <trkpt lat="24.91517385588033" lon="118.5422904976935">
        <ele>12.416739256121218</ele>
        <time>2024-07-12T13:05:56Z</time>
      </trkpt>
      <trkpt lat="24.914914871107605" lon="118.54238373527247">
        <ele>12.31374803557992</ele>
        <time>2024-07-12T13:06:05Z</time>
      </trkpt>
      <trkpt lat="24.914578272313793" lon="118.54247108716397">
        <ele>10.61581011582166</ele>
        <time>2024-07-12T13:06:17Z</time>
      </trkpt>
      <trkpt lat="24.914486646795286" lon="118.54246294637369">
        <ele>10.270981775596738</ele>
        <time>2024-07-12T13:06:20Z</time>
      </trkpt>
      <trkpt lat="24.91414751724209" lon="118.54257937439469">
        <ele>9.540114509873092</ele>
        <time>2024-07-12T13:06:32Z</time>
      </trkpt>
      <trkpt lat="24.913967746346092" lon="118.5426440516082">
        <ele>10.540708661079407</ele>
        <time>2024-07-12T13:06:38Z</time>
      </trkpt>
      <trkpt lat="24.913894906718035" lon="118.54269704400741">
        <ele>9.790647553279996</ele>
        <time>2024-07-12T13:06:41Z</time>
      </trkpt>
      <trkpt lat="24.913544096088465" lon="118.5427721257504">
        <ele>8.399999857880175</ele>
        <time>2024-07-12T13:06:53Z</time>
      </trkpt>
      <trkpt lat="24.91324411062056" lon="118.54282009486013">
        <ele>8.030758523382246</ele>
        <time>2024-07-12T13:07:02Z</time>
      </trkpt>
      <trkpt lat="24.912971456775743" lon="118.54287911622674">
        <ele>7.5346576711162925</ele>
        <time>2024-07-12T13:07:11Z</time>
      </trkpt>
      <trkpt lat="24.912634137465176" lon="118.54295094180591">
        <ele>8.949614235199988</ele>
        <time>2024-07-12T13:07:22Z</time>
      </trkpt>
      <trkpt lat="24.91233572540379" lon="118.54304747617752">
        <ele>8.180012237280607</ele>
        <time>2024-07-12T13:07:33Z</time>
      </trkpt>
      <trkpt lat="24.9122439547789" lon="118.54306115440303">
        <ele>7.945033805444837</ele>
        <time>2024-07-12T13:07:36Z</time>
      </trkpt>
      <trkpt lat="24.911980913025094" lon="118.54314730835769">
        <ele>8.393649536184967</ele>
        <time>2024-07-12T13:07:45Z</time>
      </trkpt>
      <trkpt lat="24.911817257039463" lon="118.54318422895935">
        <ele>8.09077818132937</ele>
        <time>2024-07-12T13:07:51Z</time>
      </trkpt>
      <trkpt lat="24.911546183815567" lon="118.54328451397234">
        <ele>8.273015595972538</ele>
        <time>2024-07-12T13:08:00Z</time>
      </trkpt>
      <trkpt lat="24.911381045867113" lon="118.54333000749065">
        <ele>7.988304820843041</ele>
        <time>2024-07-12T13:08:06Z</time>
      </trkpt>
      <trkpt lat="24.91108875102734" lon="118.54334509724916">
        <ele>7.4250461822375655</ele>
        <time>2024-07-12T13:08:15Z</time>
      </trkpt>
      <trkpt lat="24.910987924376478" lon="118.54333530958739">
        <ele>8.262237393297255</ele>
        <time>2024-07-12T13:08:18Z</time>
      </trkpt>
      <trkpt lat="24.91067173184822" lon="118.54333600235285">
        <ele>7.22459520585835</ele>
        <time>2024-07-12T13:08:27Z</time>
      </trkpt>
      <trkpt lat="24.910323414689778" lon="118.54334288231085">
        <ele>7.630119867622852</ele>
        <time>2024-07-12T13:08:39Z</time>
      </trkpt>
      <trkpt lat="24.909968174453308" lon="118.54338181965448">
        <ele>7.483569245785475</ele>
        <time>2024-07-12T13:08:51Z</time>
      </trkpt>
      <trkpt lat="24.909685424919157" lon="118.54339587537673">
        <ele>7.589472916908562</ele>
        <time>2024-07-12T13:09:00Z</time>
      </trkpt>
      <trkpt lat="24.90959155216787" lon="118.54336785215244">
        <ele>7.317129038274288</ele>
        <time>2024-07-12T13:09:03Z</time>
      </trkpt>
      <trkpt lat="24.909280621322925" lon="118.54337147381186">
        <ele>6.8786357352510095</ele>
        <time>2024-07-12T13:09:12Z</time>
      </trkpt>
      <trkpt lat="24.908981337884043" lon="118.54333543830991">
        <ele>7.886334294453263</ele>
        <time>2024-07-12T13:09:22Z</time>
      </trkpt>
      <trkpt lat="24.90885725235073" lon="118.54331947079444">
        <ele>7.616188823245466</ele>
        <time>2024-07-12T13:09:26Z</time>
      </trkpt>
      <trkpt lat="24.90852907354081" lon="118.54337488712444">
        <ele>7.23838674556464</ele>
        <time>2024-07-12T13:09:37Z</time>
      </trkpt>
      <trkpt lat="24.90825234110583" lon="118.5433893719088">
        <ele>7.901167411357164</ele>
        <time>2024-07-12T13:09:46Z</time>
      </trkpt>
      <trkpt lat="24.908178475350137" lon="118.54337961646374">
        <ele>8.04058802779764</ele>
        <time>2024-07-12T13:09:49Z</time>
      </trkpt>
      <trkpt lat="24.90798491275961" lon="118.54340810694916">
        <ele>7.844612768851221</ele>
        <time>2024-07-12T13:09:55Z</time>
      </trkpt>
      <trkpt lat="24.90770895432241" lon="118.54340919154643">
        <ele>7.85060485266149</ele>
        <time>2024-07-12T13:10:04Z</time>
      </trkpt>
      <trkpt lat="24.90761176262116" lon="118.54337297763814">
        <ele>7.800360490567982</ele>
        <time>2024-07-12T13:10:07Z</time>
      </trkpt>
      <trkpt lat="24.907535447440594" lon="118.54331392532856">
        <ele>7.32788236066699</ele>
        <time>2024-07-12T13:10:10Z</time>
      </trkpt>
      <trkpt lat="24.90748424955844" lon="118.54322161026772">
        <ele>7.538751279003918</ele>
        <time>2024-07-12T13:10:13Z</time>
      </trkpt>
      <trkpt lat="24.907591280975375" lon="118.5429312555674">
        <ele>7.504915648140013</ele>
        <time>2024-07-12T13:10:22Z</time>
      </trkpt>
      <trkpt lat="24.90771029213505" lon="118.54265806748653">
        <ele>7.740859513171017</ele>
        <time>2024-07-12T13:10:31Z</time>
      </trkpt>
      <trkpt lat="24.907791166101152" lon="118.5424137973215">
        <ele>7.756698912009597</ele>
        <time>2024-07-12T13:10:40Z</time>
      </trkpt>
      <trkpt lat="24.9079244133917" lon="118.54213286470032">
        <ele>7.808774657547474</ele>
        <time>2024-07-12T13:10:49Z</time>
      </trkpt>
      <trkpt lat="24.90806314501293" lon="118.54187196157564">
        <ele>8.056051261723042</ele>
        <time>2024-07-12T13:10:58Z</time>
      </trkpt>
      <trkpt lat="24.908120856769816" lon="118.54180393107538">
        <ele>8.12148077506572</ele>
        <time>2024-07-12T13:11:01Z</time>
      </trkpt>
      <trkpt lat="24.908133891284876" lon="118.54174823555698">
        <ele>8.295892706140876</ele>
        <time>2024-07-12T13:11:04Z</time>
      </trkpt>
      <trkpt lat="24.90820601634518" lon="118.54167634905646">
        <ele>8.275933663360775</ele>
        <time>2024-07-12T13:11:07Z</time>
      </trkpt>
      <trkpt lat="24.90838525533011" lon="118.54145159060143">
        <ele>7.724306055344641</ele>
        <time>2024-07-12T13:11:16Z</time>
      </trkpt>
      <trkpt lat="24.908569608957617" lon="118.54127268768626">
        <ele>8.103470401838422</ele>
        <time>2024-07-12T13:11:22Z</time>
      </trkpt>
      <trkpt lat="24.908628410716698" lon="118.54114475395033">
        <ele>7.414263436570764</ele>
        <time>2024-07-12T13:11:25Z</time>
      </trkpt>
      <trkpt lat="24.908716497342265" lon="118.5408298424348">
        <ele>7.289834984578192</ele>
        <time>2024-07-12T13:11:33Z</time>
      </trkpt>
      <trkpt lat="24.90876560034568" lon="118.54070355160927">
        <ele>7.519859936088324</ele>
        <time>2024-07-12T13:11:37Z</time>
      </trkpt>
      <trkpt lat="24.90880263049102" lon="118.54047738222492">
        <ele>7.963433085940778</ele>
        <time>2024-07-12T13:11:44Z</time>
      </trkpt>
      <trkpt lat="24.90886778010801" lon="118.54036976748151">
        <ele>7.963601692579687</ele>
        <time>2024-07-12T13:11:47Z</time>
      </trkpt>
    </trkseg>
  </trk>
</gpx>