<?xml version="1.0" encoding="UTF-8"?>
<gpx xmlns="http://www.topografix.com/GPX/1/1" xmlns:gpxtpx="http://www.garmin.com/xmlschemas/TrackPointExtension/v1" xmlns:xsi="http://www.w3.org/2001/XMLSchema-instance" xsi:schemaLocation="http://www.topografix.com/GPX/1/1 http://www.topografix.com/GPX/1/1/gpx.xsd" version="1.1" creator="gpx.py -- https://github.com/tkrajina/gpxpy">
  <trk>
    <name>gpx from keep</name>
    <type>Run</type>
    <trkseg>
      <trkpt lat="24.911269762538396" lon="118.53739769132336">
        <ele>25.764892578125</ele>
        <time>2025-07-24T13:02:39Z</time>
      </trkpt>
      <trkpt lat="24.91111559792282" lon="118.5377506463777">
        <ele>28.1090087890625</ele>
        <time>2025-07-24T13:02:48Z</time>
      </trkpt>
      <trkpt lat="24.910999256441944" lon="118.5380303997973">
        <ele>28.64404296875</ele>
        <time>2025-07-24T13:02:57Z</time>
      </trkpt>
      <trkpt lat="24.910870925579793" lon="118.53831516452182">
        <ele>30.810546875</ele>
        <time>2025-07-24T13:03:06Z</time>
      </trkpt>
      <trkpt lat="24.91078936891273" lon="118.53850467155101">
        <ele>29.61163330078125</ele>
        <time>2025-07-24T13:03:12Z</time>
      </trkpt>
      <trkpt lat="24.910782570602038" lon="118.53859290501258">
        <ele>29.736328125</ele>
        <time>2025-07-24T13:03:15Z</time>
      </trkpt>
      <trkpt lat="24.910836761279587" lon="118.53868013130017">
        <ele>28.79425048828125</ele>
        <time>2025-07-24T13:03:18Z</time>
      </trkpt>
      <trkpt lat="24.910928841796096" lon="118.53872123321003">
        <ele>27.5765380859375</ele>
        <time>2025-07-24T13:03:21Z</time>
      </trkpt>
      <trkpt lat="24.911134897299156" lon="118.53875831655897">
        <ele>27.004638671875</ele>
        <time>2025-07-24T13:03:27Z</time>
      </trkpt>
      <trkpt lat="24.911197984016127" lon="118.53880042301056">
        <ele>25.28204345703125</ele>
        <time>2025-07-24T13:03:30Z</time>
      </trkpt>
      <trkpt lat="24.91119419806625" lon="118.53889467112546">
        <ele>25.6728515625</ele>
        <time>2025-07-24T13:03:33Z</time>
      </trkpt>
      <trkpt lat="24.911100904143954" lon="118.53920148221286">
        <ele>26.2730712890625</ele>
        <time>2025-07-24T13:03:42Z</time>
      </trkpt>
      <trkpt lat="24.911018625875833" lon="118.53951731259252">
        <ele>27.23809814453125</ele>
        <time>2025-07-24T13:03:51Z</time>
      </trkpt>
      <trkpt lat="24.910946291449125" lon="118.53981007878399">
        <ele>28.93316650390625</ele>
        <time>2025-07-24T13:04:00Z</time>
      </trkpt>
      <trkpt lat="24.91087770590398" lon="118.53999155377869">
        <ele>27.86865234375</ele>
        <time>2025-07-24T13:04:06Z</time>
      </trkpt>
      <trkpt lat="24.91085435119464" lon="118.54028030107436">
        <ele>27.72662353515625</ele>
        <time>2025-07-24T13:04:15Z</time>
      </trkpt>
      <trkpt lat="24.91075020638067" lon="118.5406602848615">
        <ele>27.223388671875</ele>
        <time>2025-07-24T13:04:27Z</time>
      </trkpt>
      <trkpt lat="24.910695862777295" lon="118.54095504243548">
        <ele>27.31451416015625</ele>
        <time>2025-07-24T13:04:36Z</time>
      </trkpt>
      <trkpt lat="24.91067028629961" lon="118.54114653216753">
        <ele>27.51202392578125</ele>
        <time>2025-07-24T13:04:42Z</time>
      </trkpt>
      <trkpt lat="24.910590928251416" lon="118.54143527082542">
        <ele>27.96881103515625</ele>
        <time>2025-07-24T13:04:51Z</time>
      </trkpt>
      <trkpt lat="24.910526580530806" lon="118.54173102297018">
        <ele>29.68243408203125</ele>
        <time>2025-07-24T13:05:00Z</time>
      </trkpt>
      <trkpt lat="24.910468235503995" lon="118.5420297789072">
        <ele>24.51470947265625</ele>
        <time>2025-07-24T13:05:09Z</time>
      </trkpt>
      <trkpt lat="24.910407643973628" lon="118.54221524817032">
        <ele>24.59417724609375</ele>
        <time>2025-07-24T13:05:15Z</time>
      </trkpt>
      <trkpt lat="24.910407643973628" lon="118.54221524817032">
        <ele>24.59417724609375</ele>
        <time>2025-07-24T13:05:18Z</time>
      </trkpt>
      <trkpt lat="24.910398796265326" lon="118.54228542440437">
        <ele>23.4439697265625</ele>
        <time>2025-07-24T13:05:30Z</time>
      </trkpt>
      <trkpt lat="24.910400942550787" lon="118.54235359467395">
        <ele>23.51995849609375</ele>
        <time>2025-07-24T13:05:33Z</time>
      </trkpt>
      <trkpt lat="24.910323638822273" lon="118.54267339712258">
        <ele>23.61358642578125</ele>
        <time>2025-07-24T13:05:42Z</time>
      </trkpt>
      <trkpt lat="24.91023609181254" lon="118.54287991583068">
        <ele>25.135498046875</ele>
        <time>2025-07-24T13:05:48Z</time>
      </trkpt>
      <trkpt lat="24.910208528601526" lon="118.54308342127713">
        <ele>24.5635986328125</ele>
        <time>2025-07-24T13:05:54Z</time>
      </trkpt>
      <trkpt lat="24.91022371373043" lon="118.54317163799746">
        <ele>23.0565185546875</ele>
        <time>2025-07-24T13:05:57Z</time>
      </trkpt>
      <trkpt lat="24.910209898374813" lon="118.54325785149244">
        <ele>21.06793212890625</ele>
        <time>2025-07-24T13:06:00Z</time>
      </trkpt>
      <trkpt lat="24.91023408807763" lon="118.54334907438339">
        <ele>22.2415771484375</ele>
        <time>2025-07-24T13:06:03Z</time>
      </trkpt>
      <trkpt lat="24.910303146298542" lon="118.54338114847249">
        <ele>22.05535888671875</ele>
        <time>2025-07-24T13:06:06Z</time>
      </trkpt>
      <trkpt lat="24.910588053695115" lon="118.54335606701824">
        <ele>27.0509033203125</ele>
        <time>2025-07-24T13:06:15Z</time>
      </trkpt>
      <trkpt lat="24.910755045304434" lon="118.54336307265953">
        <ele>27.43304443359375</ele>
        <time>2025-07-24T13:06:21Z</time>
      </trkpt>
      <trkpt lat="24.910774252293752" lon="118.5434623152163">
        <ele>27.482666015625</ele>
        <time>2025-07-24T13:06:24Z</time>
      </trkpt>
      <trkpt lat="24.910964684158024" lon="118.5436798352101">
        <ele>27.40704345703125</ele>
        <time>2025-07-24T13:06:33Z</time>
      </trkpt>
      <trkpt lat="24.911054753827404" lon="118.54371892458316">
        <ele>27.45684814453125</ele>
        <time>2025-07-24T13:06:36Z</time>
      </trkpt>
      <trkpt lat="24.91123456645409" lon="118.54364172318986">
        <ele>26.64044189453125</ele>
        <time>2025-07-24T13:06:42Z</time>
      </trkpt>
      <trkpt lat="24.911587367457827" lon="118.54357052427146">
        <ele>24.38629150390625</ele>
        <time>2025-07-24T13:06:54Z</time>
      </trkpt>
      <trkpt lat="24.911868197321933" lon="118.54350835230017">
        <ele>23.7049560546875</ele>
        <time>2025-07-24T13:07:03Z</time>
      </trkpt>
      <trkpt lat="24.912134027012765" lon="118.54344517875776">
        <ele>23.12261962890625</ele>
        <time>2025-07-24T13:07:12Z</time>
      </trkpt>
      <trkpt lat="24.91239884821902" lon="118.54337799526884">
        <ele>22.34210205078125</ele>
        <time>2025-07-24T13:07:21Z</time>
      </trkpt>
      <trkpt lat="24.912688648804046" lon="118.54330279012225">
        <ele>23.6295166015625</ele>
        <time>2025-07-24T13:07:30Z</time>
      </trkpt>
      <trkpt lat="24.91299348531426" lon="118.54324562817644">
        <ele>21.10174560546875</ele>
        <time>2025-07-24T13:07:39Z</time>
      </trkpt>
      <trkpt lat="24.913322222676438" lon="118.5431433531411">
        <ele>21.820556640625</ele>
        <time>2025-07-24T13:07:51Z</time>
      </trkpt>
      <trkpt lat="24.91362602704545" lon="118.54307115375867">
        <ele>22.47802734375</ele>
        <time>2025-07-24T13:08:00Z</time>
      </trkpt>
      <trkpt lat="24.913727953177922" lon="118.54304307729461">
        <ele>23.00531005859375</ele>
        <time>2025-07-24T13:08:03Z</time>
      </trkpt>
      <trkpt lat="24.91383994607086" lon="118.54304707941337">
        <ele>22.81353759765625</ele>
        <time>2025-07-24T13:08:06Z</time>
      </trkpt>
      <trkpt lat="24.914003831552122" lon="118.54300396142106">
        <ele>23.68597412109375</ele>
        <time>2025-07-24T13:08:12Z</time>
      </trkpt>
      <trkpt lat="24.914093731561035" lon="118.54296285346726">
        <ele>22.93353271484375</ele>
        <time>2025-07-24T13:08:15Z</time>
      </trkpt>
      <trkpt lat="24.914169577954368" lon="118.54289568185848">
        <ele>22.01708984375</ele>
        <time>2025-07-24T13:08:18Z</time>
      </trkpt>
      <trkpt lat="24.914356408694275" lon="118.54282850235029">
        <ele>25.4111328125</ele>
        <time>2025-07-24T13:08:24Z</time>
      </trkpt>
      <trkpt lat="24.91470421250878" lon="118.54275930648504">
        <ele>25.99560546875</ele>
        <time>2025-07-24T13:08:36Z</time>
      </trkpt>
      <trkpt lat="24.91506300603411" lon="118.54268609970019">
        <ele>25.1201171875</ele>
        <time>2025-07-24T13:08:48Z</time>
      </trkpt>
      <trkpt lat="24.915377762595263" lon="118.54259284586601">
        <ele>26.870361328125</ele>
        <time>2025-07-24T13:08:57Z</time>
      </trkpt>
      <trkpt lat="24.91545972752729" lon="118.54258181270663">
        <ele>25.86590576171875</ele>
        <time>2025-07-24T13:09:00Z</time>
      </trkpt>
      <trkpt lat="24.915771486306124" lon="118.54248956120286">
        <ele>25.26324462890625</ele>
        <time>2025-07-24T13:09:09Z</time>
      </trkpt>
      <trkpt lat="24.915862419834802" lon="118.54246449236969">
        <ele>24.37432861328125</ele>
        <time>2025-07-24T13:09:12Z</time>
      </trkpt>
      <trkpt lat="24.916030398492634" lon="118.54246548317829">
        <ele>21.86590576171875</ele>
        <time>2025-07-24T13:09:18Z</time>
      </trkpt>
      <trkpt lat="24.91632518509674" lon="118.54238526248665">
        <ele>20.76275634765625</ele>
        <time>2025-07-24T13:09:27Z</time>
      </trkpt>
      <trkpt lat="24.916440121633062" lon="118.5423631993951">
        <ele>24.59844970703125</ele>
        <time>2025-07-24T13:09:30Z</time>
      </trkpt>
      <trkpt lat="24.916602152801993" lon="118.54238825071876">
        <ele>23.49835205078125</ele>
        <time>2025-07-24T13:09:36Z</time>
      </trkpt>
      <trkpt lat="24.91660117662242" lon="118.54239927832403">
        <ele>23.9044189453125</ele>
        <time>2025-07-24T13:11:06Z</time>
      </trkpt>
      <trkpt lat="24.916902962042563" lon="118.5423190569387">
        <ele>24.016845703125</ele>
        <time>2025-07-24T13:11:15Z</time>
      </trkpt>
      <trkpt lat="24.917113742704416" lon="118.54223082156285">
        <ele>23.9322509765625</ele>
        <time>2025-07-24T13:11:21Z</time>
      </trkpt>
      <trkpt lat="24.917418568276982" lon="118.54216964717949">
        <ele>24.4981689453125</ele>
        <time>2025-07-24T13:11:30Z</time>
      </trkpt>
      <trkpt lat="24.917728455709042" lon="118.54213754520104">
        <ele>28.7022705078125</ele>
        <time>2025-07-24T13:11:39Z</time>
      </trkpt>
      <trkpt lat="24.91801836968295" lon="118.54211647223057">
        <ele>28.20196533203125</ele>
        <time>2025-07-24T13:11:48Z</time>
      </trkpt>
      <trkpt lat="24.918323322619624" lon="118.5421144459725">
        <ele>26.92059326171875</ele>
        <time>2025-07-24T13:11:57Z</time>
      </trkpt>
      <trkpt lat="24.918629242964133" lon="118.54209738192802">
        <ele>24.62261962890625</ele>
        <time>2025-07-24T13:12:06Z</time>
      </trkpt>
      <trkpt lat="24.918834192592634" lon="118.54208734250915">
        <ele>24.043701171875</ele>
        <time>2025-07-24T13:12:12Z</time>
      </trkpt>
      <trkpt lat="24.919125212344326" lon="118.5421153926609">
        <ele>24.50421142578125</ele>
        <time>2025-07-24T13:12:21Z</time>
      </trkpt>
      <trkpt lat="24.919426206878875" lon="118.54213241444153">
        <ele>25.334716796875</ele>
        <time>2025-07-24T13:12:30Z</time>
      </trkpt>
      <trkpt lat="24.91971417944189" lon="118.54213840947354">
        <ele>26.0206298828125</ele>
        <time>2025-07-24T13:12:39Z</time>
      </trkpt>
      <trkpt lat="24.920010153032045" lon="118.54214540646002">
        <ele>25.11077880859375</ele>
        <time>2025-07-24T13:12:48Z</time>
      </trkpt>
      <trkpt lat="24.920285142523745" lon="118.54215841998138">
        <ele>25.74359130859375</ele>
        <time>2025-07-24T13:12:57Z</time>
      </trkpt>
      <trkpt lat="24.9204881377897" lon="118.54216943348429">
        <ele>26.31805419921875</ele>
        <time>2025-07-24T13:13:03Z</time>
      </trkpt>
      <trkpt lat="24.920781038299133" lon="118.54214234525058">
        <ele>28.17608642578125</ele>
        <time>2025-07-24T13:13:12Z</time>
      </trkpt>
      <trkpt lat="24.9210849415527" lon="118.5421172612505">
        <ele>28.86444091796875</ele>
        <time>2025-07-24T13:13:21Z</time>
      </trkpt>
      <trkpt lat="24.921368949212066" lon="118.54213929677866">
        <ele>27.2198486328125</ele>
        <time>2025-07-24T13:13:30Z</time>
      </trkpt>
      <trkpt lat="24.92165792588915" lon="118.54214729676404">
        <ele>27.738525390625</ele>
        <time>2025-07-24T13:13:39Z</time>
      </trkpt>
      <trkpt lat="24.921937962152406" lon="118.54218236519787">
        <ele>28.11993408203125</ele>
        <time>2025-07-24T13:13:48Z</time>
      </trkpt>
      <trkpt lat="24.922230037688383" lon="118.54223648043501">
        <ele>28.82464599609375</ele>
        <time>2025-07-24T13:13:57Z</time>
      </trkpt>
      <trkpt lat="24.922505102567065" lon="118.54228458169844">
        <ele>29.7125244140625</ele>
        <time>2025-07-24T13:14:06Z</time>
      </trkpt>
      <trkpt lat="24.922851262916062" lon="118.54238180066353">
        <ele>30.20245361328125</ele>
        <time>2025-07-24T13:14:18Z</time>
      </trkpt>
      <trkpt lat="24.923159501348774" lon="118.54251310688915">
        <ele>30.81353759765625</ele>
        <time>2025-07-24T13:14:30Z</time>
      </trkpt>
      <trkpt lat="24.923491677896767" lon="118.5426173434361">
        <ele>33.28021240234375</ele>
        <time>2025-07-24T13:14:42Z</time>
      </trkpt>
      <trkpt lat="24.923798998838784" lon="118.54278774560093">
        <ele>34.1947021484375</ele>
        <time>2025-07-24T13:14:54Z</time>
      </trkpt>
      <trkpt lat="24.9241203487922" lon="118.54297318288238">
        <ele>34.84490966796875</ele>
        <time>2025-07-24T13:15:06Z</time>
      </trkpt>
      <trkpt lat="24.924357671097084" lon="118.54314058014195">
        <ele>34.74627685546875</ele>
        <time>2025-07-24T13:15:15Z</time>
      </trkpt>
      <trkpt lat="24.924595026356982" lon="118.54332401578786">
        <ele>34.6177978515625</ele>
        <time>2025-07-24T13:15:24Z</time>
      </trkpt>
      <trkpt lat="24.92482041383921" lon="118.54352248784751">
        <ele>33.14501953125</ele>
        <time>2025-07-24T13:15:33Z</time>
      </trkpt>
      <trkpt lat="24.92504282564182" lon="118.5437329879862">
        <ele>31.51702880859375</ele>
        <time>2025-07-24T13:15:42Z</time>
      </trkpt>
      <trkpt lat="24.92524730347234" lon="118.54397456333926">
        <ele>30.36224365234375</ele>
        <time>2025-07-24T13:15:51Z</time>
      </trkpt>
      <trkpt lat="24.925442805585416" lon="118.544228166194">
        <ele>29.82177734375</ele>
        <time>2025-07-24T13:16:00Z</time>
      </trkpt>
      <trkpt lat="24.925633306131942" lon="118.5444817668475">
        <ele>28.94439697265625</ele>
        <time>2025-07-24T13:16:09Z</time>
      </trkpt>
      <trkpt lat="24.925800861470755" lon="118.5447614292204">
        <ele>28.720703125</ele>
        <time>2025-07-24T13:16:18Z</time>
      </trkpt>
      <trkpt lat="24.9259704178656" lon="118.5450430931281">
        <ele>26.6094970703125</ele>
        <time>2025-07-24T13:16:27Z</time>
      </trkpt>
      <trkpt lat="24.92614895785909" lon="118.54531873890281">
        <ele>25.90252685546875</ele>
        <time>2025-07-24T13:16:36Z</time>
      </trkpt>
      <trkpt lat="24.92633246381843" lon="118.54557934561791">
        <ele>24.097412109375</ele>
        <time>2025-07-24T13:16:45Z</time>
      </trkpt>
      <trkpt lat="24.92649198493621" lon="118.54584696782466">
        <ele>23.3466796875</ele>
        <time>2025-07-24T13:16:54Z</time>
      </trkpt>
      <trkpt lat="24.92664251282194" lon="118.54611859717527">
        <ele>21.28155517578125</ele>
        <time>2025-07-24T13:17:03Z</time>
      </trkpt>
      <trkpt lat="24.92681311764035" lon="118.5464313182101">
        <ele>21.2127685546875</ele>
        <time>2025-07-24T13:17:12Z</time>
      </trkpt>
      <trkpt lat="24.926866535397767" lon="118.54664381021249">
        <ele>21.27716064453125</ele>
        <time>2025-07-24T13:17:18Z</time>
      </trkpt>
      <trkpt lat="24.92692262554733" lon="118.54669292062441">
        <ele>21.8662109375</ele>
        <time>2025-07-24T13:17:21Z</time>
      </trkpt>
      <trkpt lat="24.92711140869607" lon="118.54659768577584">
        <ele>21.76812744140625</ele>
        <time>2025-07-24T13:17:27Z</time>
      </trkpt>
      <trkpt lat="24.927180236543677" lon="118.54651649165122">
        <ele>21.6513671875</ele>
        <time>2025-07-24T13:17:30Z</time>
      </trkpt>
      <trkpt lat="24.927162028189777" lon="118.54641124707915">
        <ele>21.19854736328125</ele>
        <time>2025-07-24T13:17:33Z</time>
      </trkpt>
      <trkpt lat="24.9269955054488" lon="118.54613962207507">
        <ele>22.77593994140625</ele>
        <time>2025-07-24T13:17:42Z</time>
      </trkpt>
      <trkpt lat="24.926838980651755" lon="118.545868995738">
        <ele>24.73223876953125</ele>
        <time>2025-07-24T13:17:51Z</time>
      </trkpt>
      <trkpt lat="24.92671143075724" lon="118.5455893430238">
        <ele>26.69195556640625</ele>
        <time>2025-07-24T13:18:00Z</time>
      </trkpt>
      <trkpt lat="24.92655793091394" lon="118.54533374626166">
        <ele>27.26513671875</ele>
        <time>2025-07-24T13:18:09Z</time>
      </trkpt>
      <trkpt lat="24.926362276036112" lon="118.54500096506851">
        <ele>30.18243408203125</ele>
        <time>2025-07-24T13:18:21Z</time>
      </trkpt>
      <trkpt lat="24.92621076639007" lon="118.54474335730471">
        <ele>30.670654296875</ele>
        <time>2025-07-24T13:18:30Z</time>
      </trkpt>
      <trkpt lat="24.926027146542786" lon="118.54443161831577">
        <ele>31.39794921875</ele>
        <time>2025-07-24T13:18:42Z</time>
      </trkpt>
      <trkpt lat="24.925847591728843" lon="118.5441529555424">
        <ele>32.16015625</ele>
        <time>2025-07-24T13:18:51Z</time>
      </trkpt>
      <trkpt lat="24.925656109391515" lon="118.54390937609614">
        <ele>33.340576171875</ele>
        <time>2025-07-24T13:19:01Z</time>
      </trkpt>
      <trkpt lat="24.925458642681747" lon="118.54367381435485">
        <ele>33.983642578125</ele>
        <time>2025-07-24T13:19:10Z</time>
      </trkpt>
      <trkpt lat="24.925323349296388" lon="118.543525460218">
        <ele>35.1513671875</ele>
        <time>2025-07-24T13:19:16Z</time>
      </trkpt>
      <trkpt lat="24.9252841665527" lon="118.54343624390565">
        <ele>35.484130859375</ele>
        <time>2025-07-24T13:19:19Z</time>
      </trkpt>
      <trkpt lat="24.9250518007058" lon="118.54324779636491">
        <ele>36.4083251953125</ele>
        <time>2025-07-24T13:19:28Z</time>
      </trkpt>
      <trkpt lat="24.924903530355667" lon="118.5431104678914">
        <ele>36.9915771484375</ele>
        <time>2025-07-24T13:19:34Z</time>
      </trkpt>
      <trkpt lat="24.924663225381877" lon="118.54295109049812">
        <ele>38.3477783203125</ele>
        <time>2025-07-24T13:19:43Z</time>
      </trkpt>
      <trkpt lat="24.924354794273768" lon="118.54272856003394">
        <ele>38.61322021484375</ele>
        <time>2025-07-24T13:19:55Z</time>
      </trkpt>
      <trkpt lat="24.924099472121664" lon="118.5425611613483">
        <ele>37.431396484375</ele>
        <time>2025-07-24T13:20:04Z</time>
      </trkpt>
      <trkpt lat="24.923834152559714" lon="118.54239476477902">
        <ele>36.516845703125</ele>
        <time>2025-07-24T13:20:13Z</time>
      </trkpt>
      <trkpt lat="24.923550894996765" lon="118.5422564386532">
        <ele>35.70941162109375</ele>
        <time>2025-07-24T13:20:22Z</time>
      </trkpt>
      <trkpt lat="24.923253675492962" lon="118.54213515549847">
        <ele>34.27764892578125</ele>
        <time>2025-07-24T13:20:31Z</time>
      </trkpt>
      <trkpt lat="24.92298442771198" lon="118.54200284212946">
        <ele>32.91375732421875</ele>
        <time>2025-07-24T13:20:40Z</time>
      </trkpt>
      <trkpt lat="24.922777307288467" lon="118.54193368267785">
        <ele>33.1746826171875</ele>
        <time>2025-07-24T13:20:46Z</time>
      </trkpt>
      <trkpt lat="24.922726255900557" lon="118.54190661814529">
        <ele>35.0174560546875</ele>
        <time>2025-07-24T13:21:22Z</time>
      </trkpt>
      <trkpt lat="24.922425135433386" lon="118.54183144983438">
        <ele>35.24114990234375</ele>
        <time>2025-07-24T13:21:31Z</time>
      </trkpt>
      <trkpt lat="24.922078086452714" lon="118.54178636032957">
        <ele>35.2618408203125</ele>
        <time>2025-07-24T13:21:40Z</time>
      </trkpt>
      <trkpt lat="24.92171602209596" lon="118.54173325156276">
        <ele>35.2947998046875</ele>
        <time>2025-07-24T13:21:49Z</time>
      </trkpt>
      <trkpt lat="24.921374026645346" lon="118.54171322479098">
        <ele>35.27740478515625</ele>
        <time>2025-07-24T13:21:58Z</time>
      </trkpt>
      <trkpt lat="24.921036067604668" lon="118.54171024073452">
        <ele>34.2742919921875</ele>
        <time>2025-07-24T13:22:07Z</time>
      </trkpt>
      <trkpt lat="24.920718077447745" lon="118.54169422239525">
        <ele>32.04931640625</ele>
        <time>2025-07-24T13:22:16Z</time>
      </trkpt>
      <trkpt lat="24.920621049706853" lon="118.54167518106716">
        <ele>31.203125</ele>
        <time>2025-07-24T13:22:19Z</time>
      </trkpt>
      <trkpt lat="24.920621049706853" lon="118.54167518106716">
        <ele>31.203125</ele>
        <time>2025-07-24T13:22:22Z</time>
      </trkpt>
      <trkpt lat="24.92060894466253" lon="118.54162605783957">
        <ele>30.40045166015625</ele>
        <time>2025-07-24T13:23:13Z</time>
      </trkpt>
      <trkpt lat="24.920408036061968" lon="118.54165514526966">
        <ele>30.6290283203125</ele>
        <time>2025-07-24T13:23:19Z</time>
      </trkpt>
      <trkpt lat="24.92030014920013" lon="118.54170026667732">
        <ele>30.32000732421875</ele>
        <time>2025-07-24T13:23:22Z</time>
      </trkpt>
      <trkpt lat="24.919956219249794" lon="118.5417103159244">
        <ele>30.80120849609375</ele>
        <time>2025-07-24T13:23:31Z</time>
      </trkpt>
      <trkpt lat="24.919627285001365" lon="118.5417193615937">
        <ele>30.873046875</ele>
        <time>2025-07-24T13:23:40Z</time>
      </trkpt>
      <trkpt lat="24.91939731726892" lon="118.54171937760576">
        <ele>31.1278076171875</ele>
        <time>2025-07-24T13:23:46Z</time>
      </trkpt>
      <trkpt lat="24.919064420535" lon="118.5417454665355">
        <ele>30.23956298828125</ele>
        <time>2025-07-24T13:23:55Z</time>
      </trkpt>
      <trkpt lat="24.918708474801875" lon="118.54174749637504">
        <ele>29.255126953125</ele>
        <time>2025-07-24T13:24:04Z</time>
      </trkpt>
      <trkpt lat="24.918352487725457" lon="118.5417304781737">
        <ele>29.47540283203125</ele>
        <time>2025-07-24T13:24:13Z</time>
      </trkpt>
      <trkpt lat="24.918123461066923" lon="118.54170342582375">
        <ele>29.11358642578125</ele>
        <time>2025-07-24T13:24:19Z</time>
      </trkpt>
      <trkpt lat="24.917784530322415" lon="118.54171347471932">
        <ele>30.43646240234375</ele>
        <time>2025-07-24T13:24:28Z</time>
      </trkpt>
      <trkpt lat="24.917460525643076" lon="118.54169043908665">
        <ele>29.894775390625</ele>
        <time>2025-07-24T13:24:37Z</time>
      </trkpt>
      <trkpt lat="24.917138659948357" lon="118.54173156521266">
        <ele>27.70343017578125</ele>
        <time>2025-07-24T13:24:46Z</time>
      </trkpt>
      <trkpt lat="24.91682272375717" lon="118.54174060996685">
        <ele>26.40142822265625</ele>
        <time>2025-07-24T13:24:55Z</time>
      </trkpt>
      <trkpt lat="24.916499860279277" lon="118.5417827386092">
        <ele>27.14031982421875</ele>
        <time>2025-07-24T13:25:04Z</time>
      </trkpt>
      <trkpt lat="24.916211087517354" lon="118.5418689758858">
        <ele>26.14862060546875</ele>
        <time>2025-07-24T13:25:13Z</time>
      </trkpt>
      <trkpt lat="24.915915406487695" lon="118.54199731917585">
        <ele>26.04290771484375</ele>
        <time>2025-07-24T13:25:22Z</time>
      </trkpt>
      <trkpt lat="24.91560560788201" lon="118.54207052450174">
        <ele>26.29559326171875</ele>
        <time>2025-07-24T13:25:31Z</time>
      </trkpt>
      <trkpt lat="24.91529690400728" lon="118.5421878400804">
        <ele>25.908203125</ele>
        <time>2025-07-24T13:25:40Z</time>
      </trkpt>
      <trkpt lat="24.91498318094414" lon="118.54229613291474">
        <ele>25.14459228515625</ele>
        <time>2025-07-24T13:25:49Z</time>
      </trkpt>
      <trkpt lat="24.914691385498728" lon="118.54237234365536">
        <ele>24.01318359375</ele>
        <time>2025-07-24T13:25:58Z</time>
      </trkpt>
      <trkpt lat="24.91436662670965" lon="118.54246359397932">
        <ele>24.93896484375</ele>
        <time>2025-07-24T13:26:07Z</time>
      </trkpt>
      <trkpt lat="24.914033941722945" lon="118.5425889294112">
        <ele>25.65447998046875</ele>
        <time>2025-07-24T13:26:16Z</time>
      </trkpt>
      <trkpt lat="24.91395702970553" lon="118.54262502458708">
        <ele>24.11431884765625</ele>
        <time>2025-07-24T13:26:19Z</time>
      </trkpt>
      <trkpt lat="24.913590271667104" lon="118.54271427195717">
        <ele>28.92816162109375</ele>
        <time>2025-07-24T13:26:28Z</time>
      </trkpt>
      <trkpt lat="24.913244446231285" lon="118.54277344291964">
        <ele>25.80511474609375</ele>
        <time>2025-07-24T13:26:37Z</time>
      </trkpt>
      <trkpt lat="24.91301755703007" lon="118.54281055076058">
        <ele>25.29443359375</ele>
        <time>2025-07-24T13:26:43Z</time>
      </trkpt>
      <trkpt lat="24.912676843851184" lon="118.54292285278635">
        <ele>24.5269775390625</ele>
        <time>2025-07-24T13:26:52Z</time>
      </trkpt>
      <trkpt lat="24.912367123769748" lon="118.54303414968487">
        <ele>23.50714111328125</ele>
        <time>2025-07-24T13:27:01Z</time>
      </trkpt>
      <trkpt lat="24.91234615652165" lon="118.54304818583795">
        <ele>23.82476806640625</ele>
        <time>2025-07-24T13:27:25Z</time>
      </trkpt>
      <trkpt lat="24.911974414805822" lon="118.54314545187378">
        <ele>24.23297119140625</ele>
        <time>2025-07-24T13:27:37Z</time>
      </trkpt>
      <trkpt lat="24.911625633436312" lon="118.54322567394132">
        <ele>27.43621826171875</ele>
        <time>2025-07-24T13:27:46Z</time>
      </trkpt>
      <trkpt lat="24.911515697592986" lon="118.54324873841118">
        <ele>26.33447265625</ele>
        <time>2025-07-24T13:27:49Z</time>
      </trkpt>
      <trkpt lat="24.911417711234492" lon="118.54324874522888">
        <ele>26.2825927734375</ele>
        <time>2025-07-24T13:27:52Z</time>
      </trkpt>
      <trkpt lat="24.911299799827034" lon="118.54328283739045">
        <ele>24.34228515625</ele>
        <time>2025-07-24T13:27:55Z</time>
      </trkpt>
      <trkpt lat="24.910954911478036" lon="118.54331293542886">
        <ele>23.683837890625</ele>
        <time>2025-07-24T13:28:04Z</time>
      </trkpt>
      <trkpt lat="24.910724977403152" lon="118.54332899090124">
        <ele>24.67474365234375</ele>
        <time>2025-07-24T13:28:10Z</time>
      </trkpt>
      <trkpt lat="24.910619972921257" lon="118.54331997600364">
        <ele>24.17633056640625</ele>
        <time>2025-07-24T13:28:13Z</time>
      </trkpt>
      <trkpt lat="24.910529894213244" lon="118.54327687614474">
        <ele>24.03607177734375</ele>
        <time>2025-07-24T13:28:16Z</time>
      </trkpt>
      <trkpt lat="24.910414876243557" lon="118.54326084463983">
        <ele>24.6416015625</ele>
        <time>2025-07-24T13:28:19Z</time>
      </trkpt>
      <trkpt lat="24.910222958117046" lon="118.54328692218667">
        <ele>26.8685302734375</ele>
        <time>2025-07-24T13:28:25Z</time>
      </trkpt>
      <trkpt lat="24.9102498036219" lon="118.54321574495673">
        <ele>26.65167236328125</ele>
        <time>2025-07-24T13:28:28Z</time>
      </trkpt>
      <trkpt lat="24.910255609326313" lon="118.54312451950338">
        <ele>26.12615966796875</ele>
        <time>2025-07-24T13:28:31Z</time>
      </trkpt>
      <trkpt lat="24.910233341906572" lon="118.54299720643002">
        <ele>26.17767333984375</ele>
        <time>2025-07-24T13:28:34Z</time>
      </trkpt>
      <trkpt lat="24.91024304811204" lon="118.54285986565068">
        <ele>27.9766845703125</ele>
        <time>2025-07-24T13:28:37Z</time>
      </trkpt>
      <trkpt lat="24.91032522641955" lon="118.54248091774528">
        <ele>28.31494140625</ele>
        <time>2025-07-24T13:28:46Z</time>
      </trkpt>
      <trkpt lat="24.9103954057901" lon="118.54210397015308">
        <ele>27.52203369140625</ele>
        <time>2025-07-24T13:28:55Z</time>
      </trkpt>
      <trkpt lat="24.910456887981404" lon="118.54186837390658">
        <ele>26.32318115234375</ele>
        <time>2025-07-24T13:29:01Z</time>
      </trkpt>
    </trkseg>
  </trk>
</gpx>