<?xml version="1.0" encoding="UTF-8"?>
<gpx xmlns="http://www.topografix.com/GPX/1/1" xmlns:gpxtpx="http://www.garmin.com/xmlschemas/TrackPointExtension/v1" xmlns:xsi="http://www.w3.org/2001/XMLSchema-instance" xsi:schemaLocation="http://www.topografix.com/GPX/1/1 http://www.topografix.com/GPX/1/1/gpx.xsd" version="1.1" creator="gpx.py -- https://github.com/tkrajina/gpxpy">
  <trk>
    <name>gpx from keep</name>
    <type>Run</type>
    <trkseg>
      <trkpt lat="24.9107618472072" lon="118.5385948225564">
        <ele>9.922847469337285</ele>
        <time>2024-06-11T13:57:31Z</time>
      </trkpt>
      <trkpt lat="24.91065201695326" lon="118.53853256080183">
        <ele>9.946827349252999</ele>
        <time>2024-06-11T13:57:35Z</time>
      </trkpt>
      <trkpt lat="24.910511600900712" lon="118.53848871846962">
        <ele>9.791750530712306</ele>
        <time>2024-06-11T13:57:39Z</time>
      </trkpt>
      <trkpt lat="24.910168504882364" lon="118.53846321518407">
        <ele>7.916692358441651</ele>
        <time>2024-06-11T13:57:49Z</time>
      </trkpt>
      <trkpt lat="24.910072678768298" lon="118.53845675984985">
        <ele>8.07116231881082</ele>
        <time>2024-06-11T13:57:52Z</time>
      </trkpt>
      <trkpt lat="24.909970998058842" lon="118.53841088319334">
        <ele>10.52801441308111</ele>
        <time>2024-06-11T13:57:55Z</time>
      </trkpt>
      <trkpt lat="24.90987484111943" lon="118.5383877868798">
        <ele>13.689380074851215</ele>
        <time>2024-06-11T13:57:58Z</time>
      </trkpt>
      <trkpt lat="24.909595192607522" lon="118.53841688266864">
        <ele>8.242494654841721</ele>
        <time>2024-06-11T13:58:07Z</time>
      </trkpt>
      <trkpt lat="24.909270029830353" lon="118.53847062469796">
        <ele>7.314410331659019</ele>
        <time>2024-06-11T13:58:16Z</time>
      </trkpt>
      <trkpt lat="24.90919096077898" lon="118.53839835244439">
        <ele>7.577961475588381</ele>
        <time>2024-06-11T13:58:19Z</time>
      </trkpt>
      <trkpt lat="24.909305471282085" lon="118.53805879273008">
        <ele>7.694463954307139</ele>
        <time>2024-06-11T13:58:28Z</time>
      </trkpt>
      <trkpt lat="24.909373691292767" lon="118.53786244733372">
        <ele>8.05000420100987</ele>
        <time>2024-06-11T13:58:34Z</time>
      </trkpt>
      <trkpt lat="24.909392564958114" lon="118.53773418714043">
        <ele>8.669984007254243</ele>
        <time>2024-06-11T13:58:37Z</time>
      </trkpt>
      <trkpt lat="24.90946958210445" lon="118.53741987369706">
        <ele>9.592822941951454</ele>
        <time>2024-06-11T13:58:46Z</time>
      </trkpt>
      <trkpt lat="24.909521481016185" lon="118.53710409839255">
        <ele>10.413681310601532</ele>
        <time>2024-06-11T13:58:55Z</time>
      </trkpt>
      <trkpt lat="24.909533103747545" lon="118.53699766352081">
        <ele>10.319738728925586</ele>
        <time>2024-06-11T13:58:58Z</time>
      </trkpt>
      <trkpt lat="24.90950148546722" lon="118.53693056568292">
        <ele>9.739691784605384</ele>
        <time>2024-06-11T13:59:01Z</time>
      </trkpt>
      <trkpt lat="24.909440489203742" lon="118.53686373474666">
        <ele>10.16108640562743</ele>
        <time>2024-06-11T13:59:04Z</time>
      </trkpt>
      <trkpt lat="24.909461011186682" lon="118.53675213851321">
        <ele>10.235445666126907</ele>
        <time>2024-06-11T13:59:07Z</time>
      </trkpt>
      <trkpt lat="24.90956710663434" lon="118.53645140285658">
        <ele>10.049857857637107</ele>
        <time>2024-06-11T13:59:16Z</time>
      </trkpt>
      <trkpt lat="24.90959966363211" lon="118.53635951963159">
        <ele>9.760368007235229</ele>
        <time>2024-06-11T13:59:19Z</time>
      </trkpt>
      <trkpt lat="24.909610936996085" lon="118.53605369463004">
        <ele>10.27972982171923</ele>
        <time>2024-06-11T13:59:29Z</time>
      </trkpt>
      <trkpt lat="24.909685117224235" lon="118.53567488074073">
        <ele>10.295331375673413</ele>
        <time>2024-06-11T13:59:41Z</time>
      </trkpt>
      <trkpt lat="24.909722958927194" lon="118.53529267413232">
        <ele>9.923711070790887</ele>
        <time>2024-06-11T13:59:53Z</time>
      </trkpt>
      <trkpt lat="24.90976501181612" lon="118.53496219027379">
        <ele>8.840889943763614</ele>
        <time>2024-06-11T14:00:03Z</time>
      </trkpt>
      <trkpt lat="24.909772730591676" lon="118.53486887919014">
        <ele>8.516720911487937</ele>
        <time>2024-06-11T14:00:06Z</time>
      </trkpt>
      <trkpt lat="24.909833324516317" lon="118.53483709962622">
        <ele>8.975588208064437</ele>
        <time>2024-06-11T14:00:09Z</time>
      </trkpt>
      <trkpt lat="24.910124428623867" lon="118.53500069703831">
        <ele>9.051374011673033</ele>
        <time>2024-06-11T14:00:21Z</time>
      </trkpt>
      <trkpt lat="24.91043623230804" lon="118.53517403179407">
        <ele>9.986900981515646</ele>
        <time>2024-06-11T14:00:33Z</time>
      </trkpt>
      <trkpt lat="24.910693735547675" lon="118.53527377311428">
        <ele>9.477925015613437</ele>
        <time>2024-06-11T14:00:42Z</time>
      </trkpt>
      <trkpt lat="24.91086760119389" lon="118.5353325698302">
        <ele>10.107592683285475</ele>
        <time>2024-06-11T14:00:48Z</time>
      </trkpt>
      <trkpt lat="24.911040241514595" lon="118.53543679932727">
        <ele>9.753798995167017</ele>
        <time>2024-06-11T14:00:54Z</time>
      </trkpt>
      <trkpt lat="24.911296640369827" lon="118.5355417521594">
        <ele>9.955626176670194</ele>
        <time>2024-06-11T14:01:03Z</time>
      </trkpt>
      <trkpt lat="24.91162990638263" lon="118.53566191301674">
        <ele>10.533713799901307</ele>
        <time>2024-06-11T14:01:15Z</time>
      </trkpt>
      <trkpt lat="24.911793329179005" lon="118.53576523417848">
        <ele>9.30070853792131</ele>
        <time>2024-06-11T14:01:21Z</time>
      </trkpt>
      <trkpt lat="24.912090552218118" lon="118.53585358581194">
        <ele>11.94989092554897</ele>
        <time>2024-06-11T14:01:30Z</time>
      </trkpt>
      <trkpt lat="24.912418636569146" lon="118.53601541101267">
        <ele>9.70757764019072</ele>
        <time>2024-06-11T14:01:42Z</time>
      </trkpt>
      <trkpt lat="24.91248825118364" lon="118.53606892494038">
        <ele>9.626291556283832</ele>
        <time>2024-06-11T14:01:46Z</time>
      </trkpt>
      <trkpt lat="24.91230740710093" lon="118.5363920907776">
        <ele>9.63926394470036</ele>
        <time>2024-06-11T14:01:57Z</time>
      </trkpt>
      <trkpt lat="24.912226534290046" lon="118.53655621900853">
        <ele>10.238866429775953</ele>
        <time>2024-06-11T14:02:03Z</time>
      </trkpt>
      <trkpt lat="24.91216889828938" lon="118.53662824945931">
        <ele>10.139876073226333</ele>
        <time>2024-06-11T14:02:06Z</time>
      </trkpt>
      <trkpt lat="24.912140002936855" lon="118.53670531381937">
        <ele>10.520854786969721</ele>
        <time>2024-06-11T14:02:09Z</time>
      </trkpt>
      <trkpt lat="24.91201835711038" lon="118.53685783283153">
        <ele>10.467779533937573</ele>
        <time>2024-06-11T14:02:15Z</time>
      </trkpt>
      <trkpt lat="24.911955871006658" lon="118.5369085138043">
        <ele>10.077069213613868</ele>
        <time>2024-06-11T14:02:18Z</time>
      </trkpt>
      <trkpt lat="24.91187737767048" lon="118.5371563363645">
        <ele>10.815575028769672</ele>
        <time>2024-06-11T14:02:27Z</time>
      </trkpt>
      <trkpt lat="24.911896461511166" lon="118.53723721588713">
        <ele>9.92170749977231</ele>
        <time>2024-06-11T14:02:30Z</time>
      </trkpt>
      <trkpt lat="24.911839213684384" lon="118.53741038438147">
        <ele>10.381295877508819</ele>
        <time>2024-06-11T14:02:36Z</time>
      </trkpt>
      <trkpt lat="24.911833527618967" lon="118.5374971774497">
        <ele>10.065667886286974</ele>
        <time>2024-06-11T14:02:39Z</time>
      </trkpt>
      <trkpt lat="24.911750966986407" lon="118.53765539193503">
        <ele>9.962862081825733</ele>
        <time>2024-06-11T14:02:45Z</time>
      </trkpt>
      <trkpt lat="24.91172051622868" lon="118.5378182054893">
        <ele>9.317791412584484</ele>
        <time>2024-06-11T14:02:51Z</time>
      </trkpt>
      <trkpt lat="24.91164976670904" lon="118.53798974412734">
        <ele>9.83582728356123</ele>
        <time>2024-06-11T14:02:57Z</time>
      </trkpt>
      <trkpt lat="24.91157507838779" lon="118.53806460423318">
        <ele>9.670022569596767</ele>
        <time>2024-06-11T14:03:00Z</time>
      </trkpt>
      <trkpt lat="24.911407169972264" lon="118.53831328232799">
        <ele>10.25373238697648</ele>
        <time>2024-06-11T14:03:09Z</time>
      </trkpt>
      <trkpt lat="24.91126801308305" lon="118.53856754835266">
        <ele>10.037216622382402</ele>
        <time>2024-06-11T14:03:18Z</time>
      </trkpt>
      <trkpt lat="24.911245871718208" lon="118.53866031257823">
        <ele>9.993709632195532</ele>
        <time>2024-06-11T14:03:21Z</time>
      </trkpt>
      <trkpt lat="24.911202381252878" lon="118.53874874158562">
        <ele>10.04663242585957</ele>
        <time>2024-06-11T14:03:24Z</time>
      </trkpt>
      <trkpt lat="24.910928299462263" lon="118.53869800330405">
        <ele>9.163221847265959</ele>
        <time>2024-06-11T14:03:33Z</time>
      </trkpt>
      <trkpt lat="24.910613027929845" lon="118.53855440838888">
        <ele>9.092636859975755</ele>
        <time>2024-06-11T14:03:44Z</time>
      </trkpt>
      <trkpt lat="24.910385735255346" lon="118.53851269940996">
        <ele>8.672353002242744</ele>
        <time>2024-06-11T14:03:52Z</time>
      </trkpt>
      <trkpt lat="24.910162211162262" lon="118.53844316448281">
        <ele>8.752452627755702</ele>
        <time>2024-06-11T14:04:00Z</time>
      </trkpt>
      <trkpt lat="24.909984918243044" lon="118.53842212706058">
        <ele>10.129795085638762</ele>
        <time>2024-06-11T14:04:06Z</time>
      </trkpt>
      <trkpt lat="24.909904032640124" lon="118.53843410084232">
        <ele>8.666286867111921</ele>
        <time>2024-06-11T14:04:09Z</time>
      </trkpt>
      <trkpt lat="24.90981909753156" lon="118.53840576068134">
        <ele>8.295044841244817</ele>
        <time>2024-06-11T14:04:12Z</time>
      </trkpt>
      <trkpt lat="24.909476046462846" lon="118.53843673730567">
        <ele>7.17456625495106</ele>
        <time>2024-06-11T14:04:24Z</time>
      </trkpt>
      <trkpt lat="24.909264694857523" lon="118.5384895630191">
        <ele>7.450963694602251</ele>
        <time>2024-06-11T14:04:30Z</time>
      </trkpt>
      <trkpt lat="24.909178148936345" lon="118.53845452772819">
        <ele>7.47137965913862</ele>
        <time>2024-06-11T14:04:33Z</time>
      </trkpt>
      <trkpt lat="24.90915274322894" lon="118.53834179599542">
        <ele>8.20773131866008</ele>
        <time>2024-06-11T14:04:36Z</time>
      </trkpt>
      <trkpt lat="24.909282262983307" lon="118.53801927069482">
        <ele>8.196516986005008</ele>
        <time>2024-06-11T14:04:45Z</time>
      </trkpt>
      <trkpt lat="24.909364880699496" lon="118.5378256133003">
        <ele>7.975018876604736</ele>
        <time>2024-06-11T14:04:51Z</time>
      </trkpt>
      <trkpt lat="24.90943020620654" lon="118.53751770768547">
        <ele>9.080604271963239</ele>
        <time>2024-06-11T14:05:00Z</time>
      </trkpt>
      <trkpt lat="24.90951638235202" lon="118.53721752633984">
        <ele>10.488638313487172</ele>
        <time>2024-06-11T14:05:09Z</time>
      </trkpt>
      <trkpt lat="24.9095457358244" lon="118.53701051288633">
        <ele>10.904208159074187</ele>
        <time>2024-06-11T14:05:15Z</time>
      </trkpt>
      <trkpt lat="24.909440021533733" lon="118.53685875525088">
        <ele>10.184245536103845</ele>
        <time>2024-06-11T14:05:21Z</time>
      </trkpt>
      <trkpt lat="24.909563178434297" lon="118.5365183642749">
        <ele>10.074195593595505</ele>
        <time>2024-06-11T14:05:30Z</time>
      </trkpt>
      <trkpt lat="24.909618008075096" lon="118.53630108278874">
        <ele>10.348884955979884</ele>
        <time>2024-06-11T14:05:36Z</time>
      </trkpt>
      <trkpt lat="24.909630168062307" lon="118.53619394998252">
        <ele>10.389480131678283</ele>
        <time>2024-06-11T14:05:39Z</time>
      </trkpt>
      <trkpt lat="24.90962884349464" lon="118.53597937268219">
        <ele>10.284232801757753</ele>
        <time>2024-06-11T14:05:46Z</time>
      </trkpt>
      <trkpt lat="24.90968018171933" lon="118.53559571254537">
        <ele>10.218638369813561</ele>
        <time>2024-06-11T14:05:58Z</time>
      </trkpt>
      <trkpt lat="24.90970006866141" lon="118.53545937543748">
        <ele>10.458444137126207</ele>
        <time>2024-06-11T14:06:02Z</time>
      </trkpt>
      <trkpt lat="24.909732606829873" lon="118.53535144076578">
        <ele>9.754417193122208</ele>
        <time>2024-06-11T14:06:06Z</time>
      </trkpt>
      <trkpt lat="24.909741432175757" lon="118.53524308825183">
        <ele>10.150223693810403</ele>
        <time>2024-06-11T14:06:09Z</time>
      </trkpt>
      <trkpt lat="24.909769210029268" lon="118.53514007277111">
        <ele>9.648363479413092</ele>
        <time>2024-06-11T14:06:12Z</time>
      </trkpt>
      <trkpt lat="24.90980652211474" lon="118.53484915700385">
        <ele>8.122162329033017</ele>
        <time>2024-06-11T14:06:21Z</time>
      </trkpt>
      <trkpt lat="24.909884525171858" lon="118.53485102905057">
        <ele>7.5573508981615305</ele>
        <time>2024-06-11T14:06:24Z</time>
      </trkpt>
      <trkpt lat="24.909966504728974" lon="118.53487490480443">
        <ele>8.063593178987503</ele>
        <time>2024-06-11T14:06:27Z</time>
      </trkpt>
      <trkpt lat="24.910027321171267" lon="118.53493425039701">
        <ele>8.392793993465602</ele>
        <time>2024-06-11T14:06:30Z</time>
      </trkpt>
      <trkpt lat="24.910350926889933" lon="118.53510910283521">
        <ele>9.42324022948742</ele>
        <time>2024-06-11T14:06:42Z</time>
      </trkpt>
      <trkpt lat="24.910514651092786" lon="118.53519990810577">
        <ele>9.834296458400786</ele>
        <time>2024-06-11T14:06:48Z</time>
      </trkpt>
      <trkpt lat="24.910773485346034" lon="118.53529988670579">
        <ele>9.780399003066123</ele>
        <time>2024-06-11T14:06:57Z</time>
      </trkpt>
      <trkpt lat="24.910853010230834" lon="118.53535479833455">
        <ele>9.877879842184484</ele>
        <time>2024-06-11T14:07:00Z</time>
      </trkpt>
      <trkpt lat="24.911032082773225" lon="118.53543525556715">
        <ele>10.319107602350414</ele>
        <time>2024-06-11T14:07:06Z</time>
      </trkpt>
      <trkpt lat="24.91122414069003" lon="118.53547891200695">
        <ele>10.094511334784329</ele>
        <time>2024-06-11T14:07:12Z</time>
      </trkpt>
      <trkpt lat="24.911560215653257" lon="118.53560908319541">
        <ele>9.717329058796167</ele>
        <time>2024-06-11T14:07:24Z</time>
      </trkpt>
      <trkpt lat="24.911628875580853" lon="118.53567464884394">
        <ele>9.418254300020635</ele>
        <time>2024-06-11T14:07:27Z</time>
      </trkpt>
      <trkpt lat="24.91178511072687" lon="118.53575931092175">
        <ele>10.190118234604597</ele>
        <time>2024-06-11T14:07:33Z</time>
      </trkpt>
    </trkseg>
  </trk>
</gpx>