<?xml version="1.0" encoding="UTF-8"?>
<gpx xmlns="http://www.topografix.com/GPX/1/1" xmlns:gpxtpx="http://www.garmin.com/xmlschemas/TrackPointExtension/v1" xmlns:xsi="http://www.w3.org/2001/XMLSchema-instance" xsi:schemaLocation="http://www.topografix.com/GPX/1/1 http://www.topografix.com/GPX/1/1/gpx.xsd" version="1.1" creator="gpx.py -- https://github.com/tkrajina/gpxpy">
  <trk>
    <name>gpx from keep</name>
    <type>Run</type>
    <trkseg>
      <trkpt lat="24.91453526452591" lon="118.54241062261468">
        <ele>9.721860928460956</ele>
        <time>2024-12-31T13:29:15Z</time>
      </trkpt>
      <trkpt lat="24.91447630945049" lon="118.5424377817927">
        <ele>10.441206420771778</ele>
        <time>2024-12-31T13:29:18Z</time>
      </trkpt>
      <trkpt lat="24.914317060384068" lon="118.54246205328005">
        <ele>11.092994616366923</ele>
        <time>2024-12-31T13:29:24Z</time>
      </trkpt>
      <trkpt lat="24.914046441430443" lon="118.54257071527371">
        <ele>9.431567090563476</ele>
        <time>2024-12-31T13:29:30Z</time>
      </trkpt>
      <trkpt lat="24.91378093004202" lon="118.54263834008698">
        <ele>9.615983542054892</ele>
        <time>2024-12-31T13:29:36Z</time>
      </trkpt>
      <trkpt lat="24.913391553572787" lon="118.54272797524294">
        <ele>8.775121286511421</ele>
        <time>2024-12-31T13:29:45Z</time>
      </trkpt>
      <trkpt lat="24.913035910487277" lon="118.54282926065181">
        <ele>8.217389354482293</ele>
        <time>2024-12-31T13:29:54Z</time>
      </trkpt>
      <trkpt lat="24.91291908361322" lon="118.54287380677235">
        <ele>8.126117411069572</ele>
        <time>2024-12-31T13:29:57Z</time>
      </trkpt>
      <trkpt lat="24.91262320678112" lon="118.54295109047528">
        <ele>9.028565334156156</ele>
        <time>2024-12-31T13:30:04Z</time>
      </trkpt>
      <trkpt lat="24.912266166883573" lon="118.54305360671695">
        <ele>8.903904611244798</ele>
        <time>2024-12-31T13:30:13Z</time>
      </trkpt>
      <trkpt lat="24.911984695970208" lon="118.54314074531862">
        <ele>8.340616381727159</ele>
        <time>2024-12-31T13:30:19Z</time>
      </trkpt>
      <trkpt lat="24.911600631680336" lon="118.54324392739869">
        <ele>9.086879863403738</ele>
        <time>2024-12-31T13:30:28Z</time>
      </trkpt>
      <trkpt lat="24.911418998010532" lon="118.5432609903958">
        <ele>8.87349336501211</ele>
        <time>2024-12-31T13:30:34Z</time>
      </trkpt>
    </trkseg>
  </trk>
</gpx>