<?xml version="1.0" encoding="UTF-8"?>
<gpx xmlns="http://www.topografix.com/GPX/1/1" xmlns:gpxtpx="http://www.garmin.com/xmlschemas/TrackPointExtension/v1" xmlns:xsi="http://www.w3.org/2001/XMLSchema-instance" xsi:schemaLocation="http://www.topografix.com/GPX/1/1 http://www.topografix.com/GPX/1/1/gpx.xsd" version="1.1" creator="gpx.py -- https://github.com/tkrajina/gpxpy">
  <trk>
    <name>gpx from keep</name>
    <type>Run</type>
    <trkseg>
      <trkpt lat="24.91137079357687" lon="118.5374270106652">
        <ele>10.240065734026846</ele>
        <time>2025-02-11T14:06:07Z</time>
      </trkpt>
      <trkpt lat="24.911183794013713" lon="118.53779332997217">
        <ele>10.16290770098567</ele>
        <time>2025-02-11T14:06:19Z</time>
      </trkpt>
      <trkpt lat="24.911102978518503" lon="118.53794224608517">
        <ele>10.224341478198767</ele>
        <time>2025-02-11T14:06:22Z</time>
      </trkpt>
      <trkpt lat="24.911057200063365" lon="118.53806083077197">
        <ele>9.770213140174747</ele>
        <time>2025-02-11T14:06:25Z</time>
      </trkpt>
      <trkpt lat="24.910830278435768" lon="118.53829470364734">
        <ele>9.131253485567868</ele>
        <time>2025-02-11T14:06:34Z</time>
      </trkpt>
      <trkpt lat="24.910787189236668" lon="118.53841186224355">
        <ele>10.029856815934181</ele>
        <time>2025-02-11T14:06:37Z</time>
      </trkpt>
      <trkpt lat="24.910788578007793" lon="118.5385358428322">
        <ele>8.77808870561421</ele>
        <time>2025-02-11T14:06:40Z</time>
      </trkpt>
      <trkpt lat="24.910837249041386" lon="118.53865474400757">
        <ele>9.805686729960144</ele>
        <time>2025-02-11T14:06:43Z</time>
      </trkpt>
      <trkpt lat="24.91093854793163" lon="118.53867444280019">
        <ele>10.113752560690045</ele>
        <time>2025-02-11T14:06:46Z</time>
      </trkpt>
      <trkpt lat="24.91102832629673" lon="118.53871175589076">
        <ele>10.754609008319676</ele>
        <time>2025-02-11T14:06:49Z</time>
      </trkpt>
      <trkpt lat="24.911133478435243" lon="118.5387283865136">
        <ele>9.429509395733476</ele>
        <time>2025-02-11T14:06:52Z</time>
      </trkpt>
      <trkpt lat="24.911227647327117" lon="118.53870811087387">
        <ele>9.803458076901734</ele>
        <time>2025-02-11T14:06:55Z</time>
      </trkpt>
      <trkpt lat="24.91129680935161" lon="118.53852785398446">
        <ele>10.134555356577039</ele>
        <time>2025-02-11T14:07:01Z</time>
      </trkpt>
      <trkpt lat="24.911363912309202" lon="118.53846624482372">
        <ele>9.863738028332591</ele>
        <time>2025-02-11T14:07:04Z</time>
      </trkpt>
      <trkpt lat="24.91140099065029" lon="118.53837754414432">
        <ele>10.163678303360939</ele>
        <time>2025-02-11T14:07:07Z</time>
      </trkpt>
      <trkpt lat="24.911590808479154" lon="118.53813653115364">
        <ele>9.483846202492714</ele>
        <time>2025-02-11T14:07:16Z</time>
      </trkpt>
      <trkpt lat="24.911742595236866" lon="118.53782925027815">
        <ele>10.417889245785773</ele>
        <time>2025-02-11T14:07:25Z</time>
      </trkpt>
      <trkpt lat="24.911829031556465" lon="118.53761671037877">
        <ele>10.470782116986811</ele>
        <time>2025-02-11T14:07:31Z</time>
      </trkpt>
      <trkpt lat="24.911885655256192" lon="118.53751824383312">
        <ele>10.152773743495345</ele>
        <time>2025-02-11T14:07:34Z</time>
      </trkpt>
      <trkpt lat="24.911989029235883" lon="118.53716220547126">
        <ele>9.684466407634318</ele>
        <time>2025-02-11T14:07:43Z</time>
      </trkpt>
      <trkpt lat="24.912091182441575" lon="118.53684342441298">
        <ele>10.593895914033055</ele>
        <time>2025-02-11T14:07:52Z</time>
      </trkpt>
      <trkpt lat="24.912180783635634" lon="118.53666334099482">
        <ele>9.90656893607229</ele>
        <time>2025-02-11T14:07:58Z</time>
      </trkpt>
      <trkpt lat="24.912252621362473" lon="118.53660497415699">
        <ele>10.18111102283001</ele>
        <time>2025-02-11T14:08:01Z</time>
      </trkpt>
      <trkpt lat="24.912411096696008" lon="118.53629061264901">
        <ele>9.749707570299506</ele>
        <time>2025-02-11T14:08:11Z</time>
      </trkpt>
      <trkpt lat="24.912460156730212" lon="118.53616872245492">
        <ele>10.141462636180222</ele>
        <time>2025-02-11T14:08:15Z</time>
      </trkpt>
      <trkpt lat="24.912476282309044" lon="118.53604567496319">
        <ele>10.31286396086216</ele>
        <time>2025-02-11T14:08:19Z</time>
      </trkpt>
      <trkpt lat="24.912232386921236" lon="118.53593667516084">
        <ele>9.9816103130579</ele>
        <time>2025-02-11T14:08:27Z</time>
      </trkpt>
      <trkpt lat="24.912141355041033" lon="118.5358606954756">
        <ele>10.385316461324692</ele>
        <time>2025-02-11T14:08:31Z</time>
      </trkpt>
      <trkpt lat="24.91235221369024" lon="118.53551073129512">
        <ele>10.272694010287523</ele>
        <time>2025-02-11T14:08:43Z</time>
      </trkpt>
      <trkpt lat="24.912527506194195" lon="118.53527178311352">
        <ele>10.286160303279757</ele>
        <time>2025-02-11T14:08:51Z</time>
      </trkpt>
      <trkpt lat="24.91262158722183" lon="118.53506100503797">
        <ele>10.252685315907001</ele>
        <time>2025-02-11T14:08:58Z</time>
      </trkpt>
      <trkpt lat="24.91281201190066" lon="118.53479997397628">
        <ele>10.234501214697957</ele>
        <time>2025-02-11T14:09:07Z</time>
      </trkpt>
      <trkpt lat="24.91295234924836" lon="118.53464861937705">
        <ele>10.213433200493455</ele>
        <time>2025-02-11T14:09:13Z</time>
      </trkpt>
      <trkpt lat="24.91300733220941" lon="118.53455512425155">
        <ele>10.38102950900793</ele>
        <time>2025-02-11T14:09:16Z</time>
      </trkpt>
      <trkpt lat="24.913035759257387" lon="118.53446010619933">
        <ele>10.112799459137022</ele>
        <time>2025-02-11T14:09:19Z</time>
      </trkpt>
      <trkpt lat="24.913019514348957" lon="118.53414392163414">
        <ele>9.983630811795592</ele>
        <time>2025-02-11T14:09:28Z</time>
      </trkpt>
      <trkpt lat="24.913090470462798" lon="118.53397905526042">
        <ele>10.689458331093192</ele>
        <time>2025-02-11T14:09:34Z</time>
      </trkpt>
      <trkpt lat="24.913409903095662" lon="118.53394299955242">
        <ele>10.41717978194356</ele>
        <time>2025-02-11T14:09:46Z</time>
      </trkpt>
      <trkpt lat="24.913727664175692" lon="118.5339872698885">
        <ele>9.876056250184774</ele>
        <time>2025-02-11T14:09:58Z</time>
      </trkpt>
      <trkpt lat="24.914016680551097" lon="118.53399302393242">
        <ele>10.181204716674984</ele>
        <time>2025-02-11T14:10:07Z</time>
      </trkpt>
      <trkpt lat="24.914358950642267" lon="118.53403225612236">
        <ele>10.67843767348677</ele>
        <time>2025-02-11T14:10:18Z</time>
      </trkpt>
      <trkpt lat="24.91469828307233" lon="118.53409479337694">
        <ele>12.624817348085344</ele>
        <time>2025-02-11T14:10:30Z</time>
      </trkpt>
      <trkpt lat="24.915071788530692" lon="118.53416966020292">
        <ele>13.093266932293773</ele>
        <time>2025-02-11T14:10:42Z</time>
      </trkpt>
      <trkpt lat="24.91541306399372" lon="118.53423994170807">
        <ele>12.449509513564408</ele>
        <time>2025-02-11T14:10:53Z</time>
      </trkpt>
      <trkpt lat="24.915507127682687" lon="118.53425295379571">
        <ele>12.881168072111905</ele>
        <time>2025-02-11T14:10:56Z</time>
      </trkpt>
      <trkpt lat="24.91559762899329" lon="118.53423689871761">
        <ele>12.82746207062155</ele>
        <time>2025-02-11T14:10:59Z</time>
      </trkpt>
      <trkpt lat="24.91575955475601" lon="118.5342710201191">
        <ele>13.044732068665326</ele>
        <time>2025-02-11T14:11:05Z</time>
      </trkpt>
      <trkpt lat="24.916034617589137" lon="118.53430986298812">
        <ele>12.786855787970126</ele>
        <time>2025-02-11T14:11:14Z</time>
      </trkpt>
      <trkpt lat="24.91631635117762" lon="118.5343856265316">
        <ele>12.793510890565813</ele>
        <time>2025-02-11T14:11:23Z</time>
      </trkpt>
      <trkpt lat="24.916408677232695" lon="118.5343911787117">
        <ele>12.79077732283622</ele>
        <time>2025-02-11T14:11:26Z</time>
      </trkpt>
      <trkpt lat="24.916501936896942" lon="118.53442301638948">
        <ele>13.263298731297255</ele>
        <time>2025-02-11T14:11:29Z</time>
      </trkpt>
      <trkpt lat="24.916771145230936" lon="118.534456722757">
        <ele>14.538035035133362</ele>
        <time>2025-02-11T14:11:38Z</time>
      </trkpt>
      <trkpt lat="24.917047947792298" lon="118.53451347840311">
        <ele>14.36464941687882</ele>
        <time>2025-02-11T14:11:47Z</time>
      </trkpt>
      <trkpt lat="24.917335999580796" lon="118.53456953278194">
        <ele>14.549578228965402</ele>
        <time>2025-02-11T14:11:56Z</time>
      </trkpt>
      <trkpt lat="24.917620444832576" lon="118.53464963705385">
        <ele>14.560721950605512</ele>
        <time>2025-02-11T14:12:05Z</time>
      </trkpt>
      <trkpt lat="24.91790676526618" lon="118.53474041497688">
        <ele>14.410655149258673</ele>
        <time>2025-02-11T14:12:14Z</time>
      </trkpt>
      <trkpt lat="24.918248076293214" lon="118.53480579737695">
        <ele>13.614045483991504</ele>
        <time>2025-02-11T14:12:25Z</time>
      </trkpt>
      <trkpt lat="24.91837851189877" lon="118.53484395665879">
        <ele>13.120007563382387</ele>
        <time>2025-02-11T14:12:29Z</time>
      </trkpt>
      <trkpt lat="24.918485932081335" lon="118.5349114338241">
        <ele>12.358826732262969</ele>
        <time>2025-02-11T14:12:33Z</time>
      </trkpt>
      <trkpt lat="24.91856768356437" lon="118.53499289991896">
        <ele>12.095764479599893</ele>
        <time>2025-02-11T14:12:37Z</time>
      </trkpt>
      <trkpt lat="24.91862048417185" lon="118.53512423253049">
        <ele>12.300480576232076</ele>
        <time>2025-02-11T14:12:41Z</time>
      </trkpt>
      <trkpt lat="24.918621793851887" lon="118.5352800259767">
        <ele>11.025920232757926</ele>
        <time>2025-02-11T14:12:45Z</time>
      </trkpt>
      <trkpt lat="24.91848589190488" lon="118.53564768198444">
        <ele>10.409566364251077</ele>
        <time>2025-02-11T14:12:56Z</time>
      </trkpt>
      <trkpt lat="24.91840591044122" lon="118.53594781262046">
        <ele>10.157100605778396</ele>
        <time>2025-02-11T14:13:05Z</time>
      </trkpt>
      <trkpt lat="24.91827234357524" lon="118.53621068641152">
        <ele>10.136512963101268</ele>
        <time>2025-02-11T14:13:14Z</time>
      </trkpt>
      <trkpt lat="24.918142122332018" lon="118.53647833940879">
        <ele>9.963894323445857</ele>
        <time>2025-02-11T14:13:23Z</time>
      </trkpt>
      <trkpt lat="24.91802937489498" lon="118.53676246861251">
        <ele>9.433722882531583</ele>
        <time>2025-02-11T14:13:32Z</time>
      </trkpt>
      <trkpt lat="24.91800045506017" lon="118.53684842635373">
        <ele>9.759583816863596</ele>
        <time>2025-02-11T14:13:35Z</time>
      </trkpt>
      <trkpt lat="24.91794884014953" lon="118.53692633882852">
        <ele>9.95199775416404</ele>
        <time>2025-02-11T14:13:38Z</time>
      </trkpt>
      <trkpt lat="24.917861779796052" lon="118.53718476242244">
        <ele>10.070910134352744</ele>
        <time>2025-02-11T14:13:47Z</time>
      </trkpt>
      <trkpt lat="24.917735772445475" lon="118.53739010035008">
        <ele>9.54801191110164</ele>
        <time>2025-02-11T14:13:53Z</time>
      </trkpt>
      <trkpt lat="24.91760504861705" lon="118.5376883557044">
        <ele>9.761762556619942</ele>
        <time>2025-02-11T14:14:02Z</time>
      </trkpt>
      <trkpt lat="24.917555124422755" lon="118.5377785137942">
        <ele>9.861099066212773</ele>
        <time>2025-02-11T14:14:05Z</time>
      </trkpt>
      <trkpt lat="24.917538348662656" lon="118.53788562120747">
        <ele>9.858264517970383</ele>
        <time>2025-02-11T14:14:08Z</time>
      </trkpt>
      <trkpt lat="24.917399055397954" lon="118.53815555942003">
        <ele>10.251811115071177</ele>
        <time>2025-02-11T14:14:17Z</time>
      </trkpt>
      <trkpt lat="24.917358472628834" lon="118.5382566378401">
        <ele>10.153734439983964</ele>
        <time>2025-02-11T14:14:20Z</time>
      </trkpt>
      <trkpt lat="24.9173170270393" lon="118.53850543203325">
        <ele>9.99210459087044</ele>
        <time>2025-02-11T14:14:27Z</time>
      </trkpt>
      <trkpt lat="24.917254603361624" lon="118.53862113953036">
        <ele>10.281161957420409</ele>
        <time>2025-02-11T14:14:31Z</time>
      </trkpt>
      <trkpt lat="24.917220604238054" lon="118.53874060582473">
        <ele>10.527611552737653</ele>
        <time>2025-02-11T14:14:35Z</time>
      </trkpt>
      <trkpt lat="24.917139976376628" lon="118.53884176134054">
        <ele>10.025940392166376</ele>
        <time>2025-02-11T14:14:39Z</time>
      </trkpt>
      <trkpt lat="24.917007065222684" lon="118.53923890706636">
        <ele>10.07505526021123</ele>
        <time>2025-02-11T14:14:51Z</time>
      </trkpt>
      <trkpt lat="24.916863097109843" lon="118.53956669322073">
        <ele>10.396224957890809</ele>
        <time>2025-02-11T14:15:03Z</time>
      </trkpt>
      <trkpt lat="24.916796272048963" lon="118.5396365120968">
        <ele>10.399235823191702</ele>
        <time>2025-02-11T14:15:06Z</time>
      </trkpt>
      <trkpt lat="24.916751151022154" lon="118.53972850624895">
        <ele>10.857571342028677</ele>
        <time>2025-02-11T14:15:09Z</time>
      </trkpt>
      <trkpt lat="24.91668428729372" lon="118.53981369502797">
        <ele>10.659896550700068</ele>
        <time>2025-02-11T14:15:12Z</time>
      </trkpt>
      <trkpt lat="24.916583486180556" lon="118.5400105314845">
        <ele>10.694382630288601</ele>
        <time>2025-02-11T14:15:18Z</time>
      </trkpt>
      <trkpt lat="24.916527800245877" lon="118.54025688821527">
        <ele>10.402032222598791</ele>
        <time>2025-02-11T14:15:24Z</time>
      </trkpt>
      <trkpt lat="24.916420933948686" lon="118.54056851155751">
        <ele>12.212856339290738</ele>
        <time>2025-02-11T14:15:33Z</time>
      </trkpt>
      <trkpt lat="24.91640402352776" lon="118.54066147475862">
        <ele>12.034668852575123</ele>
        <time>2025-02-11T14:15:36Z</time>
      </trkpt>
      <trkpt lat="24.916283359480296" lon="118.54099879475098">
        <ele>12.403040465898812</ele>
        <time>2025-02-11T14:15:45Z</time>
      </trkpt>
      <trkpt lat="24.916277268236076" lon="118.54131328954004">
        <ele>12.77909538242966</ele>
        <time>2025-02-11T14:15:54Z</time>
      </trkpt>
      <trkpt lat="24.916309218151767" lon="118.54164614671286">
        <ele>12.462348712608218</ele>
        <time>2025-02-11T14:16:03Z</time>
      </trkpt>
      <trkpt lat="24.91631926852778" lon="118.54175077831142">
        <ele>12.836086511611938</ele>
        <time>2025-02-11T14:16:06Z</time>
      </trkpt>
      <trkpt lat="24.916290684316397" lon="118.54184463440161">
        <ele>12.708643281832337</ele>
        <time>2025-02-11T14:16:09Z</time>
      </trkpt>
      <trkpt lat="24.91628704124746" lon="118.54194443041807">
        <ele>12.462669361382723</ele>
        <time>2025-02-11T14:16:12Z</time>
      </trkpt>
      <trkpt lat="24.916204991837365" lon="118.54198961149848">
        <ele>12.030229723080993</ele>
        <time>2025-02-11T14:16:15Z</time>
      </trkpt>
      <trkpt lat="24.915930654774552" lon="118.54202903330876">
        <ele>12.58532342594117</ele>
        <time>2025-02-11T14:16:24Z</time>
      </trkpt>
      <trkpt lat="24.9157123413033" lon="118.54210905896063">
        <ele>12.053322036750615</ele>
        <time>2025-02-11T14:16:31Z</time>
      </trkpt>
      <trkpt lat="24.915485320818945" lon="118.54222675676532">
        <ele>12.408407714217901</ele>
        <time>2025-02-11T14:16:38Z</time>
      </trkpt>
      <trkpt lat="24.915234569478308" lon="118.54234100856829">
        <ele>12.421813054941595</ele>
        <time>2025-02-11T14:16:46Z</time>
      </trkpt>
      <trkpt lat="24.91486354354206" lon="118.54248977134448">
        <ele>11.065775490365922</ele>
        <time>2025-02-11T14:16:58Z</time>
      </trkpt>
      <trkpt lat="24.914539355726994" lon="118.54260443722625">
        <ele>10.005052625201643</ele>
        <time>2025-02-11T14:17:09Z</time>
      </trkpt>
      <trkpt lat="24.91431869373019" lon="118.54259747028888">
        <ele>9.687085971236229</ele>
        <time>2025-02-11T14:17:16Z</time>
      </trkpt>
      <trkpt lat="24.914124567149738" lon="118.54266490205941">
        <ele>10.235128325410187</ele>
        <time>2025-02-11T14:17:22Z</time>
      </trkpt>
      <trkpt lat="24.914042610611006" lon="118.5427242724455">
        <ele>10.610476646572351</ele>
        <time>2025-02-11T14:17:25Z</time>
      </trkpt>
      <trkpt lat="24.91393759139238" lon="118.5427619698168">
        <ele>9.44504474569112</ele>
        <time>2025-02-11T14:17:28Z</time>
      </trkpt>
      <trkpt lat="24.91384051842603" lon="118.54282106445822">
        <ele>8.886030510999262</ele>
        <time>2025-02-11T14:17:31Z</time>
      </trkpt>
      <trkpt lat="24.913659048526288" lon="118.54284964162393">
        <ele>8.213717924430966</ele>
        <time>2025-02-11T14:17:37Z</time>
      </trkpt>
      <trkpt lat="24.91356688902893" lon="118.54288457148435">
        <ele>8.291724101640284</ele>
        <time>2025-02-11T14:17:40Z</time>
      </trkpt>
      <trkpt lat="24.91345721882525" lon="118.54289831583286">
        <ele>8.243690849281847</ele>
        <time>2025-02-11T14:17:43Z</time>
      </trkpt>
      <trkpt lat="24.91314536602077" lon="118.54289774379164">
        <ele>8.328740165568888</ele>
        <time>2025-02-11T14:17:52Z</time>
      </trkpt>
      <trkpt lat="24.91305417261274" lon="118.54289787373801">
        <ele>8.302886723540723</ele>
        <time>2025-02-11T14:17:55Z</time>
      </trkpt>
      <trkpt lat="24.912864686233295" lon="118.54293327086471">
        <ele>8.534386718645692</ele>
        <time>2025-02-11T14:18:01Z</time>
      </trkpt>
      <trkpt lat="24.91276017959894" lon="118.54292925008085">
        <ele>8.800579262897372</ele>
        <time>2025-02-11T14:18:04Z</time>
      </trkpt>
      <trkpt lat="24.91265818054527" lon="118.54295710563568">
        <ele>9.017092022113502</ele>
        <time>2025-02-11T14:18:07Z</time>
      </trkpt>
    </trkseg>
  </trk>
</gpx>