<?xml version="1.0" encoding="UTF-8"?>
<gpx xmlns="http://www.topografix.com/GPX/1/1" xmlns:gpxtpx="http://www.garmin.com/xmlschemas/TrackPointExtension/v1" xmlns:xsi="http://www.w3.org/2001/XMLSchema-instance" xsi:schemaLocation="http://www.topografix.com/GPX/1/1 http://www.topografix.com/GPX/1/1/gpx.xsd" version="1.1" creator="gpx.py -- https://github.com/tkrajina/gpxpy">
  <trk>
    <name>gpx from keep</name>
    <type>Ride</type>
    <trkseg>
      <trkpt lat="24.94597273176269" lon="118.58455992556362">
        <ele>10.051650849055132</ele>
        <time>2024-11-17T08:43:45Z</time>
      </trkpt>
      <trkpt lat="24.94592060539103" lon="118.58450450280164">
        <ele>10.067891749553382</ele>
        <time>2024-11-17T08:44:00Z</time>
      </trkpt>
      <trkpt lat="24.945757973827288" lon="118.58451789489125">
        <ele>10.25090878456831</ele>
        <time>2024-11-17T08:44:04Z</time>
      </trkpt>
      <trkpt lat="24.945685479594122" lon="118.58456765093136">
        <ele>10.582776915282011</ele>
        <time>2024-11-17T08:44:06Z</time>
      </trkpt>
      <trkpt lat="24.945515980784428" lon="118.58463528718578">
        <ele>10.984678816050291</ele>
        <time>2024-11-17T08:44:11Z</time>
      </trkpt>
      <trkpt lat="24.945414789300603" lon="118.58465389173568">
        <ele>11.051139324903488</ele>
        <time>2024-11-17T08:44:14Z</time>
      </trkpt>
      <trkpt lat="24.945110672391834" lon="118.58480748786472">
        <ele>12.011760384775698</ele>
        <time>2024-11-17T08:44:23Z</time>
      </trkpt>
      <trkpt lat="24.944938976236273" lon="118.58485617318188">
        <ele>12.738290597684681</ele>
        <time>2024-11-17T08:44:32Z</time>
      </trkpt>
      <trkpt lat="24.9445164759175" lon="118.58503954946227">
        <ele>12.364248138852417</ele>
        <time>2024-11-17T08:44:48Z</time>
      </trkpt>
      <trkpt lat="24.944104443849756" lon="118.58517514127043">
        <ele>12.347296731546521</ele>
        <time>2024-11-17T08:45:01Z</time>
      </trkpt>
      <trkpt lat="24.943632865503407" lon="118.58539546565218">
        <ele>12.871685944497585</ele>
        <time>2024-11-17T08:45:19Z</time>
      </trkpt>
      <trkpt lat="24.94318618912593" lon="118.58555476395749">
        <ele>11.727902675047517</ele>
        <time>2024-11-17T08:45:30Z</time>
      </trkpt>
      <trkpt lat="24.943099758333506" lon="118.58553949269586">
        <ele>11.889740412123501</ele>
        <time>2024-11-17T08:45:33Z</time>
      </trkpt>
      <trkpt lat="24.942701118729524" lon="118.58572957194211">
        <ele>12.861013223417103</ele>
        <time>2024-11-17T08:45:41Z</time>
      </trkpt>
      <trkpt lat="24.94251967714879" lon="118.58582047130028">
        <ele>12.00004537589848</ele>
        <time>2024-11-17T08:45:44Z</time>
      </trkpt>
      <trkpt lat="24.9421648882582" lon="118.58592783903029">
        <ele>11.528675559908152</ele>
        <time>2024-11-17T08:45:51Z</time>
      </trkpt>
      <trkpt lat="24.941763805682072" lon="118.58611454412865">
        <ele>11.806618202477694</ele>
        <time>2024-11-17T08:46:04Z</time>
      </trkpt>
      <trkpt lat="24.94163449207435" lon="118.58619815580559">
        <ele>11.944790177047253</ele>
        <time>2024-11-17T08:46:08Z</time>
      </trkpt>
      <trkpt lat="24.94128564588385" lon="118.58632438767569">
        <ele>11.34349691029638</ele>
        <time>2024-11-17T08:46:16Z</time>
      </trkpt>
      <trkpt lat="24.94109978482714" lon="118.5864069047145">
        <ele>12.384927252307534</ele>
        <time>2024-11-17T08:46:20Z</time>
      </trkpt>
      <trkpt lat="24.940660371268436" lon="118.58654621536844">
        <ele>11.632656190544367</ele>
        <time>2024-11-17T08:46:31Z</time>
      </trkpt>
      <trkpt lat="24.940499688205705" lon="118.58660558124477">
        <ele>11.539513017982244</ele>
        <time>2024-11-17T08:46:35Z</time>
      </trkpt>
      <trkpt lat="24.940269651644936" lon="118.58661813163434">
        <ele>10.498850271105766</ele>
        <time>2024-11-17T08:46:42Z</time>
      </trkpt>
      <trkpt lat="24.940241515419864" lon="118.58654450030606">
        <ele>9.999373199418187</ele>
        <time>2024-11-17T08:46:45Z</time>
      </trkpt>
      <trkpt lat="24.940136264952578" lon="118.58600626905076">
        <ele>9.579579413868487</ele>
        <time>2024-11-17T08:46:58Z</time>
      </trkpt>
      <trkpt lat="24.94001756111483" lon="118.5854911067194">
        <ele>10.618862788192928</ele>
        <time>2024-11-17T08:47:08Z</time>
      </trkpt>
      <trkpt lat="24.939962905198048" lon="118.58507138038442">
        <ele>9.435851811431348</ele>
        <time>2024-11-17T08:47:16Z</time>
      </trkpt>
      <trkpt lat="24.939897872466986" lon="118.58477200310502">
        <ele>9.857429488562047</ele>
        <time>2024-11-17T08:47:22Z</time>
      </trkpt>
      <trkpt lat="24.939886886122103" lon="118.58466026505569">
        <ele>10.046027351170778</ele>
        <time>2024-11-17T08:47:24Z</time>
      </trkpt>
      <trkpt lat="24.93984907700952" lon="118.5845537751355">
        <ele>10.677802507765591</ele>
        <time>2024-11-17T08:47:26Z</time>
      </trkpt>
      <trkpt lat="24.939845636081163" lon="118.58445068020451">
        <ele>10.000477904453874</ele>
        <time>2024-11-17T08:47:28Z</time>
      </trkpt>
      <trkpt lat="24.93977291127994" lon="118.58404873199444">
        <ele>10.236795810051262</ele>
        <time>2024-11-17T08:47:36Z</time>
      </trkpt>
      <trkpt lat="24.93973757893907" lon="118.58358129688688">
        <ele>10.467408644966781</ele>
        <time>2024-11-17T08:47:46Z</time>
      </trkpt>
      <trkpt lat="24.93978117459512" lon="118.58351489472247">
        <ele>11.097511150874197</ele>
        <time>2024-11-17T08:47:48Z</time>
      </trkpt>
      <trkpt lat="24.93985866690919" lon="118.58320810018077">
        <ele>11.577749743126333</ele>
        <time>2024-11-17T08:48:00Z</time>
      </trkpt>
      <trkpt lat="24.94000614440671" lon="118.5827342921696">
        <ele>11.00448798481375</ele>
        <time>2024-11-17T08:48:11Z</time>
      </trkpt>
      <trkpt lat="24.940022125070215" lon="118.58264394420848">
        <ele>10.647681984119117</ele>
        <time>2024-11-17T08:48:14Z</time>
      </trkpt>
      <trkpt lat="24.940068684147935" lon="118.5825777752179">
        <ele>10.652822907082736</ele>
        <time>2024-11-17T08:48:17Z</time>
      </trkpt>
      <trkpt lat="24.94016830301967" lon="118.58221569014651">
        <ele>10.713610001839697</ele>
        <time>2024-11-17T08:48:26Z</time>
      </trkpt>
      <trkpt lat="24.940209489113506" lon="118.58212995674037">
        <ele>10.489322651177645</ele>
        <time>2024-11-17T08:48:28Z</time>
      </trkpt>
      <trkpt lat="24.940294560319316" lon="118.58185546304212">
        <ele>10.117593654431403</ele>
        <time>2024-11-17T08:48:34Z</time>
      </trkpt>
      <trkpt lat="24.940445979982783" lon="118.58143033210426">
        <ele>10.540010041557252</ele>
        <time>2024-11-17T08:48:44Z</time>
      </trkpt>
      <trkpt lat="24.940493883870772" lon="118.58135963759003">
        <ele>10.550046277232468</ele>
        <time>2024-11-17T08:48:46Z</time>
      </trkpt>
      <trkpt lat="24.940606683288948" lon="118.58107131557998">
        <ele>10.885103171691298</ele>
        <time>2024-11-17T08:48:52Z</time>
      </trkpt>
      <trkpt lat="24.940661174380846" lon="118.58084476936764">
        <ele>10.715706407092512</ele>
        <time>2024-11-17T08:48:56Z</time>
      </trkpt>
      <trkpt lat="24.940715126579494" lon="118.58072171933418">
        <ele>10.670294356532395</ele>
        <time>2024-11-17T08:48:58Z</time>
      </trkpt>
      <trkpt lat="24.94080285046811" lon="118.580362487997">
        <ele>11.398759374395013</ele>
        <time>2024-11-17T08:49:04Z</time>
      </trkpt>
      <trkpt lat="24.940962609825625" lon="118.57991851253544">
        <ele>10.529971411451697</ele>
        <time>2024-11-17T08:49:12Z</time>
      </trkpt>
      <trkpt lat="24.941066796101396" lon="118.57957971838137">
        <ele>10.626946092583239</ele>
        <time>2024-11-17T08:49:18Z</time>
      </trkpt>
      <trkpt lat="24.941194252458146" lon="118.57929305666288">
        <ele>9.924397746101022</ele>
        <time>2024-11-17T08:49:24Z</time>
      </trkpt>
      <trkpt lat="24.94135048691805" lon="118.57885034189027">
        <ele>10.275545024313033</ele>
        <time>2024-11-17T08:49:32Z</time>
      </trkpt>
      <trkpt lat="24.941428212277387" lon="118.57855385835035">
        <ele>10.965890291146934</ele>
        <time>2024-11-17T08:49:38Z</time>
      </trkpt>
      <trkpt lat="24.94163513300844" lon="118.57807420025114">
        <ele>12.02426196448505</ele>
        <time>2024-11-17T08:49:49Z</time>
      </trkpt>
      <trkpt lat="24.94167640972994" lon="118.57799063774651">
        <ele>11.272266436368227</ele>
        <time>2024-11-17T08:49:51Z</time>
      </trkpt>
      <trkpt lat="24.94181728911174" lon="118.57755167271881">
        <ele>10.817350972443819</ele>
        <time>2024-11-17T08:50:09Z</time>
      </trkpt>
      <trkpt lat="24.941819505064938" lon="118.57746339488345">
        <ele>10.421019135043025</ele>
        <time>2024-11-17T08:50:28Z</time>
      </trkpt>
      <trkpt lat="24.941919618941146" lon="118.57721006111834">
        <ele>10.596867850981653</ele>
        <time>2024-11-17T08:50:54Z</time>
      </trkpt>
      <trkpt lat="24.94200140593134" lon="118.57687418863546">
        <ele>10.637468826025724</ele>
        <time>2024-11-17T08:51:10Z</time>
      </trkpt>
      <trkpt lat="24.941986504114755" lon="118.57667552915963">
        <ele>10.588555593043566</ele>
        <time>2024-11-17T08:51:16Z</time>
      </trkpt>
      <trkpt lat="24.94192854419766" lon="118.57651820072127">
        <ele>9.953134772367775</ele>
        <time>2024-11-17T08:51:20Z</time>
      </trkpt>
      <trkpt lat="24.941874912232954" lon="118.57643423855471">
        <ele>10.097717749886215</ele>
        <time>2024-11-17T08:51:23Z</time>
      </trkpt>
      <trkpt lat="24.941798837283223" lon="118.57637198050816">
        <ele>10.684490495361388</ele>
        <time>2024-11-17T08:51:26Z</time>
      </trkpt>
      <trkpt lat="24.94153213025917" lon="118.57595028464439">
        <ele>10.053360936231911</ele>
        <time>2024-11-17T08:51:37Z</time>
      </trkpt>
      <trkpt lat="24.941287524237264" lon="118.57554975309095">
        <ele>9.970382766798139</ele>
        <time>2024-11-17T08:51:47Z</time>
      </trkpt>
      <trkpt lat="24.94123940852399" lon="118.57536206976846">
        <ele>10.60585602466017</ele>
        <time>2024-11-17T08:51:51Z</time>
      </trkpt>
      <trkpt lat="24.94102033544936" lon="118.57502040372376">
        <ele>10.17291671410203</ele>
        <time>2024-11-17T08:52:00Z</time>
      </trkpt>
      <trkpt lat="24.94094774122376" lon="118.5749397545478">
        <ele>10.226069115102291</ele>
        <time>2024-11-17T08:52:02Z</time>
      </trkpt>
      <trkpt lat="24.940816296401472" lon="118.5747261067775">
        <ele>10.376041231676936</ele>
        <time>2024-11-17T08:52:07Z</time>
      </trkpt>
      <trkpt lat="24.940644145469488" lon="118.5745388895693">
        <ele>11.042125815525651</ele>
        <time>2024-11-17T08:52:14Z</time>
      </trkpt>
      <trkpt lat="24.940568252046937" lon="118.57453907804205">
        <ele>12.400871492922306</ele>
        <time>2024-11-17T08:52:18Z</time>
      </trkpt>
      <trkpt lat="24.940498542601034" lon="118.5745652663314">
        <ele>11.737855354323983</ele>
        <time>2024-11-17T08:52:39Z</time>
      </trkpt>
      <trkpt lat="24.940423181176037" lon="118.57456424551654">
        <ele>11.66254529170692</ele>
        <time>2024-11-17T08:53:12Z</time>
      </trkpt>
      <trkpt lat="24.94036747024687" lon="118.57461732046686">
        <ele>11.822915864177048</ele>
        <time>2024-11-17T08:53:14Z</time>
      </trkpt>
      <trkpt lat="24.940079129233816" lon="118.57472487626083">
        <ele>10.929601072333753</ele>
        <time>2024-11-17T08:53:21Z</time>
      </trkpt>
      <trkpt lat="24.939967504010234" lon="118.57474637170994">
        <ele>11.117431151680648</ele>
        <time>2024-11-17T08:53:23Z</time>
      </trkpt>
      <trkpt lat="24.939778057881746" lon="118.57483554503293">
        <ele>12.035493390634656</ele>
        <time>2024-11-17T08:53:27Z</time>
      </trkpt>
      <trkpt lat="24.93969325037519" lon="118.5748357850358">
        <ele>10.555734726600349</ele>
        <time>2024-11-17T08:53:29Z</time>
      </trkpt>
      <trkpt lat="24.939601979341358" lon="118.57480788915012">
        <ele>10.259441348724067</ele>
        <time>2024-11-17T08:53:31Z</time>
      </trkpt>
      <trkpt lat="24.939412316481995" lon="118.57479841368537">
        <ele>11.563059776090086</ele>
        <time>2024-11-17T08:53:35Z</time>
      </trkpt>
      <trkpt lat="24.939317301298434" lon="118.57475510129674">
        <ele>11.689703101292253</ele>
        <time>2024-11-17T08:53:37Z</time>
      </trkpt>
      <trkpt lat="24.939213283850837" lon="118.57473841370046">
        <ele>11.42323924601078</ele>
        <time>2024-11-17T08:53:39Z</time>
      </trkpt>
      <trkpt lat="24.93875986173707" lon="118.57452506616256">
        <ele>10.414441769011319</ele>
        <time>2024-11-17T08:53:49Z</time>
      </trkpt>
      <trkpt lat="24.93865743328948" lon="118.57448434524547">
        <ele>10.506669217720628</ele>
        <time>2024-11-17T08:53:52Z</time>
      </trkpt>
      <trkpt lat="24.93844466987416" lon="118.5743270179561">
        <ele>9.64232546556741</ele>
        <time>2024-11-17T08:54:00Z</time>
      </trkpt>
      <trkpt lat="24.938364345447877" lon="118.57430201963105">
        <ele>11.362184329889715</ele>
        <time>2024-11-17T08:54:14Z</time>
      </trkpt>
      <trkpt lat="24.93820114348752" lon="118.57420188022405">
        <ele>11.062648723833263</ele>
        <time>2024-11-17T08:55:09Z</time>
      </trkpt>
      <trkpt lat="24.93815901618053" lon="118.57413050623222">
        <ele>11.83134924992919</ele>
        <time>2024-11-17T08:55:11Z</time>
      </trkpt>
      <trkpt lat="24.938084524373735" lon="118.57409435760896">
        <ele>12.293051055632532</ele>
        <time>2024-11-17T08:55:13Z</time>
      </trkpt>
      <trkpt lat="24.938011885129605" lon="118.57408940550737">
        <ele>11.675762991420925</ele>
        <time>2024-11-17T08:55:15Z</time>
      </trkpt>
      <trkpt lat="24.937857842575518" lon="118.57401799411873">
        <ele>11.481416398659348</ele>
        <time>2024-11-17T08:55:19Z</time>
      </trkpt>
      <trkpt lat="24.937509348623422" lon="118.57390509543748">
        <ele>13.787326246500015</ele>
        <time>2024-11-17T08:55:27Z</time>
      </trkpt>
      <trkpt lat="24.937323248999334" lon="118.57377041701915">
        <ele>13.77742552664131</ele>
        <time>2024-11-17T08:55:31Z</time>
      </trkpt>
      <trkpt lat="24.93717686074913" lon="118.57371366556642">
        <ele>11.992530365474522</ele>
        <time>2024-11-17T08:55:33Z</time>
      </trkpt>
      <trkpt lat="24.93677892899916" lon="118.57350303793864">
        <ele>13.522077697329223</ele>
        <time>2024-11-17T08:55:41Z</time>
      </trkpt>
      <trkpt lat="24.93634619205924" lon="118.57328293723542">
        <ele>14.208002215251327</ele>
        <time>2024-11-17T08:55:51Z</time>
      </trkpt>
      <trkpt lat="24.93599257089049" lon="118.57315217458378">
        <ele>14.854197211563587</ele>
        <time>2024-11-17T08:56:00Z</time>
      </trkpt>
      <trkpt lat="24.93591993677568" lon="118.57310338352038">
        <ele>14.71609789505601</ele>
        <time>2024-11-17T08:56:02Z</time>
      </trkpt>
      <trkpt lat="24.935827456508292" lon="118.5730809334268">
        <ele>15.497623016126454</ele>
        <time>2024-11-17T08:56:04Z</time>
      </trkpt>
      <trkpt lat="24.935557025481653" lon="118.57292677150724">
        <ele>15.350484943948686</ele>
        <time>2024-11-17T08:56:10Z</time>
      </trkpt>
      <trkpt lat="24.935450692511665" lon="118.57290568058599">
        <ele>15.941380730830133</ele>
        <time>2024-11-17T08:56:12Z</time>
      </trkpt>
      <trkpt lat="24.93536022858027" lon="118.57286027327758">
        <ele>15.097174170427024</ele>
        <time>2024-11-17T08:56:14Z</time>
      </trkpt>
      <trkpt lat="24.93524555627091" lon="118.5727695047644">
        <ele>15.654949044808745</ele>
        <time>2024-11-17T08:56:17Z</time>
      </trkpt>
      <trkpt lat="24.935076980632008" lon="118.57270347571628">
        <ele>15.219864008016884</ele>
        <time>2024-11-17T08:56:20Z</time>
      </trkpt>
      <trkpt lat="24.93496274115606" lon="118.57268109799423">
        <ele>15.083455947227776</ele>
        <time>2024-11-17T08:56:23Z</time>
      </trkpt>
      <trkpt lat="24.934771068348386" lon="118.57260225711859">
        <ele>14.735730762593448</ele>
        <time>2024-11-17T08:56:28Z</time>
      </trkpt>
      <trkpt lat="24.934613563919086" lon="118.5725069814457">
        <ele>14.594856364652514</ele>
        <time>2024-11-17T08:56:34Z</time>
      </trkpt>
      <trkpt lat="24.93442858293984" lon="118.57244134004321">
        <ele>14.11739531159401</ele>
        <time>2024-11-17T08:56:42Z</time>
      </trkpt>
      <trkpt lat="24.934321714549455" lon="118.57235210896808">
        <ele>13.185134164988995</ele>
        <time>2024-11-17T08:56:44Z</time>
      </trkpt>
      <trkpt lat="24.934207586448487" lon="118.57229795254709">
        <ele>14.790014311671257</ele>
        <time>2024-11-17T08:56:46Z</time>
      </trkpt>
      <trkpt lat="24.93408166705139" lon="118.5721992533009">
        <ele>13.867816679179668</ele>
        <time>2024-11-17T08:56:48Z</time>
      </trkpt>
      <trkpt lat="24.933881645839353" lon="118.57216446009225">
        <ele>13.4101625951007</ele>
        <time>2024-11-17T08:56:51Z</time>
      </trkpt>
      <trkpt lat="24.933589408420353" lon="118.57197921101334">
        <ele>12.551990501582623</ele>
        <time>2024-11-17T08:56:57Z</time>
      </trkpt>
      <trkpt lat="24.93348201729479" lon="118.57194453117721">
        <ele>13.682469179853797</ele>
        <time>2024-11-17T08:56:59Z</time>
      </trkpt>
      <trkpt lat="24.933085516945553" lon="118.57175482636433">
        <ele>12.819762990809977</ele>
        <time>2024-11-17T08:57:07Z</time>
      </trkpt>
      <trkpt lat="24.93302170989653" lon="118.571707171669">
        <ele>13.349698927253485</ele>
        <time>2024-11-17T08:57:09Z</time>
      </trkpt>
      <trkpt lat="24.932766530531385" lon="118.57162375741031">
        <ele>13.35482950694859</ele>
        <time>2024-11-17T08:57:16Z</time>
      </trkpt>
      <trkpt lat="24.93269279487438" lon="118.57157723988992">
        <ele>13.018494580872357</ele>
        <time>2024-11-17T08:57:18Z</time>
      </trkpt>
      <trkpt lat="24.932602098751087" lon="118.57155448793183">
        <ele>12.667833480983973</ele>
        <time>2024-11-17T08:57:20Z</time>
      </trkpt>
      <trkpt lat="24.932500443657986" lon="118.57149827330625">
        <ele>12.50397832505405</ele>
        <time>2024-11-17T08:57:23Z</time>
      </trkpt>
      <trkpt lat="24.932320456473413" lon="118.57142472086228">
        <ele>13.313655401580036</ele>
        <time>2024-11-17T08:57:28Z</time>
      </trkpt>
      <trkpt lat="24.931870309113492" lon="118.5711463170014">
        <ele>12.275406993925571</ele>
        <time>2024-11-17T08:57:40Z</time>
      </trkpt>
      <trkpt lat="24.931467926763823" lon="118.570893054428">
        <ele>12.947572380304337</ele>
        <time>2024-11-17T08:57:51Z</time>
      </trkpt>
      <trkpt lat="24.93142129654572" lon="118.57082315902126">
        <ele>13.171670082956553</ele>
        <time>2024-11-17T08:57:54Z</time>
      </trkpt>
      <trkpt lat="24.93136667137013" lon="118.57065826071015">
        <ele>12.826119643636048</ele>
        <time>2024-11-17T08:58:02Z</time>
      </trkpt>
      <trkpt lat="24.931355713574607" lon="118.57055879490079">
        <ele>13.498846308328211</ele>
        <time>2024-11-17T08:58:05Z</time>
      </trkpt>
      <trkpt lat="24.931305500139796" lon="118.57045577472452">
        <ele>13.426514615304768</ele>
        <time>2024-11-17T08:58:07Z</time>
      </trkpt>
      <trkpt lat="24.931155903196906" lon="118.57025159151328">
        <ele>12.89105839189142</ele>
        <time>2024-11-17T08:58:11Z</time>
      </trkpt>
      <trkpt lat="24.931102955480437" lon="118.57015013435084">
        <ele>12.779488667845726</ele>
        <time>2024-11-17T08:58:13Z</time>
      </trkpt>
      <trkpt lat="24.93086106653114" lon="118.56979600912331">
        <ele>13.617602983489633</ele>
        <time>2024-11-17T08:58:21Z</time>
      </trkpt>
      <trkpt lat="24.93057874957319" lon="118.5694131159362">
        <ele>12.587621656246483</ele>
        <time>2024-11-17T08:58:30Z</time>
      </trkpt>
      <trkpt lat="24.930428397542528" lon="118.56924277578419">
        <ele>11.868584534153342</ele>
        <time>2024-11-17T08:58:35Z</time>
      </trkpt>
      <trkpt lat="24.930311083286615" lon="118.56899629631589">
        <ele>12.152365400455892</ele>
        <time>2024-11-17T08:58:41Z</time>
      </trkpt>
      <trkpt lat="24.93020165997426" lon="118.56883369518752">
        <ele>10.95604458451271</ele>
        <time>2024-11-17T08:58:45Z</time>
      </trkpt>
      <trkpt lat="24.930148562524607" lon="118.56864905009381">
        <ele>10.488688359037042</ele>
        <time>2024-11-17T08:58:49Z</time>
      </trkpt>
      <trkpt lat="24.93007845738558" lon="118.56846108652879">
        <ele>9.623424114659429</ele>
        <time>2024-11-17T08:58:53Z</time>
      </trkpt>
      <trkpt lat="24.930058293917813" lon="118.5682851010096">
        <ele>9.629941230639815</ele>
        <time>2024-11-17T08:58:57Z</time>
      </trkpt>
      <trkpt lat="24.929974938006055" lon="118.568136379989">
        <ele>9.871158556081355</ele>
        <time>2024-11-17T08:59:03Z</time>
      </trkpt>
      <trkpt lat="24.92984848306784" lon="118.56801415777673">
        <ele>10.228276405483484</ele>
        <time>2024-11-17T08:59:07Z</time>
      </trkpt>
      <trkpt lat="24.929652785280613" lon="118.56794855298268">
        <ele>10.503568393178284</ele>
        <time>2024-11-17T08:59:11Z</time>
      </trkpt>
      <trkpt lat="24.92933023627425" lon="118.5679526497602">
        <ele>10.532266769558191</ele>
        <time>2024-11-17T08:59:17Z</time>
      </trkpt>
      <trkpt lat="24.929021511643395" lon="118.5679937106579">
        <ele>9.337210099212825</ele>
        <time>2024-11-17T08:59:23Z</time>
      </trkpt>
      <trkpt lat="24.928816225550026" lon="118.5679924462241">
        <ele>9.530395498499274</ele>
        <time>2024-11-17T08:59:27Z</time>
      </trkpt>
      <trkpt lat="24.92832890249991" lon="118.56803647836901">
        <ele>9.469232914038002</ele>
        <time>2024-11-17T08:59:37Z</time>
      </trkpt>
      <trkpt lat="24.928252878957384" lon="118.568036752508">
        <ele>9.511287515051663</ele>
        <time>2024-11-17T08:59:41Z</time>
      </trkpt>
      <trkpt lat="24.9281999375699" lon="118.56783463671987">
        <ele>10.54829955007881</ele>
        <time>2024-11-17T09:00:45Z</time>
      </trkpt>
      <trkpt lat="24.928125163776684" lon="118.56777617630945">
        <ele>9.766748663038015</ele>
        <time>2024-11-17T09:00:47Z</time>
      </trkpt>
      <trkpt lat="24.928014556915" lon="118.56779289032012">
        <ele>10.243398116901517</ele>
        <time>2024-11-17T09:00:49Z</time>
      </trkpt>
      <trkpt lat="24.927718095435697" lon="118.56775760517304">
        <ele>9.386393181048334</ele>
        <time>2024-11-17T09:00:55Z</time>
      </trkpt>
      <trkpt lat="24.927422259205475" lon="118.56782514647071">
        <ele>9.618795051239431</ele>
        <time>2024-11-17T09:01:01Z</time>
      </trkpt>
      <trkpt lat="24.926884036653675" lon="118.56786950067071">
        <ele>9.453326907940209</ele>
        <time>2024-11-17T09:01:11Z</time>
      </trkpt>
      <trkpt lat="24.926454911980223" lon="118.56789055599845">
        <ele>9.12170810252428</ele>
        <time>2024-11-17T09:01:19Z</time>
      </trkpt>
      <trkpt lat="24.92592233222177" lon="118.56794831418571">
        <ele>9.362560626119375</ele>
        <time>2024-11-17T09:01:29Z</time>
      </trkpt>
      <trkpt lat="24.925412557099197" lon="118.56798123889692">
        <ele>9.297816207632422</ele>
        <time>2024-11-17T09:01:39Z</time>
      </trkpt>
      <trkpt lat="24.92523452434145" lon="118.56800882881059">
        <ele>9.535490109585226</ele>
        <time>2024-11-17T09:01:44Z</time>
      </trkpt>
      <trkpt lat="24.925166675932044" lon="118.56804672314728">
        <ele>9.712414861656725</ele>
        <time>2024-11-17T09:01:47Z</time>
      </trkpt>
      <trkpt lat="24.92506296278472" lon="118.56801285832901">
        <ele>10.506558503955603</ele>
        <time>2024-11-17T09:01:50Z</time>
      </trkpt>
      <trkpt lat="24.924618806377538" lon="118.56806543976039">
        <ele>9.463882561773062</ele>
        <time>2024-11-17T09:01:58Z</time>
      </trkpt>
      <trkpt lat="24.92413851021837" lon="118.5680861451615">
        <ele>11.588273634202778</ele>
        <time>2024-11-17T09:02:06Z</time>
      </trkpt>
      <trkpt lat="24.923632420932815" lon="118.56813202845373">
        <ele>9.361511840485036</ele>
        <time>2024-11-17T09:02:14Z</time>
      </trkpt>
      <trkpt lat="24.9231586848308" lon="118.56817331711771">
        <ele>9.856774002313614</ele>
        <time>2024-11-17T09:02:22Z</time>
      </trkpt>
      <trkpt lat="24.92278910185564" lon="118.56822032938138">
        <ele>9.718353049829602</ele>
        <time>2024-11-17T09:02:28Z</time>
      </trkpt>
      <trkpt lat="24.922307692455295" lon="118.5682545441246">
        <ele>7.65800760127604</ele>
        <time>2024-11-17T09:02:36Z</time>
      </trkpt>
      <trkpt lat="24.921867966875705" lon="118.56828643676086">
        <ele>7.667932248674333</ele>
        <time>2024-11-17T09:02:44Z</time>
      </trkpt>
      <trkpt lat="24.921518508018508" lon="118.56829904762367">
        <ele>8.612722717225552</ele>
        <time>2024-11-17T09:02:50Z</time>
      </trkpt>
      <trkpt lat="24.921290189455174" lon="118.56827504147662">
        <ele>8.576375244185328</ele>
        <time>2024-11-17T09:02:54Z</time>
      </trkpt>
      <trkpt lat="24.9211776453724" lon="118.56828685967243">
        <ele>7.685230385512114</ele>
        <time>2024-11-17T09:02:56Z</time>
      </trkpt>
      <trkpt lat="24.920874025569017" lon="118.56836402538548">
        <ele>8.33911329228431</ele>
        <time>2024-11-17T09:03:02Z</time>
      </trkpt>
      <trkpt lat="24.920333411622224" lon="118.56844237085608">
        <ele>6.949493148364127</ele>
        <time>2024-11-17T09:03:12Z</time>
      </trkpt>
      <trkpt lat="24.919909333348627" lon="118.56854254222745">
        <ele>7.696425232104957</ele>
        <time>2024-11-17T09:03:20Z</time>
      </trkpt>
      <trkpt lat="24.919698483397006" lon="118.56858553883791">
        <ele>7.510768371634185</ele>
        <time>2024-11-17T09:03:24Z</time>
      </trkpt>
      <trkpt lat="24.91929370388305" lon="118.56871932093397">
        <ele>9.867320384830236</ele>
        <time>2024-11-17T09:03:32Z</time>
      </trkpt>
      <trkpt lat="24.918925825554364" lon="118.56884381643208">
        <ele>11.503499730490148</ele>
        <time>2024-11-17T09:03:40Z</time>
      </trkpt>
      <trkpt lat="24.918830435157542" lon="118.56885413644625">
        <ele>9.053643143735826</ele>
        <time>2024-11-17T09:03:42Z</time>
      </trkpt>
      <trkpt lat="24.918756141996028" lon="118.5688913256407">
        <ele>10.084136684425175</ele>
        <time>2024-11-17T09:03:44Z</time>
      </trkpt>
      <trkpt lat="24.918276854124336" lon="118.5690569606713">
        <ele>11.219004360027611</ele>
        <time>2024-11-17T09:03:55Z</time>
      </trkpt>
      <trkpt lat="24.917887916588732" lon="118.56914336367645">
        <ele>10.598267533816397</ele>
        <time>2024-11-17T09:04:03Z</time>
      </trkpt>
      <trkpt lat="24.917813624403294" lon="118.56913535240865">
        <ele>10.506539045833051</ele>
        <time>2024-11-17T09:04:05Z</time>
      </trkpt>
      <trkpt lat="24.917681792145288" lon="118.569042777748">
        <ele>10.39624548330903</ele>
        <time>2024-11-17T09:04:11Z</time>
      </trkpt>
      <trkpt lat="24.91761871407608" lon="118.56896366281552">
        <ele>10.35953202471137</ele>
        <time>2024-11-17T09:04:15Z</time>
      </trkpt>
      <trkpt lat="24.91758839753125" lon="118.5688013145204">
        <ele>10.799490277655423</ele>
        <time>2024-11-17T09:04:20Z</time>
      </trkpt>
      <trkpt lat="24.917585639248042" lon="118.568631090063">
        <ele>9.796274743974209</ele>
        <time>2024-11-17T09:04:24Z</time>
      </trkpt>
      <trkpt lat="24.91755755908177" lon="118.56854782842987">
        <ele>9.953212075866759</ele>
        <time>2024-11-17T09:04:26Z</time>
      </trkpt>
      <trkpt lat="24.917573729946586" lon="118.5684631379463">
        <ele>11.000778200104833</ele>
        <time>2024-11-17T09:04:28Z</time>
      </trkpt>
      <trkpt lat="24.91756381545611" lon="118.5683782696809">
        <ele>10.448035803623497</ele>
        <time>2024-11-17T09:04:30Z</time>
      </trkpt>
      <trkpt lat="24.917584726381783" lon="118.56825337071619">
        <ele>10.257812178693712</ele>
        <time>2024-11-17T09:04:33Z</time>
      </trkpt>
      <trkpt lat="24.91761149505295" lon="118.56777014061527">
        <ele>10.794472077861428</ele>
        <time>2024-11-17T09:04:43Z</time>
      </trkpt>
      <trkpt lat="24.91762459911907" lon="118.56722605750625">
        <ele>10.058438105508685</ele>
        <time>2024-11-17T09:04:53Z</time>
      </trkpt>
      <trkpt lat="24.91763840519015" lon="118.56714082476304">
        <ele>9.769451439380646</ele>
        <time>2024-11-17T09:05:00Z</time>
      </trkpt>
      <trkpt lat="24.91762062038739" lon="118.56706165140012">
        <ele>8.471366157755256</ele>
        <time>2024-11-17T09:05:10Z</time>
      </trkpt>
      <trkpt lat="24.917648715165722" lon="118.56697375548848">
        <ele>8.702175568789244</ele>
        <time>2024-11-17T09:05:13Z</time>
      </trkpt>
      <trkpt lat="24.91765216819659" lon="118.56641804273019">
        <ele>9.412968927063048</ele>
        <time>2024-11-17T09:05:23Z</time>
      </trkpt>
      <trkpt lat="24.91768424245396" lon="118.56593369932243">
        <ele>10.356694766320288</ele>
        <time>2024-11-17T09:05:31Z</time>
      </trkpt>
      <trkpt lat="24.91759989771781" lon="118.56535636997974">
        <ele>9.807062160223722</ele>
        <time>2024-11-17T09:05:41Z</time>
      </trkpt>
      <trkpt lat="24.917530450244886" lon="118.56489268160105">
        <ele>10.494428590871394</ele>
        <time>2024-11-17T09:05:54Z</time>
      </trkpt>
      <trkpt lat="24.917391669519905" lon="118.56452752975089">
        <ele>10.918629303574562</ele>
        <time>2024-11-17T09:06:07Z</time>
      </trkpt>
      <trkpt lat="24.917222583057722" lon="118.56422821055341">
        <ele>10.474144015461206</ele>
        <time>2024-11-17T09:06:25Z</time>
      </trkpt>
      <trkpt lat="24.91716690670971" lon="118.56415369002981">
        <ele>10.806970810517669</ele>
        <time>2024-11-17T09:06:31Z</time>
      </trkpt>
      <trkpt lat="24.91708934963715" lon="118.56411217452849">
        <ele>10.906350435689092</ele>
        <time>2024-11-17T09:06:35Z</time>
      </trkpt>
      <trkpt lat="24.917048640936454" lon="118.56404044743174">
        <ele>10.716790445148945</ele>
        <time>2024-11-17T09:06:38Z</time>
      </trkpt>
      <trkpt lat="24.916918812724408" lon="118.56391427957985">
        <ele>11.269836357794702</ele>
        <time>2024-11-17T09:06:47Z</time>
      </trkpt>
      <trkpt lat="24.916817720959617" lon="118.56373830697983">
        <ele>11.50854567438364</ele>
        <time>2024-11-17T09:06:54Z</time>
      </trkpt>
      <trkpt lat="24.91676324907476" lon="118.56367646229998">
        <ele>11.963778828270733</ele>
        <time>2024-11-17T09:06:57Z</time>
      </trkpt>
      <trkpt lat="24.91674254503114" lon="118.56357479375262">
        <ele>11.265862627886236</ele>
        <time>2024-11-17T09:07:00Z</time>
      </trkpt>
      <trkpt lat="24.916406668966584" lon="118.56314629869924">
        <ele>11.815441180951893</ele>
        <time>2024-11-17T09:07:13Z</time>
      </trkpt>
      <trkpt lat="24.916099979615336" lon="118.56272392607337">
        <ele>11.916561170481145</ele>
        <time>2024-11-17T09:07:23Z</time>
      </trkpt>
      <trkpt lat="24.915802321325597" lon="118.56229143023113">
        <ele>6.9293405041098595</ele>
        <time>2024-11-17T09:07:31Z</time>
      </trkpt>
      <trkpt lat="24.915648419364366" lon="118.56207750286492">
        <ele>6.106565465219319</ele>
        <time>2024-11-17T09:07:35Z</time>
      </trkpt>
      <trkpt lat="24.91536239612513" lon="118.5616449109507">
        <ele>3.9104077657684684</ele>
        <time>2024-11-17T09:07:43Z</time>
      </trkpt>
      <trkpt lat="24.915056916461992" lon="118.56120874215252">
        <ele>5.286077035591006</ele>
        <time>2024-11-17T09:07:53Z</time>
      </trkpt>
      <trkpt lat="24.914854750139494" lon="118.56091889546117">
        <ele>5.825383330695331</ele>
        <time>2024-11-17T09:08:04Z</time>
      </trkpt>
      <trkpt lat="24.914608677114717" lon="118.56051476003604">
        <ele>11.074031186290085</ele>
        <time>2024-11-17T09:08:20Z</time>
      </trkpt>
      <trkpt lat="24.914443725243746" lon="118.56023915613126">
        <ele>11.484836354851723</ele>
        <time>2024-11-17T09:08:27Z</time>
      </trkpt>
      <trkpt lat="24.914411212827662" lon="118.56014418517316">
        <ele>12.762236426584423</ele>
        <time>2024-11-17T09:08:29Z</time>
      </trkpt>
      <trkpt lat="24.91425038169221" lon="118.55992924048185">
        <ele>12.684237747453153</ele>
        <time>2024-11-17T09:08:35Z</time>
      </trkpt>
      <trkpt lat="24.91419993131159" lon="118.55983530022078">
        <ele>12.958557393401861</ele>
        <time>2024-11-17T09:08:37Z</time>
      </trkpt>
      <trkpt lat="24.914128845059103" lon="118.55974821821458">
        <ele>12.649966975674033</ele>
        <time>2024-11-17T09:08:39Z</time>
      </trkpt>
      <trkpt lat="24.91406994625939" lon="118.55964224604716">
        <ele>13.113306530751288</ele>
        <time>2024-11-17T09:08:41Z</time>
      </trkpt>
      <trkpt lat="24.914004848968684" lon="118.55957178102823">
        <ele>13.154777489602566</ele>
        <time>2024-11-17T09:08:43Z</time>
      </trkpt>
      <trkpt lat="24.913907569491467" lon="118.55941190552909">
        <ele>14.258311904966831</ele>
        <time>2024-11-17T09:08:47Z</time>
      </trkpt>
      <trkpt lat="24.913762593990246" lon="118.55928916772487">
        <ele>15.314033355563879</ele>
        <time>2024-11-17T09:08:51Z</time>
      </trkpt>
      <trkpt lat="24.913727763438715" lon="118.55917939118704">
        <ele>14.837127541191876</ele>
        <time>2024-11-17T09:08:53Z</time>
      </trkpt>
      <trkpt lat="24.91365470440468" lon="118.5590655985175">
        <ele>14.738256452605128</ele>
        <time>2024-11-17T09:08:56Z</time>
      </trkpt>
      <trkpt lat="24.91363995912998" lon="118.5589850889688">
        <ele>15.520998139865696</ele>
        <time>2024-11-17T09:08:57Z</time>
      </trkpt>
      <trkpt lat="24.91353979165865" lon="118.55879959522436">
        <ele>16.020715880207717</ele>
        <time>2024-11-17T09:09:00Z</time>
      </trkpt>
      <trkpt lat="24.913446003398946" lon="118.55853286812467">
        <ele>14.308884162455797</ele>
        <time>2024-11-17T09:09:06Z</time>
      </trkpt>
      <trkpt lat="24.913442676248824" lon="118.55844914759902">
        <ele>12.752930647693574</ele>
        <time>2024-11-17T09:09:09Z</time>
      </trkpt>
      <trkpt lat="24.91338335744358" lon="118.55837973814133">
        <ele>14.154917946085334</ele>
        <time>2024-11-17T09:09:15Z</time>
      </trkpt>
      <trkpt lat="24.913225790853303" lon="118.55834157253052">
        <ele>13.073477195575833</ele>
        <time>2024-11-17T09:09:49Z</time>
      </trkpt>
      <trkpt lat="24.9130864619565" lon="118.55812857787606">
        <ele>11.796668843366206</ele>
        <time>2024-11-17T09:10:42Z</time>
      </trkpt>
      <trkpt lat="24.91304468358212" lon="118.55795995796193">
        <ele>10.892328920774162</ele>
        <time>2024-11-17T09:10:49Z</time>
      </trkpt>
      <trkpt lat="24.91289224761931" lon="118.55782544328639">
        <ele>9.550587391480803</ele>
        <time>2024-11-17T09:10:54Z</time>
      </trkpt>
      <trkpt lat="24.912681101007056" lon="118.55730181357619">
        <ele>8.788442689925432</ele>
        <time>2024-11-17T09:11:05Z</time>
      </trkpt>
      <trkpt lat="24.912501239115407" lon="118.55685173812549">
        <ele>8.738973257131875</ele>
        <time>2024-11-17T09:11:15Z</time>
      </trkpt>
      <trkpt lat="24.912328697766924" lon="118.55638325916455">
        <ele>6.881956608965993</ele>
        <time>2024-11-17T09:11:24Z</time>
      </trkpt>
      <trkpt lat="24.912265061486337" lon="118.55610367195969">
        <ele>6.660904232412577</ele>
        <time>2024-11-17T09:11:33Z</time>
      </trkpt>
      <trkpt lat="24.912128532680605" lon="118.55562410501827">
        <ele>7.161610192619264</ele>
        <time>2024-11-17T09:11:43Z</time>
      </trkpt>
      <trkpt lat="24.911929804172868" lon="118.55524270084626">
        <ele>8.245826574973762</ele>
        <time>2024-11-17T09:11:52Z</time>
      </trkpt>
      <trkpt lat="24.9118423870104" lon="118.55500023087498">
        <ele>8.336854048073292</ele>
        <time>2024-11-17T09:11:56Z</time>
      </trkpt>
      <trkpt lat="24.91178438989714" lon="118.55466695902909">
        <ele>8.114388518966734</ele>
        <time>2024-11-17T09:12:03Z</time>
      </trkpt>
      <trkpt lat="24.911705734857016" lon="118.55449798979122">
        <ele>9.037705942988396</ele>
        <time>2024-11-17T09:12:07Z</time>
      </trkpt>
      <trkpt lat="24.911615954857357" lon="118.55441363191665">
        <ele>8.58201468642801</ele>
        <time>2024-11-17T09:12:09Z</time>
      </trkpt>
      <trkpt lat="24.9114209317072" lon="118.5539666050442">
        <ele>8.674344880506396</ele>
        <time>2024-11-17T09:12:17Z</time>
      </trkpt>
      <trkpt lat="24.911214795486142" lon="118.55347745839275">
        <ele>8.026273055933416</ele>
        <time>2024-11-17T09:12:25Z</time>
      </trkpt>
      <trkpt lat="24.911085148785478" lon="118.55311676607253">
        <ele>8.704113238491118</ele>
        <time>2024-11-17T09:12:31Z</time>
      </trkpt>
      <trkpt lat="24.911085912246346" lon="118.5529234016272">
        <ele>8.308236208744347</ele>
        <time>2024-11-17T09:12:35Z</time>
      </trkpt>
      <trkpt lat="24.91100644464103" lon="118.5527639364919">
        <ele>7.664611896499991</ele>
        <time>2024-11-17T09:12:39Z</time>
      </trkpt>
      <trkpt lat="24.910935246906856" lon="118.55261078863218">
        <ele>7.753605387173593</ele>
        <time>2024-11-17T09:12:43Z</time>
      </trkpt>
      <trkpt lat="24.910852051524547" lon="118.55254360408817">
        <ele>7.343157102353871</ele>
        <time>2024-11-17T09:12:46Z</time>
      </trkpt>
      <trkpt lat="24.910783538045493" lon="118.55244278771745">
        <ele>7.699941684491932</ele>
        <time>2024-11-17T09:12:49Z</time>
      </trkpt>
      <trkpt lat="24.910584230568208" lon="118.55197052947354">
        <ele>8.075504365377128</ele>
        <time>2024-11-17T09:12:57Z</time>
      </trkpt>
      <trkpt lat="24.910450886854534" lon="118.55158851346296">
        <ele>7.444365403614938</ele>
        <time>2024-11-17T09:13:03Z</time>
      </trkpt>
      <trkpt lat="24.910306193038846" lon="118.5514096375935">
        <ele>7.326422916725278</ele>
        <time>2024-11-17T09:13:08Z</time>
      </trkpt>
      <trkpt lat="24.910109729624548" lon="118.55097303654891">
        <ele>8.135006317868829</ele>
        <time>2024-11-17T09:13:17Z</time>
      </trkpt>
      <trkpt lat="24.909989647307327" lon="118.5505233915236">
        <ele>8.455965676344931</ele>
        <time>2024-11-17T09:13:25Z</time>
      </trkpt>
      <trkpt lat="24.90992644860426" lon="118.55043739685931">
        <ele>8.22853743378073</ele>
        <time>2024-11-17T09:13:27Z</time>
      </trkpt>
      <trkpt lat="24.909868786129827" lon="118.55026598909947">
        <ele>7.994443837553263</ele>
        <time>2024-11-17T09:13:32Z</time>
      </trkpt>
      <trkpt lat="24.909818126948974" lon="118.55018539054058">
        <ele>7.875573066994548</ele>
        <time>2024-11-17T09:13:37Z</time>
      </trkpt>
      <trkpt lat="24.90961376026331" lon="118.54969002756398">
        <ele>7.446609514765441</ele>
        <time>2024-11-17T09:13:47Z</time>
      </trkpt>
      <trkpt lat="24.90955347178429" lon="118.54942736587716">
        <ele>7.446682160720229</ele>
        <time>2024-11-17T09:13:51Z</time>
      </trkpt>
      <trkpt lat="24.909383486820683" lon="118.54906431191337">
        <ele>7.926259376108646</ele>
        <time>2024-11-17T09:13:57Z</time>
      </trkpt>
      <trkpt lat="24.909352084336465" lon="118.54893342889265">
        <ele>7.87514173425734</ele>
        <time>2024-11-17T09:13:59Z</time>
      </trkpt>
      <trkpt lat="24.909156403738944" lon="118.54843770911896">
        <ele>7.756575061008334</ele>
        <time>2024-11-17T09:14:07Z</time>
      </trkpt>
      <trkpt lat="24.90904083803726" lon="118.54820675499732">
        <ele>8.095587011426687</ele>
        <time>2024-11-17T09:14:11Z</time>
      </trkpt>
      <trkpt lat="24.909001997740077" lon="118.54808737852653">
        <ele>8.702658047899604</ele>
        <time>2024-11-17T09:14:13Z</time>
      </trkpt>
      <trkpt lat="24.90878402416577" lon="118.5475677880156">
        <ele>8.199741537682712</ele>
        <time>2024-11-17T09:14:23Z</time>
      </trkpt>
      <trkpt lat="24.908651945838592" lon="118.54722502281015">
        <ele>7.799558334052563</ele>
        <time>2024-11-17T09:14:29Z</time>
      </trkpt>
      <trkpt lat="24.908600622499588" lon="118.54701107929698">
        <ele>7.7895749267190695</ele>
        <time>2024-11-17T09:14:33Z</time>
      </trkpt>
      <trkpt lat="24.908387254171444" lon="118.54648132906196">
        <ele>7.714150487445295</ele>
        <time>2024-11-17T09:14:43Z</time>
      </trkpt>
      <trkpt lat="24.90820042267808" lon="118.54607809069641">
        <ele>8.288170170038939</ele>
        <time>2024-11-17T09:14:51Z</time>
      </trkpt>
      <trkpt lat="24.908024665145586" lon="118.54555364336078">
        <ele>7.751656929031014</ele>
        <time>2024-11-17T09:15:01Z</time>
      </trkpt>
      <trkpt lat="24.90784215364853" lon="118.5450925545337">
        <ele>8.434277304448187</ele>
        <time>2024-11-17T09:15:11Z</time>
      </trkpt>
      <trkpt lat="24.907649522208402" lon="118.54463688662953">
        <ele>8.456468315795064</ele>
        <time>2024-11-17T09:15:21Z</time>
      </trkpt>
      <trkpt lat="24.907511327264643" lon="118.54427559175558">
        <ele>7.482393956743181</ele>
        <time>2024-11-17T09:15:27Z</time>
      </trkpt>
      <trkpt lat="24.907488266185375" lon="118.54379927427374">
        <ele>7.832113086245954</ele>
        <time>2024-11-17T09:15:48Z</time>
      </trkpt>
      <trkpt lat="24.907448631197333" lon="118.54343370577352">
        <ele>7.583632269874215</ele>
        <time>2024-11-17T09:16:03Z</time>
      </trkpt>
      <trkpt lat="24.907457696125633" lon="118.54326501353509">
        <ele>7.835104517638683</ele>
        <time>2024-11-17T09:16:09Z</time>
      </trkpt>
      <trkpt lat="24.907615912747133" lon="118.54283344643305">
        <ele>7.611718866042793</ele>
        <time>2024-11-17T09:16:20Z</time>
      </trkpt>
      <trkpt lat="24.907728652645105" lon="118.54257313627164">
        <ele>7.73160826228559</ele>
        <time>2024-11-17T09:16:26Z</time>
      </trkpt>
      <trkpt lat="24.9079253945448" lon="118.5420803830691">
        <ele>8.458744414150715</ele>
        <time>2024-11-17T09:16:36Z</time>
      </trkpt>
      <trkpt lat="24.908114610153632" lon="118.54157188244531">
        <ele>9.981574899517</ele>
        <time>2024-11-17T09:16:48Z</time>
      </trkpt>
      <trkpt lat="24.908260220229852" lon="118.54113457350046">
        <ele>10.1633146898821</ele>
        <time>2024-11-17T09:16:56Z</time>
      </trkpt>
      <trkpt lat="24.908476537049733" lon="118.54082001804122">
        <ele>8.744419760070741</ele>
        <time>2024-11-17T09:17:05Z</time>
      </trkpt>
      <trkpt lat="24.908500802615336" lon="118.54074251034517">
        <ele>8.239363827742636</ele>
        <time>2024-11-17T09:17:13Z</time>
      </trkpt>
      <trkpt lat="24.90854962431302" lon="118.54067788462712">
        <ele>8.600999438203871</ele>
        <time>2024-11-17T09:17:19Z</time>
      </trkpt>
      <trkpt lat="24.908582171888504" lon="118.54051242623927">
        <ele>8.725966767407954</ele>
        <time>2024-11-17T09:17:32Z</time>
      </trkpt>
    </trkseg>
  </trk>
</gpx>