<?xml version="1.0" encoding="UTF-8"?>
<gpx xmlns="http://www.topografix.com/GPX/1/1" xmlns:gpxtpx="http://www.garmin.com/xmlschemas/TrackPointExtension/v1" xmlns:xsi="http://www.w3.org/2001/XMLSchema-instance" xsi:schemaLocation="http://www.topografix.com/GPX/1/1 http://www.topografix.com/GPX/1/1/gpx.xsd" version="1.1" creator="gpx.py -- https://github.com/tkrajina/gpxpy">
  <trk>
    <name>gpx from keep</name>
    <type>Ride</type>
    <trkseg>
      <trkpt lat="24.93707708729139" lon="118.57370764778956">
        <ele>13.169762560166419</ele>
        <time>2024-10-15T09:50:24Z</time>
      </trkpt>
      <trkpt lat="24.93687594032956" lon="118.57363483863786">
        <ele>14.835147712379694</ele>
        <time>2024-10-15T09:50:35Z</time>
      </trkpt>
      <trkpt lat="24.93666152012672" lon="118.57346400759225">
        <ele>14.247020565904677</ele>
        <time>2024-10-15T09:50:42Z</time>
      </trkpt>
      <trkpt lat="24.93645862550417" lon="118.57323539338829">
        <ele>14.723502454347908</ele>
        <time>2024-10-15T09:50:48Z</time>
      </trkpt>
      <trkpt lat="24.93619314847782" lon="118.5731104641091">
        <ele>14.717113314196467</ele>
        <time>2024-10-15T09:50:56Z</time>
      </trkpt>
      <trkpt lat="24.936099594651115" lon="118.57308296354881">
        <ele>14.653646201826632</ele>
        <time>2024-10-15T09:51:00Z</time>
      </trkpt>
      <trkpt lat="24.935934294668183" lon="118.57297656240827">
        <ele>14.61572742741555</ele>
        <time>2024-10-15T09:51:05Z</time>
      </trkpt>
      <trkpt lat="24.935836317492534" lon="118.57297784056748">
        <ele>14.681440645828843</ele>
        <time>2024-10-15T09:51:09Z</time>
      </trkpt>
      <trkpt lat="24.935787565659325" lon="118.57286364450492">
        <ele>14.189212502911687</ele>
        <time>2024-10-15T09:51:12Z</time>
      </trkpt>
      <trkpt lat="24.935538728739537" lon="118.57284935545266">
        <ele>14.843901564367115</ele>
        <time>2024-10-15T09:51:24Z</time>
      </trkpt>
      <trkpt lat="24.935375168679307" lon="118.57275692586663">
        <ele>14.063770486041903</ele>
        <time>2024-10-15T09:51:28Z</time>
      </trkpt>
      <trkpt lat="24.935199357461165" lon="118.57261839662344">
        <ele>14.917494345456362</ele>
        <time>2024-10-15T09:51:32Z</time>
      </trkpt>
      <trkpt lat="24.934748803700394" lon="118.57234180077681">
        <ele>14.917146779596806</ele>
        <time>2024-10-15T09:51:42Z</time>
      </trkpt>
      <trkpt lat="24.934645587300004" lon="118.57235346023128">
        <ele>15.054657875560224</ele>
        <time>2024-10-15T09:51:43Z</time>
      </trkpt>
      <trkpt lat="24.934551648119438" lon="118.57231497779587">
        <ele>14.774958732537925</ele>
        <time>2024-10-15T09:51:44Z</time>
      </trkpt>
      <trkpt lat="24.934425257725625" lon="118.57221278674093">
        <ele>14.590761826373637</ele>
        <time>2024-10-15T09:51:45Z</time>
      </trkpt>
      <trkpt lat="24.934256041390995" lon="118.57218870334383">
        <ele>14.407262288965285</ele>
        <time>2024-10-15T09:51:46Z</time>
      </trkpt>
      <trkpt lat="24.934129779333137" lon="118.57222040557444">
        <ele>13.969574143178761</ele>
        <time>2024-10-15T09:51:47Z</time>
      </trkpt>
      <trkpt lat="24.934028679387147" lon="118.57222578972777">
        <ele>14.133692536503077</ele>
        <time>2024-10-15T09:51:48Z</time>
      </trkpt>
      <trkpt lat="24.933771994835062" lon="118.57205271580159">
        <ele>12.486561526544392</ele>
        <time>2024-10-15T09:51:52Z</time>
      </trkpt>
      <trkpt lat="24.93368417901224" lon="118.57201822629426">
        <ele>13.182109018787742</ele>
        <time>2024-10-15T09:51:53Z</time>
      </trkpt>
      <trkpt lat="24.93361982648912" lon="118.57196827671092">
        <ele>12.888524075970054</ele>
        <time>2024-10-15T09:51:54Z</time>
      </trkpt>
      <trkpt lat="24.93315910930331" lon="118.57180777213388">
        <ele>12.329752364195883</ele>
        <time>2024-10-15T09:52:03Z</time>
      </trkpt>
      <trkpt lat="24.933041235427908" lon="118.57175429417896">
        <ele>12.20915299654007</ele>
        <time>2024-10-15T09:52:05Z</time>
      </trkpt>
      <trkpt lat="24.932902733334252" lon="118.5716431842217">
        <ele>12.52103216946125</ele>
        <time>2024-10-15T09:52:09Z</time>
      </trkpt>
      <trkpt lat="24.93275490773135" lon="118.5716447028525">
        <ele>12.529826020821929</ele>
        <time>2024-10-15T09:52:13Z</time>
      </trkpt>
      <trkpt lat="24.9326495005071" lon="118.57153042239607">
        <ele>11.565264579840004</ele>
        <time>2024-10-15T09:52:15Z</time>
      </trkpt>
      <trkpt lat="24.932307935570332" lon="118.57133307801807">
        <ele>12.17304140329361</ele>
        <time>2024-10-15T09:52:23Z</time>
      </trkpt>
      <trkpt lat="24.932189263004975" lon="118.5713160718871">
        <ele>12.514245931990445</ele>
        <time>2024-10-15T09:52:25Z</time>
      </trkpt>
      <trkpt lat="24.93207499414709" lon="118.5712796526258">
        <ele>12.710856352932751</ele>
        <time>2024-10-15T09:52:27Z</time>
      </trkpt>
      <trkpt lat="24.93201291251613" lon="118.57122002439075">
        <ele>12.805198057554662</ele>
        <time>2024-10-15T09:52:29Z</time>
      </trkpt>
      <trkpt lat="24.931922556155534" lon="118.57120286774544">
        <ele>12.801106022670865</ele>
        <time>2024-10-15T09:52:32Z</time>
      </trkpt>
      <trkpt lat="24.93165146382932" lon="118.57091282853528">
        <ele>12.070584931410849</ele>
        <time>2024-10-15T09:52:41Z</time>
      </trkpt>
      <trkpt lat="24.93143515044036" lon="118.57076163226473">
        <ele>12.228790888562799</ele>
        <time>2024-10-15T09:52:47Z</time>
      </trkpt>
      <trkpt lat="24.931405898764513" lon="118.57066965957316">
        <ele>12.332107147201896</ele>
        <time>2024-10-15T09:52:49Z</time>
      </trkpt>
      <trkpt lat="24.931324765754567" lon="118.57060726390414">
        <ele>12.177329109050333</ele>
        <time>2024-10-15T09:52:52Z</time>
      </trkpt>
      <trkpt lat="24.931306176425785" lon="118.57050691883032">
        <ele>12.355778594501317</ele>
        <time>2024-10-15T09:52:56Z</time>
      </trkpt>
      <trkpt lat="24.931221580214054" lon="118.57034209829347">
        <ele>12.091408203355968</ele>
        <time>2024-10-15T09:53:00Z</time>
      </trkpt>
      <trkpt lat="24.93094148500165" lon="118.5699267150388">
        <ele>12.593028885312378</ele>
        <time>2024-10-15T09:53:10Z</time>
      </trkpt>
      <trkpt lat="24.93083870040269" lon="118.56977391630994">
        <ele>12.529709471389651</ele>
        <time>2024-10-15T09:53:14Z</time>
      </trkpt>
      <trkpt lat="24.930723848970835" lon="118.56963381509269">
        <ele>12.559063823893666</ele>
        <time>2024-10-15T09:53:18Z</time>
      </trkpt>
      <trkpt lat="24.930579371185274" lon="118.56936369567559">
        <ele>11.487636022269726</ele>
        <time>2024-10-15T09:53:24Z</time>
      </trkpt>
      <trkpt lat="24.93024354583952" lon="118.56906444297044">
        <ele>9.86614201311022</ele>
        <time>2024-10-15T09:53:33Z</time>
      </trkpt>
      <trkpt lat="24.93019535585033" lon="118.568959268535">
        <ele>10.150004238821566</ele>
        <time>2024-10-15T09:53:35Z</time>
      </trkpt>
      <trkpt lat="24.930117821497596" lon="118.56887684547249">
        <ele>9.8730051163584</ele>
        <time>2024-10-15T09:53:37Z</time>
      </trkpt>
      <trkpt lat="24.93000084212946" lon="118.56853608134105">
        <ele>8.199406865052879</ele>
        <time>2024-10-15T09:53:43Z</time>
      </trkpt>
      <trkpt lat="24.929944549355746" lon="118.56823074129503">
        <ele>7.968143316917121</ele>
        <time>2024-10-15T09:53:50Z</time>
      </trkpt>
      <trkpt lat="24.929904250722604" lon="118.56814230085887">
        <ele>8.353744686581194</ele>
        <time>2024-10-15T09:53:52Z</time>
      </trkpt>
      <trkpt lat="24.92983966681752" lon="118.56805226988315">
        <ele>8.508644998073578</ele>
        <time>2024-10-15T09:53:54Z</time>
      </trkpt>
      <trkpt lat="24.92969601263071" lon="118.56797637930121">
        <ele>9.301230295561254</ele>
        <time>2024-10-15T09:53:58Z</time>
      </trkpt>
      <trkpt lat="24.92961309434942" lon="118.56795991124646">
        <ele>9.44088591542095</ele>
        <time>2024-10-15T09:54:00Z</time>
      </trkpt>
      <trkpt lat="24.929488699426084" lon="118.56798649300241">
        <ele>9.199723952449858</ele>
        <time>2024-10-15T09:54:03Z</time>
      </trkpt>
      <trkpt lat="24.929283371695433" lon="118.56798336985575">
        <ele>9.796381074003875</ele>
        <time>2024-10-15T09:54:07Z</time>
      </trkpt>
      <trkpt lat="24.92918220015259" lon="118.56801808759005">
        <ele>9.669333045370877</ele>
        <time>2024-10-15T09:54:09Z</time>
      </trkpt>
      <trkpt lat="24.92871187443228" lon="118.56799520605209">
        <ele>9.2344413921237</ele>
        <time>2024-10-15T09:54:19Z</time>
      </trkpt>
      <trkpt lat="24.92861924412663" lon="118.56799499964931">
        <ele>9.573199480772018</ele>
        <time>2024-10-15T09:54:21Z</time>
      </trkpt>
      <trkpt lat="24.928414327182132" lon="118.5680535851409">
        <ele>9.673548466525972</ele>
        <time>2024-10-15T09:54:25Z</time>
      </trkpt>
      <trkpt lat="24.928039053992908" lon="118.56805401130744">
        <ele>9.84163468144834</ele>
        <time>2024-10-15T09:54:33Z</time>
      </trkpt>
      <trkpt lat="24.927949034135914" lon="118.56808490822759">
        <ele>10.5924087241292</ele>
        <time>2024-10-15T09:54:35Z</time>
      </trkpt>
      <trkpt lat="24.927462904879167" lon="118.56813357456562">
        <ele>9.590892559848726</ele>
        <time>2024-10-15T09:54:46Z</time>
      </trkpt>
      <trkpt lat="24.92736589248286" lon="118.56813946647408">
        <ele>10.043561522848904</ele>
        <time>2024-10-15T09:54:48Z</time>
      </trkpt>
      <trkpt lat="24.927099014032237" lon="118.56820477681875">
        <ele>9.988929944112897</ele>
        <time>2024-10-15T09:54:55Z</time>
      </trkpt>
      <trkpt lat="24.92687243257391" lon="118.56818660585374">
        <ele>9.973068155348301</ele>
        <time>2024-10-15T09:55:01Z</time>
      </trkpt>
      <trkpt lat="24.926486319360222" lon="118.56822920792297">
        <ele>10.224619376473129</ele>
        <time>2024-10-15T09:55:09Z</time>
      </trkpt>
      <trkpt lat="24.926312927648556" lon="118.56826121844757">
        <ele>9.933669418096542</ele>
        <time>2024-10-15T09:55:13Z</time>
      </trkpt>
      <trkpt lat="24.926178721594628" lon="118.56825960803056">
        <ele>10.138505631126463</ele>
        <time>2024-10-15T09:55:15Z</time>
      </trkpt>
      <trkpt lat="24.926069683295044" lon="118.56828656774826">
        <ele>10.169768064282835</ele>
        <time>2024-10-15T09:55:18Z</time>
      </trkpt>
      <trkpt lat="24.925946369826743" lon="118.56826345477232">
        <ele>9.454387177713215</ele>
        <time>2024-10-15T09:55:20Z</time>
      </trkpt>
      <trkpt lat="24.92567761669913" lon="118.5682991578465">
        <ele>10.034399934113026</ele>
        <time>2024-10-15T09:55:26Z</time>
      </trkpt>
      <trkpt lat="24.92559113085125" lon="118.56828857226512">
        <ele>10.352488026954234</ele>
        <time>2024-10-15T09:55:28Z</time>
      </trkpt>
      <trkpt lat="24.9253228430406" lon="118.5683372017891">
        <ele>10.356052221730351</ele>
        <time>2024-10-15T09:55:33Z</time>
      </trkpt>
      <trkpt lat="24.925217501432762" lon="118.56832894114727">
        <ele>10.199971017427742</ele>
        <time>2024-10-15T09:55:35Z</time>
      </trkpt>
      <trkpt lat="24.92496137054582" lon="118.56840062150711">
        <ele>10.051317539997399</ele>
        <time>2024-10-15T09:55:41Z</time>
      </trkpt>
      <trkpt lat="24.92470078308984" lon="118.56841765661162">
        <ele>10.127919086255133</ele>
        <time>2024-10-15T09:55:47Z</time>
      </trkpt>
      <trkpt lat="24.92455253098467" lon="118.5684715534049">
        <ele>9.840044216252863</ele>
        <time>2024-10-15T09:55:51Z</time>
      </trkpt>
      <trkpt lat="24.924236536156855" lon="118.56846299931087">
        <ele>10.164790933020413</ele>
        <time>2024-10-15T09:55:57Z</time>
      </trkpt>
      <trkpt lat="24.924028271939115" lon="118.56842286678183">
        <ele>9.92597384005785</ele>
        <time>2024-10-15T09:56:01Z</time>
      </trkpt>
      <trkpt lat="24.923828590661444" lon="118.56842857915116">
        <ele>10.170440202578902</ele>
        <time>2024-10-15T09:56:05Z</time>
      </trkpt>
      <trkpt lat="24.923645384696012" lon="118.56847345257212">
        <ele>9.749835135415196</ele>
        <time>2024-10-15T09:56:10Z</time>
      </trkpt>
      <trkpt lat="24.92344578658615" lon="118.56850399130516">
        <ele>9.675388912670314</ele>
        <time>2024-10-15T09:56:15Z</time>
      </trkpt>
      <trkpt lat="24.923350299040926" lon="118.56853418514264">
        <ele>9.879735712893307</ele>
        <time>2024-10-15T09:56:17Z</time>
      </trkpt>
      <trkpt lat="24.923098039990418" lon="118.56852910935271">
        <ele>10.148316425271332</ele>
        <time>2024-10-15T09:56:21Z</time>
      </trkpt>
      <trkpt lat="24.92299189379933" lon="118.56854798752975">
        <ele>9.65179966762662</ele>
        <time>2024-10-15T09:56:23Z</time>
      </trkpt>
      <trkpt lat="24.922567314837174" lon="118.56851413083912">
        <ele>10.075741288252175</ele>
        <time>2024-10-15T09:56:30Z</time>
      </trkpt>
      <trkpt lat="24.92235125815788" lon="118.56851708116908">
        <ele>9.682752429507673</ele>
        <time>2024-10-15T09:56:34Z</time>
      </trkpt>
      <trkpt lat="24.922022203828746" lon="118.56863322701167">
        <ele>9.6997921615839</ele>
        <time>2024-10-15T09:56:42Z</time>
      </trkpt>
      <trkpt lat="24.921815628214112" lon="118.56866671930258">
        <ele>9.288044476881623</ele>
        <time>2024-10-15T09:56:47Z</time>
      </trkpt>
      <trkpt lat="24.921424735160357" lon="118.56867839102932">
        <ele>10.186610603705049</ele>
        <time>2024-10-15T09:56:55Z</time>
      </trkpt>
      <trkpt lat="24.921222828157944" lon="118.56874616580183">
        <ele>10.118045698851347</ele>
        <time>2024-10-15T09:57:00Z</time>
      </trkpt>
      <trkpt lat="24.92089344432498" lon="118.56870923791818">
        <ele>8.652330466546118</ele>
        <time>2024-10-15T09:57:06Z</time>
      </trkpt>
      <trkpt lat="24.920793305217504" lon="118.56874894928772">
        <ele>9.01117723993957</ele>
        <time>2024-10-15T09:57:09Z</time>
      </trkpt>
      <trkpt lat="24.920528947583698" lon="118.56881196739141">
        <ele>9.262435843236744</ele>
        <time>2024-10-15T09:57:16Z</time>
      </trkpt>
      <trkpt lat="24.920426859392567" lon="118.56879110860778">
        <ele>8.942726512439549</ele>
        <time>2024-10-15T09:57:17Z</time>
      </trkpt>
      <trkpt lat="24.920071055487618" lon="118.56883375973412">
        <ele>7.844834008254111</ele>
        <time>2024-10-15T09:57:24Z</time>
      </trkpt>
      <trkpt lat="24.919790180828116" lon="118.56891023645194">
        <ele>8.048655156046152</ele>
        <time>2024-10-15T09:57:31Z</time>
      </trkpt>
      <trkpt lat="24.91949556077427" lon="118.568985682667">
        <ele>10.500363238155842</ele>
        <time>2024-10-15T09:57:38Z</time>
      </trkpt>
      <trkpt lat="24.919241218170804" lon="118.56903949734883">
        <ele>9.880039308220148</ele>
        <time>2024-10-15T09:57:44Z</time>
      </trkpt>
      <trkpt lat="24.918752382148085" lon="118.56919826830212">
        <ele>10.32841067109257</ele>
        <time>2024-10-15T09:57:56Z</time>
      </trkpt>
      <trkpt lat="24.918682255198664" lon="118.56923904263842">
        <ele>9.341165241785347</ele>
        <time>2024-10-15T09:57:58Z</time>
      </trkpt>
      <trkpt lat="24.91861199306709" lon="118.56945229854648">
        <ele>10.388851533643901</ele>
        <time>2024-10-15T09:58:04Z</time>
      </trkpt>
      <trkpt lat="24.918612781903388" lon="118.56954105072461">
        <ele>10.166482378728688</ele>
        <time>2024-10-15T09:58:07Z</time>
      </trkpt>
      <trkpt lat="24.918452935023517" lon="118.56960939845438">
        <ele>10.420057639479637</ele>
        <time>2024-10-15T09:58:11Z</time>
      </trkpt>
      <trkpt lat="24.918204602749597" lon="118.56952201176279">
        <ele>10.09216448571533</ele>
        <time>2024-10-15T09:58:18Z</time>
      </trkpt>
      <trkpt lat="24.917934542390608" lon="118.56948042078514">
        <ele>9.59280842076987</ele>
        <time>2024-10-15T09:59:18Z</time>
      </trkpt>
      <trkpt lat="24.917905227891378" lon="118.56940430514176">
        <ele>9.72382243257016</ele>
        <time>2024-10-15T09:59:24Z</time>
      </trkpt>
      <trkpt lat="24.91779787656782" lon="118.56925728653414">
        <ele>9.667131439782679</ele>
        <time>2024-10-15T09:59:32Z</time>
      </trkpt>
      <trkpt lat="24.91775996924924" lon="118.56917655778197">
        <ele>9.942452071234584</ele>
        <time>2024-10-15T09:59:34Z</time>
      </trkpt>
      <trkpt lat="24.917606188202598" lon="118.56904156584582">
        <ele>9.669530913233757</ele>
        <time>2024-10-15T09:59:39Z</time>
      </trkpt>
      <trkpt lat="24.917539110276085" lon="118.56895562879006">
        <ele>9.611318998970091</ele>
        <time>2024-10-15T09:59:42Z</time>
      </trkpt>
      <trkpt lat="24.91748584509553" lon="118.56876105446968">
        <ele>9.655285097658634</ele>
        <time>2024-10-15T09:59:47Z</time>
      </trkpt>
      <trkpt lat="24.917483614140725" lon="118.56867918061145">
        <ele>9.662460692226887</ele>
        <time>2024-10-15T09:59:49Z</time>
      </trkpt>
      <trkpt lat="24.91751755379092" lon="118.56848814487991">
        <ele>9.859041629359126</ele>
        <time>2024-10-15T09:59:56Z</time>
      </trkpt>
      <trkpt lat="24.917502344495833" lon="118.56839375930598">
        <ele>9.897364946082234</ele>
        <time>2024-10-15T10:00:00Z</time>
      </trkpt>
      <trkpt lat="24.91755763953163" lon="118.56809663034558">
        <ele>9.408248791471124</ele>
        <time>2024-10-15T10:00:06Z</time>
      </trkpt>
      <trkpt lat="24.917575354869953" lon="118.56766172501686">
        <ele>9.60413946583867</ele>
        <time>2024-10-15T10:00:14Z</time>
      </trkpt>
      <trkpt lat="24.917559420696072" lon="118.56743236727046">
        <ele>9.220958139747381</ele>
        <time>2024-10-15T10:00:18Z</time>
      </trkpt>
      <trkpt lat="24.917603378310034" lon="118.56684291344482">
        <ele>7.944226650521159</ele>
        <time>2024-10-15T10:00:27Z</time>
      </trkpt>
      <trkpt lat="24.917608873884898" lon="118.56632881965132">
        <ele>9.179090798832476</ele>
        <time>2024-10-15T10:00:35Z</time>
      </trkpt>
      <trkpt lat="24.917645320933765" lon="118.56600948244375">
        <ele>9.679014407098293</ele>
        <time>2024-10-15T10:00:41Z</time>
      </trkpt>
      <trkpt lat="24.91764373840893" lon="118.56587407519378">
        <ele>10.038829766213894</ele>
        <time>2024-10-15T10:00:43Z</time>
      </trkpt>
      <trkpt lat="24.9176233375277" lon="118.5657327097161">
        <ele>9.140390374697745</ele>
        <time>2024-10-15T10:00:45Z</time>
      </trkpt>
      <trkpt lat="24.91757197557142" lon="118.56534925320928">
        <ele>9.847017779946327</ele>
        <time>2024-10-15T10:00:51Z</time>
      </trkpt>
      <trkpt lat="24.917503996912917" lon="118.56504874341908">
        <ele>9.773364468477666</ele>
        <time>2024-10-15T10:00:56Z</time>
      </trkpt>
      <trkpt lat="24.917330234236996" lon="118.56460010903436">
        <ele>10.853466085158288</ele>
        <time>2024-10-15T10:01:06Z</time>
      </trkpt>
      <trkpt lat="24.91725934745353" lon="118.56443377289659">
        <ele>10.558177705854177</ele>
        <time>2024-10-15T10:01:10Z</time>
      </trkpt>
      <trkpt lat="24.917117984820152" lon="118.56419968803843">
        <ele>10.636440217494965</ele>
        <time>2024-10-15T10:01:16Z</time>
      </trkpt>
      <trkpt lat="24.917052090304914" lon="118.56403250057092">
        <ele>10.117937244474888</ele>
        <time>2024-10-15T10:01:20Z</time>
      </trkpt>
      <trkpt lat="24.916999343408776" lon="118.56397402018499">
        <ele>10.250063818879426</ele>
        <time>2024-10-15T10:01:22Z</time>
      </trkpt>
      <trkpt lat="24.91694811881899" lon="118.56387494592572">
        <ele>10.300774653442204</ele>
        <time>2024-10-15T10:01:25Z</time>
      </trkpt>
      <trkpt lat="24.916732379925218" lon="118.56365535259289">
        <ele>10.347204219549894</ele>
        <time>2024-10-15T10:01:32Z</time>
      </trkpt>
      <trkpt lat="24.91652404149977" lon="118.56334274552512">
        <ele>10.367115779779851</ele>
        <time>2024-10-15T10:01:41Z</time>
      </trkpt>
      <trkpt lat="24.9162172025478" lon="118.56292667251908">
        <ele>11.49736664723605</ele>
        <time>2024-10-15T10:01:51Z</time>
      </trkpt>
      <trkpt lat="24.915943767293815" lon="118.5625559528053">
        <ele>6.967629212886095</ele>
        <time>2024-10-15T10:01:59Z</time>
      </trkpt>
      <trkpt lat="24.91573965609112" lon="118.56223569092649">
        <ele>3.936162947677076</ele>
        <time>2024-10-15T10:02:05Z</time>
      </trkpt>
      <trkpt lat="24.91549106943142" lon="118.56189316258232">
        <ele>3.442005996592343</ele>
        <time>2024-10-15T10:02:11Z</time>
      </trkpt>
      <trkpt lat="24.915325139449862" lon="118.56165305499813">
        <ele>3.5837766379117966</ele>
        <time>2024-10-15T10:02:15Z</time>
      </trkpt>
      <trkpt lat="24.915156197521664" lon="118.56138111243762">
        <ele>2.39697621203959</ele>
        <time>2024-10-15T10:02:19Z</time>
      </trkpt>
      <trkpt lat="24.915067390539228" lon="118.5612685189246">
        <ele>2.9779308550059795</ele>
        <time>2024-10-15T10:02:21Z</time>
      </trkpt>
      <trkpt lat="24.91500122448279" lon="118.56114346266101">
        <ele>2.136456498876214</ele>
        <time>2024-10-15T10:02:23Z</time>
      </trkpt>
      <trkpt lat="24.914764916950265" lon="118.56084055831536">
        <ele>5.172924757935107</ele>
        <time>2024-10-15T10:02:34Z</time>
      </trkpt>
      <trkpt lat="24.9147441294821" lon="118.56075250229043">
        <ele>7.2841831892728806</ele>
        <time>2024-10-15T10:02:37Z</time>
      </trkpt>
      <trkpt lat="24.914647477665373" lon="118.56057177400433">
        <ele>10.67612370941788</ele>
        <time>2024-10-15T10:02:47Z</time>
      </trkpt>
      <trkpt lat="24.91451407180679" lon="118.56042112715146">
        <ele>11.487346454523504</ele>
        <time>2024-10-15T10:02:52Z</time>
      </trkpt>
      <trkpt lat="24.914482069534284" lon="118.56033925766728">
        <ele>11.468949262984097</ele>
        <time>2024-10-15T10:02:54Z</time>
      </trkpt>
      <trkpt lat="24.914416199811804" lon="118.56025656507042">
        <ele>11.725211692973971</ele>
        <time>2024-10-15T10:02:57Z</time>
      </trkpt>
      <trkpt lat="24.91437021258765" lon="118.56015984361713">
        <ele>11.884067109785974</ele>
        <time>2024-10-15T10:03:00Z</time>
      </trkpt>
      <trkpt lat="24.91411045184716" lon="118.55987768031008">
        <ele>11.82312039192766</ele>
        <time>2024-10-15T10:03:09Z</time>
      </trkpt>
      <trkpt lat="24.91397909981" lon="118.55953092967022">
        <ele>12.38266980741173</ele>
        <time>2024-10-15T10:03:15Z</time>
      </trkpt>
      <trkpt lat="24.913670527011394" lon="118.55904395693327">
        <ele>14.004109375178814</ele>
        <time>2024-10-15T10:03:29Z</time>
      </trkpt>
      <trkpt lat="24.91356616085577" lon="118.55895335058815">
        <ele>13.973918792791665</ele>
        <time>2024-10-15T10:03:31Z</time>
      </trkpt>
      <trkpt lat="24.91353892472123" lon="118.55887347183982">
        <ele>13.656851301901042</ele>
        <time>2024-10-15T10:03:33Z</time>
      </trkpt>
      <trkpt lat="24.913431998075644" lon="118.55874073490185">
        <ele>13.620044386014342</ele>
        <time>2024-10-15T10:03:37Z</time>
      </trkpt>
      <trkpt lat="24.913355326177854" lon="118.55858881692801">
        <ele>13.021021520718932</ele>
        <time>2024-10-15T10:03:43Z</time>
      </trkpt>
      <trkpt lat="24.913293029853914" lon="118.55851400989883">
        <ele>12.245041741989553</ele>
        <time>2024-10-15T10:03:55Z</time>
      </trkpt>
      <trkpt lat="24.913279569974073" lon="118.55833314284578">
        <ele>12.19966101553291</ele>
        <time>2024-10-15T10:03:59Z</time>
      </trkpt>
      <trkpt lat="24.91319384016812" lon="118.55830888513344">
        <ele>12.104415019974113</ele>
        <time>2024-10-15T10:04:15Z</time>
      </trkpt>
      <trkpt lat="24.91320617268817" lon="118.5583931503633">
        <ele>12.434449390508235</ele>
        <time>2024-10-15T10:05:01Z</time>
      </trkpt>
      <trkpt lat="24.913101643379" lon="118.55827011849615">
        <ele>11.831499542109668</ele>
        <time>2024-10-15T10:05:37Z</time>
      </trkpt>
      <trkpt lat="24.913097260643987" lon="118.55818911533103">
        <ele>11.54761365428567</ele>
        <time>2024-10-15T10:05:42Z</time>
      </trkpt>
      <trkpt lat="24.913045395445245" lon="118.5581135742657">
        <ele>10.84454856440425</ele>
        <time>2024-10-15T10:05:47Z</time>
      </trkpt>
      <trkpt lat="24.913021145864963" lon="118.55791605393595">
        <ele>10.116110721603036</ele>
        <time>2024-10-15T10:05:56Z</time>
      </trkpt>
      <trkpt lat="24.912961357993396" lon="118.5578198298868">
        <ele>10.161971936002374</ele>
        <time>2024-10-15T10:05:59Z</time>
      </trkpt>
      <trkpt lat="24.912897446459866" lon="118.55777020446085">
        <ele>9.54841180704534</ele>
        <time>2024-10-15T10:06:01Z</time>
      </trkpt>
      <trkpt lat="24.912725252482694" lon="118.5573149092814">
        <ele>8.12789273634553</ele>
        <time>2024-10-15T10:06:12Z</time>
      </trkpt>
      <trkpt lat="24.912625457586692" lon="118.55715419795595">
        <ele>7.861447317525744</ele>
        <time>2024-10-15T10:06:16Z</time>
      </trkpt>
      <trkpt lat="24.91244668744496" lon="118.55668600666107">
        <ele>7.409954520873725</ele>
        <time>2024-10-15T10:06:27Z</time>
      </trkpt>
      <trkpt lat="24.91236739978678" lon="118.55650914297819">
        <ele>7.060648430138826</ele>
        <time>2024-10-15T10:06:31Z</time>
      </trkpt>
      <trkpt lat="24.912343104515465" lon="118.55631858291797">
        <ele>6.575966070406139</ele>
        <time>2024-10-15T10:06:36Z</time>
      </trkpt>
      <trkpt lat="24.912181828419243" lon="118.55591696261325">
        <ele>6.083844307810068</ele>
        <time>2024-10-15T10:06:45Z</time>
      </trkpt>
      <trkpt lat="24.912125233126602" lon="118.55583593986967">
        <ele>6.444856607355177</ele>
        <time>2024-10-15T10:06:47Z</time>
      </trkpt>
      <trkpt lat="24.91206065313753" lon="118.55560107694465">
        <ele>7.016310230828822</ele>
        <time>2024-10-15T10:06:52Z</time>
      </trkpt>
      <trkpt lat="24.91194242969962" lon="118.55533585016775">
        <ele>7.367992244660854</ele>
        <time>2024-10-15T10:06:59Z</time>
      </trkpt>
      <trkpt lat="24.911826807725994" lon="118.55515426544842">
        <ele>7.402393554337323</ele>
        <time>2024-10-15T10:07:03Z</time>
      </trkpt>
      <trkpt lat="24.911778527831526" lon="118.5549461185177">
        <ele>7.431549755856395</ele>
        <time>2024-10-15T10:07:08Z</time>
      </trkpt>
      <trkpt lat="24.911785273270507" lon="118.55468527858663">
        <ele>7.3485557259991765</ele>
        <time>2024-10-15T10:07:15Z</time>
      </trkpt>
      <trkpt lat="24.91174211956992" lon="118.55462060991424">
        <ele>7.062388475984335</ele>
        <time>2024-10-15T10:07:19Z</time>
      </trkpt>
      <trkpt lat="24.911671155370207" lon="118.55458388879993">
        <ele>7.814949315972626</ele>
        <time>2024-10-15T10:07:29Z</time>
      </trkpt>
      <trkpt lat="24.911485245552768" lon="118.55424835636832">
        <ele>7.801384378224611</ele>
        <time>2024-10-15T10:07:48Z</time>
      </trkpt>
      <trkpt lat="24.911292138072632" lon="118.55371603502952">
        <ele>7.992738928645849</ele>
        <time>2024-10-15T10:08:00Z</time>
      </trkpt>
      <trkpt lat="24.911089678797072" lon="118.55322484020577">
        <ele>7.546735427342355</ele>
        <time>2024-10-15T10:08:08Z</time>
      </trkpt>
      <trkpt lat="24.91105337070024" lon="118.55314021548402">
        <ele>7.463096478022635</ele>
        <time>2024-10-15T10:08:10Z</time>
      </trkpt>
      <trkpt lat="24.91104723064056" lon="118.55286200370196">
        <ele>7.264439929276705</ele>
        <time>2024-10-15T10:08:26Z</time>
      </trkpt>
      <trkpt lat="24.911011807732624" lon="118.55279248726757">
        <ele>7.297535139136016</ele>
        <time>2024-10-15T10:08:29Z</time>
      </trkpt>
      <trkpt lat="24.910950385948357" lon="118.55273704766847">
        <ele>7.4139764765277505</ele>
        <time>2024-10-15T10:08:43Z</time>
      </trkpt>
      <trkpt lat="24.910875804124544" lon="118.55254108685666">
        <ele>7.32817479968071</ele>
        <time>2024-10-15T10:08:55Z</time>
      </trkpt>
      <trkpt lat="24.910822577792317" lon="118.55247968504153">
        <ele>7.3183834329247475</ele>
        <time>2024-10-15T10:08:59Z</time>
      </trkpt>
      <trkpt lat="24.910785386511566" lon="118.55236852755752">
        <ele>7.188525597564876</ele>
        <time>2024-10-15T10:09:03Z</time>
      </trkpt>
      <trkpt lat="24.910654008987795" lon="118.55207253323945">
        <ele>7.379720281809568</ele>
        <time>2024-10-15T10:09:09Z</time>
      </trkpt>
      <trkpt lat="24.91057748656848" lon="118.55177283570305">
        <ele>7.707095545716584</ele>
        <time>2024-10-15T10:09:15Z</time>
      </trkpt>
      <trkpt lat="24.91045754854747" lon="118.55145121277315">
        <ele>7.6329515958204865</ele>
        <time>2024-10-15T10:09:22Z</time>
      </trkpt>
      <trkpt lat="24.91040071693216" lon="118.55133965506992">
        <ele>7.653511525131762</ele>
        <time>2024-10-15T10:09:27Z</time>
      </trkpt>
      <trkpt lat="24.910330733759814" lon="118.55124663743341">
        <ele>7.809991395100951</ele>
        <time>2024-10-15T10:09:30Z</time>
      </trkpt>
      <trkpt lat="24.910241314474327" lon="118.55104448918252">
        <ele>7.651375018060207</ele>
        <time>2024-10-15T10:09:36Z</time>
      </trkpt>
      <trkpt lat="24.9101741473748" lon="118.55095618732878">
        <ele>7.816782372072339</ele>
        <time>2024-10-15T10:09:38Z</time>
      </trkpt>
      <trkpt lat="24.90999881168088" lon="118.5504794376144">
        <ele>7.786786790005863</ele>
        <time>2024-10-15T10:09:46Z</time>
      </trkpt>
      <trkpt lat="24.90980825983727" lon="118.5500521749575">
        <ele>7.307850957848132</ele>
        <time>2024-10-15T10:09:56Z</time>
      </trkpt>
      <trkpt lat="24.909668076243822" lon="118.54965830721791">
        <ele>7.511525644920766</ele>
        <time>2024-10-15T10:10:06Z</time>
      </trkpt>
      <trkpt lat="24.909623377199516" lon="118.54946080229689">
        <ele>7.6985211949795485</ele>
        <time>2024-10-15T10:10:13Z</time>
      </trkpt>
      <trkpt lat="24.909408207844752" lon="118.5490198424005">
        <ele>7.801043398678303</ele>
        <time>2024-10-15T10:10:25Z</time>
      </trkpt>
      <trkpt lat="24.909339814888664" lon="118.54880199990731">
        <ele>7.338001640513539</ele>
        <time>2024-10-15T10:10:30Z</time>
      </trkpt>
      <trkpt lat="24.9091383108416" lon="118.54835020981534">
        <ele>8.001706601120532</ele>
        <time>2024-10-15T10:10:40Z</time>
      </trkpt>
      <trkpt lat="24.90900973745783" lon="118.54808685703667">
        <ele>8.089723241515458</ele>
        <time>2024-10-15T10:10:48Z</time>
      </trkpt>
      <trkpt lat="24.909014691207595" lon="118.54800458399913">
        <ele>7.945811034180224</ele>
        <time>2024-10-15T10:10:52Z</time>
      </trkpt>
      <trkpt lat="24.9089621088873" lon="118.54791410104383">
        <ele>7.913900727406144</ele>
        <time>2024-10-15T10:10:55Z</time>
      </trkpt>
      <trkpt lat="24.908902265271177" lon="118.54786917128507">
        <ele>7.830029431730509</ele>
        <time>2024-10-15T10:10:57Z</time>
      </trkpt>
      <trkpt lat="24.908829768666394" lon="118.54776378338563">
        <ele>7.608084032312036</ele>
        <time>2024-10-15T10:11:00Z</time>
      </trkpt>
      <trkpt lat="24.908790287474627" lon="118.54761226437384">
        <ele>7.715100695379078</ele>
        <time>2024-10-15T10:11:03Z</time>
      </trkpt>
      <trkpt lat="24.908625552218478" lon="118.547270011717">
        <ele>7.48280568048358</ele>
        <time>2024-10-15T10:11:09Z</time>
      </trkpt>
      <trkpt lat="24.908604001636917" lon="118.54713445895015">
        <ele>7.280147838406265</ele>
        <time>2024-10-15T10:11:11Z</time>
      </trkpt>
      <trkpt lat="24.90842680751759" lon="118.54664205149112">
        <ele>7.052088810130954</ele>
        <time>2024-10-15T10:11:22Z</time>
      </trkpt>
      <trkpt lat="24.908207844733727" lon="118.54618789087745">
        <ele>7.560385165736079</ele>
        <time>2024-10-15T10:11:30Z</time>
      </trkpt>
      <trkpt lat="24.90802448202854" lon="118.54565026044176">
        <ele>7.788882032036781</ele>
        <time>2024-10-15T10:11:38Z</time>
      </trkpt>
      <trkpt lat="24.907956428582416" lon="118.54540986446692">
        <ele>7.327570520341396</ele>
        <time>2024-10-15T10:11:42Z</time>
      </trkpt>
      <trkpt lat="24.907770848946928" lon="118.54494579310912">
        <ele>7.542814171873033</ele>
        <time>2024-10-15T10:11:53Z</time>
      </trkpt>
      <trkpt lat="24.907711279092254" lon="118.54474852499263">
        <ele>7.922893670387566</ele>
        <time>2024-10-15T10:11:58Z</time>
      </trkpt>
      <trkpt lat="24.90755178774405" lon="118.54441363259006">
        <ele>7.50425754673779</ele>
        <time>2024-10-15T10:12:06Z</time>
      </trkpt>
      <trkpt lat="24.907469239382984" lon="118.54411142762105">
        <ele>7.321734108962119</ele>
        <time>2024-10-15T10:12:12Z</time>
      </trkpt>
      <trkpt lat="24.90745550672558" lon="118.54383334362078">
        <ele>7.941594718024135</ele>
        <time>2024-10-15T10:12:18Z</time>
      </trkpt>
      <trkpt lat="24.907389271443755" lon="118.54375660069009">
        <ele>7.817806035280228</ele>
        <time>2024-10-15T10:13:04Z</time>
      </trkpt>
      <trkpt lat="24.907391345684267" lon="118.54366232132676">
        <ele>8.12732720375061</ele>
        <time>2024-10-15T10:13:08Z</time>
      </trkpt>
      <trkpt lat="24.90737539621762" lon="118.54358078485227">
        <ele>7.704468437470496</ele>
        <time>2024-10-15T10:13:11Z</time>
      </trkpt>
      <trkpt lat="24.90740536574125" lon="118.54349210028853">
        <ele>6.760196107439697</ele>
        <time>2024-10-15T10:13:41Z</time>
      </trkpt>
      <trkpt lat="24.90738105018597" lon="118.54341206920628">
        <ele>7.193965589627624</ele>
        <time>2024-10-15T10:13:47Z</time>
      </trkpt>
      <trkpt lat="24.90746936971352" lon="118.5430510189033">
        <ele>7.615740867331624</ele>
        <time>2024-10-15T10:13:59Z</time>
      </trkpt>
      <trkpt lat="24.907519450125253" lon="118.54297941495248">
        <ele>7.54098339471966</ele>
        <time>2024-10-15T10:14:01Z</time>
      </trkpt>
      <trkpt lat="24.907662251634882" lon="118.54262792688368">
        <ele>8.171403704211116</ele>
        <time>2024-10-15T10:14:10Z</time>
      </trkpt>
      <trkpt lat="24.907772207839074" lon="118.54233753119033">
        <ele>7.967775723896921</ele>
        <time>2024-10-15T10:14:16Z</time>
      </trkpt>
      <trkpt lat="24.90781963708386" lon="118.54225446322944">
        <ele>7.642565279267728</ele>
        <time>2024-10-15T10:14:18Z</time>
      </trkpt>
      <trkpt lat="24.907988965073276" lon="118.54174216870756">
        <ele>8.834010645747185</ele>
        <time>2024-10-15T10:14:29Z</time>
      </trkpt>
      <trkpt lat="24.908171299345973" lon="118.54125492009915">
        <ele>9.647426434792578</ele>
        <time>2024-10-15T10:14:40Z</time>
      </trkpt>
      <trkpt lat="24.908329288416716" lon="118.54097263440977">
        <ele>8.49020363483578</ele>
        <time>2024-10-15T10:14:47Z</time>
      </trkpt>
      <trkpt lat="24.908385046083268" lon="118.54090034567062">
        <ele>8.022240784950554</ele>
        <time>2024-10-15T10:14:49Z</time>
      </trkpt>
      <trkpt lat="24.908493731965464" lon="118.5406586424974">
        <ele>7.9052172023803</ele>
        <time>2024-10-15T10:14:54Z</time>
      </trkpt>
      <trkpt lat="24.90850950247623" lon="118.540577765489">
        <ele>7.89853810146451</ele>
        <time>2024-10-15T10:14:56Z</time>
      </trkpt>
      <trkpt lat="24.908476689729913" lon="118.54066528787996">
        <ele>7.382666951045394</ele>
        <time>2024-10-15T10:15:13Z</time>
      </trkpt>
      <trkpt lat="24.90847650607836" lon="118.54073381641257">
        <ele>7.457467233762145</ele>
        <time>2024-10-15T10:15:18Z</time>
      </trkpt>
    </trkseg>
  </trk>
</gpx>