<?xml version="1.0" encoding="UTF-8"?>
<gpx xmlns="http://www.topografix.com/GPX/1/1" xmlns:gpxtpx="http://www.garmin.com/xmlschemas/TrackPointExtension/v1" xmlns:xsi="http://www.w3.org/2001/XMLSchema-instance" xsi:schemaLocation="http://www.topografix.com/GPX/1/1 http://www.topografix.com/GPX/1/1/gpx.xsd" version="1.1" creator="gpx.py -- https://github.com/tkrajina/gpxpy">
  <trk>
    <name>gpx from keep</name>
    <type>Run</type>
    <trkseg>
      <trkpt lat="24.91132893153432" lon="118.53736105222207">
        <ele>10.35693860705942</ele>
        <time>2025-05-12T13:13:11Z</time>
      </trkpt>
      <trkpt lat="24.9111616744033" lon="118.53769947227836">
        <ele>9.79157910309732</ele>
        <time>2025-05-12T13:13:23Z</time>
      </trkpt>
      <trkpt lat="24.91100676746383" lon="118.5380533245891">
        <ele>9.944139289669693</ele>
        <time>2025-05-12T13:13:35Z</time>
      </trkpt>
      <trkpt lat="24.910881700228558" lon="118.53833491274648">
        <ele>9.25447382684797</ele>
        <time>2025-05-12T13:13:44Z</time>
      </trkpt>
      <trkpt lat="24.91083152571265" lon="118.53842517207562">
        <ele>9.94729435350746</ele>
        <time>2025-05-12T13:13:47Z</time>
      </trkpt>
      <trkpt lat="24.910839982664665" lon="118.53852752299129">
        <ele>8.904169058427215</ele>
        <time>2025-05-12T13:13:50Z</time>
      </trkpt>
      <trkpt lat="24.910914480737063" lon="118.53861976469796">
        <ele>9.448201666586101</ele>
        <time>2025-05-12T13:13:53Z</time>
      </trkpt>
      <trkpt lat="24.91099878422587" lon="118.53867535304843">
        <ele>10.103428153321147</ele>
        <time>2025-05-12T13:13:56Z</time>
      </trkpt>
      <trkpt lat="24.9111727224559" lon="118.53874100645919">
        <ele>9.695330187678337</ele>
        <time>2025-05-12T13:14:02Z</time>
      </trkpt>
      <trkpt lat="24.911224309142597" lon="118.538808362416">
        <ele>9.871352705173194</ele>
        <time>2025-05-12T13:14:05Z</time>
      </trkpt>
      <trkpt lat="24.91115376928798" lon="118.53918188537241">
        <ele>7.621648010797799</ele>
        <time>2025-05-12T13:14:17Z</time>
      </trkpt>
      <trkpt lat="24.911080217905184" lon="118.53955646472447">
        <ele>6.861827164888382</ele>
        <time>2025-05-12T13:14:29Z</time>
      </trkpt>
      <trkpt lat="24.91095225873503" lon="118.53990197279344">
        <ele>7.747418845072389</ele>
        <time>2025-05-12T13:14:41Z</time>
      </trkpt>
      <trkpt lat="24.910933079770402" lon="118.54008917542477">
        <ele>8.366213781759143</ele>
        <time>2025-05-12T13:14:47Z</time>
      </trkpt>
      <trkpt lat="24.910893626729205" lon="118.54017444437463">
        <ele>7.6367236552760005</ele>
        <time>2025-05-12T13:14:50Z</time>
      </trkpt>
      <trkpt lat="24.91088396458157" lon="118.54031684307382">
        <ele>7.294554820284247</ele>
        <time>2025-05-12T13:14:56Z</time>
      </trkpt>
      <trkpt lat="24.910808737261014" lon="118.54068047656372">
        <ele>7.511830183677375</ele>
        <time>2025-05-12T13:15:08Z</time>
      </trkpt>
      <trkpt lat="24.910789211126833" lon="118.5409093369698">
        <ele>7.628475831821561</ele>
        <time>2025-05-12T13:15:16Z</time>
      </trkpt>
      <trkpt lat="24.910746255949935" lon="118.54101795878796">
        <ele>7.750811913050711</ele>
        <time>2025-05-12T13:15:20Z</time>
      </trkpt>
      <trkpt lat="24.910664058400542" lon="118.54112148327661">
        <ele>7.790880757384002</ele>
        <time>2025-05-12T13:15:24Z</time>
      </trkpt>
      <trkpt lat="24.910530458724462" lon="118.54119573848166">
        <ele>7.238867818377912</ele>
        <time>2025-05-12T13:15:28Z</time>
      </trkpt>
      <trkpt lat="24.910390321423417" lon="118.54130261249148">
        <ele>8.657622722908854</ele>
        <time>2025-05-12T13:15:32Z</time>
      </trkpt>
      <trkpt lat="24.910195276879442" lon="118.54152263316792">
        <ele>7.318360130302608</ele>
        <time>2025-05-12T13:15:39Z</time>
      </trkpt>
      <trkpt lat="24.910129393865514" lon="118.54161547833206">
        <ele>7.636472168378532</ele>
        <time>2025-05-12T13:15:42Z</time>
      </trkpt>
      <trkpt lat="24.910109850687636" lon="118.54171069068683">
        <ele>7.476365857757628</ele>
        <time>2025-05-12T13:15:45Z</time>
      </trkpt>
      <trkpt lat="24.91013490633072" lon="118.54182743886356">
        <ele>7.695141931064427</ele>
        <time>2025-05-12T13:15:48Z</time>
      </trkpt>
      <trkpt lat="24.91026206555449" lon="118.54206596276748">
        <ele>7.334572424180806</ele>
        <time>2025-05-12T13:15:54Z</time>
      </trkpt>
      <trkpt lat="24.9102962155529" lon="118.54225419043719">
        <ele>8.018586674705148</ele>
        <time>2025-05-12T13:16:00Z</time>
      </trkpt>
      <trkpt lat="24.910261907526415" lon="118.54233709600156">
        <ele>7.704351339489222</ele>
        <time>2025-05-12T13:16:03Z</time>
      </trkpt>
      <trkpt lat="24.91029296742177" lon="118.54257698614073">
        <ele>7.941322169266641</ele>
        <time>2025-05-12T13:16:09Z</time>
      </trkpt>
      <trkpt lat="24.910257946534134" lon="118.54288994808144">
        <ele>7.605747641064227</ele>
        <time>2025-05-12T13:16:18Z</time>
      </trkpt>
      <trkpt lat="24.910240566381002" lon="118.5429851649862">
        <ele>7.33300812728703</ele>
        <time>2025-05-12T13:16:21Z</time>
      </trkpt>
      <trkpt lat="24.910267148114364" lon="118.54315789843943">
        <ele>7.793606559745967</ele>
        <time>2025-05-12T13:16:27Z</time>
      </trkpt>
      <trkpt lat="24.910254489036124" lon="118.54332212312967">
        <ele>7.8920636512339115</ele>
        <time>2025-05-12T13:16:33Z</time>
      </trkpt>
      <trkpt lat="24.910316580967674" lon="118.54337370369069">
        <ele>7.994893393479288</ele>
        <time>2025-05-12T13:16:36Z</time>
      </trkpt>
      <trkpt lat="24.910626568240637" lon="118.54333864047163">
        <ele>7.798329453915358</ele>
        <time>2025-05-12T13:16:48Z</time>
      </trkpt>
      <trkpt lat="24.91094918416442" lon="118.54330885223472">
        <ele>8.355423896573484</ele>
        <time>2025-05-12T13:17:00Z</time>
      </trkpt>
      <trkpt lat="24.91127020804719" lon="118.54327801688838">
        <ele>8.209578836336732</ele>
        <time>2025-05-12T13:17:12Z</time>
      </trkpt>
      <trkpt lat="24.911372012193937" lon="118.54324724648632">
        <ele>8.794184729456902</ele>
        <time>2025-05-12T13:17:16Z</time>
      </trkpt>
      <trkpt lat="24.911616041848536" lon="118.5432176917557">
        <ele>8.115083804354072</ele>
        <time>2025-05-12T13:17:24Z</time>
      </trkpt>
      <trkpt lat="24.911975147709814" lon="118.54313622996311">
        <ele>7.9070959547534585</ele>
        <time>2025-05-12T13:17:36Z</time>
      </trkpt>
      <trkpt lat="24.91227249584333" lon="118.54305360610867">
        <ele>7.911354339681566</ele>
        <time>2025-05-12T13:17:47Z</time>
      </trkpt>
      <trkpt lat="24.912534696873834" lon="118.54297591498214">
        <ele>8.147764839231968</ele>
        <time>2025-05-12T13:17:56Z</time>
      </trkpt>
      <trkpt lat="24.912810406223276" lon="118.54289063463185">
        <ele>8.291570867411792</ele>
        <time>2025-05-12T13:18:05Z</time>
      </trkpt>
      <trkpt lat="24.9130725339098" lon="118.54281418445358">
        <ele>7.959361067973077</ele>
        <time>2025-05-12T13:18:14Z</time>
      </trkpt>
      <trkpt lat="24.913342576884258" lon="118.54276793827452">
        <ele>7.517982390709221</ele>
        <time>2025-05-12T13:18:23Z</time>
      </trkpt>
      <trkpt lat="24.913609154378555" lon="118.54270338899066">
        <ele>8.12098050955683</ele>
        <time>2025-05-12T13:18:32Z</time>
      </trkpt>
      <trkpt lat="24.913945517274133" lon="118.54260793921809">
        <ele>8.783017046749592</ele>
        <time>2025-05-12T13:18:44Z</time>
      </trkpt>
      <trkpt lat="24.914185410664505" lon="118.54249971214543">
        <ele>10.291268792003393</ele>
        <time>2025-05-12T13:18:53Z</time>
      </trkpt>
      <trkpt lat="24.914463373190117" lon="118.54242848388479">
        <ele>10.133086876012385</ele>
        <time>2025-05-12T13:19:02Z</time>
      </trkpt>
      <trkpt lat="24.91465409150053" lon="118.54239938701298">
        <ele>10.281929397024214</ele>
        <time>2025-05-12T13:19:08Z</time>
      </trkpt>
      <trkpt lat="24.914998979826322" lon="118.54230927248798">
        <ele>10.797419756650925</ele>
        <time>2025-05-12T13:19:20Z</time>
      </trkpt>
      <trkpt lat="24.91525807679257" lon="118.54225886582513">
        <ele>12.176581212319434</ele>
        <time>2025-05-12T13:19:28Z</time>
      </trkpt>
      <trkpt lat="24.91557993646092" lon="118.54212755629419">
        <ele>12.078368394635618</ele>
        <time>2025-05-12T13:19:40Z</time>
      </trkpt>
      <trkpt lat="24.915888272619167" lon="118.54204378537901">
        <ele>12.740537775680423</ele>
        <time>2025-05-12T13:19:50Z</time>
      </trkpt>
      <trkpt lat="24.915971131901742" lon="118.54202219163227">
        <ele>12.974205813370645</ele>
        <time>2025-05-12T13:19:53Z</time>
      </trkpt>
      <trkpt lat="24.916183721579632" lon="118.5418963948584">
        <ele>12.775602547451854</ele>
        <time>2025-05-12T13:20:02Z</time>
      </trkpt>
      <trkpt lat="24.916263185455513" lon="118.54188337642802">
        <ele>11.99074596632272</ele>
        <time>2025-05-12T13:20:05Z</time>
      </trkpt>
      <trkpt lat="24.91632032789316" lon="118.54183151103041">
        <ele>12.861698153428733</ele>
        <time>2025-05-12T13:20:08Z</time>
      </trkpt>
      <trkpt lat="24.916440038277518" lon="118.54175998116312">
        <ele>12.257341766729951</ele>
        <time>2025-05-12T13:20:14Z</time>
      </trkpt>
      <trkpt lat="24.916699934170392" lon="118.54171761692554">
        <ele>11.63504665158689</ele>
        <time>2025-05-12T13:20:23Z</time>
      </trkpt>
      <trkpt lat="24.916855867061688" lon="118.54166923347535">
        <ele>11.497591027989984</ele>
        <time>2025-05-12T13:20:29Z</time>
      </trkpt>
      <trkpt lat="24.917029002010427" lon="118.54169595763939">
        <ele>10.610593097284436</ele>
        <time>2025-05-12T13:20:35Z</time>
      </trkpt>
      <trkpt lat="24.91736028308166" lon="118.54167220971276">
        <ele>9.820907547138631</ele>
        <time>2025-05-12T13:20:47Z</time>
      </trkpt>
      <trkpt lat="24.917522133850124" lon="118.54164634317267">
        <ele>10.160323940217495</ele>
        <time>2025-05-12T13:20:53Z</time>
      </trkpt>
      <trkpt lat="24.917794460033647" lon="118.5416755871615">
        <ele>10.45884613506496</ele>
        <time>2025-05-12T13:21:02Z</time>
      </trkpt>
      <trkpt lat="24.918147026863938" lon="118.54165981127923">
        <ele>11.099752251058817</ele>
        <time>2025-05-12T13:21:14Z</time>
      </trkpt>
      <trkpt lat="24.91823935289694" lon="118.54168333536565">
        <ele>10.131050119176507</ele>
        <time>2025-05-12T13:21:17Z</time>
      </trkpt>
      <trkpt lat="24.918511249072175" lon="118.5417031107823">
        <ele>12.437071612104774</ele>
        <time>2025-05-12T13:21:26Z</time>
      </trkpt>
      <trkpt lat="24.918851090294485" lon="118.54172072573466">
        <ele>12.94506176467985</ele>
        <time>2025-05-12T13:21:38Z</time>
      </trkpt>
      <trkpt lat="24.919213264854932" lon="118.54172269135475">
        <ele>14.132110825739801</ele>
        <time>2025-05-12T13:21:50Z</time>
      </trkpt>
      <trkpt lat="24.91951759374786" lon="118.54170284280934">
        <ele>14.89096188172698</ele>
        <time>2025-05-12T13:22:00Z</time>
      </trkpt>
      <trkpt lat="24.91960329827082" lon="118.54168883567267">
        <ele>14.92122182622552</ele>
        <time>2025-05-12T13:22:03Z</time>
      </trkpt>
      <trkpt lat="24.919960811665423" lon="118.5416983099151">
        <ele>15.201748182997108</ele>
        <time>2025-05-12T13:22:15Z</time>
      </trkpt>
      <trkpt lat="24.920210809838828" lon="118.54169097568696">
        <ele>15.135656956583261</ele>
        <time>2025-05-12T13:22:24Z</time>
      </trkpt>
      <trkpt lat="24.920292846498885" lon="118.54166964932625">
        <ele>15.144966704770923</ele>
        <time>2025-05-12T13:22:27Z</time>
      </trkpt>
      <trkpt lat="24.92036042473181" lon="118.54163272221264">
        <ele>15.360767532140017</ele>
        <time>2025-05-12T13:22:30Z</time>
      </trkpt>
      <trkpt lat="24.920410598537472" lon="118.54157371990937">
        <ele>15.582590914331377</ele>
        <time>2025-05-12T13:22:33Z</time>
      </trkpt>
      <trkpt lat="24.920490088655743" lon="118.54157800725692">
        <ele>15.305702535435557</ele>
        <time>2025-05-12T13:22:36Z</time>
      </trkpt>
      <trkpt lat="24.920533906807794" lon="118.54156334015711">
        <ele>14.822871906682849</ele>
        <time>2025-05-12T13:22:39Z</time>
      </trkpt>
      <trkpt lat="24.920622053528188" lon="118.54157030486614">
        <ele>14.753546932712197</ele>
        <time>2025-05-12T13:22:42Z</time>
      </trkpt>
      <trkpt lat="24.920775497113652" lon="118.54167924090596">
        <ele>14.86054736096412</ele>
        <time>2025-05-12T13:22:48Z</time>
      </trkpt>
      <trkpt lat="24.921121141698137" lon="118.54169764373097">
        <ele>15.559449011459947</ele>
        <time>2025-05-12T13:23:00Z</time>
      </trkpt>
      <trkpt lat="24.92145641082404" lon="118.54169648823147">
        <ele>16.974233746528625</ele>
        <time>2025-05-12T13:23:12Z</time>
      </trkpt>
      <trkpt lat="24.92173283260272" lon="118.54170987536155">
        <ele>17.93252335768193</ele>
        <time>2025-05-12T13:23:21Z</time>
      </trkpt>
      <trkpt lat="24.92208837319169" lon="118.54173238594439">
        <ele>18.19782751519233</ele>
        <time>2025-05-12T13:23:34Z</time>
      </trkpt>
      <trkpt lat="24.922390294144122" lon="118.5417900614516">
        <ele>19.4467947864905</ele>
        <time>2025-05-12T13:23:45Z</time>
      </trkpt>
      <trkpt lat="24.922734848000335" lon="118.54187472428961">
        <ele>21.026333471760154</ele>
        <time>2025-05-12T13:23:57Z</time>
      </trkpt>
      <trkpt lat="24.923070336341283" lon="118.54195296526582">
        <ele>22.095877891406417</ele>
        <time>2025-05-12T13:24:10Z</time>
      </trkpt>
      <trkpt lat="24.923165145453247" lon="118.54195068160527">
        <ele>22.3386698840186</ele>
        <time>2025-05-12T13:24:13Z</time>
      </trkpt>
      <trkpt lat="24.923487375612385" lon="118.54202992551524">
        <ele>24.380253969691694</ele>
        <time>2025-05-12T13:24:25Z</time>
      </trkpt>
      <trkpt lat="24.923546326429552" lon="118.54209629622459">
        <ele>25.482520879246294</ele>
        <time>2025-05-12T13:24:28Z</time>
      </trkpt>
      <trkpt lat="24.92358808911579" lon="118.542175558708">
        <ele>25.610306235030293</ele>
        <time>2025-05-12T13:24:31Z</time>
      </trkpt>
      <trkpt lat="24.92365705480935" lon="118.54222943172249">
        <ele>27.341390063986182</ele>
        <time>2025-05-12T13:24:34Z</time>
      </trkpt>
      <trkpt lat="24.923955964891213" lon="118.54239273029002">
        <ele>28.939918238669634</ele>
        <time>2025-05-12T13:24:46Z</time>
      </trkpt>
      <trkpt lat="24.92419387918904" lon="118.54252105765107">
        <ele>30.89840115699917</ele>
        <time>2025-05-12T13:24:55Z</time>
      </trkpt>
      <trkpt lat="24.924272392597775" lon="118.54258328734491">
        <ele>31.451741716824472</ele>
        <time>2025-05-12T13:24:58Z</time>
      </trkpt>
      <trkpt lat="24.924355486687073" lon="118.54261928414864">
        <ele>32.01029753871262</ele>
        <time>2025-05-12T13:25:01Z</time>
      </trkpt>
      <trkpt lat="24.92466052119751" lon="118.54284424004564">
        <ele>31.354712859727442</ele>
        <time>2025-05-12T13:25:13Z</time>
      </trkpt>
      <trkpt lat="24.92479970805125" lon="118.54297039846054">
        <ele>31.17671984806657</ele>
        <time>2025-05-12T13:25:19Z</time>
      </trkpt>
      <trkpt lat="24.92504174945787" lon="118.54313829743774">
        <ele>29.511476340703666</ele>
        <time>2025-05-12T13:25:28Z</time>
      </trkpt>
      <trkpt lat="24.92524663673161" lon="118.54334627743249">
        <ele>26.493648851290345</ele>
        <time>2025-05-12T13:25:37Z</time>
      </trkpt>
      <trkpt lat="24.925447343424228" lon="118.54348791163878">
        <ele>24.905766564421356</ele>
        <time>2025-05-12T13:25:45Z</time>
      </trkpt>
      <trkpt lat="24.925527949016438" lon="118.54359463319176">
        <ele>23.96783326845616</ele>
        <time>2025-05-12T13:25:49Z</time>
      </trkpt>
      <trkpt lat="24.925570623917235" lon="118.54372402531646">
        <ele>23.826483014039695</ele>
        <time>2025-05-12T13:25:53Z</time>
      </trkpt>
      <trkpt lat="24.925832887154716" lon="118.54403617696111">
        <ele>21.5195955876261</ele>
        <time>2025-05-12T13:26:05Z</time>
      </trkpt>
      <trkpt lat="24.926013099645246" lon="118.54427811051298">
        <ele>19.538099832832813</ele>
        <time>2025-05-12T13:26:14Z</time>
      </trkpt>
      <trkpt lat="24.92617665794933" lon="118.54453012916191">
        <ele>17.40336855314672</ele>
        <time>2025-05-12T13:26:23Z</time>
      </trkpt>
      <trkpt lat="24.926333006944763" lon="118.54479377506325">
        <ele>16.782544631510973</ele>
        <time>2025-05-12T13:26:32Z</time>
      </trkpt>
      <trkpt lat="24.9264878782288" lon="118.54504946848138">
        <ele>16.526634277775884</ele>
        <time>2025-05-12T13:26:41Z</time>
      </trkpt>
      <trkpt lat="24.926635292924107" lon="118.5453271657342">
        <ele>14.687499355524778</ele>
        <time>2025-05-12T13:26:50Z</time>
      </trkpt>
      <trkpt lat="24.926786951461278" lon="118.5455891288896">
        <ele>14.330030490644276</ele>
        <time>2025-05-12T13:26:59Z</time>
      </trkpt>
      <trkpt lat="24.92693877954935" lon="118.54583531157661">
        <ele>12.503201184794307</ele>
        <time>2025-05-12T13:27:08Z</time>
      </trkpt>
      <trkpt lat="24.927117868289873" lon="118.54616845308456">
        <ele>11.963650177232921</ele>
        <time>2025-05-12T13:27:20Z</time>
      </trkpt>
      <trkpt lat="24.927217811133655" lon="118.54632016385922">
        <ele>11.179401682689786</ele>
        <time>2025-05-12T13:27:26Z</time>
      </trkpt>
      <trkpt lat="24.927348829797413" lon="118.54643346788528">
        <ele>10.26702875457704</ele>
        <time>2025-05-12T13:27:32Z</time>
      </trkpt>
      <trkpt lat="24.92751739220237" lon="118.54646702341789">
        <ele>9.794516590423882</ele>
        <time>2025-05-12T13:27:38Z</time>
      </trkpt>
      <trkpt lat="24.9276846662198" lon="118.54643429349554">
        <ele>10.240539473481476</ele>
        <time>2025-05-12T13:27:44Z</time>
      </trkpt>
      <trkpt lat="24.927817306841312" lon="118.54635558121863">
        <ele>9.951375684700906</ele>
        <time>2025-05-12T13:27:50Z</time>
      </trkpt>
      <trkpt lat="24.928091138296995" lon="118.54628700738846">
        <ele>10.119892950169742</ele>
        <time>2025-05-12T13:27:59Z</time>
      </trkpt>
      <trkpt lat="24.928435417720735" lon="118.54623058500485">
        <ele>10.040350056253374</ele>
        <time>2025-05-12T13:28:11Z</time>
      </trkpt>
      <trkpt lat="24.92878763813092" lon="118.54612309516031">
        <ele>10.170929784886539</ele>
        <time>2025-05-12T13:28:23Z</time>
      </trkpt>
      <trkpt lat="24.92912016634934" lon="118.54600038272463">
        <ele>9.586876845918596</ele>
        <time>2025-05-12T13:28:35Z</time>
      </trkpt>
      <trkpt lat="24.929476064068776" lon="118.54589390613124">
        <ele>9.217580898664892</ele>
        <time>2025-05-12T13:28:47Z</time>
      </trkpt>
      <trkpt lat="24.929807828152438" lon="118.545762146611">
        <ele>10.241500633768737</ele>
        <time>2025-05-12T13:28:59Z</time>
      </trkpt>
      <trkpt lat="24.929891159201702" lon="118.54573507282993">
        <ele>9.974060661159456</ele>
        <time>2025-05-12T13:29:02Z</time>
      </trkpt>
      <trkpt lat="24.930201913957216" lon="118.54554464299449">
        <ele>10.15645959880203</ele>
        <time>2025-05-12T13:29:14Z</time>
      </trkpt>
      <trkpt lat="24.930384216906077" lon="118.545476494202">
        <ele>9.994825909845531</ele>
        <time>2025-05-12T13:29:20Z</time>
      </trkpt>
      <trkpt lat="24.930693634553254" lon="118.54531100322494">
        <ele>10.226145290769637</ele>
        <time>2025-05-12T13:29:32Z</time>
      </trkpt>
      <trkpt lat="24.931010095375992" lon="118.54511006179128">
        <ele>10.066678734496236</ele>
        <time>2025-05-12T13:29:44Z</time>
      </trkpt>
      <trkpt lat="24.93132016400353" lon="118.54490509348635">
        <ele>10.278671752661467</ele>
        <time>2025-05-12T13:29:56Z</time>
      </trkpt>
      <trkpt lat="24.931395817141603" lon="118.54486140836453">
        <ele>10.091306703165174</ele>
        <time>2025-05-12T13:29:59Z</time>
      </trkpt>
      <trkpt lat="24.931620558695982" lon="118.54468869076841">
        <ele>10.072635495103896</ele>
        <time>2025-05-12T13:30:08Z</time>
      </trkpt>
      <trkpt lat="24.931749587664026" lon="118.54457074928114">
        <ele>9.794718721881509</ele>
        <time>2025-05-12T13:30:14Z</time>
      </trkpt>
      <trkpt lat="24.93179608948396" lon="118.5445095355682">
        <ele>9.493895495310426</ele>
        <time>2025-05-12T13:30:17Z</time>
      </trkpt>
      <trkpt lat="24.93200636151089" lon="118.54426753763633">
        <ele>10.189012622460723</ele>
        <time>2025-05-12T13:30:29Z</time>
      </trkpt>
      <trkpt lat="24.9322268984013" lon="118.54404630759132">
        <ele>9.895325214602053</ele>
        <time>2025-05-12T13:30:38Z</time>
      </trkpt>
      <trkpt lat="24.93244649763877" lon="118.54383659948948">
        <ele>10.890456913039088</ele>
        <time>2025-05-12T13:30:47Z</time>
      </trkpt>
      <trkpt lat="24.932630484225054" lon="118.54360912912888">
        <ele>11.123978177085519</ele>
        <time>2025-05-12T13:30:56Z</time>
      </trkpt>
      <trkpt lat="24.932743420513205" lon="118.54345071450459">
        <ele>10.668824859894812</ele>
        <time>2025-05-12T13:31:02Z</time>
      </trkpt>
      <trkpt lat="24.932801403132146" lon="118.54327902960019">
        <ele>10.414280484430492</ele>
        <time>2025-05-12T13:31:08Z</time>
      </trkpt>
      <trkpt lat="24.932961255692604" lon="118.54308700179647">
        <ele>10.563000930473208</ele>
        <time>2025-05-12T13:31:17Z</time>
      </trkpt>
      <trkpt lat="24.933122162635442" lon="118.54284451917026">
        <ele>10.52886968664825</ele>
        <time>2025-05-12T13:31:26Z</time>
      </trkpt>
      <trkpt lat="24.93318387965242" lon="118.54267457925322">
        <ele>11.53992082271725</ele>
        <time>2025-05-12T13:31:32Z</time>
      </trkpt>
      <trkpt lat="24.933230509125725" lon="118.54259058303236">
        <ele>11.781680571846664</ele>
        <time>2025-05-12T13:31:35Z</time>
      </trkpt>
      <trkpt lat="24.933299134801008" lon="118.54253761126918">
        <ele>12.278015450574458</ele>
        <time>2025-05-12T13:31:38Z</time>
      </trkpt>
      <trkpt lat="24.93349056079923" lon="118.5422187047778">
        <ele>12.486398770473897</ele>
        <time>2025-05-12T13:31:50Z</time>
      </trkpt>
      <trkpt lat="24.933677283571157" lon="118.5418909894621">
        <ele>12.729624181054533</ele>
        <time>2025-05-12T13:32:02Z</time>
      </trkpt>
      <trkpt lat="24.93371324148088" lon="118.54182154910752">
        <ele>12.404257115907967</ele>
        <time>2025-05-12T13:32:05Z</time>
      </trkpt>
      <trkpt lat="24.933786064651606" lon="118.54174510604622">
        <ele>12.46641917899251</ele>
        <time>2025-05-12T13:32:08Z</time>
      </trkpt>
      <trkpt lat="24.933890931000448" lon="118.54146136230659">
        <ele>12.52244930807501</ele>
        <time>2025-05-12T13:32:17Z</time>
      </trkpt>
      <trkpt lat="24.93403040390986" lon="118.5410748285303">
        <ele>12.282392212189734</ele>
        <time>2025-05-12T13:32:32Z</time>
      </trkpt>
      <trkpt lat="24.934137038129304" lon="118.54075832240464">
        <ele>12.190440808422863</ele>
        <time>2025-05-12T13:32:41Z</time>
      </trkpt>
      <trkpt lat="24.934222663449997" lon="118.54046270267067">
        <ele>12.510141437873244</ele>
        <time>2025-05-12T13:32:50Z</time>
      </trkpt>
      <trkpt lat="24.934303598943586" lon="118.54008238255481">
        <ele>12.001681504771113</ele>
        <time>2025-05-12T13:33:02Z</time>
      </trkpt>
      <trkpt lat="24.93435045871592" lon="118.53975113252882">
        <ele>11.101842906326056</ele>
        <time>2025-05-12T13:33:12Z</time>
      </trkpt>
      <trkpt lat="24.93437517201863" lon="118.53944994767056">
        <ele>10.485515196807683</ele>
        <time>2025-05-12T13:33:21Z</time>
      </trkpt>
      <trkpt lat="24.934423523882675" lon="118.53905422145624">
        <ele>10.273265635594726</ele>
        <time>2025-05-12T13:33:33Z</time>
      </trkpt>
      <trkpt lat="24.934434069168784" lon="118.53874483651916">
        <ele>10.633592472411692</ele>
        <time>2025-05-12T13:33:42Z</time>
      </trkpt>
      <trkpt lat="24.93445098081475" lon="118.53843249601812">
        <ele>11.838077494874597</ele>
        <time>2025-05-12T13:33:51Z</time>
      </trkpt>
      <trkpt lat="24.93445704377951" lon="118.53813263226638">
        <ele>12.03768097795546</ele>
        <time>2025-05-12T13:34:00Z</time>
      </trkpt>
      <trkpt lat="24.934455767508286" lon="118.53782865874352">
        <ele>12.158597050234675</ele>
        <time>2025-05-12T13:34:09Z</time>
      </trkpt>
      <trkpt lat="24.934479820951164" lon="118.53744709495128">
        <ele>12.391813209280372</ele>
        <time>2025-05-12T13:34:21Z</time>
      </trkpt>
      <trkpt lat="24.93449375634789" lon="118.53713854778579">
        <ele>12.486922085285187</ele>
        <time>2025-05-12T13:34:30Z</time>
      </trkpt>
      <trkpt lat="24.934489901019067" lon="118.53674381911505">
        <ele>11.458431649021804</ele>
        <time>2025-05-12T13:34:42Z</time>
      </trkpt>
      <trkpt lat="24.934488555524425" lon="118.53640064588824">
        <ele>9.563336973078549</ele>
        <time>2025-05-12T13:34:54Z</time>
      </trkpt>
      <trkpt lat="24.934495669151328" lon="118.5363049973338">
        <ele>9.573158483952284</ele>
        <time>2025-05-12T13:34:57Z</time>
      </trkpt>
      <trkpt lat="24.934466174586376" lon="118.53595088824824">
        <ele>9.89279227051884</ele>
        <time>2025-05-12T13:35:06Z</time>
      </trkpt>
      <trkpt lat="24.934449621636897" lon="118.53562215717747">
        <ele>10.006025295704603</ele>
        <time>2025-05-12T13:35:16Z</time>
      </trkpt>
      <trkpt lat="24.934451203406145" lon="118.53531757434558">
        <ele>10.108946320600808</ele>
        <time>2025-05-12T13:35:24Z</time>
      </trkpt>
      <trkpt lat="24.93445826367145" lon="118.53501190064489">
        <ele>9.828405634500086</ele>
        <time>2025-05-12T13:35:33Z</time>
      </trkpt>
      <trkpt lat="24.934497451014547" lon="118.53495947837835">
        <ele>9.89701995253563</ele>
        <time>2025-05-12T13:35:36Z</time>
      </trkpt>
      <trkpt lat="24.934731509759928" lon="118.53487074085415">
        <ele>9.602103414013982</ele>
        <time>2025-05-12T13:35:45Z</time>
      </trkpt>
      <trkpt lat="24.934822381370125" lon="118.53490013266511">
        <ele>9.716915392316878</ele>
        <time>2025-05-12T13:35:48Z</time>
      </trkpt>
      <trkpt lat="24.93490702335714" lon="118.53486280631522">
        <ele>9.694432189688087</ele>
        <time>2025-05-12T13:35:51Z</time>
      </trkpt>
      <trkpt lat="24.934947580292736" lon="118.53502022447537">
        <ele>9.377349510788918</ele>
        <time>2025-05-12T13:35:57Z</time>
      </trkpt>
      <trkpt lat="24.93496367846984" lon="118.53540041055454">
        <ele>9.981705160811543</ele>
        <time>2025-05-12T13:36:09Z</time>
      </trkpt>
      <trkpt lat="24.93499641268582" lon="118.53578364203423">
        <ele>10.029876093380153</ele>
        <time>2025-05-12T13:36:21Z</time>
      </trkpt>
      <trkpt lat="24.934994453910324" lon="118.53588280192031">
        <ele>10.12100025266409</ele>
        <time>2025-05-12T13:36:24Z</time>
      </trkpt>
      <trkpt lat="24.934966002364238" lon="118.53597944005179">
        <ele>10.892394162714481</ele>
        <time>2025-05-12T13:36:27Z</time>
      </trkpt>
      <trkpt lat="24.9349826835591" lon="118.53627817080047">
        <ele>10.430265570990741</ele>
        <time>2025-05-12T13:36:36Z</time>
      </trkpt>
      <trkpt lat="24.93498888842919" lon="118.53637064320482">
        <ele>9.800384482368827</ele>
        <time>2025-05-12T13:36:39Z</time>
      </trkpt>
      <trkpt lat="24.934980198515703" lon="118.53657786065682">
        <ele>10.180205959826708</ele>
        <time>2025-05-12T13:36:45Z</time>
      </trkpt>
      <trkpt lat="24.93499915256065" lon="118.53687801066182">
        <ele>9.815749941393733</ele>
        <time>2025-05-12T13:36:54Z</time>
      </trkpt>
      <trkpt lat="24.934976716412695" lon="118.53718468343068">
        <ele>11.059284750372171</ele>
        <time>2025-05-12T13:37:03Z</time>
      </trkpt>
      <trkpt lat="24.9349563444016" lon="118.53738022138131">
        <ele>10.652907314710319</ele>
        <time>2025-05-12T13:37:09Z</time>
      </trkpt>
      <trkpt lat="24.93502382741792" lon="118.53777183653966">
        <ele>12.598554476164281</ele>
        <time>2025-05-12T13:37:21Z</time>
      </trkpt>
      <trkpt lat="24.935041263806124" lon="118.53786909331178">
        <ele>12.524168016389012</ele>
        <time>2025-05-12T13:37:24Z</time>
      </trkpt>
      <trkpt lat="24.935077273128258" lon="118.5379516771946">
        <ele>12.07738489098847</ele>
        <time>2025-05-12T13:37:27Z</time>
      </trkpt>
      <trkpt lat="24.93513855954449" lon="118.53798513150572">
        <ele>12.018753433600068</ele>
        <time>2025-05-12T13:37:30Z</time>
      </trkpt>
      <trkpt lat="24.935172916774466" lon="118.53806694003268">
        <ele>11.829051030799747</ele>
        <time>2025-05-12T13:37:33Z</time>
      </trkpt>
      <trkpt lat="24.935191404437642" lon="118.53826108340569">
        <ele>10.815348715521395</ele>
        <time>2025-05-12T13:37:39Z</time>
      </trkpt>
      <trkpt lat="24.935332947780317" lon="118.53827683965942">
        <ele>11.07076427154243</ele>
        <time>2025-05-12T13:37:45Z</time>
      </trkpt>
      <trkpt lat="24.93559185497248" lon="118.53839132493063">
        <ele>9.615971981547773</ele>
        <time>2025-05-12T13:37:54Z</time>
      </trkpt>
      <trkpt lat="24.935935534895364" lon="118.53855013963269">
        <ele>9.44749938417226</ele>
        <time>2025-05-12T13:38:06Z</time>
      </trkpt>
      <trkpt lat="24.936183556010917" lon="118.5386830719545">
        <ele>9.698126687668264</ele>
        <time>2025-05-12T13:38:15Z</time>
      </trkpt>
      <trkpt lat="24.936438035540732" lon="118.5387884817617">
        <ele>12.29390899837017</ele>
        <time>2025-05-12T13:38:24Z</time>
      </trkpt>
      <trkpt lat="24.936694364185087" lon="118.53890315485428">
        <ele>12.568793497048318</ele>
        <time>2025-05-12T13:38:33Z</time>
      </trkpt>
      <trkpt lat="24.936935686500128" lon="118.53899331509005">
        <ele>12.77980902325362</ele>
        <time>2025-05-12T13:38:42Z</time>
      </trkpt>
      <trkpt lat="24.93723226765941" lon="118.53917110872942">
        <ele>12.843259409070015</ele>
        <time>2025-05-12T13:38:54Z</time>
      </trkpt>
      <trkpt lat="24.937351604843727" lon="118.53919975762365">
        <ele>13.10045934934169</ele>
        <time>2025-05-12T13:39:00Z</time>
      </trkpt>
      <trkpt lat="24.93749850885553" lon="118.53927568202599">
        <ele>12.52993874065578</ele>
        <time>2025-05-12T13:39:06Z</time>
      </trkpt>
      <trkpt lat="24.937612088003803" lon="118.5393887140231">
        <ele>12.735073583200574</ele>
        <time>2025-05-12T13:39:12Z</time>
      </trkpt>
      <trkpt lat="24.937630732333144" lon="118.53946267270639">
        <ele>13.173111332580447</ele>
        <time>2025-05-12T13:39:15Z</time>
      </trkpt>
      <trkpt lat="24.937688421641393" lon="118.53954648400902">
        <ele>12.135450976900756</ele>
        <time>2025-05-12T13:39:18Z</time>
      </trkpt>
      <trkpt lat="24.93772560215304" lon="118.5396523308024">
        <ele>12.39445588644594</ele>
        <time>2025-05-12T13:39:21Z</time>
      </trkpt>
      <trkpt lat="24.937730424962446" lon="118.53987788009019">
        <ele>11.765147959813476</ele>
        <time>2025-05-12T13:39:27Z</time>
      </trkpt>
      <trkpt lat="24.937772188145175" lon="118.53997268018571">
        <ele>12.804803173057735</ele>
        <time>2025-05-12T13:39:30Z</time>
      </trkpt>
      <trkpt lat="24.937798571331225" lon="118.54009345519026">
        <ele>12.55097958818078</ele>
        <time>2025-05-12T13:39:33Z</time>
      </trkpt>
      <trkpt lat="24.937944148468247" lon="118.54042492813517">
        <ele>11.102266244590282</ele>
        <time>2025-05-12T13:39:42Z</time>
      </trkpt>
      <trkpt lat="24.93814428332487" lon="118.5406430039582">
        <ele>10.627895603887737</ele>
        <time>2025-05-12T13:39:48Z</time>
      </trkpt>
      <trkpt lat="24.938210181456146" lon="118.54074953458867">
        <ele>10.237463627010584</ele>
        <time>2025-05-12T13:39:51Z</time>
      </trkpt>
      <trkpt lat="24.938215723673096" lon="118.54092960870615">
        <ele>10.121317299082875</ele>
        <time>2025-05-12T13:39:57Z</time>
      </trkpt>
      <trkpt lat="24.93823355064604" lon="118.54102589110038">
        <ele>10.041669463738799</ele>
        <time>2025-05-12T13:40:00Z</time>
      </trkpt>
      <trkpt lat="24.938259127051953" lon="118.5413296468677">
        <ele>9.967505935579538</ele>
        <time>2025-05-12T13:40:09Z</time>
      </trkpt>
      <trkpt lat="24.9383171775058" lon="118.54165298046688">
        <ele>10.33708362840116</ele>
        <time>2025-05-12T13:40:18Z</time>
      </trkpt>
      <trkpt lat="24.938335956009883" lon="118.5417713895994">
        <ele>9.965720633976161</ele>
        <time>2025-05-12T13:40:21Z</time>
      </trkpt>
      <trkpt lat="24.938257729897558" lon="118.54204272628874">
        <ele>9.9458292638883</ele>
        <time>2025-05-12T13:40:27Z</time>
      </trkpt>
      <trkpt lat="24.938188374304435" lon="118.54213792702512">
        <ele>10.215209290385246</ele>
        <time>2025-05-12T13:40:30Z</time>
      </trkpt>
      <trkpt lat="24.93815734405584" lon="118.54223766972403">
        <ele>10.477195265702903</ele>
        <time>2025-05-12T13:40:33Z</time>
      </trkpt>
      <trkpt lat="24.938167890323804" lon="118.54245902945506">
        <ele>10.754733420908451</ele>
        <time>2025-05-12T13:40:39Z</time>
      </trkpt>
      <trkpt lat="24.93804001558039" lon="118.5427033386876">
        <ele>10.46358219627291</ele>
        <time>2025-05-12T13:40:48Z</time>
      </trkpt>
      <trkpt lat="24.938051792502872" lon="118.54280913286172">
        <ele>10.56236090324819</ele>
        <time>2025-05-12T13:40:51Z</time>
      </trkpt>
      <trkpt lat="24.93802885226221" lon="118.54286126595572">
        <ele>10.620925368741155</ele>
        <time>2025-05-12T13:40:54Z</time>
      </trkpt>
      <trkpt lat="24.937897898692963" lon="118.54303027756434">
        <ele>10.003313886001706</ele>
        <time>2025-05-12T13:41:03Z</time>
      </trkpt>
      <trkpt lat="24.937799541861693" lon="118.543186423923">
        <ele>8.462373984977603</ele>
        <time>2025-05-12T13:41:09Z</time>
      </trkpt>
      <trkpt lat="24.937811749706142" lon="118.5433093411633">
        <ele>8.922013458795846</ele>
        <time>2025-05-12T13:41:12Z</time>
      </trkpt>
      <trkpt lat="24.93768409569078" lon="118.54358567833664">
        <ele>8.757306007668376</ele>
        <time>2025-05-12T13:41:21Z</time>
      </trkpt>
      <trkpt lat="24.93767577208385" lon="118.54370229326965">
        <ele>8.43915031850338</ele>
        <time>2025-05-12T13:41:24Z</time>
      </trkpt>
      <trkpt lat="24.937484746381227" lon="118.54398774778481">
        <ele>8.8631562422961</ele>
        <time>2025-05-12T13:41:33Z</time>
      </trkpt>
      <trkpt lat="24.937450311849915" lon="118.54418241232038">
        <ele>8.094580701552331</ele>
        <time>2025-05-12T13:41:39Z</time>
      </trkpt>
      <trkpt lat="24.937356774312335" lon="118.54437338034263">
        <ele>7.90215636882931</ele>
        <time>2025-05-12T13:41:45Z</time>
      </trkpt>
      <trkpt lat="24.937278093909548" lon="118.54468745522283">
        <ele>8.328366128727794</ele>
        <time>2025-05-12T13:41:54Z</time>
      </trkpt>
      <trkpt lat="24.937259800826734" lon="118.54480293929764">
        <ele>9.104838393628597</ele>
        <time>2025-05-12T13:41:57Z</time>
      </trkpt>
      <trkpt lat="24.937218149234578" lon="118.54494320534712">
        <ele>9.973946857266128</ele>
        <time>2025-05-12T13:42:03Z</time>
      </trkpt>
      <trkpt lat="24.937150865109295" lon="118.54501880391406">
        <ele>9.842605512589216</ele>
        <time>2025-05-12T13:42:06Z</time>
      </trkpt>
      <trkpt lat="24.937040409149215" lon="118.54508190672594">
        <ele>9.694282877258956</ele>
        <time>2025-05-12T13:42:09Z</time>
      </trkpt>
      <trkpt lat="24.936994516450763" lon="118.54517841318143">
        <ele>9.97977109439671</ele>
        <time>2025-05-12T13:42:12Z</time>
      </trkpt>
      <trkpt lat="24.936825170452668" lon="118.54543483931685">
        <ele>9.726907551288605</ele>
        <time>2025-05-12T13:42:21Z</time>
      </trkpt>
      <trkpt lat="24.936668854934734" lon="118.54554357740996">
        <ele>10.175305843353271</ele>
        <time>2025-05-12T13:42:27Z</time>
      </trkpt>
      <trkpt lat="24.93662030920127" lon="118.54554554813271">
        <ele>10.795040985569358</ele>
        <time>2025-05-12T13:42:30Z</time>
      </trkpt>
      <trkpt lat="24.936691770163602" lon="118.54575471825211">
        <ele>9.912521834485233</ele>
        <time>2025-05-12T13:42:39Z</time>
      </trkpt>
      <trkpt lat="24.936680263635978" lon="118.54583312311297">
        <ele>10.018768935464323</ele>
        <time>2025-05-12T13:42:42Z</time>
      </trkpt>
      <trkpt lat="24.936690767321494" lon="118.54590624953974">
        <ele>9.480471645481884</ele>
        <time>2025-05-12T13:42:45Z</time>
      </trkpt>
      <trkpt lat="24.93671848141545" lon="118.54596375514906">
        <ele>10.610924154520035</ele>
        <time>2025-05-12T13:42:48Z</time>
      </trkpt>
      <trkpt lat="24.93679696441845" lon="118.54598173761809">
        <ele>9.63207171484828</ele>
        <time>2025-05-12T13:42:51Z</time>
      </trkpt>
      <trkpt lat="24.936909538527583" lon="118.54609147015991">
        <ele>9.730395000427961</ele>
        <time>2025-05-12T13:42:57Z</time>
      </trkpt>
      <trkpt lat="24.937047172260428" lon="118.54618623202839">
        <ele>9.635019302368164</ele>
        <time>2025-05-12T13:43:03Z</time>
      </trkpt>
      <trkpt lat="24.937225736713543" lon="118.54638396733539">
        <ele>8.66573452949524</ele>
        <time>2025-05-12T13:43:12Z</time>
      </trkpt>
      <trkpt lat="24.937268531473503" lon="118.54657277033989">
        <ele>8.010883406735957</ele>
        <time>2025-05-12T13:43:18Z</time>
      </trkpt>
      <trkpt lat="24.93734028598857" lon="118.54664465126996">
        <ele>8.136926863342524</ele>
        <time>2025-05-12T13:43:21Z</time>
      </trkpt>
      <trkpt lat="24.937420229517617" lon="118.54669208531001">
        <ele>9.466245209798217</ele>
        <time>2025-05-12T13:43:24Z</time>
      </trkpt>
      <trkpt lat="24.93767336009443" lon="118.54692936618943">
        <ele>9.487298413179815</ele>
        <time>2025-05-12T13:43:36Z</time>
      </trkpt>
      <trkpt lat="24.93775068988133" lon="118.546972403546">
        <ele>9.561246098019183</ele>
        <time>2025-05-12T13:43:39Z</time>
      </trkpt>
      <trkpt lat="24.937988319519945" lon="118.5471683566729">
        <ele>10.121763858012855</ele>
        <time>2025-05-12T13:43:49Z</time>
      </trkpt>
      <trkpt lat="24.938194105751535" lon="118.54732887755148">
        <ele>9.499014591798186</ele>
        <time>2025-05-12T13:43:58Z</time>
      </trkpt>
      <trkpt lat="24.93827291143983" lon="118.54737366419361">
        <ele>9.475015009753406</ele>
        <time>2025-05-12T13:44:01Z</time>
      </trkpt>
      <trkpt lat="24.938333634477235" lon="118.547430034821">
        <ele>9.415571802295744</ele>
        <time>2025-05-12T13:44:04Z</time>
      </trkpt>
      <trkpt lat="24.93852280174942" lon="118.54757427580971">
        <ele>9.56955567188561</ele>
        <time>2025-05-12T13:44:13Z</time>
      </trkpt>
      <trkpt lat="24.938622103820652" lon="118.54760990150737">
        <ele>9.765925600193441</ele>
        <time>2025-05-12T13:44:16Z</time>
      </trkpt>
      <trkpt lat="24.93870052714789" lon="118.54776798707479">
        <ele>10.516839046031237</ele>
        <time>2025-05-12T13:44:22Z</time>
      </trkpt>
      <trkpt lat="24.938911545226144" lon="118.54796562641963">
        <ele>9.76152955647558</ele>
        <time>2025-05-12T13:44:31Z</time>
      </trkpt>
      <trkpt lat="24.939115984057285" lon="118.54813583454087">
        <ele>10.834631938487291</ele>
        <time>2025-05-12T13:44:40Z</time>
      </trkpt>
      <trkpt lat="24.93924194397888" lon="118.54828058036006">
        <ele>11.99794590100646</ele>
        <time>2025-05-12T13:44:46Z</time>
      </trkpt>
      <trkpt lat="24.939463172947" lon="118.54845504976866">
        <ele>12.779637841507792</ele>
        <time>2025-05-12T13:44:55Z</time>
      </trkpt>
      <trkpt lat="24.93972021074461" lon="118.54868068570892">
        <ele>12.88162017147988</ele>
        <time>2025-05-12T13:45:07Z</time>
      </trkpt>
      <trkpt lat="24.93999006004791" lon="118.54889737547924">
        <ele>13.488517713733017</ele>
        <time>2025-05-12T13:45:19Z</time>
      </trkpt>
      <trkpt lat="24.94006089615401" lon="118.5489482728014">
        <ele>13.264626832678914</ele>
        <time>2025-05-12T13:45:22Z</time>
      </trkpt>
      <trkpt lat="24.940128075846765" lon="118.54897319672415">
        <ele>12.992389176040888</ele>
        <time>2025-05-12T13:45:25Z</time>
      </trkpt>
      <trkpt lat="24.940240885649008" lon="118.54912927272198">
        <ele>14.031448463909328</ele>
        <time>2025-05-12T13:45:37Z</time>
      </trkpt>
      <trkpt lat="24.940033308414662" lon="118.5489256839762">
        <ele>12.73161038570106</ele>
        <time>2025-05-12T13:45:49Z</time>
      </trkpt>
      <trkpt lat="24.939803919996184" lon="118.54874080497012">
        <ele>12.679376007989049</ele>
        <time>2025-05-12T13:45:59Z</time>
      </trkpt>
      <trkpt lat="24.939573917839535" lon="118.54855507637615">
        <ele>12.035712619312108</ele>
        <time>2025-05-12T13:46:08Z</time>
      </trkpt>
      <trkpt lat="24.93933778110512" lon="118.54837184507689">
        <ele>12.026772261597216</ele>
        <time>2025-05-12T13:46:17Z</time>
      </trkpt>
      <trkpt lat="24.9391330870154" lon="118.54815397382261">
        <ele>12.210287516005337</ele>
        <time>2025-05-12T13:46:26Z</time>
      </trkpt>
      <trkpt lat="24.938925263547105" lon="118.5479852873321">
        <ele>11.18410441558808</ele>
        <time>2025-05-12T13:46:35Z</time>
      </trkpt>
      <trkpt lat="24.938852971168178" lon="118.54790798682419">
        <ele>10.696472528390586</ele>
        <time>2025-05-12T13:46:38Z</time>
      </trkpt>
      <trkpt lat="24.93875681155392" lon="118.54784769268979">
        <ele>10.12869815621525</ele>
        <time>2025-05-12T13:46:42Z</time>
      </trkpt>
      <trkpt lat="24.938540643840657" lon="118.54760372409562">
        <ele>9.868527569808066</ele>
        <time>2025-05-12T13:46:52Z</time>
      </trkpt>
      <trkpt lat="24.938406717394482" lon="118.54747721686363">
        <ele>9.872916530817747</ele>
        <time>2025-05-12T13:46:58Z</time>
      </trkpt>
      <trkpt lat="24.938320752565286" lon="118.5474488251251">
        <ele>10.241627869196236</ele>
        <time>2025-05-12T13:47:01Z</time>
      </trkpt>
      <trkpt lat="24.938188458131545" lon="118.54732146359619">
        <ele>9.198780021630228</ele>
        <time>2025-05-12T13:47:07Z</time>
      </trkpt>
      <trkpt lat="24.938083706212986" lon="118.54716432079775">
        <ele>9.58936345204711</ele>
        <time>2025-05-12T13:47:13Z</time>
      </trkpt>
      <trkpt lat="24.937856145222295" lon="118.54699256223631">
        <ele>10.01020304299891</ele>
        <time>2025-05-12T13:47:22Z</time>
      </trkpt>
      <trkpt lat="24.93779984209443" lon="118.54691112053798">
        <ele>9.840290451422334</ele>
        <time>2025-05-12T13:47:25Z</time>
      </trkpt>
      <trkpt lat="24.937683232294884" lon="118.5468909032428">
        <ele>9.854911595582962</ele>
        <time>2025-05-12T13:47:28Z</time>
      </trkpt>
      <trkpt lat="24.93754867871569" lon="118.54677371163491">
        <ele>9.138348901644349</ele>
        <time>2025-05-12T13:47:34Z</time>
      </trkpt>
      <trkpt lat="24.937485040254696" lon="118.54673706034623">
        <ele>9.27852494083345</ele>
        <time>2025-05-12T13:47:37Z</time>
      </trkpt>
      <trkpt lat="24.937364200444584" lon="118.54662514838951">
        <ele>9.37918492499739</ele>
        <time>2025-05-12T13:47:43Z</time>
      </trkpt>
      <trkpt lat="24.93717317422107" lon="118.54641278190533">
        <ele>8.537199306301773</ele>
        <time>2025-05-12T13:47:52Z</time>
      </trkpt>
      <trkpt lat="24.93711805542737" lon="118.54631265446017">
        <ele>8.33394225127995</ele>
        <time>2025-05-12T13:47:55Z</time>
      </trkpt>
      <trkpt lat="24.936837933442167" lon="118.54605571056898">
        <ele>9.474964974448085</ele>
        <time>2025-05-12T13:48:07Z</time>
      </trkpt>
      <trkpt lat="24.936703207596327" lon="118.54592362548505">
        <ele>10.571541803888977</ele>
        <time>2025-05-12T13:48:13Z</time>
      </trkpt>
      <trkpt lat="24.93662635312312" lon="118.5457404409752">
        <ele>9.593742603436112</ele>
        <time>2025-05-12T13:48:19Z</time>
      </trkpt>
      <trkpt lat="24.936603779253407" lon="118.54564434643697">
        <ele>10.336814381182194</ele>
        <time>2025-05-12T13:48:22Z</time>
      </trkpt>
      <trkpt lat="24.93660628158105" lon="118.54555251366314">
        <ele>10.062100647948682</ele>
        <time>2025-05-12T13:48:25Z</time>
      </trkpt>
      <trkpt lat="24.9365473971392" lon="118.54550414469935">
        <ele>9.462879590690136</ele>
        <time>2025-05-12T13:48:28Z</time>
      </trkpt>
      <trkpt lat="24.93635914802699" lon="118.54554469441845">
        <ele>9.826829778961837</ele>
        <time>2025-05-12T13:48:34Z</time>
      </trkpt>
      <trkpt lat="24.936267476000804" lon="118.54553450391782">
        <ele>10.199167458340526</ele>
        <time>2025-05-12T13:48:37Z</time>
      </trkpt>
      <trkpt lat="24.936187916653704" lon="118.5454925096789">
        <ele>11.159010726958513</ele>
        <time>2025-05-12T13:48:40Z</time>
      </trkpt>
      <trkpt lat="24.93603566287952" lon="118.54534210215655">
        <ele>12.336769145913422</ele>
        <time>2025-05-12T13:48:47Z</time>
      </trkpt>
      <trkpt lat="24.93593655893685" lon="118.545277444956">
        <ele>12.356352624483407</ele>
        <time>2025-05-12T13:48:51Z</time>
      </trkpt>
      <trkpt lat="24.935715397122806" lon="118.54504979902947">
        <ele>12.552057581953704</ele>
        <time>2025-05-12T13:49:01Z</time>
      </trkpt>
      <trkpt lat="24.935515589109933" lon="118.54485803045452">
        <ele>12.165403082966805</ele>
        <time>2025-05-12T13:49:10Z</time>
      </trkpt>
      <trkpt lat="24.935429572543228" lon="118.54480381772518">
        <ele>12.212001769803464</ele>
        <time>2025-05-12T13:49:13Z</time>
      </trkpt>
      <trkpt lat="24.935283301520148" lon="118.54465708603455">
        <ele>12.080003249458969</ele>
        <time>2025-05-12T13:49:19Z</time>
      </trkpt>
      <trkpt lat="24.93512141579528" lon="118.54453769459973">
        <ele>12.51619198732078</ele>
        <time>2025-05-12T13:49:25Z</time>
      </trkpt>
      <trkpt lat="24.935019425556646" lon="118.54440998454801">
        <ele>12.35288030654192</ele>
        <time>2025-05-12T13:49:31Z</time>
      </trkpt>
      <trkpt lat="24.934966121959803" lon="118.54438152691601">
        <ele>12.855318539775908</ele>
        <time>2025-05-12T13:49:34Z</time>
      </trkpt>
      <trkpt lat="24.93476029460202" lon="118.54418736835515">
        <ele>12.353700476698577</ele>
        <time>2025-05-12T13:49:43Z</time>
      </trkpt>
      <trkpt lat="24.934674730531036" lon="118.54412586711695">
        <ele>12.640715002082288</ele>
        <time>2025-05-12T13:49:46Z</time>
      </trkpt>
      <trkpt lat="24.93441827194341" lon="118.54383949966964">
        <ele>12.527158552780747</ele>
        <time>2025-05-12T13:49:58Z</time>
      </trkpt>
      <trkpt lat="24.93440566109929" lon="118.5437745463781">
        <ele>12.749004077166319</ele>
        <time>2025-05-12T13:50:01Z</time>
      </trkpt>
      <trkpt lat="24.93420314007693" lon="118.54353281892135">
        <ele>12.340949778445065</ele>
        <time>2025-05-12T13:50:10Z</time>
      </trkpt>
      <trkpt lat="24.93412392757967" lon="118.54346448954611">
        <ele>11.691580504179</ele>
        <time>2025-05-12T13:50:13Z</time>
      </trkpt>
      <trkpt lat="24.93383896125166" lon="118.5432650465479">
        <ele>10.392984229139984</ele>
        <time>2025-05-12T13:50:25Z</time>
      </trkpt>
      <trkpt lat="24.93379203452769" lon="118.54317638428036">
        <ele>10.653347353450954</ele>
        <time>2025-05-12T13:50:28Z</time>
      </trkpt>
      <trkpt lat="24.93369985565957" lon="118.54317649980018">
        <ele>11.054257893934846</ele>
        <time>2025-05-12T13:50:31Z</time>
      </trkpt>
      <trkpt lat="24.933504584817328" lon="118.5435084628664">
        <ele>9.579461554065347</ele>
        <time>2025-05-12T13:50:43Z</time>
      </trkpt>
      <trkpt lat="24.93342219305287" lon="118.54358180608168">
        <ele>9.240723087452352</ele>
        <time>2025-05-12T13:50:46Z</time>
      </trkpt>
      <trkpt lat="24.9332829180081" lon="118.54377554497313">
        <ele>9.616510820575058</ele>
        <time>2025-05-12T13:50:53Z</time>
      </trkpt>
      <trkpt lat="24.933171930213476" lon="118.54380563790697">
        <ele>10.417950539849699</ele>
        <time>2025-05-12T13:50:57Z</time>
      </trkpt>
      <trkpt lat="24.932981977442054" lon="118.54405431161948">
        <ele>12.61113637406379</ele>
        <time>2025-05-12T13:51:07Z</time>
      </trkpt>
      <trkpt lat="24.932854894825454" lon="118.54419674132657">
        <ele>11.548940582200885</ele>
        <time>2025-05-12T13:51:13Z</time>
      </trkpt>
      <trkpt lat="24.93263675849028" lon="118.54440282418248">
        <ele>11.901737446896732</ele>
        <time>2025-05-12T13:51:22Z</time>
      </trkpt>
      <trkpt lat="24.93257645043918" lon="118.54447623300248">
        <ele>11.995708367787302</ele>
        <time>2025-05-12T13:51:25Z</time>
      </trkpt>
      <trkpt lat="24.932495786859675" lon="118.54452131964257">
        <ele>12.355786377564073</ele>
        <time>2025-05-12T13:51:28Z</time>
      </trkpt>
      <trkpt lat="24.932282529087136" lon="118.54472530753573">
        <ele>11.276472675614059</ele>
        <time>2025-05-12T13:51:37Z</time>
      </trkpt>
      <trkpt lat="24.932067266156924" lon="118.54493165796966">
        <ele>9.917594565078616</ele>
        <time>2025-05-12T13:51:46Z</time>
      </trkpt>
      <trkpt lat="24.93181018228101" lon="118.5451287523271">
        <ele>9.503274854272604</ele>
        <time>2025-05-12T13:51:55Z</time>
      </trkpt>
      <trkpt lat="24.931579482230067" lon="118.54529871364521">
        <ele>9.87335819285363</ele>
        <time>2025-05-12T13:52:04Z</time>
      </trkpt>
      <trkpt lat="24.93135061519079" lon="118.5454750276222">
        <ele>10.11338416673243</ele>
        <time>2025-05-12T13:52:13Z</time>
      </trkpt>
      <trkpt lat="24.931119112726712" lon="118.54564249375872">
        <ele>9.732014967128634</ele>
        <time>2025-05-12T13:52:22Z</time>
      </trkpt>
      <trkpt lat="24.930797550143463" lon="118.54581558734222">
        <ele>9.90301734302193</ele>
        <time>2025-05-12T13:52:34Z</time>
      </trkpt>
      <trkpt lat="24.930542269317765" lon="118.5459287456145">
        <ele>10.10894394852221</ele>
        <time>2025-05-12T13:52:43Z</time>
      </trkpt>
      <trkpt lat="24.930282626515694" lon="118.54606217658957">
        <ele>9.937736185267568</ele>
        <time>2025-05-12T13:52:52Z</time>
      </trkpt>
      <trkpt lat="24.929961158943957" lon="118.54620249587977">
        <ele>10.266327026300132</ele>
        <time>2025-05-12T13:53:03Z</time>
      </trkpt>
      <trkpt lat="24.92967341968821" lon="118.54633275149199">
        <ele>9.856359766796231</ele>
        <time>2025-05-12T13:53:13Z</time>
      </trkpt>
      <trkpt lat="24.929403863425307" lon="118.5464311273047">
        <ele>9.829003849066794</ele>
        <time>2025-05-12T13:53:22Z</time>
      </trkpt>
      <trkpt lat="24.929313822795468" lon="118.54648070472531">
        <ele>10.008989525958896</ele>
        <time>2025-05-12T13:53:25Z</time>
      </trkpt>
      <trkpt lat="24.929031830202938" lon="118.54655857126234">
        <ele>9.790827603079379</ele>
        <time>2025-05-12T13:53:34Z</time>
      </trkpt>
      <trkpt lat="24.92877375519899" lon="118.54666287190702">
        <ele>9.363934262655675</ele>
        <time>2025-05-12T13:53:43Z</time>
      </trkpt>
      <trkpt lat="24.928505298230586" lon="118.54678030394165">
        <ele>9.673484936356544</ele>
        <time>2025-05-12T13:53:52Z</time>
      </trkpt>
      <trkpt lat="24.928349587164774" lon="118.546854138657">
        <ele>9.648662027902901</ele>
        <time>2025-05-12T13:53:58Z</time>
      </trkpt>
      <trkpt lat="24.928061253764948" lon="118.54693788528944">
        <ele>9.749066626653075</ele>
        <time>2025-05-12T13:54:07Z</time>
      </trkpt>
      <trkpt lat="24.927783475248876" lon="118.54700670555737">
        <ele>9.905032838694751</ele>
        <time>2025-05-12T13:54:16Z</time>
      </trkpt>
      <trkpt lat="24.92768916579101" lon="118.54703534149223">
        <ele>11.044116467237473</ele>
        <time>2025-05-12T13:54:19Z</time>
      </trkpt>
      <trkpt lat="24.927639960560903" lon="118.54709560276076">
        <ele>10.504654265008867</ele>
        <time>2025-05-12T13:54:22Z</time>
      </trkpt>
      <trkpt lat="24.927610217205935" lon="118.54717046097711">
        <ele>9.947469319216907</ele>
        <time>2025-05-12T13:54:25Z</time>
      </trkpt>
      <trkpt lat="24.92751760433529" lon="118.5472208829407">
        <ele>9.863402475602925</ele>
        <time>2025-05-12T13:54:28Z</time>
      </trkpt>
      <trkpt lat="24.927342526502763" lon="118.54726755587406">
        <ele>9.362618930637836</ele>
        <time>2025-05-12T13:54:34Z</time>
      </trkpt>
      <trkpt lat="24.927274996306398" lon="118.54730239446528">
        <ele>8.304665009491146</ele>
        <time>2025-05-12T13:54:37Z</time>
      </trkpt>
      <trkpt lat="24.927219168968232" lon="118.54736699848091">
        <ele>9.044433508999646</ele>
        <time>2025-05-12T13:54:40Z</time>
      </trkpt>
      <trkpt lat="24.927048765676343" lon="118.5473530817785">
        <ele>9.9423385867849</ele>
        <time>2025-05-12T13:54:46Z</time>
      </trkpt>
      <trkpt lat="24.926724987099153" lon="118.54746351408407">
        <ele>9.581159476190805</ele>
        <time>2025-05-12T13:54:58Z</time>
      </trkpt>
      <trkpt lat="24.92655243075349" lon="118.54753887938382">
        <ele>9.267169292084873</ele>
        <time>2025-05-12T13:55:04Z</time>
      </trkpt>
      <trkpt lat="24.926207651109834" lon="118.54759423587532">
        <ele>10.675165622495115</ele>
        <time>2025-05-12T13:55:15Z</time>
      </trkpt>
      <trkpt lat="24.925902053553965" lon="118.5476792586087">
        <ele>10.223882975056767</ele>
        <time>2025-05-12T13:55:25Z</time>
      </trkpt>
      <trkpt lat="24.925637136371446" lon="118.5477759151307">
        <ele>10.697731382213533</ele>
        <time>2025-05-12T13:55:34Z</time>
      </trkpt>
      <trkpt lat="24.92536880038833" lon="118.54787103679301">
        <ele>10.444213856942952</ele>
        <time>2025-05-12T13:55:43Z</time>
      </trkpt>
      <trkpt lat="24.92509813060527" lon="118.54796464508368">
        <ele>9.79973706137389</ele>
        <time>2025-05-12T13:55:52Z</time>
      </trkpt>
      <trkpt lat="24.92483718650551" lon="118.54804711121224">
        <ele>10.36586710345</ele>
        <time>2025-05-12T13:56:01Z</time>
      </trkpt>
      <trkpt lat="24.924571284697247" lon="118.54814329622916">
        <ele>10.882805760018528</ele>
        <time>2025-05-12T13:56:10Z</time>
      </trkpt>
      <trkpt lat="24.924223054179368" lon="118.54826426941639">
        <ele>12.097567184828222</ele>
        <time>2025-05-12T13:56:22Z</time>
      </trkpt>
      <trkpt lat="24.92396150153145" lon="118.54837319981108">
        <ele>12.231109753251076</ele>
        <time>2025-05-12T13:56:31Z</time>
      </trkpt>
      <trkpt lat="24.9236968043015" lon="118.54847480580484">
        <ele>12.400157989934087</ele>
        <time>2025-05-12T13:56:40Z</time>
      </trkpt>
      <trkpt lat="24.92343662161848" lon="118.5485904329618">
        <ele>11.404457635246217</ele>
        <time>2025-05-12T13:56:49Z</time>
      </trkpt>
      <trkpt lat="24.92334018221032" lon="118.54860740076394">
        <ele>10.536894504912198</ele>
        <time>2025-05-12T13:56:52Z</time>
      </trkpt>
      <trkpt lat="24.92307589358294" lon="118.54876104010705">
        <ele>9.61685621086508</ele>
        <time>2025-05-12T13:57:04Z</time>
      </trkpt>
      <trkpt lat="24.922999995470402" lon="118.54879392791389">
        <ele>9.703832820989192</ele>
        <time>2025-05-12T13:57:07Z</time>
      </trkpt>
      <trkpt lat="24.92286808017511" lon="118.54877543487957">
        <ele>9.774800771847367</ele>
        <time>2025-05-12T13:57:11Z</time>
      </trkpt>
      <trkpt lat="24.922762598794506" lon="118.54867881834254">
        <ele>9.891835139133036</ele>
        <time>2025-05-12T13:57:15Z</time>
      </trkpt>
      <trkpt lat="24.922609605379222" lon="118.5483866646938">
        <ele>10.340334737673402</ele>
        <time>2025-05-12T13:57:25Z</time>
      </trkpt>
      <trkpt lat="24.922536082727994" lon="118.54833704504887">
        <ele>10.860521471127868</ele>
        <time>2025-05-12T13:57:28Z</time>
      </trkpt>
      <trkpt lat="24.922451090135574" lon="118.54834221638733">
        <ele>10.915594981051981</ele>
        <time>2025-05-12T13:57:31Z</time>
      </trkpt>
      <trkpt lat="24.922191395753163" lon="118.54845176009084">
        <ele>11.894059723243117</ele>
        <time>2025-05-12T13:57:40Z</time>
      </trkpt>
      <trkpt lat="24.922006202906214" lon="118.54849603486322">
        <ele>12.35606985911727</ele>
        <time>2025-05-12T13:57:46Z</time>
      </trkpt>
      <trkpt lat="24.92175177616744" lon="118.54860332689388">
        <ele>12.470293979160488</ele>
        <time>2025-05-12T13:57:55Z</time>
      </trkpt>
      <trkpt lat="24.92149595867956" lon="118.54870331657283">
        <ele>12.177224591374397</ele>
        <time>2025-05-12T13:58:04Z</time>
      </trkpt>
      <trkpt lat="24.921156417974625" lon="118.54882885645468">
        <ele>12.862126043066382</ele>
        <time>2025-05-12T13:58:16Z</time>
      </trkpt>
      <trkpt lat="24.92107605271094" lon="118.5488810353664">
        <ele>13.048592207953334</ele>
        <time>2025-05-12T13:58:19Z</time>
      </trkpt>
      <trkpt lat="24.920986189494137" lon="118.5488883745763">
        <ele>12.424024642445147</ele>
        <time>2025-05-12T13:58:22Z</time>
      </trkpt>
      <trkpt lat="24.920709113757255" lon="118.54899939503207">
        <ele>12.803317960351706</ele>
        <time>2025-05-12T13:58:31Z</time>
      </trkpt>
      <trkpt lat="24.920621912610518" lon="118.54901966096969">
        <ele>13.098656075075269</ele>
        <time>2025-05-12T13:58:34Z</time>
      </trkpt>
      <trkpt lat="24.920444523325475" lon="118.54914143322003">
        <ele>12.294085200875998</ele>
        <time>2025-05-12T13:58:40Z</time>
      </trkpt>
      <trkpt lat="24.920352355128102" lon="118.54918703431372">
        <ele>12.794451912865043</ele>
        <time>2025-05-12T13:58:43Z</time>
      </trkpt>
      <trkpt lat="24.920074206057446" lon="118.54924187280058">
        <ele>12.563677935861051</ele>
        <time>2025-05-12T13:58:52Z</time>
      </trkpt>
      <trkpt lat="24.920001358475922" lon="118.54928472486436">
        <ele>12.132254563272</ele>
        <time>2025-05-12T13:58:55Z</time>
      </trkpt>
      <trkpt lat="24.91976423864337" lon="118.54936170395695">
        <ele>12.32783917710185</ele>
        <time>2025-05-12T13:59:04Z</time>
      </trkpt>
      <trkpt lat="24.919689937240225" lon="118.5493548931029">
        <ele>11.258830376900733</ele>
        <time>2025-05-12T13:59:07Z</time>
      </trkpt>
      <trkpt lat="24.919453393978536" lon="118.54938080384346">
        <ele>10.998768771067262</ele>
        <time>2025-05-12T13:59:17Z</time>
      </trkpt>
      <trkpt lat="24.919317159058227" lon="118.5494139586408">
        <ele>10.923345692455769</ele>
        <time>2025-05-12T13:59:21Z</time>
      </trkpt>
      <trkpt lat="24.91924701196169" lon="118.54946376664493">
        <ele>11.172614417038858</ele>
        <time>2025-05-12T13:59:24Z</time>
      </trkpt>
      <trkpt lat="24.919150108686395" lon="118.54950588992227">
        <ele>10.596836616285145</ele>
        <time>2025-05-12T13:59:27Z</time>
      </trkpt>
      <trkpt lat="24.918946470307546" lon="118.54953980937925">
        <ele>10.200850416906178</ele>
        <time>2025-05-12T13:59:34Z</time>
      </trkpt>
      <trkpt lat="24.918790676709087" lon="118.54969126143902">
        <ele>9.90218305028975</ele>
        <time>2025-05-12T13:59:40Z</time>
      </trkpt>
      <trkpt lat="24.91860726221442" lon="118.54978429381849">
        <ele>9.762463600374758</ele>
        <time>2025-05-12T13:59:46Z</time>
      </trkpt>
      <trkpt lat="24.918277890618192" lon="118.54987570866149">
        <ele>9.47030683234334</ele>
        <time>2025-05-12T13:59:58Z</time>
      </trkpt>
      <trkpt lat="24.9181967300447" lon="118.54988612784358">
        <ele>10.754996507428586</ele>
        <time>2025-05-12T14:00:01Z</time>
      </trkpt>
      <trkpt lat="24.91811442153082" lon="118.54992918647106">
        <ele>9.81690003350377</ele>
        <time>2025-05-12T14:00:04Z</time>
      </trkpt>
      <trkpt lat="24.918023956522863" lon="118.54993337757351">
        <ele>9.487690697424114</ele>
        <time>2025-05-12T14:00:07Z</time>
      </trkpt>
      <trkpt lat="24.917845419283005" lon="118.54998084774711">
        <ele>10.119304653257132</ele>
        <time>2025-05-12T14:00:13Z</time>
      </trkpt>
      <trkpt lat="24.917664153257892" lon="118.55006624181672">
        <ele>10.093726671300828</ele>
        <time>2025-05-12T14:00:19Z</time>
      </trkpt>
      <trkpt lat="24.917455825523632" lon="118.55013262570685">
        <ele>10.227529692463577</ele>
        <time>2025-05-12T14:00:25Z</time>
      </trkpt>
      <trkpt lat="24.917184211653687" lon="118.55028813280923">
        <ele>8.900220289826393</ele>
        <time>2025-05-12T14:00:34Z</time>
      </trkpt>
      <trkpt lat="24.916919312878257" lon="118.55041776697762">
        <ele>7.60701484978199</ele>
        <time>2025-05-12T14:00:43Z</time>
      </trkpt>
      <trkpt lat="24.916650500671366" lon="118.5504997266463">
        <ele>7.45831058640033</ele>
        <time>2025-05-12T14:00:52Z</time>
      </trkpt>
      <trkpt lat="24.91647310646062" lon="118.5505675727404">
        <ele>7.121005489490926</ele>
        <time>2025-05-12T14:00:58Z</time>
      </trkpt>
      <trkpt lat="24.916200874516733" lon="118.55064543603874">
        <ele>7.146355390548706</ele>
        <time>2025-05-12T14:01:07Z</time>
      </trkpt>
      <trkpt lat="24.915939870753572" lon="118.5507450507075">
        <ele>6.373520667664707</ele>
        <time>2025-05-12T14:01:16Z</time>
      </trkpt>
      <trkpt lat="24.915647484950792" lon="118.55084718126204">
        <ele>7.907718028873205</ele>
        <time>2025-05-12T14:01:27Z</time>
      </trkpt>
      <trkpt lat="24.915394848967246" lon="118.55094624668062">
        <ele>9.088626231998205</ele>
        <time>2025-05-12T14:01:37Z</time>
      </trkpt>
      <trkpt lat="24.915106853449085" lon="118.55103520358992">
        <ele>10.041924274526536</ele>
        <time>2025-05-12T14:01:46Z</time>
      </trkpt>
      <trkpt lat="24.914848661268977" lon="118.55114130628883">
        <ele>9.953092301264405</ele>
        <time>2025-05-12T14:01:55Z</time>
      </trkpt>
      <trkpt lat="24.91457598996582" lon="118.55121031812362">
        <ele>9.617685723118484</ele>
        <time>2025-05-12T14:02:04Z</time>
      </trkpt>
      <trkpt lat="24.91447969791544" lon="118.55123812704504">
        <ele>10.180941433645785</ele>
        <time>2025-05-12T14:02:07Z</time>
      </trkpt>
      <trkpt lat="24.914387849223985" lon="118.55124103248848">
        <ele>10.805458786897361</ele>
        <time>2025-05-12T14:02:10Z</time>
      </trkpt>
      <trkpt lat="24.91419671735853" lon="118.55127038973032">
        <ele>10.4543960345909</ele>
        <time>2025-05-12T14:02:16Z</time>
      </trkpt>
      <trkpt lat="24.914122919202164" lon="118.55132723567138">
        <ele>10.156929740682244</ele>
        <time>2025-05-12T14:02:19Z</time>
      </trkpt>
      <trkpt lat="24.913979599708966" lon="118.5513676565329">
        <ele>9.479657296091318</ele>
        <time>2025-05-12T14:02:25Z</time>
      </trkpt>
      <trkpt lat="24.913878842502125" lon="118.55136417058297">
        <ele>9.182652367278934</ele>
        <time>2025-05-12T14:02:28Z</time>
      </trkpt>
      <trkpt lat="24.9137973759608" lon="118.55132584364809">
        <ele>8.726630736142397</ele>
        <time>2025-05-12T14:02:31Z</time>
      </trkpt>
      <trkpt lat="24.913794528509868" lon="118.55122970452612">
        <ele>8.9165532970801</ele>
        <time>2025-05-12T14:02:34Z</time>
      </trkpt>
      <trkpt lat="24.913827135053623" lon="118.5510440167704">
        <ele>9.05399673897773</ele>
        <time>2025-05-12T14:02:40Z</time>
      </trkpt>
      <trkpt lat="24.91386601345239" lon="118.55094970442919">
        <ele>9.389759176410735</ele>
        <time>2025-05-12T14:02:43Z</time>
      </trkpt>
      <trkpt lat="24.91391088259608" lon="118.55066057509268">
        <ele>9.528875334188342</ele>
        <time>2025-05-12T14:02:52Z</time>
      </trkpt>
      <trkpt lat="24.913913771786973" lon="118.55035567847243">
        <ele>10.528558682650328</ele>
        <time>2025-05-12T14:03:01Z</time>
      </trkpt>
      <trkpt lat="24.913903362318898" lon="118.55003987196208">
        <ele>10.969513357616961</ele>
        <time>2025-05-12T14:03:10Z</time>
      </trkpt>
      <trkpt lat="24.913913579511142" lon="118.54994033908186">
        <ele>10.723158181644976</ele>
        <time>2025-05-12T14:03:13Z</time>
      </trkpt>
      <trkpt lat="24.913962232991278" lon="118.54985636158155">
        <ele>10.749517006799579</ele>
        <time>2025-05-12T14:03:16Z</time>
      </trkpt>
      <trkpt lat="24.914001767475536" lon="118.54968331226961">
        <ele>10.037557573057711</ele>
        <time>2025-05-12T14:03:22Z</time>
      </trkpt>
      <trkpt lat="24.91403298774228" lon="118.54938413955726">
        <ele>9.477437749505043</ele>
        <time>2025-05-12T14:03:32Z</time>
      </trkpt>
      <trkpt lat="24.914099751363953" lon="118.54900357116055">
        <ele>9.723089203238487</ele>
        <time>2025-05-12T14:03:43Z</time>
      </trkpt>
      <trkpt lat="24.914102892851183" lon="118.54891355455078">
        <ele>9.473096697591245</ele>
        <time>2025-05-12T14:03:46Z</time>
      </trkpt>
      <trkpt lat="24.914010397084063" lon="118.5487487138212">
        <ele>9.433247704058886</ele>
        <time>2025-05-12T14:03:52Z</time>
      </trkpt>
      <trkpt lat="24.91386158228884" lon="118.54868604799215">
        <ele>8.031775961630046</ele>
        <time>2025-05-12T14:03:58Z</time>
      </trkpt>
      <trkpt lat="24.913777418652945" lon="118.54867692471983">
        <ele>8.249491385184228</ele>
        <time>2025-05-12T14:04:01Z</time>
      </trkpt>
      <trkpt lat="24.913487583621517" lon="118.5485743720798">
        <ele>8.392788343131542</ele>
        <time>2025-05-12T14:04:13Z</time>
      </trkpt>
      <trkpt lat="24.913344635936188" lon="118.54850498641846">
        <ele>8.322665877640247</ele>
        <time>2025-05-12T14:04:19Z</time>
      </trkpt>
      <trkpt lat="24.913079140980155" lon="118.54830799811832">
        <ele>7.769420468248427</ele>
        <time>2025-05-12T14:04:28Z</time>
      </trkpt>
      <trkpt lat="24.912868217067686" lon="118.54808673367374">
        <ele>6.954938912764192</ele>
        <time>2025-05-12T14:04:37Z</time>
      </trkpt>
      <trkpt lat="24.912802265729518" lon="118.5480143749417">
        <ele>7.334803941659629</ele>
        <time>2025-05-12T14:04:40Z</time>
      </trkpt>
      <trkpt lat="24.912638771448083" lon="118.54775517821801">
        <ele>7.30727809201926</ele>
        <time>2025-05-12T14:04:49Z</time>
      </trkpt>
      <trkpt lat="24.912500188631096" lon="118.54746572038366">
        <ele>7.402116859331727</ele>
        <time>2025-05-12T14:04:58Z</time>
      </trkpt>
      <trkpt lat="24.91236503642128" lon="118.54720331862067">
        <ele>8.231872930191457</ele>
        <time>2025-05-12T14:05:07Z</time>
      </trkpt>
      <trkpt lat="24.912338926741256" lon="118.54710214854441">
        <ele>8.851467838510871</ele>
        <time>2025-05-12T14:05:10Z</time>
      </trkpt>
      <trkpt lat="24.912300025867758" lon="118.54703349778488">
        <ele>8.873821168206632</ele>
        <time>2025-05-12T14:05:13Z</time>
      </trkpt>
      <trkpt lat="24.912211075193984" lon="118.5467655191639">
        <ele>9.654306899756193</ele>
        <time>2025-05-12T14:05:22Z</time>
      </trkpt>
      <trkpt lat="24.912188101336408" lon="118.54665475311415">
        <ele>9.87924865167588</ele>
        <time>2025-05-12T14:05:25Z</time>
      </trkpt>
      <trkpt lat="24.912064029339316" lon="118.54633787872623">
        <ele>8.154308119788766</ele>
        <time>2025-05-12T14:05:37Z</time>
      </trkpt>
      <trkpt lat="24.911931522322348" lon="118.54602128726322">
        <ele>7.655315591953695</ele>
        <time>2025-05-12T14:05:45Z</time>
      </trkpt>
      <trkpt lat="24.911801885094036" lon="118.54571830659025">
        <ele>5.977447686716914</ele>
        <time>2025-05-12T14:05:55Z</time>
      </trkpt>
      <trkpt lat="24.9116726111751" lon="118.5454430486719">
        <ele>5.402728823944926</ele>
        <time>2025-05-12T14:06:04Z</time>
      </trkpt>
      <trkpt lat="24.911561993860907" lon="118.54515570619934">
        <ele>5.069444028660655</ele>
        <time>2025-05-12T14:06:13Z</time>
      </trkpt>
      <trkpt lat="24.911446348163096" lon="118.54487583397088">
        <ele>6.655215861275792</ele>
        <time>2025-05-12T14:06:22Z</time>
      </trkpt>
      <trkpt lat="24.911368246824455" lon="118.5446508971345">
        <ele>6.723304287530482</ele>
        <time>2025-05-12T14:06:31Z</time>
      </trkpt>
      <trkpt lat="24.91131407655481" lon="118.5445685497911">
        <ele>6.912471233867109</ele>
        <time>2025-05-12T14:06:34Z</time>
      </trkpt>
      <trkpt lat="24.911197611904853" lon="118.54427038352995">
        <ele>7.665090003982186</ele>
        <time>2025-05-12T14:06:43Z</time>
      </trkpt>
      <trkpt lat="24.911113355933878" lon="118.54409108472477">
        <ele>6.885253989137709</ele>
        <time>2025-05-12T14:06:49Z</time>
      </trkpt>
      <trkpt lat="24.911040113870435" lon="118.54378567236887">
        <ele>7.984805651940405</ele>
        <time>2025-05-12T14:06:58Z</time>
      </trkpt>
      <trkpt lat="24.910994482537614" lon="118.54370514875274">
        <ele>8.125053876079619</ele>
        <time>2025-05-12T14:07:01Z</time>
      </trkpt>
      <trkpt lat="24.91094074531339" lon="118.54365286363584">
        <ele>7.830726887099445</ele>
        <time>2025-05-12T14:07:04Z</time>
      </trkpt>
      <trkpt lat="24.91093610714556" lon="118.54360172791452">
        <ele>7.141771755181253</ele>
        <time>2025-05-12T14:07:07Z</time>
      </trkpt>
      <trkpt lat="24.91093911323181" lon="118.54360289732372">
        <ele>7.44193478487432</ele>
        <time>2025-05-12T14:07:15Z</time>
      </trkpt>
      <trkpt lat="24.910856906932256" lon="118.54347031779658">
        <ele>7.297909668646753</ele>
        <time>2025-05-12T14:07:21Z</time>
      </trkpt>
      <trkpt lat="24.91077111330714" lon="118.54346563143903">
        <ele>7.247333517298102</ele>
        <time>2025-05-12T14:07:24Z</time>
      </trkpt>
      <trkpt lat="24.91074564878008" lon="118.54338728227025">
        <ele>7.392453722655773</ele>
        <time>2025-05-12T14:07:27Z</time>
      </trkpt>
      <trkpt lat="24.91067843928019" lon="118.54334908505045">
        <ele>7.877432305365801</ele>
        <time>2025-05-12T14:07:30Z</time>
      </trkpt>
      <trkpt lat="24.91041534336866" lon="118.54332485966214">
        <ele>7.625702202320099</ele>
        <time>2025-05-12T14:07:40Z</time>
      </trkpt>
      <trkpt lat="24.91032018654554" lon="118.54333280188831">
        <ele>7.416443636640906</ele>
        <time>2025-05-12T14:07:43Z</time>
      </trkpt>
      <trkpt lat="24.910254099970714" lon="118.5432638580705">
        <ele>7.195894087664783</ele>
        <time>2025-05-12T14:07:47Z</time>
      </trkpt>
      <trkpt lat="24.910263775766772" lon="118.54302379910011">
        <ele>7.679454427212477</ele>
        <time>2025-05-12T14:07:54Z</time>
      </trkpt>
      <trkpt lat="24.910283626736586" lon="118.54291918419656">
        <ele>7.2010132018476725</ele>
        <time>2025-05-12T14:07:57Z</time>
      </trkpt>
      <trkpt lat="24.91034866849388" lon="118.54272770712234">
        <ele>8.045547685585916</ele>
        <time>2025-05-12T14:08:03Z</time>
      </trkpt>
      <trkpt lat="24.910367727847245" lon="118.54262532930754">
        <ele>8.429362366907299</ele>
        <time>2025-05-12T14:08:06Z</time>
      </trkpt>
      <trkpt lat="24.910324812642" lon="118.54241110963">
        <ele>7.545986804179847</ele>
        <time>2025-05-12T14:08:12Z</time>
      </trkpt>
      <trkpt lat="24.910349087277186" lon="118.54220100896922">
        <ele>7.772596684284508</ele>
        <time>2025-05-12T14:08:18Z</time>
      </trkpt>
      <trkpt lat="24.91033408957687" lon="118.54209434503717">
        <ele>7.4437145590782166</ele>
        <time>2025-05-12T14:08:21Z</time>
      </trkpt>
      <trkpt lat="24.91033963502814" lon="118.54199883870939">
        <ele>7.9222646011039615</ele>
        <time>2025-05-12T14:08:24Z</time>
      </trkpt>
      <trkpt lat="24.91036312166087" lon="118.5419060413548">
        <ele>7.465024635195732</ele>
        <time>2025-05-12T14:08:27Z</time>
      </trkpt>
      <trkpt lat="24.91043529515124" lon="118.54182972807874">
        <ele>7.340517138130963</ele>
        <time>2025-05-12T14:08:30Z</time>
      </trkpt>
      <trkpt lat="24.91049024948799" lon="118.54174081846644">
        <ele>7.306594314053655</ele>
        <time>2025-05-12T14:08:33Z</time>
      </trkpt>
      <trkpt lat="24.910489952988147" lon="118.54162139061013">
        <ele>7.605637617409229</ele>
        <time>2025-05-12T14:08:36Z</time>
      </trkpt>
      <trkpt lat="24.910468103686668" lon="118.54150087667715">
        <ele>7.847881052643061</ele>
        <time>2025-05-12T14:08:39Z</time>
      </trkpt>
      <trkpt lat="24.91047790470658" lon="118.54136919065732">
        <ele>7.702321314252913</ele>
        <time>2025-05-12T14:08:42Z</time>
      </trkpt>
      <trkpt lat="24.910458236433517" lon="118.54111918059726">
        <ele>7.889080350287259</ele>
        <time>2025-05-12T14:08:48Z</time>
      </trkpt>
    </trkseg>
  </trk>
</gpx>