<?xml version="1.0" encoding="UTF-8"?>
<gpx xmlns="http://www.topografix.com/GPX/1/1" xmlns:gpxtpx="http://www.garmin.com/xmlschemas/TrackPointExtension/v1" xmlns:xsi="http://www.w3.org/2001/XMLSchema-instance" xsi:schemaLocation="http://www.topografix.com/GPX/1/1 http://www.topografix.com/GPX/1/1/gpx.xsd" version="1.1" creator="gpx.py -- https://github.com/tkrajina/gpxpy">
  <trk>
    <name>gpx from keep</name>
    <type>Run</type>
    <trkseg>
      <trkpt lat="24.911327770982478" lon="118.53728002479279">
        <ele>10.365674955770373</ele>
        <time>2025-03-10T13:27:29Z</time>
      </trkpt>
      <trkpt lat="24.91129156942899" lon="118.53732416758336">
        <ele>10.485281255096197</ele>
        <time>2025-03-10T13:27:32Z</time>
      </trkpt>
      <trkpt lat="24.91118696200657" lon="118.53756582666877">
        <ele>10.34873076993972</ele>
        <time>2025-03-10T13:27:38Z</time>
      </trkpt>
      <trkpt lat="24.911148872770895" lon="118.53770013716816">
        <ele>9.836436380632222</ele>
        <time>2025-03-10T13:27:41Z</time>
      </trkpt>
      <trkpt lat="24.910992365838435" lon="118.53801659437313">
        <ele>10.125626728869975</ele>
        <time>2025-03-10T13:27:50Z</time>
      </trkpt>
      <trkpt lat="24.910953368554818" lon="118.53811237953778">
        <ele>9.831260873936117</ele>
        <time>2025-03-10T13:27:53Z</time>
      </trkpt>
      <trkpt lat="24.910826384826105" lon="118.53831163940018">
        <ele>9.532929249107838</ele>
        <time>2025-03-10T13:27:59Z</time>
      </trkpt>
      <trkpt lat="24.910794301793768" lon="118.53841244735483">
        <ele>9.55901507474482</ele>
        <time>2025-03-10T13:28:02Z</time>
      </trkpt>
      <trkpt lat="24.91085332189171" lon="118.53855406668765">
        <ele>10.20569015480578</ele>
        <time>2025-03-10T13:28:05Z</time>
      </trkpt>
      <trkpt lat="24.910952128520737" lon="118.53860849407835">
        <ele>10.055010975338519</ele>
        <time>2025-03-10T13:28:08Z</time>
      </trkpt>
      <trkpt lat="24.91114885559616" lon="118.53867613459025">
        <ele>9.860279120504856</ele>
        <time>2025-03-10T13:28:14Z</time>
      </trkpt>
      <trkpt lat="24.91123518247815" lon="118.5386462599454">
        <ele>9.238064114935696</ele>
        <time>2025-03-10T13:28:17Z</time>
      </trkpt>
      <trkpt lat="24.911279725028503" lon="118.53858675838968">
        <ele>9.677158259786665</ele>
        <time>2025-03-10T13:28:20Z</time>
      </trkpt>
      <trkpt lat="24.911391018828645" lon="118.53831423289591">
        <ele>9.991602146998048</ele>
        <time>2025-03-10T13:28:29Z</time>
      </trkpt>
      <trkpt lat="24.911457814518794" lon="118.5382290991048">
        <ele>9.682136034592986</ele>
        <time>2025-03-10T13:28:32Z</time>
      </trkpt>
      <trkpt lat="24.911555255494722" lon="118.5380292406578">
        <ele>9.401559020392597</ele>
        <time>2025-03-10T13:28:38Z</time>
      </trkpt>
      <trkpt lat="24.91158652866012" lon="118.53793154861954">
        <ele>10.187893294729292</ele>
        <time>2025-03-10T13:28:41Z</time>
      </trkpt>
      <trkpt lat="24.911755127111537" lon="118.53764826304817">
        <ele>9.707068915478885</ele>
        <time>2025-03-10T13:28:50Z</time>
      </trkpt>
      <trkpt lat="24.911879230195765" lon="118.53736947681809">
        <ele>10.42426563706249</ele>
        <time>2025-03-10T13:28:59Z</time>
      </trkpt>
      <trkpt lat="24.912035862521698" lon="118.53698112584406">
        <ele>9.80245713237673</ele>
        <time>2025-03-10T13:29:11Z</time>
      </trkpt>
      <trkpt lat="24.91219292895948" lon="118.53659208240029">
        <ele>10.250698421150446</ele>
        <time>2025-03-10T13:29:23Z</time>
      </trkpt>
      <trkpt lat="24.912378071468037" lon="118.53630527027387">
        <ele>10.416302680969238</ele>
        <time>2025-03-10T13:29:33Z</time>
      </trkpt>
      <trkpt lat="24.912468766303846" lon="118.53611355158063">
        <ele>10.328784502111375</ele>
        <time>2025-03-10T13:29:39Z</time>
      </trkpt>
      <trkpt lat="24.912491730050633" lon="118.53600600715109">
        <ele>10.729021768085659</ele>
        <time>2025-03-10T13:29:42Z</time>
      </trkpt>
      <trkpt lat="24.91241372614152" lon="118.53593731631082">
        <ele>9.91360639128834</ele>
        <time>2025-03-10T13:29:45Z</time>
      </trkpt>
      <trkpt lat="24.912271048404868" lon="118.535848966997">
        <ele>9.812950579449534</ele>
        <time>2025-03-10T13:29:51Z</time>
      </trkpt>
      <trkpt lat="24.91220958629635" lon="118.53574723668947">
        <ele>10.395861964672804</ele>
        <time>2025-03-10T13:29:54Z</time>
      </trkpt>
      <trkpt lat="24.91220241144587" lon="118.53567061138286">
        <ele>10.115788266062737</ele>
        <time>2025-03-10T13:29:57Z</time>
      </trkpt>
      <trkpt lat="24.91227011324357" lon="118.53559040452872">
        <ele>10.286480293609202</ele>
        <time>2025-03-10T13:30:00Z</time>
      </trkpt>
      <trkpt lat="24.912435664790145" lon="118.535232960013">
        <ele>10.068966136313975</ele>
        <time>2025-03-10T13:30:12Z</time>
      </trkpt>
      <trkpt lat="24.912461283814906" lon="118.53513963004255">
        <ele>10.064256318844855</ele>
        <time>2025-03-10T13:30:15Z</time>
      </trkpt>
      <trkpt lat="24.912533912076235" lon="118.53500665803124">
        <ele>9.13717045262456</ele>
        <time>2025-03-10T13:30:21Z</time>
      </trkpt>
      <trkpt lat="24.91255902670745" lon="118.53491877372295">
        <ele>9.832769305445254</ele>
        <time>2025-03-10T13:30:24Z</time>
      </trkpt>
      <trkpt lat="24.912688145793066" lon="118.53469032808954">
        <ele>9.960339788347483</ele>
        <time>2025-03-10T13:30:33Z</time>
      </trkpt>
      <trkpt lat="24.912743376220437" lon="118.53462877220534">
        <ele>10.671549005433917</ele>
        <time>2025-03-10T13:30:36Z</time>
      </trkpt>
      <trkpt lat="24.912875229303875" lon="118.53433450401434">
        <ele>9.594468970783055</ele>
        <time>2025-03-10T13:30:45Z</time>
      </trkpt>
      <trkpt lat="24.912903587852647" lon="118.53423070611194">
        <ele>10.045891084708273</ele>
        <time>2025-03-10T13:30:48Z</time>
      </trkpt>
      <trkpt lat="24.912955350365518" lon="118.5341376982217">
        <ele>10.493212390691042</ele>
        <time>2025-03-10T13:30:51Z</time>
      </trkpt>
      <trkpt lat="24.912962404163967" lon="118.5340227735546">
        <ele>10.52666298020631</ele>
        <time>2025-03-10T13:30:54Z</time>
      </trkpt>
      <trkpt lat="24.91302308967219" lon="118.53393419413341">
        <ele>10.269882487133145</ele>
        <time>2025-03-10T13:30:57Z</time>
      </trkpt>
      <trkpt lat="24.91309220288751" lon="118.53387730747255">
        <ele>10.683595278300345</ele>
        <time>2025-03-10T13:31:00Z</time>
      </trkpt>
      <trkpt lat="24.913168223245638" lon="118.53384630139756">
        <ele>10.573733947239816</ele>
        <time>2025-03-10T13:31:03Z</time>
      </trkpt>
      <trkpt lat="24.91348677648389" lon="118.53385644397707">
        <ele>10.203164202161133</ele>
        <time>2025-03-10T13:31:14Z</time>
      </trkpt>
      <trkpt lat="24.913609042179313" lon="118.53385995915691">
        <ele>10.416137052699924</ele>
        <time>2025-03-10T13:31:18Z</time>
      </trkpt>
      <trkpt lat="24.91372369113147" lon="118.533885058914">
        <ele>10.873370440676808</ele>
        <time>2025-03-10T13:31:22Z</time>
      </trkpt>
      <trkpt lat="24.91408566609939" lon="118.53390720662047">
        <ele>10.592425568960607</ele>
        <time>2025-03-10T13:31:34Z</time>
      </trkpt>
      <trkpt lat="24.914422049060935" lon="118.53396050635882">
        <ele>11.01967915147543</ele>
        <time>2025-03-10T13:31:45Z</time>
      </trkpt>
      <trkpt lat="24.914785049899386" lon="118.53403247938954">
        <ele>12.099324480630457</ele>
        <time>2025-03-10T13:31:57Z</time>
      </trkpt>
      <trkpt lat="24.91504734568115" lon="118.53409985090083">
        <ele>12.688376478850842</ele>
        <time>2025-03-10T13:32:06Z</time>
      </trkpt>
      <trkpt lat="24.915334075184834" lon="118.53411661345514">
        <ele>12.81039631459862</ele>
        <time>2025-03-10T13:32:15Z</time>
      </trkpt>
      <trkpt lat="24.915521936627133" lon="118.53416514263091">
        <ele>12.66674309130758</ele>
        <time>2025-03-10T13:32:21Z</time>
      </trkpt>
      <trkpt lat="24.91561536170024" lon="118.53416403530025">
        <ele>12.79384324979037</ele>
        <time>2025-03-10T13:32:24Z</time>
      </trkpt>
      <trkpt lat="24.915890580454178" lon="118.5342231154964">
        <ele>12.693090233951807</ele>
        <time>2025-03-10T13:32:33Z</time>
      </trkpt>
      <trkpt lat="24.916169989419874" lon="118.53426376181396">
        <ele>12.673574030399323</ele>
        <time>2025-03-10T13:32:42Z</time>
      </trkpt>
      <trkpt lat="24.916452804835675" lon="118.53432157976752">
        <ele>12.85053991060704</ele>
        <time>2025-03-10T13:32:51Z</time>
      </trkpt>
      <trkpt lat="24.916805870676342" lon="118.5343845986974">
        <ele>14.04701069649309</ele>
        <time>2025-03-10T13:33:03Z</time>
      </trkpt>
      <trkpt lat="24.91697725485507" lon="118.5344056167159">
        <ele>14.459293272346258</ele>
        <time>2025-03-10T13:33:09Z</time>
      </trkpt>
      <trkpt lat="24.917329259531908" lon="118.53448482325754">
        <ele>14.791820026934147</ele>
        <time>2025-03-10T13:33:20Z</time>
      </trkpt>
      <trkpt lat="24.917702024515982" lon="118.53460984320498">
        <ele>15.8686030972749</ele>
        <time>2025-03-10T13:33:32Z</time>
      </trkpt>
      <trkpt lat="24.91809187221101" lon="118.53469365407489">
        <ele>14.75654392130673</ele>
        <time>2025-03-10T13:33:44Z</time>
      </trkpt>
      <trkpt lat="24.91846123769219" lon="118.53478065091208">
        <ele>12.615116940811276</ele>
        <time>2025-03-10T13:33:56Z</time>
      </trkpt>
      <trkpt lat="24.91853937925695" lon="118.53484054963954">
        <ele>13.016166545450687</ele>
        <time>2025-03-10T13:33:59Z</time>
      </trkpt>
      <trkpt lat="24.91864762978326" lon="118.53499368502995">
        <ele>12.605129064060748</ele>
        <time>2025-03-10T13:34:05Z</time>
      </trkpt>
      <trkpt lat="24.91866100450601" lon="118.53507482601907">
        <ele>11.929094481281936</ele>
        <time>2025-03-10T13:34:08Z</time>
      </trkpt>
      <trkpt lat="24.918656127519732" lon="118.5351658156424">
        <ele>11.759434334933758</ele>
        <time>2025-03-10T13:34:11Z</time>
      </trkpt>
      <trkpt lat="24.918575127705218" lon="118.53539683146181">
        <ele>10.270404956303537</ele>
        <time>2025-03-10T13:34:20Z</time>
      </trkpt>
      <trkpt lat="24.918577349990308" lon="118.53548602581336">
        <ele>10.690745358355343</ele>
        <time>2025-03-10T13:34:29Z</time>
      </trkpt>
      <trkpt lat="24.918460437350177" lon="118.53579681642636">
        <ele>10.576582299545407</ele>
        <time>2025-03-10T13:34:38Z</time>
      </trkpt>
      <trkpt lat="24.918445203156118" lon="118.53589915134526">
        <ele>10.113642755895853</ele>
        <time>2025-03-10T13:34:41Z</time>
      </trkpt>
      <trkpt lat="24.91834285676342" lon="118.53607119611249">
        <ele>10.351881016045809</ele>
        <time>2025-03-10T13:34:47Z</time>
      </trkpt>
      <trkpt lat="24.91830266838662" lon="118.53617711436901">
        <ele>10.426381186582148</ele>
        <time>2025-03-10T13:34:50Z</time>
      </trkpt>
      <trkpt lat="24.91819855871475" lon="118.53636124195408">
        <ele>10.356627225875854</ele>
        <time>2025-03-10T13:34:56Z</time>
      </trkpt>
      <trkpt lat="24.918086980979194" lon="118.53664805842101">
        <ele>9.853238068521023</ele>
        <time>2025-03-10T13:35:05Z</time>
      </trkpt>
      <trkpt lat="24.917972474084266" lon="118.53693119376835">
        <ele>9.970862029120326</ele>
        <time>2025-03-10T13:35:14Z</time>
      </trkpt>
      <trkpt lat="24.91786562884912" lon="118.53712695744285">
        <ele>10.043296568095684</ele>
        <time>2025-03-10T13:35:20Z</time>
      </trkpt>
      <trkpt lat="24.917787580453435" lon="118.53721362515999">
        <ele>9.751358114182949</ele>
        <time>2025-03-10T13:35:23Z</time>
      </trkpt>
      <trkpt lat="24.91774433809322" lon="118.5373211507241">
        <ele>10.242960095405579</ele>
        <time>2025-03-10T13:35:26Z</time>
      </trkpt>
      <trkpt lat="24.917680139382956" lon="118.53741509773647">
        <ele>10.393566380254924</ele>
        <time>2025-03-10T13:35:29Z</time>
      </trkpt>
      <trkpt lat="24.917565436416908" lon="118.5377287517719">
        <ele>10.370532746426761</ele>
        <time>2025-03-10T13:35:38Z</time>
      </trkpt>
      <trkpt lat="24.917413090416463" lon="118.53797427881645">
        <ele>9.607126630842686</ele>
        <time>2025-03-10T13:35:47Z</time>
      </trkpt>
      <trkpt lat="24.917356828836844" lon="118.53820306762806">
        <ele>10.306566539220512</ele>
        <time>2025-03-10T13:35:53Z</time>
      </trkpt>
      <trkpt lat="24.91726524010466" lon="118.5383528656661">
        <ele>9.802923693321645</ele>
        <time>2025-03-10T13:35:59Z</time>
      </trkpt>
      <trkpt lat="24.917150633668825" lon="118.53868576902919">
        <ele>10.20990162808448</ele>
        <time>2025-03-10T13:36:08Z</time>
      </trkpt>
      <trkpt lat="24.91712911161033" lon="118.53878651420747">
        <ele>10.203227236866951</ele>
        <time>2025-03-10T13:36:11Z</time>
      </trkpt>
      <trkpt lat="24.917052993244805" lon="118.53897812662979">
        <ele>10.081356149166822</ele>
        <time>2025-03-10T13:36:17Z</time>
      </trkpt>
      <trkpt lat="24.917033035760756" lon="118.53909987782994">
        <ele>10.137239089235663</ele>
        <time>2025-03-10T13:36:20Z</time>
      </trkpt>
      <trkpt lat="24.917036040534548" lon="118.53922741884882">
        <ele>10.148378904908895</ele>
        <time>2025-03-10T13:36:23Z</time>
      </trkpt>
      <trkpt lat="24.917005929722748" lon="118.53932591863801">
        <ele>9.984138461761177</ele>
        <time>2025-03-10T13:36:26Z</time>
      </trkpt>
      <trkpt lat="24.916964206883925" lon="118.53964815055664">
        <ele>10.284906972199678</ele>
        <time>2025-03-10T13:36:35Z</time>
      </trkpt>
      <trkpt lat="24.916897763340863" lon="118.53971122651767">
        <ele>10.16510757803917</ele>
        <time>2025-03-10T13:36:38Z</time>
      </trkpt>
      <trkpt lat="24.9167933749804" lon="118.53990000716256">
        <ele>10.073714619502425</ele>
        <time>2025-03-10T13:36:44Z</time>
      </trkpt>
      <trkpt lat="24.916736670312137" lon="118.53997105744155">
        <ele>10.002620635554194</ele>
        <time>2025-03-10T13:36:47Z</time>
      </trkpt>
      <trkpt lat="24.916697012787218" lon="118.5400653469491">
        <ele>10.166729013435543</ele>
        <time>2025-03-10T13:36:50Z</time>
      </trkpt>
      <trkpt lat="24.91661538002589" lon="118.54015047720166">
        <ele>10.388663675636053</ele>
        <time>2025-03-10T13:36:53Z</time>
      </trkpt>
      <trkpt lat="24.91655913638607" lon="118.54027167609459">
        <ele>10.721219496801496</ele>
        <time>2025-03-10T13:36:56Z</time>
      </trkpt>
      <trkpt lat="24.91648345476327" lon="118.54050551802135">
        <ele>11.38608712144196</ele>
        <time>2025-03-10T13:37:02Z</time>
      </trkpt>
      <trkpt lat="24.916423586749996" lon="118.54059137350008">
        <ele>12.005793151445687</ele>
        <time>2025-03-10T13:37:05Z</time>
      </trkpt>
      <trkpt lat="24.91633283573704" lon="118.54091026363919">
        <ele>12.533408264629543</ele>
        <time>2025-03-10T13:37:14Z</time>
      </trkpt>
      <trkpt lat="24.916312502821167" lon="118.54114661322448">
        <ele>12.610979818738997</ele>
        <time>2025-03-10T13:37:20Z</time>
      </trkpt>
      <trkpt lat="24.916374072059984" lon="118.54149649942278">
        <ele>12.55530885886401</ele>
        <time>2025-03-10T13:37:29Z</time>
      </trkpt>
      <trkpt lat="24.916412976153772" lon="118.54171603079965">
        <ele>12.839292066171765</ele>
        <time>2025-03-10T13:37:38Z</time>
      </trkpt>
      <trkpt lat="24.916342964143386" lon="118.54178411660273">
        <ele>11.89151213504374</ele>
        <time>2025-03-10T13:37:41Z</time>
      </trkpt>
      <trkpt lat="24.91608841349611" lon="118.5419192617566">
        <ele>12.15052801463753</ele>
        <time>2025-03-10T13:37:50Z</time>
      </trkpt>
      <trkpt lat="24.915790171159486" lon="118.54204422324723">
        <ele>12.358341160230339</ele>
        <time>2025-03-10T13:37:59Z</time>
      </trkpt>
      <trkpt lat="24.915578717656228" lon="118.54210343380953">
        <ele>12.508759213611484</ele>
        <time>2025-03-10T13:38:05Z</time>
      </trkpt>
      <trkpt lat="24.91528164281091" lon="118.54224638245509">
        <ele>12.39367883745581</ele>
        <time>2025-03-10T13:38:14Z</time>
      </trkpt>
      <trkpt lat="24.91518182370839" lon="118.54227205465655">
        <ele>12.343572814948857</ele>
        <time>2025-03-10T13:38:17Z</time>
      </trkpt>
      <trkpt lat="24.915086098792447" lon="118.54232140845455">
        <ele>12.536580669693649</ele>
        <time>2025-03-10T13:38:20Z</time>
      </trkpt>
      <trkpt lat="24.914828506063298" lon="118.54241233193758">
        <ele>11.235141536220908</ele>
        <time>2025-03-10T13:38:29Z</time>
      </trkpt>
      <trkpt lat="24.91463757274956" lon="118.54244266658523">
        <ele>10.376252248883247</ele>
        <time>2025-03-10T13:38:35Z</time>
      </trkpt>
      <trkpt lat="24.91454118371643" lon="118.54240994968345">
        <ele>10.659387500025332</ele>
        <time>2025-03-10T13:38:38Z</time>
      </trkpt>
      <trkpt lat="24.914338601675716" lon="118.54242573953258">
        <ele>10.057683887891471</ele>
        <time>2025-03-10T13:38:44Z</time>
      </trkpt>
      <trkpt lat="24.914055365027824" lon="118.54250212096389">
        <ele>10.165521498769522</ele>
        <time>2025-03-10T13:38:53Z</time>
      </trkpt>
      <trkpt lat="24.91396118936106" lon="118.54252194540487">
        <ele>9.661326904781163</ele>
        <time>2025-03-10T13:38:56Z</time>
      </trkpt>
      <trkpt lat="24.913810237007446" lon="118.54259725959758">
        <ele>10.094994961284101</ele>
        <time>2025-03-10T13:39:02Z</time>
      </trkpt>
      <trkpt lat="24.91373780592865" lon="118.54265768864401">
        <ele>9.541119570843875</ele>
        <time>2025-03-10T13:39:05Z</time>
      </trkpt>
      <trkpt lat="24.91343737703208" lon="118.54274320642499">
        <ele>8.968253783881664</ele>
        <time>2025-03-10T13:39:14Z</time>
      </trkpt>
      <trkpt lat="24.913136679954032" lon="118.54278910021995">
        <ele>7.760683158412576</ele>
        <time>2025-03-10T13:39:23Z</time>
      </trkpt>
      <trkpt lat="24.913030461831877" lon="118.54282447420519">
        <ele>7.892949510365725</ele>
        <time>2025-03-10T13:39:26Z</time>
      </trkpt>
      <trkpt lat="24.913030461831877" lon="118.54282447420519">
        <ele>7.892949510365725</ele>
        <time>2025-03-10T13:39:27Z</time>
      </trkpt>
    </trkseg>
  </trk>
</gpx>