<?xml version="1.0" encoding="UTF-8"?>
<gpx xmlns="http://www.topografix.com/GPX/1/1" xmlns:gpxtpx="http://www.garmin.com/xmlschemas/TrackPointExtension/v1" xmlns:xsi="http://www.w3.org/2001/XMLSchema-instance" xsi:schemaLocation="http://www.topografix.com/GPX/1/1 http://www.topografix.com/GPX/1/1/gpx.xsd" version="1.1" creator="gpx.py -- https://github.com/tkrajina/gpxpy">
  <trk>
    <name>gpx from keep</name>
    <type>Run</type>
    <trkseg>
      <trkpt lat="24.910783572969496" lon="118.53857092788745">
        <ele>10.151742587797344</ele>
        <time>2024-09-27T14:15:19Z</time>
      </trkpt>
      <trkpt lat="24.91062319697742" lon="118.53849267986926">
        <ele>10.258737756870687</ele>
        <time>2024-09-27T14:15:25Z</time>
      </trkpt>
      <trkpt lat="24.91042173624562" lon="118.53849216329631">
        <ele>9.783757136203349</ele>
        <time>2024-09-27T14:15:31Z</time>
      </trkpt>
      <trkpt lat="24.910260114836262" lon="118.53841399220332">
        <ele>9.819580312818289</ele>
        <time>2024-09-27T14:15:34Z</time>
      </trkpt>
      <trkpt lat="24.910070678553648" lon="118.53838656891104">
        <ele>9.387850642204285</ele>
        <time>2024-09-27T14:15:40Z</time>
      </trkpt>
      <trkpt lat="24.90977262671534" lon="118.53832647250202">
        <ele>8.71664049103856</ele>
        <time>2024-09-27T14:15:49Z</time>
      </trkpt>
      <trkpt lat="24.90958261706065" lon="118.53830083777176">
        <ele>8.32801009900868</ele>
        <time>2024-09-27T14:15:55Z</time>
      </trkpt>
      <trkpt lat="24.90933469417692" lon="118.53842121581047">
        <ele>8.117229534313083</ele>
        <time>2024-09-27T14:16:01Z</time>
      </trkpt>
      <trkpt lat="24.909227968291027" lon="118.53841034820962">
        <ele>8.40420691203326</ele>
        <time>2024-09-27T14:16:04Z</time>
      </trkpt>
      <trkpt lat="24.909138164544224" lon="118.53833473669324">
        <ele>7.781260143965483</ele>
        <time>2024-09-27T14:16:07Z</time>
      </trkpt>
      <trkpt lat="24.909080541495182" lon="118.5382512013404">
        <ele>7.3621660796925426</ele>
        <time>2024-09-27T14:16:10Z</time>
      </trkpt>
      <trkpt lat="24.90915713957085" lon="118.53792406557399">
        <ele>7.091350255534053</ele>
        <time>2024-09-27T14:16:19Z</time>
      </trkpt>
      <trkpt lat="24.909198040404515" lon="118.537696085973">
        <ele>7.310624794103205</ele>
        <time>2024-09-27T14:16:25Z</time>
      </trkpt>
      <trkpt lat="24.909293727183176" lon="118.5374697219606">
        <ele>8.91859637759626</ele>
        <time>2024-09-27T14:16:31Z</time>
      </trkpt>
      <trkpt lat="24.909360329815858" lon="118.53719005999696">
        <ele>9.90881169307977</ele>
        <time>2024-09-27T14:16:40Z</time>
      </trkpt>
      <trkpt lat="24.90940560562106" lon="118.53708060672956">
        <ele>9.64324504043907</ele>
        <time>2024-09-27T14:16:43Z</time>
      </trkpt>
      <trkpt lat="24.909476925065473" lon="118.53674688263204">
        <ele>10.168335479684174</ele>
        <time>2024-09-27T14:16:52Z</time>
      </trkpt>
      <trkpt lat="24.909555504509" lon="118.5364365554152">
        <ele>9.834726771339774</ele>
        <time>2024-09-27T14:17:01Z</time>
      </trkpt>
      <trkpt lat="24.909603867884577" lon="118.53632971236489">
        <ele>10.254436287097633</ele>
        <time>2024-09-27T14:17:04Z</time>
      </trkpt>
      <trkpt lat="24.909618362672823" lon="118.5359891001955">
        <ele>9.935206474736333</ele>
        <time>2024-09-27T14:17:14Z</time>
      </trkpt>
      <trkpt lat="24.909661613499267" lon="118.53557459272572">
        <ele>9.884615879505873</ele>
        <time>2024-09-27T14:17:26Z</time>
      </trkpt>
      <trkpt lat="24.909716783027942" lon="118.53525199864944">
        <ele>9.377253063954413</ele>
        <time>2024-09-27T14:17:35Z</time>
      </trkpt>
      <trkpt lat="24.909750013030443" lon="118.53495118306614">
        <ele>8.651318546384573</ele>
        <time>2024-09-27T14:17:44Z</time>
      </trkpt>
      <trkpt lat="24.909750009451994" lon="118.5348440507853">
        <ele>8.082202591001987</ele>
        <time>2024-09-27T14:17:47Z</time>
      </trkpt>
      <trkpt lat="24.909825844778528" lon="118.53448846354665">
        <ele>8.144074309617281</ele>
        <time>2024-09-27T14:17:59Z</time>
      </trkpt>
      <trkpt lat="24.909849961074926" lon="118.53438348304773">
        <ele>6.906822412274778</ele>
        <time>2024-09-27T14:18:02Z</time>
      </trkpt>
      <trkpt lat="24.90983977835731" lon="118.53415709874301">
        <ele>7.390061566606164</ele>
        <time>2024-09-27T14:18:08Z</time>
      </trkpt>
      <trkpt lat="24.90987111415323" lon="118.53394475435572">
        <ele>7.405514119192958</ele>
        <time>2024-09-27T14:18:14Z</time>
      </trkpt>
      <trkpt lat="24.909919745069796" lon="118.53386086229696">
        <ele>6.666387774050236</ele>
        <time>2024-09-27T14:18:17Z</time>
      </trkpt>
      <trkpt lat="24.909984377758082" lon="118.5337967958887">
        <ele>7.583500726148486</ele>
        <time>2024-09-27T14:18:20Z</time>
      </trkpt>
      <trkpt lat="24.91006511737575" lon="118.53375307944775">
        <ele>8.539938024245203</ele>
        <time>2024-09-27T14:18:23Z</time>
      </trkpt>
      <trkpt lat="24.910158581484556" lon="118.5337649663485">
        <ele>8.99387576058507</ele>
        <time>2024-09-27T14:18:26Z</time>
      </trkpt>
      <trkpt lat="24.91043198019468" lon="118.53372390057697">
        <ele>9.579130047932267</ele>
        <time>2024-09-27T14:18:35Z</time>
      </trkpt>
      <trkpt lat="24.910534332348966" lon="118.53372096580024">
        <ele>9.829277352429926</ele>
        <time>2024-09-27T14:18:38Z</time>
      </trkpt>
      <trkpt lat="24.910633548838558" lon="118.5336795596724">
        <ele>10.265787641517818</ele>
        <time>2024-09-27T14:18:41Z</time>
      </trkpt>
      <trkpt lat="24.91084779772878" lon="118.53370433128555">
        <ele>9.797831547446549</ele>
        <time>2024-09-27T14:18:47Z</time>
      </trkpt>
      <trkpt lat="24.91113734167523" lon="118.53368826738784">
        <ele>10.1608657380566</ele>
        <time>2024-09-27T14:18:56Z</time>
      </trkpt>
      <trkpt lat="24.911235808078672" lon="118.53368226492775">
        <ele>9.964149576611817</ele>
        <time>2024-09-27T14:18:59Z</time>
      </trkpt>
      <trkpt lat="24.911534101738926" lon="118.53370947506795">
        <ele>10.41619021166116</ele>
        <time>2024-09-27T14:19:08Z</time>
      </trkpt>
      <trkpt lat="24.911809731279654" lon="118.5337369432535">
        <ele>10.571928383782506</ele>
        <time>2024-09-27T14:19:17Z</time>
      </trkpt>
      <trkpt lat="24.912119201002238" lon="118.53376926048416">
        <ele>11.185069906525314</ele>
        <time>2024-09-27T14:19:27Z</time>
      </trkpt>
      <trkpt lat="24.91222615180155" lon="118.53376682981444">
        <ele>10.256484978832304</ele>
        <time>2024-09-27T14:19:31Z</time>
      </trkpt>
    </trkseg>
  </trk>
</gpx>