<?xml version="1.0" encoding="UTF-8"?>
<gpx xmlns="http://www.topografix.com/GPX/1/1" xmlns:gpxtpx="http://www.garmin.com/xmlschemas/TrackPointExtension/v1" xmlns:xsi="http://www.w3.org/2001/XMLSchema-instance" xsi:schemaLocation="http://www.topografix.com/GPX/1/1 http://www.topografix.com/GPX/1/1/gpx.xsd" version="1.1" creator="gpx.py -- https://github.com/tkrajina/gpxpy">
  <trk>
    <name>gpx from keep</name>
    <type>Run</type>
    <trkseg>
      <trkpt lat="24.910673730894636" lon="118.53855983342574">
        <ele>9.51005782559514</ele>
        <time>2024-06-19T13:52:51Z</time>
      </trkpt>
      <trkpt lat="24.910530304020877" lon="118.53855524396438">
        <ele>9.120030201971531</ele>
        <time>2024-06-19T13:52:57Z</time>
      </trkpt>
      <trkpt lat="24.910227084015496" lon="118.53849089740527">
        <ele>8.40363808721304</ele>
        <time>2024-06-19T13:53:06Z</time>
      </trkpt>
      <trkpt lat="24.91012414165214" lon="118.53847189386461">
        <ele>9.562184575013816</ele>
        <time>2024-06-19T13:53:09Z</time>
      </trkpt>
      <trkpt lat="24.909915914441292" lon="118.53848277449737">
        <ele>12.197986915707588</ele>
        <time>2024-06-19T13:53:15Z</time>
      </trkpt>
      <trkpt lat="24.90981265080391" lon="118.53846623058203">
        <ele>13.031788005493581</ele>
        <time>2024-06-19T13:53:18Z</time>
      </trkpt>
      <trkpt lat="24.90972131077048" lon="118.53842849265894">
        <ele>9.443980196490884</ele>
        <time>2024-06-19T13:53:21Z</time>
      </trkpt>
      <trkpt lat="24.90961869098112" lon="118.53843842035717">
        <ele>9.581744999624789</ele>
        <time>2024-06-19T13:53:24Z</time>
      </trkpt>
      <trkpt lat="24.909520854379142" lon="118.53842138534472">
        <ele>6.722637235186994</ele>
        <time>2024-06-19T13:53:27Z</time>
      </trkpt>
      <trkpt lat="24.90931330762869" lon="118.53842499422143">
        <ele>7.781700015999377</ele>
        <time>2024-06-19T13:53:33Z</time>
      </trkpt>
      <trkpt lat="24.909222515742286" lon="118.53840349678912">
        <ele>7.287101672962308</ele>
        <time>2024-06-19T13:53:36Z</time>
      </trkpt>
      <trkpt lat="24.90921076340064" lon="118.53830232540373">
        <ele>7.263241880573332</ele>
        <time>2024-06-19T13:53:39Z</time>
      </trkpt>
      <trkpt lat="24.909281051377828" lon="118.53818720566215">
        <ele>7.4033722979947925</ele>
        <time>2024-06-19T13:53:42Z</time>
      </trkpt>
      <trkpt lat="24.90936343219572" lon="118.53789270699104">
        <ele>7.819090329110622</ele>
        <time>2024-06-19T13:53:51Z</time>
      </trkpt>
      <trkpt lat="24.909461155078397" lon="118.53750603532013">
        <ele>9.473420036025345</ele>
        <time>2024-06-19T13:54:03Z</time>
      </trkpt>
      <trkpt lat="24.909499392171362" lon="118.53730981140018">
        <ele>9.538054836913943</ele>
        <time>2024-06-19T13:54:09Z</time>
      </trkpt>
      <trkpt lat="24.909533501188495" lon="118.53721977622902">
        <ele>9.597597216255963</ele>
        <time>2024-06-19T13:54:12Z</time>
      </trkpt>
      <trkpt lat="24.90954368910693" lon="118.53712176529694">
        <ele>9.676018410362303</ele>
        <time>2024-06-19T13:54:15Z</time>
      </trkpt>
      <trkpt lat="24.909530123516976" lon="118.5370142712667">
        <ele>10.255138707347214</ele>
        <time>2024-06-19T13:54:18Z</time>
      </trkpt>
      <trkpt lat="24.909440192054987" lon="118.53697345226941">
        <ele>9.110049650073051</ele>
        <time>2024-06-19T13:54:21Z</time>
      </trkpt>
      <trkpt lat="24.909453030028157" lon="118.53687941945721">
        <ele>9.585691622458398</ele>
        <time>2024-06-19T13:54:24Z</time>
      </trkpt>
      <trkpt lat="24.90950321791474" lon="118.53678838373398">
        <ele>9.490062195807695</ele>
        <time>2024-06-19T13:54:27Z</time>
      </trkpt>
      <trkpt lat="24.909517676854954" lon="118.5366702031981">
        <ele>9.601030385121703</ele>
        <time>2024-06-19T13:54:30Z</time>
      </trkpt>
      <trkpt lat="24.909626943861348" lon="118.53635913215278">
        <ele>9.0435771048069</ele>
        <time>2024-06-19T13:54:39Z</time>
      </trkpt>
      <trkpt lat="24.909623985863693" lon="118.53616762071393">
        <ele>9.49662205670029</ele>
        <time>2024-06-19T13:54:45Z</time>
      </trkpt>
      <trkpt lat="24.909644277687033" lon="118.53595594439638">
        <ele>9.459680425934494</ele>
        <time>2024-06-19T13:54:51Z</time>
      </trkpt>
      <trkpt lat="24.90964067799786" lon="118.53583623475892">
        <ele>10.017522303387523</ele>
        <time>2024-06-19T13:54:54Z</time>
      </trkpt>
      <trkpt lat="24.909703125527784" lon="118.53552438115003">
        <ele>9.289901151321828</ele>
        <time>2024-06-19T13:55:03Z</time>
      </trkpt>
      <trkpt lat="24.909747488414997" lon="118.53532975565851">
        <ele>9.47736326418817</ele>
        <time>2024-06-19T13:55:09Z</time>
      </trkpt>
      <trkpt lat="24.909783669565968" lon="118.53493976657869">
        <ele>8.135730511508882</ele>
        <time>2024-06-19T13:55:21Z</time>
      </trkpt>
      <trkpt lat="24.909800272534486" lon="118.53485905312382">
        <ele>9.097625781781971</ele>
        <time>2024-06-19T13:55:24Z</time>
      </trkpt>
      <trkpt lat="24.91009432984053" lon="118.53498236746545">
        <ele>8.976326989941299</ele>
        <time>2024-06-19T13:55:36Z</time>
      </trkpt>
      <trkpt lat="24.910426017127623" lon="118.53511789391627">
        <ele>10.006647349335253</ele>
        <time>2024-06-19T13:55:48Z</time>
      </trkpt>
      <trkpt lat="24.910686581529568" lon="118.53521064305097">
        <ele>9.927615428343415</ele>
        <time>2024-06-19T13:55:57Z</time>
      </trkpt>
      <trkpt lat="24.910768112815145" lon="118.53522544173032">
        <ele>9.969237030483782</ele>
        <time>2024-06-19T13:56:00Z</time>
      </trkpt>
      <trkpt lat="24.911020326296516" lon="118.53534379102162">
        <ele>9.980441295541823</ele>
        <time>2024-06-19T13:56:09Z</time>
      </trkpt>
      <trkpt lat="24.911178929685395" lon="118.53545563329543">
        <ele>9.632623942568898</ele>
        <time>2024-06-19T13:56:15Z</time>
      </trkpt>
      <trkpt lat="24.911513467868055" lon="118.53556767538922">
        <ele>10.048713132739067</ele>
        <time>2024-06-19T13:56:27Z</time>
      </trkpt>
      <trkpt lat="24.91158801145507" lon="118.53560133756109">
        <ele>9.344696291722357</ele>
        <time>2024-06-19T13:56:30Z</time>
      </trkpt>
      <trkpt lat="24.911750739672105" lon="118.53571362115751">
        <ele>9.949589219875634</ele>
        <time>2024-06-19T13:56:36Z</time>
      </trkpt>
      <trkpt lat="24.91202889381485" lon="118.53582521542612">
        <ele>9.918703380040824</ele>
        <time>2024-06-19T13:56:45Z</time>
      </trkpt>
      <trkpt lat="24.912254831196382" lon="118.53590571714972">
        <ele>10.05529841221869</ele>
        <time>2024-06-19T13:56:54Z</time>
      </trkpt>
      <trkpt lat="24.91254900135081" lon="118.53605559939311">
        <ele>9.589919658377767</ele>
        <time>2024-06-19T13:57:06Z</time>
      </trkpt>
      <trkpt lat="24.912848133779548" lon="118.53613175164494">
        <ele>9.303601286374032</ele>
        <time>2024-06-19T13:57:18Z</time>
      </trkpt>
      <trkpt lat="24.91300967481144" lon="118.53618523208951">
        <ele>10.942190263420343</ele>
        <time>2024-06-19T13:57:24Z</time>
      </trkpt>
      <trkpt lat="24.913087104892515" lon="118.53623133924519">
        <ele>11.505034394562244</ele>
        <time>2024-06-19T13:57:27Z</time>
      </trkpt>
      <trkpt lat="24.91333067810266" lon="118.53630619577235">
        <ele>12.013447524048388</ele>
        <time>2024-06-19T13:57:36Z</time>
      </trkpt>
      <trkpt lat="24.913569149173508" lon="118.53645559903534">
        <ele>12.748753654770553</ele>
        <time>2024-06-19T13:57:45Z</time>
      </trkpt>
      <trkpt lat="24.913803207470714" lon="118.53656580932132">
        <ele>13.115452627651393</ele>
        <time>2024-06-19T13:57:57Z</time>
      </trkpt>
      <trkpt lat="24.914011963078636" lon="118.53670942068509">
        <ele>13.071120367385447</ele>
        <time>2024-06-19T13:58:06Z</time>
      </trkpt>
      <trkpt lat="24.91430362656728" lon="118.53679456230425">
        <ele>13.146276232786477</ele>
        <time>2024-06-19T13:58:15Z</time>
      </trkpt>
      <trkpt lat="24.914467778254114" lon="118.53685048642075">
        <ele>13.258551273494959</ele>
        <time>2024-06-19T13:58:21Z</time>
      </trkpt>
      <trkpt lat="24.914635909075276" lon="118.53694016712109">
        <ele>13.370017972774804</ele>
        <time>2024-06-19T13:58:27Z</time>
      </trkpt>
      <trkpt lat="24.914886643950364" lon="118.53700967373064">
        <ele>14.967802800238132</ele>
        <time>2024-06-19T13:58:36Z</time>
      </trkpt>
      <trkpt lat="24.91496569490978" lon="118.53705370848485">
        <ele>15.547303552739322</ele>
        <time>2024-06-19T13:58:39Z</time>
      </trkpt>
      <trkpt lat="24.91504770973542" lon="118.5370770929244">
        <ele>15.759143931791186</ele>
        <time>2024-06-19T13:58:42Z</time>
      </trkpt>
      <trkpt lat="24.915148074987393" lon="118.53713972857882">
        <ele>15.043934755958617</ele>
        <time>2024-06-19T13:58:45Z</time>
      </trkpt>
      <trkpt lat="24.915256457404386" lon="118.53741983365386">
        <ele>14.686044207774103</ele>
        <time>2024-06-19T13:58:54Z</time>
      </trkpt>
      <trkpt lat="24.915324561622185" lon="118.53760182831621">
        <ele>15.05622439365834</ele>
        <time>2024-06-19T13:59:00Z</time>
      </trkpt>
      <trkpt lat="24.915370066787602" lon="118.53767935139655">
        <ele>15.391925034113228</ele>
        <time>2024-06-19T13:59:03Z</time>
      </trkpt>
      <trkpt lat="24.915470074137524" lon="118.53803961860872">
        <ele>15.397164192982018</ele>
        <time>2024-06-19T13:59:15Z</time>
      </trkpt>
      <trkpt lat="24.91560923227564" lon="118.53838126550063">
        <ele>16.420303395949304</ele>
        <time>2024-06-19T13:59:27Z</time>
      </trkpt>
      <trkpt lat="24.915709163466378" lon="118.53866186638649">
        <ele>16.239226928912103</ele>
        <time>2024-06-19T13:59:36Z</time>
      </trkpt>
      <trkpt lat="24.915722453669805" lon="118.5387721096501">
        <ele>15.60466078761965</ele>
        <time>2024-06-19T13:59:39Z</time>
      </trkpt>
      <trkpt lat="24.915805909521634" lon="118.53905623683798">
        <ele>14.731213292106986</ele>
        <time>2024-06-19T13:59:48Z</time>
      </trkpt>
      <trkpt lat="24.915890783946583" lon="118.53934216852322">
        <ele>14.32606450933963</ele>
        <time>2024-06-19T13:59:57Z</time>
      </trkpt>
      <trkpt lat="24.91598700088042" lon="118.53963679632571">
        <ele>13.685414881445467</ele>
        <time>2024-06-19T14:00:06Z</time>
      </trkpt>
      <trkpt lat="24.91604283928816" lon="118.5399225460799">
        <ele>12.348651991225779</ele>
        <time>2024-06-19T14:00:15Z</time>
      </trkpt>
      <trkpt lat="24.916131695296905" lon="118.54023356836348">
        <ele>11.821567390114069</ele>
        <time>2024-06-19T14:00:24Z</time>
      </trkpt>
      <trkpt lat="24.91622638662067" lon="118.54054249688619">
        <ele>10.844984700903296</ele>
        <time>2024-06-19T14:00:33Z</time>
      </trkpt>
      <trkpt lat="24.916239460722373" lon="118.54064741018158">
        <ele>12.65073015447706</ele>
        <time>2024-06-19T14:00:36Z</time>
      </trkpt>
      <trkpt lat="24.91627996667235" lon="118.54073776277068">
        <ele>11.987058115191758</ele>
        <time>2024-06-19T14:00:39Z</time>
      </trkpt>
      <trkpt lat="24.91629936922693" lon="118.54082626382177">
        <ele>12.013612429611385</ele>
        <time>2024-06-19T14:00:42Z</time>
      </trkpt>
      <trkpt lat="24.916302265508566" lon="118.54101739626302">
        <ele>12.131287707947195</ele>
        <time>2024-06-19T14:00:48Z</time>
      </trkpt>
      <trkpt lat="24.916357705696484" lon="118.54121118732249">
        <ele>12.4668094124645</ele>
        <time>2024-06-19T14:00:54Z</time>
      </trkpt>
      <trkpt lat="24.91644191617051" lon="118.54140695523267">
        <ele>12.530700663104653</ele>
        <time>2024-06-19T14:01:00Z</time>
      </trkpt>
      <trkpt lat="24.91652202471947" lon="118.54172062411398">
        <ele>12.69323005899787</ele>
        <time>2024-06-19T14:01:09Z</time>
      </trkpt>
      <trkpt lat="24.91647040365547" lon="118.54181183297293">
        <ele>12.755174994468689</ele>
        <time>2024-06-19T14:01:12Z</time>
      </trkpt>
      <trkpt lat="24.91627201990322" lon="118.54190022658909">
        <ele>12.351579687558115</ele>
        <time>2024-06-19T14:01:18Z</time>
      </trkpt>
      <trkpt lat="24.91608110311733" lon="118.54201426973898">
        <ele>12.13880329579115</ele>
        <time>2024-06-19T14:01:24Z</time>
      </trkpt>
      <trkpt lat="24.915825135368323" lon="118.54207622049128">
        <ele>12.311524847522378</ele>
        <time>2024-06-19T14:01:33Z</time>
      </trkpt>
      <trkpt lat="24.91553571632738" lon="118.54225910234402">
        <ele>12.522140354849398</ele>
        <time>2024-06-19T14:01:42Z</time>
      </trkpt>
      <trkpt lat="24.915239650549463" lon="118.54241223198656">
        <ele>12.850352152250707</ele>
        <time>2024-06-19T14:01:51Z</time>
      </trkpt>
      <trkpt lat="24.91489789945179" lon="118.5425376252706">
        <ele>10.684061921201646</ele>
        <time>2024-06-19T14:02:03Z</time>
      </trkpt>
      <trkpt lat="24.914817808352925" lon="118.54253118525189">
        <ele>10.734456094913185</ele>
        <time>2024-06-19T14:02:06Z</time>
      </trkpt>
      <trkpt lat="24.91450386963246" lon="118.5425501739451">
        <ele>10.176383060403168</ele>
        <time>2024-06-19T14:02:18Z</time>
      </trkpt>
      <trkpt lat="24.9141577757475" lon="118.54263413876116">
        <ele>9.793520020321012</ele>
        <time>2024-06-19T14:02:30Z</time>
      </trkpt>
      <trkpt lat="24.914074896153842" lon="118.54263274434109">
        <ele>9.622033539228141</ele>
        <time>2024-06-19T14:02:33Z</time>
      </trkpt>
      <trkpt lat="24.913730746986065" lon="118.54270334189988">
        <ele>8.80306906066835</ele>
        <time>2024-06-19T14:02:45Z</time>
      </trkpt>
      <trkpt lat="24.913555630531285" lon="118.54275685505566">
        <ele>8.35656367521733</ele>
        <time>2024-06-19T14:02:51Z</time>
      </trkpt>
      <trkpt lat="24.913555630531285" lon="118.54275685505566">
        <ele>8.35656367521733</ele>
        <time>2024-06-19T14:02:51Z</time>
      </trkpt>
    </trkseg>
  </trk>
</gpx>