<?xml version="1.0" encoding="UTF-8"?>
<gpx xmlns="http://www.topografix.com/GPX/1/1" xmlns:gpxtpx="http://www.garmin.com/xmlschemas/TrackPointExtension/v1" xmlns:xsi="http://www.w3.org/2001/XMLSchema-instance" xsi:schemaLocation="http://www.topografix.com/GPX/1/1 http://www.topografix.com/GPX/1/1/gpx.xsd" version="1.1" creator="gpx.py -- https://github.com/tkrajina/gpxpy">
  <trk>
    <name>gpx from keep</name>
    <type>Run</type>
    <trkseg>
      <trkpt lat="34.82236603247718" lon="119.08147699572048">
        <ele>9.397544974461198</ele>
        <time>2024-08-02T11:52:35Z</time>
      </trkpt>
      <trkpt lat="34.8223310026461" lon="119.08171620574466">
        <ele>9.41791625879705</ele>
        <time>2024-08-02T11:52:44Z</time>
      </trkpt>
      <trkpt lat="34.82235384490911" lon="119.08205740398127">
        <ele>9.455229227431118</ele>
        <time>2024-08-02T11:52:53Z</time>
      </trkpt>
      <trkpt lat="34.82235406132087" lon="119.08217811117106">
        <ele>9.545704952441156</ele>
        <time>2024-08-02T11:52:56Z</time>
      </trkpt>
      <trkpt lat="34.822355247261704" lon="119.08219707701234">
        <ele>9.407086262479424</ele>
        <time>2024-08-02T11:53:31Z</time>
      </trkpt>
      <trkpt lat="34.822345895116946" lon="119.08244830501738">
        <ele>9.37124942522496</ele>
        <time>2024-08-02T11:53:40Z</time>
      </trkpt>
      <trkpt lat="34.82237555453645" lon="119.08287808633109">
        <ele>9.708986875601113</ele>
        <time>2024-08-02T11:53:52Z</time>
      </trkpt>
      <trkpt lat="34.82239446894587" lon="119.08323644831987">
        <ele>8.813615661114454</ele>
        <time>2024-08-02T11:54:01Z</time>
      </trkpt>
      <trkpt lat="34.82241200882113" lon="119.08346382603989">
        <ele>9.501665957272053</ele>
        <time>2024-08-02T11:54:07Z</time>
      </trkpt>
      <trkpt lat="34.82240700198367" lon="119.08358459351255">
        <ele>8.369695158675313</ele>
        <time>2024-08-02T11:54:10Z</time>
      </trkpt>
      <trkpt lat="34.8224362032067" lon="119.08371665040963">
        <ele>9.593873961828649</ele>
        <time>2024-08-02T11:54:13Z</time>
      </trkpt>
      <trkpt lat="34.822417989050024" lon="119.08406921631382">
        <ele>8.7641052166</ele>
        <time>2024-08-02T11:54:22Z</time>
      </trkpt>
      <trkpt lat="34.8224078420215" lon="119.08418525393358">
        <ele>8.185114027000964</ele>
        <time>2024-08-02T11:54:25Z</time>
      </trkpt>
      <trkpt lat="34.822438797194444" lon="119.08452231756692">
        <ele>8.026661552488804</ele>
        <time>2024-08-02T11:54:34Z</time>
      </trkpt>
      <trkpt lat="34.822441014476276" lon="119.08463380633721">
        <ele>7.980537957511842</ele>
        <time>2024-08-02T11:54:37Z</time>
      </trkpt>
      <trkpt lat="34.82248578964283" lon="119.08473987753526">
        <ele>7.898885632865131</ele>
        <time>2024-08-02T11:54:40Z</time>
      </trkpt>
      <trkpt lat="34.82255652894016" lon="119.08477138330056">
        <ele>8.023430552333593</ele>
        <time>2024-08-02T11:54:43Z</time>
      </trkpt>
      <trkpt lat="34.82287351648187" lon="119.08475068868309">
        <ele>8.269761671312153</ele>
        <time>2024-08-02T11:54:55Z</time>
      </trkpt>
      <trkpt lat="34.823228023780125" lon="119.08473827660201">
        <ele>8.188218628056347</ele>
        <time>2024-08-02T11:55:07Z</time>
      </trkpt>
      <trkpt lat="34.82357274489041" lon="119.08470324920683">
        <ele>8.166406396776438</ele>
        <time>2024-08-02T11:55:19Z</time>
      </trkpt>
      <trkpt lat="34.82391805586883" lon="119.08468976001303">
        <ele>8.137886393815279</ele>
        <time>2024-08-02T11:55:31Z</time>
      </trkpt>
      <trkpt lat="34.82426010142446" lon="119.08463858892252">
        <ele>7.753641379997134</ele>
        <time>2024-08-02T11:55:43Z</time>
      </trkpt>
      <trkpt lat="34.8246060100324" lon="119.08460160086277">
        <ele>8.276448911987245</ele>
        <time>2024-08-02T11:55:55Z</time>
      </trkpt>
      <trkpt lat="34.82478863422968" lon="119.08457821239953">
        <ele>8.680347315967083</ele>
        <time>2024-08-02T11:56:01Z</time>
      </trkpt>
      <trkpt lat="34.825148734247335" lon="119.08458300688103">
        <ele>9.148205867037177</ele>
        <time>2024-08-02T11:56:13Z</time>
      </trkpt>
      <trkpt lat="34.82541841365642" lon="119.08456240423179">
        <ele>9.606797283515334</ele>
        <time>2024-08-02T11:56:22Z</time>
      </trkpt>
      <trkpt lat="34.825766244808534" lon="119.08454003593612">
        <ele>8.965431874617934</ele>
        <time>2024-08-02T11:56:34Z</time>
      </trkpt>
      <trkpt lat="34.82611733350481" lon="119.08454325323282">
        <ele>8.314772283658385</ele>
        <time>2024-08-02T11:56:46Z</time>
      </trkpt>
      <trkpt lat="34.82636961830864" lon="119.08451868761333">
        <ele>8.084821961820126</ele>
        <time>2024-08-02T11:56:55Z</time>
      </trkpt>
      <trkpt lat="34.826453278354776" lon="119.08449190287924">
        <ele>7.77789221983403</ele>
        <time>2024-08-02T11:56:58Z</time>
      </trkpt>
      <trkpt lat="34.82680709931733" lon="119.08448572941045">
        <ele>8.918040805496275</ele>
        <time>2024-08-02T11:57:10Z</time>
      </trkpt>
      <trkpt lat="34.82695438765677" lon="119.08446404566752">
        <ele>9.478487450629473</ele>
        <time>2024-08-02T11:57:16Z</time>
      </trkpt>
      <trkpt lat="34.827018561093574" lon="119.08451305598021">
        <ele>9.076205254532397</ele>
        <time>2024-08-02T11:57:19Z</time>
      </trkpt>
      <trkpt lat="34.82706641508344" lon="119.08471098512938">
        <ele>9.426329795271158</ele>
        <time>2024-08-02T11:57:25Z</time>
      </trkpt>
      <trkpt lat="34.827055985917966" lon="119.0849412897366">
        <ele>8.82046004384756</ele>
        <time>2024-08-02T11:57:31Z</time>
      </trkpt>
      <trkpt lat="34.82707828974442" lon="119.08527541247896">
        <ele>8.546885552816093</ele>
        <time>2024-08-02T11:57:40Z</time>
      </trkpt>
      <trkpt lat="34.82707584706034" lon="119.08488627035065">
        <ele>8.775185986422002</ele>
        <time>2024-08-02T11:57:55Z</time>
      </trkpt>
      <trkpt lat="34.82709320629353" lon="119.08452573497016">
        <ele>9.077428787015378</ele>
        <time>2024-08-02T11:58:04Z</time>
      </trkpt>
      <trkpt lat="34.82707992148499" lon="119.08410545201208">
        <ele>9.074734532274306</ele>
        <time>2024-08-02T11:58:13Z</time>
      </trkpt>
      <trkpt lat="34.827068442658195" lon="119.08399120414308">
        <ele>9.393713164143264</ele>
        <time>2024-08-02T11:58:16Z</time>
      </trkpt>
      <trkpt lat="34.82709618348173" lon="119.0836536085002">
        <ele>9.421613820828497</ele>
        <time>2024-08-02T11:58:25Z</time>
      </trkpt>
      <trkpt lat="34.82710242045084" lon="119.08321919372544">
        <ele>9.25736374501139</ele>
        <time>2024-08-02T11:58:37Z</time>
      </trkpt>
      <trkpt lat="34.82713377412408" lon="119.0828935593407">
        <ele>9.11437825486064</ele>
        <time>2024-08-02T11:58:46Z</time>
      </trkpt>
      <trkpt lat="34.82715631637787" lon="119.08269381268225">
        <ele>9.259951166808605</ele>
        <time>2024-08-02T11:58:52Z</time>
      </trkpt>
      <trkpt lat="34.82717977637968" lon="119.08263487279588">
        <ele>10.00524804648012</ele>
        <time>2024-08-02T11:58:55Z</time>
      </trkpt>
      <trkpt lat="34.82715571531655" lon="119.08251077031396">
        <ele>9.88838343322277</ele>
        <time>2024-08-02T11:59:01Z</time>
      </trkpt>
      <trkpt lat="34.827188235920005" lon="119.08212854493745">
        <ele>9.309761109761894</ele>
        <time>2024-08-02T11:59:13Z</time>
      </trkpt>
      <trkpt lat="34.82722554850459" lon="119.0817199006827">
        <ele>9.847342429682612</ele>
        <time>2024-08-02T11:59:25Z</time>
      </trkpt>
      <trkpt lat="34.8272238572239" lon="119.08162104721947">
        <ele>9.527348566800356</ele>
        <time>2024-08-02T11:59:28Z</time>
      </trkpt>
      <trkpt lat="34.82727525339714" lon="119.08121203091927">
        <ele>9.374578797258437</ele>
        <time>2024-08-02T11:59:40Z</time>
      </trkpt>
      <trkpt lat="34.82731415821015" lon="119.08089185588494">
        <ele>9.660278369672596</ele>
        <time>2024-08-02T11:59:49Z</time>
      </trkpt>
      <trkpt lat="34.82730913653891" lon="119.08077703094402">
        <ele>9.540438970550895</ele>
        <time>2024-08-02T11:59:52Z</time>
      </trkpt>
      <trkpt lat="34.82733344370896" lon="119.08039939855533">
        <ele>9.15270147100091</ele>
        <time>2024-08-02T12:00:04Z</time>
      </trkpt>
      <trkpt lat="34.827333911887614" lon="119.08031909381315">
        <ele>8.897043401375413</ele>
        <time>2024-08-02T12:00:07Z</time>
      </trkpt>
      <trkpt lat="34.82735883213812" lon="119.08024157942424">
        <ele>8.814992194995284</ele>
        <time>2024-08-02T12:00:10Z</time>
      </trkpt>
      <trkpt lat="34.827371623755305" lon="119.07987602166062">
        <ele>8.762479925528169</ele>
        <time>2024-08-02T12:00:19Z</time>
      </trkpt>
      <trkpt lat="34.82738752077941" lon="119.07954421999598">
        <ele>9.173084723763168</ele>
        <time>2024-08-02T12:00:28Z</time>
      </trkpt>
      <trkpt lat="34.82739483214681" lon="119.07933442258035">
        <ele>9.332968078553677</ele>
        <time>2024-08-02T12:00:34Z</time>
      </trkpt>
      <trkpt lat="34.82736730540592" lon="119.07927363855839">
        <ele>9.165029428899288</ele>
        <time>2024-08-02T12:00:37Z</time>
      </trkpt>
      <trkpt lat="34.827200504104454" lon="119.07932125925534">
        <ele>9.088261525146663</ele>
        <time>2024-08-02T12:00:43Z</time>
      </trkpt>
      <trkpt lat="34.82693574751874" lon="119.07924605561834">
        <ele>8.829202750697732</ele>
        <time>2024-08-02T12:00:52Z</time>
      </trkpt>
      <trkpt lat="34.826685410703256" lon="119.07920014959147">
        <ele>8.719169123098254</ele>
        <time>2024-08-02T12:01:01Z</time>
      </trkpt>
      <trkpt lat="34.826331934887364" lon="119.07917855625377">
        <ele>9.128865914419293</ele>
        <time>2024-08-02T12:01:13Z</time>
      </trkpt>
      <trkpt lat="34.82598551403013" lon="119.0791689650922">
        <ele>9.846556628122926</ele>
        <time>2024-08-02T12:01:25Z</time>
      </trkpt>
      <trkpt lat="34.82566118832325" lon="119.07915670613177">
        <ele>10.552570205181837</ele>
        <time>2024-08-02T12:01:37Z</time>
      </trkpt>
      <trkpt lat="34.82532058630842" lon="119.07914700059428">
        <ele>10.688479295931756</ele>
        <time>2024-08-02T12:01:49Z</time>
      </trkpt>
      <trkpt lat="34.8249694923761" lon="119.07913224465472">
        <ele>10.257536761462688</ele>
        <time>2024-08-02T12:02:01Z</time>
      </trkpt>
      <trkpt lat="34.82470674580994" lon="119.0791110807826">
        <ele>9.415658202953637</ele>
        <time>2024-08-02T12:02:10Z</time>
      </trkpt>
      <trkpt lat="34.82436155310271" lon="119.07911584841877">
        <ele>7.440316596068442</ele>
        <time>2024-08-02T12:02:22Z</time>
      </trkpt>
      <trkpt lat="34.824026142503214" lon="119.0791007505948">
        <ele>8.26293251849711</ele>
        <time>2024-08-02T12:02:34Z</time>
      </trkpt>
      <trkpt lat="34.823682772996186" lon="119.07908188721325">
        <ele>8.190598923712969</ele>
        <time>2024-08-02T12:02:46Z</time>
      </trkpt>
      <trkpt lat="34.82335195486299" lon="119.07905504740661">
        <ele>8.014681688509881</ele>
        <time>2024-08-02T12:02:58Z</time>
      </trkpt>
      <trkpt lat="34.823079904803734" lon="119.07906044437746">
        <ele>8.795510280877352</ele>
        <time>2024-08-02T12:03:07Z</time>
      </trkpt>
      <trkpt lat="34.82289286480049" lon="119.07906553762557">
        <ele>7.929304279386997</ele>
        <time>2024-08-02T12:03:13Z</time>
      </trkpt>
      <trkpt lat="34.822553573972776" lon="119.07905947208427">
        <ele>8.190089046023786</ele>
        <time>2024-08-02T12:03:25Z</time>
      </trkpt>
      <trkpt lat="34.82246121684995" lon="119.07904754943844">
        <ele>7.872228319756687</ele>
        <time>2024-08-02T12:03:28Z</time>
      </trkpt>
      <trkpt lat="34.822377572631964" lon="119.07906203243894">
        <ele>7.99786295555532</ele>
        <time>2024-08-02T12:03:31Z</time>
      </trkpt>
      <trkpt lat="34.82231350643875" lon="119.07911047717758">
        <ele>7.2726866053417325</ele>
        <time>2024-08-02T12:03:34Z</time>
      </trkpt>
      <trkpt lat="34.82227434156034" lon="119.07942549249465">
        <ele>8.435888298787177</ele>
        <time>2024-08-02T12:03:43Z</time>
      </trkpt>
      <trkpt lat="34.82228997133485" lon="119.07984697640008">
        <ele>8.541319465264678</ele>
        <time>2024-08-02T12:03:56Z</time>
      </trkpt>
      <trkpt lat="34.82229847131128" lon="119.08027467291802">
        <ele>9.15645128954202</ele>
        <time>2024-08-02T12:04:08Z</time>
      </trkpt>
      <trkpt lat="34.8223100817652" lon="119.08048731951689">
        <ele>9.265447323210537</ele>
        <time>2024-08-02T12:04:14Z</time>
      </trkpt>
      <trkpt lat="34.822329415983454" lon="119.0805907882997">
        <ele>9.214992827735841</ele>
        <time>2024-08-02T12:04:17Z</time>
      </trkpt>
      <trkpt lat="34.82234043704415" lon="119.08101049436429">
        <ele>9.834652867168188</ele>
        <time>2024-08-02T12:04:29Z</time>
      </trkpt>
      <trkpt lat="34.82234546946012" lon="119.08144603401963">
        <ele>9.4440848371014</ele>
        <time>2024-08-02T12:04:41Z</time>
      </trkpt>
      <trkpt lat="34.822360193662796" lon="119.08164183875317">
        <ele>9.419306523166597</ele>
        <time>2024-08-02T12:04:47Z</time>
      </trkpt>
      <trkpt lat="34.82236180486384" lon="119.08203060375762">
        <ele>9.791833659633994</ele>
        <time>2024-08-02T12:04:59Z</time>
      </trkpt>
      <trkpt lat="34.82235943648535" lon="119.08243786272992">
        <ele>8.901664109900594</ele>
        <time>2024-08-02T12:05:11Z</time>
      </trkpt>
      <trkpt lat="34.82238242998062" lon="119.08276663622176">
        <ele>9.372657783329487</ele>
        <time>2024-08-02T12:05:20Z</time>
      </trkpt>
      <trkpt lat="34.822388083871246" lon="119.08316678044591">
        <ele>9.465799348428845</ele>
        <time>2024-08-02T12:05:32Z</time>
      </trkpt>
      <trkpt lat="34.82240418231213" lon="119.08357883414128">
        <ele>8.922261571511626</ele>
        <time>2024-08-02T12:05:44Z</time>
      </trkpt>
      <trkpt lat="34.8224133397856" lon="119.08388853898555">
        <ele>8.684390153735876</ele>
        <time>2024-08-02T12:05:53Z</time>
      </trkpt>
      <trkpt lat="34.822428071169625" lon="119.0843232163637">
        <ele>8.506998895667493</ele>
        <time>2024-08-02T12:06:05Z</time>
      </trkpt>
      <trkpt lat="34.82243975681441" lon="119.08463483705636">
        <ele>8.06371324043721</ele>
        <time>2024-08-02T12:06:14Z</time>
      </trkpt>
      <trkpt lat="34.82246173838246" lon="119.0847320526243">
        <ele>7.895582576282322</ele>
        <time>2024-08-02T12:06:17Z</time>
      </trkpt>
      <trkpt lat="34.82251283961012" lon="119.08482272652907">
        <ele>8.461023417301476</ele>
        <time>2024-08-02T12:06:20Z</time>
      </trkpt>
      <trkpt lat="34.82285556385922" lon="119.08477144407017">
        <ele>8.496342950500548</ele>
        <time>2024-08-02T12:06:32Z</time>
      </trkpt>
      <trkpt lat="34.823182433794706" lon="119.08473331853894">
        <ele>8.810725884512067</ele>
        <time>2024-08-02T12:06:44Z</time>
      </trkpt>
      <trkpt lat="34.823505002543406" lon="119.08469779446419">
        <ele>8.693232411518693</ele>
        <time>2024-08-02T12:06:56Z</time>
      </trkpt>
      <trkpt lat="34.82384942319939" lon="119.08467360169986">
        <ele>8.545338430441916</ele>
        <time>2024-08-02T12:07:08Z</time>
      </trkpt>
      <trkpt lat="34.82417955321786" lon="119.0846469784005">
        <ele>8.683915024623275</ele>
        <time>2024-08-02T12:07:20Z</time>
      </trkpt>
      <trkpt lat="34.824522033823456" lon="119.08462008784186">
        <ele>8.641455781646073</ele>
        <time>2024-08-02T12:07:32Z</time>
      </trkpt>
      <trkpt lat="34.82479329441704" lon="119.08457937504481">
        <ele>8.61304007936269</ele>
        <time>2024-08-02T12:07:41Z</time>
      </trkpt>
      <trkpt lat="34.82512416208204" lon="119.08456936939994">
        <ele>9.063371536321938</ele>
        <time>2024-08-02T12:07:53Z</time>
      </trkpt>
      <trkpt lat="34.82545393228441" lon="119.08454824483086">
        <ele>8.993738978169858</ele>
        <time>2024-08-02T12:08:05Z</time>
      </trkpt>
      <trkpt lat="34.82562072955667" lon="119.08452887143295">
        <ele>9.731396280229092</ele>
        <time>2024-08-02T12:08:11Z</time>
      </trkpt>
      <trkpt lat="34.82594898597605" lon="119.08452558206082">
        <ele>8.782315708696842</ele>
        <time>2024-08-02T12:08:23Z</time>
      </trkpt>
      <trkpt lat="34.82628821809795" lon="119.0845234235395">
        <ele>8.741138708777726</ele>
        <time>2024-08-02T12:08:35Z</time>
      </trkpt>
      <trkpt lat="34.8266200498082" lon="119.0845101759237">
        <ele>8.694893131032586</ele>
        <time>2024-08-02T12:08:47Z</time>
      </trkpt>
      <trkpt lat="34.826947735830636" lon="119.08448142517022">
        <ele>9.039585774764419</ele>
        <time>2024-08-02T12:08:59Z</time>
      </trkpt>
      <trkpt lat="34.82702689428107" lon="119.0844493251301">
        <ele>9.221436088904738</ele>
        <time>2024-08-02T12:09:02Z</time>
      </trkpt>
      <trkpt lat="34.82704569684392" lon="119.08435261664891">
        <ele>9.40182972420007</ele>
        <time>2024-08-02T12:09:05Z</time>
      </trkpt>
      <trkpt lat="34.82706414772486" lon="119.08394143013541">
        <ele>9.268532535992563</ele>
        <time>2024-08-02T12:09:17Z</time>
      </trkpt>
      <trkpt lat="34.82708327724617" lon="119.08384083242804">
        <ele>9.38377374317497</ele>
        <time>2024-08-02T12:09:20Z</time>
      </trkpt>
      <trkpt lat="34.827104790056694" lon="119.0834126201362">
        <ele>9.625495804473758</ele>
        <time>2024-08-02T12:09:32Z</time>
      </trkpt>
      <trkpt lat="34.82712662582844" lon="119.08330737935759">
        <ele>9.550652812235057</ele>
        <time>2024-08-02T12:09:35Z</time>
      </trkpt>
      <trkpt lat="34.82713589470354" lon="119.08297858103188">
        <ele>9.18792419694364</ele>
        <time>2024-08-02T12:09:44Z</time>
      </trkpt>
      <trkpt lat="34.8272024145059" lon="119.08266941878261">
        <ele>9.541523826308548</ele>
        <time>2024-08-02T12:09:53Z</time>
      </trkpt>
      <trkpt lat="34.82721552030406" lon="119.08235917294154">
        <ele>9.73796703480184</ele>
        <time>2024-08-02T12:10:02Z</time>
      </trkpt>
      <trkpt lat="34.82725866938158" lon="119.08203714745689">
        <ele>9.914984037168324</ele>
        <time>2024-08-02T12:10:11Z</time>
      </trkpt>
      <trkpt lat="34.82727491327594" lon="119.08163539169014">
        <ele>9.808449608273804</ele>
        <time>2024-08-02T12:10:23Z</time>
      </trkpt>
      <trkpt lat="34.827292316289956" lon="119.081251225943">
        <ele>9.766748058609664</ele>
        <time>2024-08-02T12:10:35Z</time>
      </trkpt>
      <trkpt lat="34.82731597868867" lon="119.08092534132464">
        <ele>9.661621257662773</ele>
        <time>2024-08-02T12:10:44Z</time>
      </trkpt>
      <trkpt lat="34.82731679575594" lon="119.0806058255699">
        <ele>8.748038898222148</ele>
        <time>2024-08-02T12:10:53Z</time>
      </trkpt>
      <trkpt lat="34.827379433338194" lon="119.08017830769218">
        <ele>8.629213999956846</ele>
        <time>2024-08-02T12:11:05Z</time>
      </trkpt>
      <trkpt lat="34.82740701640281" lon="119.07974987728838">
        <ele>8.83893656078726</ele>
        <time>2024-08-02T12:11:17Z</time>
      </trkpt>
      <trkpt lat="34.82742640962013" lon="119.07933452749025">
        <ele>9.83549599070102</ele>
        <time>2024-08-02T12:11:29Z</time>
      </trkpt>
      <trkpt lat="34.827412001425756" lon="119.07924963399653">
        <ele>9.77625098079443</ele>
        <time>2024-08-02T12:11:32Z</time>
      </trkpt>
      <trkpt lat="34.82715689972921" lon="119.07927717647857">
        <ele>9.04159890115261</ele>
        <time>2024-08-02T12:11:41Z</time>
      </trkpt>
      <trkpt lat="34.82689762359635" lon="119.07922708035869">
        <ele>9.385013868100941</ele>
        <time>2024-08-02T12:11:50Z</time>
      </trkpt>
      <trkpt lat="34.826720255064174" lon="119.07922749501518">
        <ele>8.975646048784256</ele>
        <time>2024-08-02T12:11:56Z</time>
      </trkpt>
      <trkpt lat="34.826450109825686" lon="119.07920355529434">
        <ele>8.97322294022888</ele>
        <time>2024-08-02T12:12:05Z</time>
      </trkpt>
      <trkpt lat="34.826113174618406" lon="119.07918906759164">
        <ele>10.03090526536107</ele>
        <time>2024-08-02T12:12:17Z</time>
      </trkpt>
      <trkpt lat="34.825785095614144" lon="119.07918178669479">
        <ele>10.286619309335947</ele>
        <time>2024-08-02T12:12:29Z</time>
      </trkpt>
      <trkpt lat="34.82570750820558" lon="119.07919293735905">
        <ele>10.508777663111687</ele>
        <time>2024-08-02T12:12:32Z</time>
      </trkpt>
      <trkpt lat="34.82543353652608" lon="119.07915402870016">
        <ele>10.684117601253092</ele>
        <time>2024-08-02T12:12:42Z</time>
      </trkpt>
      <trkpt lat="34.82509926160525" lon="119.07915163176683">
        <ele>10.19954331126064</ele>
        <time>2024-08-02T12:12:54Z</time>
      </trkpt>
      <trkpt lat="34.82475509557821" lon="119.0791302410196">
        <ele>10.148949678987265</ele>
        <time>2024-08-02T12:13:06Z</time>
      </trkpt>
      <trkpt lat="34.82467835450201" lon="119.07912075998892">
        <ele>9.20695388969034</ele>
        <time>2024-08-02T12:13:09Z</time>
      </trkpt>
      <trkpt lat="34.82459763191052" lon="119.07913358276237">
        <ele>8.197704910300672</ele>
        <time>2024-08-02T12:13:12Z</time>
      </trkpt>
      <trkpt lat="34.824427144964424" lon="119.07910251956353">
        <ele>7.675724680535495</ele>
        <time>2024-08-02T12:13:18Z</time>
      </trkpt>
      <trkpt lat="34.82431754819572" lon="119.07911660475382">
        <ele>7.563582144677639</ele>
        <time>2024-08-02T12:13:22Z</time>
      </trkpt>
      <trkpt lat="34.82398837497679" lon="119.07910696354129">
        <ele>8.135798696428537</ele>
        <time>2024-08-02T12:13:34Z</time>
      </trkpt>
      <trkpt lat="34.82377165240852" lon="119.0790907792629">
        <ele>8.247261898592114</ele>
        <time>2024-08-02T12:13:42Z</time>
      </trkpt>
      <trkpt lat="34.82364904622263" lon="119.07910045270242">
        <ele>8.15326102077961</ele>
        <time>2024-08-02T12:13:46Z</time>
      </trkpt>
      <trkpt lat="34.8233216319667" lon="119.07907441041498">
        <ele>7.829602566547692</ele>
        <time>2024-08-02T12:13:58Z</time>
      </trkpt>
      <trkpt lat="34.82320976499596" lon="119.07906191303694">
        <ele>8.179773150011897</ele>
        <time>2024-08-02T12:14:02Z</time>
      </trkpt>
      <trkpt lat="34.82297382646854" lon="119.07907551935958">
        <ele>8.333237792365253</ele>
        <time>2024-08-02T12:14:10Z</time>
      </trkpt>
      <trkpt lat="34.822782774400316" lon="119.0790550252328">
        <ele>8.096748775802553</ele>
        <time>2024-08-02T12:14:17Z</time>
      </trkpt>
      <trkpt lat="34.822432532893565" lon="119.07907834991184">
        <ele>7.84741831663996</ele>
        <time>2024-08-02T12:14:29Z</time>
      </trkpt>
      <trkpt lat="34.822356245360666" lon="119.07910054005393">
        <ele>7.34312444832176</ele>
        <time>2024-08-02T12:14:32Z</time>
      </trkpt>
      <trkpt lat="34.82231075214447" lon="119.07921143261102">
        <ele>7.86113815382123</ele>
        <time>2024-08-02T12:14:35Z</time>
      </trkpt>
      <trkpt lat="34.822278262762765" lon="119.07951893919835">
        <ele>7.799307349137962</ele>
        <time>2024-08-02T12:14:44Z</time>
      </trkpt>
      <trkpt lat="34.822304110479195" lon="119.07983007008372">
        <ele>8.598641886375844</ele>
        <time>2024-08-02T12:14:53Z</time>
      </trkpt>
      <trkpt lat="34.822294274717315" lon="119.0799358931948">
        <ele>8.308630374260247</ele>
        <time>2024-08-02T12:14:56Z</time>
      </trkpt>
      <trkpt lat="34.822307756584145" lon="119.08036498413125">
        <ele>8.76328844949603</ele>
        <time>2024-08-02T12:15:08Z</time>
      </trkpt>
      <trkpt lat="34.82234234112288" lon="119.08079269465648">
        <ele>9.789436814375222</ele>
        <time>2024-08-02T12:15:20Z</time>
      </trkpt>
      <trkpt lat="34.822331478447765" lon="119.08121576052193">
        <ele>9.599477727897465</ele>
        <time>2024-08-02T12:15:32Z</time>
      </trkpt>
      <trkpt lat="34.8223445317753" lon="119.08159623273347">
        <ele>9.20261711627245</ele>
        <time>2024-08-02T12:15:43Z</time>
      </trkpt>
      <trkpt lat="34.82231731775506" lon="119.0818306624348">
        <ele>9.553763582371175</ele>
        <time>2024-08-02T12:15:50Z</time>
      </trkpt>
      <trkpt lat="34.82234846025263" lon="119.08215858244529">
        <ele>9.161244193091989</ele>
        <time>2024-08-02T12:15:59Z</time>
      </trkpt>
      <trkpt lat="34.82237395216789" lon="119.08258038404794">
        <ele>8.858532592654228</ele>
        <time>2024-08-02T12:16:11Z</time>
      </trkpt>
      <trkpt lat="34.82236356280345" lon="119.08269686601997">
        <ele>9.092861507087946</ele>
        <time>2024-08-02T12:16:14Z</time>
      </trkpt>
      <trkpt lat="34.82239171125172" lon="119.08311481026722">
        <ele>9.308581092394888</ele>
        <time>2024-08-02T12:16:26Z</time>
      </trkpt>
      <trkpt lat="34.822386797474714" lon="119.08353731113189">
        <ele>8.920966109260917</ele>
        <time>2024-08-02T12:16:38Z</time>
      </trkpt>
      <trkpt lat="34.82240240897275" lon="119.08387522616512">
        <ele>8.54302453994751</ele>
        <time>2024-08-02T12:16:47Z</time>
      </trkpt>
      <trkpt lat="34.82241290081314" lon="119.08397767403883">
        <ele>7.945058740675449</ele>
        <time>2024-08-02T12:16:50Z</time>
      </trkpt>
      <trkpt lat="34.822392894718455" lon="119.08420405007114">
        <ele>8.191800044849515</ele>
        <time>2024-08-02T12:16:56Z</time>
      </trkpt>
      <trkpt lat="34.8224282331393" lon="119.08455664809304">
        <ele>8.565664447844028</ele>
        <time>2024-08-02T12:17:05Z</time>
      </trkpt>
      <trkpt lat="34.822468998945794" lon="119.08474496898225">
        <ele>8.069570265710354</ele>
        <time>2024-08-02T12:17:11Z</time>
      </trkpt>
      <trkpt lat="34.822524825795945" lon="119.08481630322817">
        <ele>8.923384713009</ele>
        <time>2024-08-02T12:17:14Z</time>
      </trkpt>
      <trkpt lat="34.82285528460836" lon="119.08475102585224">
        <ele>8.616169007495046</ele>
        <time>2024-08-02T12:17:26Z</time>
      </trkpt>
      <trkpt lat="34.82312887617725" lon="119.08474317211854">
        <ele>8.548317529261112</ele>
        <time>2024-08-02T12:17:35Z</time>
      </trkpt>
      <trkpt lat="34.82333300867331" lon="119.08474200243207">
        <ele>9.15477316826582</ele>
        <time>2024-08-02T12:17:42Z</time>
      </trkpt>
      <trkpt lat="34.823620767919785" lon="119.08469808179804">
        <ele>8.262335660867393</ele>
        <time>2024-08-02T12:17:52Z</time>
      </trkpt>
      <trkpt lat="34.823976063838714" lon="119.08467549874112">
        <ele>8.854412724263966</ele>
        <time>2024-08-02T12:18:04Z</time>
      </trkpt>
      <trkpt lat="34.82425589933152" lon="119.08464358828887">
        <ele>8.445405326783657</ele>
        <time>2024-08-02T12:18:13Z</time>
      </trkpt>
      <trkpt lat="34.82459827495983" lon="119.08459667124819">
        <ele>8.426551311276853</ele>
        <time>2024-08-02T12:18:25Z</time>
      </trkpt>
      <trkpt lat="34.82488951883969" lon="119.08458934322552">
        <ele>8.456134566105902</ele>
        <time>2024-08-02T12:18:34Z</time>
      </trkpt>
      <trkpt lat="34.82524616622944" lon="119.08456126790816">
        <ele>9.178461411036551</ele>
        <time>2024-08-02T12:18:46Z</time>
      </trkpt>
      <trkpt lat="34.825530753263" lon="119.08454670485246">
        <ele>9.025632771663368</ele>
        <time>2024-08-02T12:18:55Z</time>
      </trkpt>
      <trkpt lat="34.825827501751675" lon="119.08453564348459">
        <ele>9.380327621474862</ele>
        <time>2024-08-02T12:19:04Z</time>
      </trkpt>
      <trkpt lat="34.8259250227102" lon="119.08451498452837">
        <ele>8.34851348772645</ele>
        <time>2024-08-02T12:19:07Z</time>
      </trkpt>
      <trkpt lat="34.826116139872944" lon="119.08452230490508">
        <ele>8.259082613512874</ele>
        <time>2024-08-02T12:19:13Z</time>
      </trkpt>
      <trkpt lat="34.8263007663939" lon="119.08450211883144">
        <ele>8.368370435200632</ele>
        <time>2024-08-02T12:19:19Z</time>
      </trkpt>
      <trkpt lat="34.8263007663939" lon="119.08450211883144">
        <ele>8.368370435200632</ele>
        <time>2024-08-02T12:19:19Z</time>
      </trkpt>
    </trkseg>
  </trk>
</gpx>