<?xml version="1.0" encoding="UTF-8"?>
<gpx xmlns="http://www.topografix.com/GPX/1/1" xmlns:gpxtpx="http://www.garmin.com/xmlschemas/TrackPointExtension/v1" xmlns:xsi="http://www.w3.org/2001/XMLSchema-instance" xsi:schemaLocation="http://www.topografix.com/GPX/1/1 http://www.topografix.com/GPX/1/1/gpx.xsd" version="1.1" creator="gpx.py -- https://github.com/tkrajina/gpxpy">
  <trk>
    <name>gpx from keep</name>
    <type>Run</type>
    <trkseg>
      <trkpt lat="24.911289418068122" lon="118.53739402796161">
        <ele>10.431781735271215</ele>
        <time>2025-05-16T13:19:35Z</time>
      </trkpt>
      <trkpt lat="24.91124232394215" lon="118.537457746658">
        <ele>10.488015359267592</ele>
        <time>2025-05-16T13:19:38Z</time>
      </trkpt>
      <trkpt lat="24.911088358964598" lon="118.53781994814325">
        <ele>9.84156387578696</ele>
        <time>2025-05-16T13:19:50Z</time>
      </trkpt>
      <trkpt lat="24.91089004927742" lon="118.5381307710649">
        <ele>10.074709077365696</ele>
        <time>2025-05-16T13:20:02Z</time>
      </trkpt>
      <trkpt lat="24.910786586611252" lon="118.53848009658589">
        <ele>10.138891243375838</ele>
        <time>2025-05-16T13:20:14Z</time>
      </trkpt>
      <trkpt lat="24.910845915977884" lon="118.53857898820701">
        <ele>9.813592710532248</ele>
        <time>2025-05-16T13:20:17Z</time>
      </trkpt>
      <trkpt lat="24.91108859071628" lon="118.53870385467927">
        <ele>9.625484550371766</ele>
        <time>2025-05-16T13:20:26Z</time>
      </trkpt>
      <trkpt lat="24.911164489203102" lon="118.53872605236877">
        <ele>8.928602536208928</ele>
        <time>2025-05-16T13:20:29Z</time>
      </trkpt>
      <trkpt lat="24.911177844520214" lon="118.53880607111385">
        <ele>8.825628858059645</ele>
        <time>2025-05-16T13:20:32Z</time>
      </trkpt>
      <trkpt lat="24.911152789631043" lon="118.53889135718921">
        <ele>8.489737093448639</ele>
        <time>2025-05-16T13:20:35Z</time>
      </trkpt>
      <trkpt lat="24.91110431156228" lon="118.53925156640744">
        <ele>7.448346231132746</ele>
        <time>2025-05-16T13:20:47Z</time>
      </trkpt>
      <trkpt lat="24.911000970292577" lon="118.53960873136725">
        <ele>7.609282144345343</ele>
        <time>2025-05-16T13:20:59Z</time>
      </trkpt>
      <trkpt lat="24.910895848852416" lon="118.53985903136584">
        <ele>7.518529862165451</ele>
        <time>2025-05-16T13:21:08Z</time>
      </trkpt>
      <trkpt lat="24.910901235482118" lon="118.53994629333185">
        <ele>7.359999280422926</ele>
        <time>2025-05-16T13:21:11Z</time>
      </trkpt>
      <trkpt lat="24.91087584120679" lon="118.5402186781248">
        <ele>6.944524772465229</ele>
        <time>2025-05-16T13:21:20Z</time>
      </trkpt>
      <trkpt lat="24.910793823016544" lon="118.54057286816739">
        <ele>7.198330852203071</ele>
        <time>2025-05-16T13:21:32Z</time>
      </trkpt>
      <trkpt lat="24.91075787499458" lon="118.54068596049581">
        <ele>7.064123593270779</ele>
        <time>2025-05-16T13:21:36Z</time>
      </trkpt>
      <trkpt lat="24.910717124418664" lon="118.5409740662525">
        <ele>7.161623976193368</ele>
        <time>2025-05-16T13:21:46Z</time>
      </trkpt>
      <trkpt lat="24.91069037809006" lon="118.54107203094955">
        <ele>7.515950380824506</ele>
        <time>2025-05-16T13:21:49Z</time>
      </trkpt>
      <trkpt lat="24.910646901961513" lon="118.54115398448046">
        <ele>7.6636938182637095</ele>
        <time>2025-05-16T13:21:52Z</time>
      </trkpt>
      <trkpt lat="24.91056529954931" lon="118.54122679338793">
        <ele>7.930675936862826</ele>
        <time>2025-05-16T13:21:55Z</time>
      </trkpt>
      <trkpt lat="24.91035531960014" lon="118.54149225437308">
        <ele>7.708550374954939</ele>
        <time>2025-05-16T13:22:04Z</time>
      </trkpt>
      <trkpt lat="24.91020284094521" lon="118.54166971456068">
        <ele>8.014693916775286</ele>
        <time>2025-05-16T13:22:10Z</time>
      </trkpt>
      <trkpt lat="24.910197745040566" lon="118.54179328779817">
        <ele>7.871766870841384</ele>
        <time>2025-05-16T13:22:13Z</time>
      </trkpt>
      <trkpt lat="24.910293931932202" lon="118.54209452413498">
        <ele>7.402813632041216</ele>
        <time>2025-05-16T13:22:22Z</time>
      </trkpt>
      <trkpt lat="24.91032448600714" lon="118.54226438873204">
        <ele>8.17469382751733</ele>
        <time>2025-05-16T13:22:28Z</time>
      </trkpt>
      <trkpt lat="24.91026978577652" lon="118.54265809750953">
        <ele>7.871806598268449</ele>
        <time>2025-05-16T13:22:40Z</time>
      </trkpt>
      <trkpt lat="24.910240031960605" lon="118.54285920858293">
        <ele>7.763237844221294</ele>
        <time>2025-05-16T13:22:46Z</time>
      </trkpt>
      <trkpt lat="24.910212359533816" lon="118.54293883034224">
        <ele>7.580654097720981</ele>
        <time>2025-05-16T13:22:49Z</time>
      </trkpt>
      <trkpt lat="24.9102088257554" lon="118.54303370534306">
        <ele>7.738069439306855</ele>
        <time>2025-05-16T13:22:52Z</time>
      </trkpt>
      <trkpt lat="24.91024354458583" lon="118.54318443249201">
        <ele>7.936622760258615</ele>
        <time>2025-05-16T13:22:58Z</time>
      </trkpt>
      <trkpt lat="24.91021092497742" lon="118.54326742474281">
        <ele>7.837461150251329</ele>
        <time>2025-05-16T13:23:01Z</time>
      </trkpt>
      <trkpt lat="24.91024288586314" lon="118.54333138325545">
        <ele>8.073266377672553</ele>
        <time>2025-05-16T13:23:04Z</time>
      </trkpt>
      <trkpt lat="24.910579787931333" lon="118.54330660679145">
        <ele>7.412423454225063</ele>
        <time>2025-05-16T13:23:17Z</time>
      </trkpt>
      <trkpt lat="24.910948008313774" lon="118.54328945523261">
        <ele>7.58492040168494</ele>
        <time>2025-05-16T13:23:30Z</time>
      </trkpt>
      <trkpt lat="24.911277112438647" lon="118.5432529827779">
        <ele>8.545405180193484</ele>
        <time>2025-05-16T13:23:42Z</time>
      </trkpt>
      <trkpt lat="24.911579033281278" lon="118.54318415028341">
        <ele>8.853321090340614</ele>
        <time>2025-05-16T13:23:53Z</time>
      </trkpt>
      <trkpt lat="24.91183669234384" lon="118.54315181020418">
        <ele>8.470753254368901</ele>
        <time>2025-05-16T13:24:02Z</time>
      </trkpt>
      <trkpt lat="24.91192339646017" lon="118.54312420024893">
        <ele>8.142665883526206</ele>
        <time>2025-05-16T13:24:05Z</time>
      </trkpt>
      <trkpt lat="24.912194511331496" lon="118.54306179640052">
        <ele>7.187618619762361</ele>
        <time>2025-05-16T13:24:14Z</time>
      </trkpt>
      <trkpt lat="24.912539961516977" lon="118.54296225453301">
        <ele>7.629380994476378</ele>
        <time>2025-05-16T13:24:26Z</time>
      </trkpt>
      <trkpt lat="24.91280152012088" lon="118.54287103412604">
        <ele>9.03043992165476</ele>
        <time>2025-05-16T13:24:35Z</time>
      </trkpt>
      <trkpt lat="24.91289383734744" lon="118.54284014171361">
        <ele>8.384744170121849</ele>
        <time>2025-05-16T13:24:38Z</time>
      </trkpt>
      <trkpt lat="24.912990881312254" lon="118.54282998571155">
        <ele>9.31268836837262</ele>
        <time>2025-05-16T13:24:41Z</time>
      </trkpt>
      <trkpt lat="24.91332058898242" lon="118.54275094672674">
        <ele>7.877049093134701</ele>
        <time>2025-05-16T13:24:53Z</time>
      </trkpt>
      <trkpt lat="24.913666411164982" lon="118.54266351134336">
        <ele>7.999779458157718</ele>
        <time>2025-05-16T13:25:05Z</time>
      </trkpt>
      <trkpt lat="24.91401031301391" lon="118.54256809195805">
        <ele>9.010404511354864</ele>
        <time>2025-05-16T13:25:17Z</time>
      </trkpt>
      <trkpt lat="24.914326976613605" lon="118.54245566213959">
        <ele>9.913201202638447</ele>
        <time>2025-05-16T13:25:29Z</time>
      </trkpt>
      <trkpt lat="24.91464210708784" lon="118.5423724720426">
        <ele>10.14728497620672</ele>
        <time>2025-05-16T13:25:40Z</time>
      </trkpt>
      <trkpt lat="24.914987876419275" lon="118.54227247695067">
        <ele>11.017519040033221</ele>
        <time>2025-05-16T13:25:52Z</time>
      </trkpt>
      <trkpt lat="24.91511581254152" lon="118.5422527886977">
        <ele>12.029660671018064</ele>
        <time>2025-05-16T13:25:56Z</time>
      </trkpt>
      <trkpt lat="24.91521685957748" lon="118.54225608518622">
        <ele>12.217051165178418</ele>
        <time>2025-05-16T13:25:59Z</time>
      </trkpt>
      <trkpt lat="24.915384465537507" lon="118.54216953329855">
        <ele>12.308826179243624</ele>
        <time>2025-05-16T13:26:05Z</time>
      </trkpt>
      <trkpt lat="24.915721895282545" lon="118.54207943771418">
        <ele>12.87442569527775</ele>
        <time>2025-05-16T13:26:17Z</time>
      </trkpt>
      <trkpt lat="24.915822168430505" lon="118.54206520288236">
        <ele>12.531463102437556</ele>
        <time>2025-05-16T13:26:20Z</time>
      </trkpt>
      <trkpt lat="24.916140592623698" lon="118.54192701908906">
        <ele>12.114426082931459</ele>
        <time>2025-05-16T13:26:32Z</time>
      </trkpt>
      <trkpt lat="24.916224069916023" lon="118.54189562289159">
        <ele>13.233095206320286</ele>
        <time>2025-05-16T13:26:35Z</time>
      </trkpt>
      <trkpt lat="24.916293545991444" lon="118.54189323870709">
        <ele>12.819299393333495</ele>
        <time>2025-05-16T13:26:38Z</time>
      </trkpt>
      <trkpt lat="24.916439402693857" lon="118.54221217803587">
        <ele>12.220305988565087</ele>
        <time>2025-05-16T13:26:50Z</time>
      </trkpt>
      <trkpt lat="24.916468913955775" lon="118.54228401387043">
        <ele>12.851872271858156</ele>
        <time>2025-05-16T13:26:53Z</time>
      </trkpt>
      <trkpt lat="24.916536213039656" lon="118.542312528831">
        <ele>12.261586585082114</ele>
        <time>2025-05-16T13:26:56Z</time>
      </trkpt>
      <trkpt lat="24.91659249780173" lon="118.54236097578251">
        <ele>12.314150070771575</ele>
        <time>2025-05-16T13:26:59Z</time>
      </trkpt>
      <trkpt lat="24.916640268043245" lon="118.54236953426086">
        <ele>11.960657836869359</ele>
        <time>2025-05-16T13:27:02Z</time>
      </trkpt>
      <trkpt lat="24.916904333280367" lon="118.54228652392497">
        <ele>11.30960045568645</ele>
        <time>2025-05-16T13:27:14Z</time>
      </trkpt>
      <trkpt lat="24.91698363630231" lon="118.54229998965214">
        <ele>10.795330421067774</ele>
        <time>2025-05-16T13:27:17Z</time>
      </trkpt>
      <trkpt lat="24.917121439079935" lon="118.54220791220878">
        <ele>10.08006161544472</ele>
        <time>2025-05-16T13:27:23Z</time>
      </trkpt>
      <trkpt lat="24.917259524926344" lon="118.54214991850088">
        <ele>9.89348546601832</ele>
        <time>2025-05-16T13:27:29Z</time>
      </trkpt>
      <trkpt lat="24.91761459611889" lon="118.54209988250778">
        <ele>11.526236625388265</ele>
        <time>2025-05-16T13:27:42Z</time>
      </trkpt>
      <trkpt lat="24.91795178880618" lon="118.54203702087119">
        <ele>11.680321793071926</ele>
        <time>2025-05-16T13:27:54Z</time>
      </trkpt>
      <trkpt lat="24.918272190120877" lon="118.54206644040548">
        <ele>12.1794224511832</ele>
        <time>2025-05-16T13:28:05Z</time>
      </trkpt>
      <trkpt lat="24.91863716427396" lon="118.54206669859823">
        <ele>13.195451465435326</ele>
        <time>2025-05-16T13:28:17Z</time>
      </trkpt>
      <trkpt lat="24.918985771267085" lon="118.54205099180794">
        <ele>14.307011061348021</ele>
        <time>2025-05-16T13:28:29Z</time>
      </trkpt>
      <trkpt lat="24.91916530750079" lon="118.54207098090302">
        <ele>14.721065712161362</ele>
        <time>2025-05-16T13:28:35Z</time>
      </trkpt>
      <trkpt lat="24.91933183145631" lon="118.54212574316654">
        <ele>14.651942384429276</ele>
        <time>2025-05-16T13:28:41Z</time>
      </trkpt>
      <trkpt lat="24.919691031676507" lon="118.5421130779732">
        <ele>14.869665810838342</ele>
        <time>2025-05-16T13:28:53Z</time>
      </trkpt>
      <trkpt lat="24.920031665978392" lon="118.54211948659257">
        <ele>12.785282309167087</ele>
        <time>2025-05-16T13:29:05Z</time>
      </trkpt>
      <trkpt lat="24.92036827273888" lon="118.54210225073481">
        <ele>12.821015230379999</ele>
        <time>2025-05-16T13:29:17Z</time>
      </trkpt>
      <trkpt lat="24.920713980279313" lon="118.54208452668091">
        <ele>12.743215124122798</ele>
        <time>2025-05-16T13:29:29Z</time>
      </trkpt>
      <trkpt lat="24.9210507594928" lon="118.54210489674341">
        <ele>14.317830899730325</ele>
        <time>2025-05-16T13:29:41Z</time>
      </trkpt>
      <trkpt lat="24.921391122064076" lon="118.5421144730324">
        <ele>15.02086927369237</ele>
        <time>2025-05-16T13:29:53Z</time>
      </trkpt>
      <trkpt lat="24.921716415449062" lon="118.54211466257046">
        <ele>16.558788331225514</ele>
        <time>2025-05-16T13:30:05Z</time>
      </trkpt>
      <trkpt lat="24.9217984434364" lon="118.54212281487041">
        <ele>16.782084798440337</ele>
        <time>2025-05-16T13:30:08Z</time>
      </trkpt>
      <trkpt lat="24.921885186349915" lon="118.54215505064958">
        <ele>17.024566390551627</ele>
        <time>2025-05-16T13:30:11Z</time>
      </trkpt>
      <trkpt lat="24.921960015194486" lon="118.54215205648408">
        <ele>17.393603178672493</ele>
        <time>2025-05-16T13:30:14Z</time>
      </trkpt>
      <trkpt lat="24.922110045803297" lon="118.54220448964256">
        <ele>17.950771303847432</ele>
        <time>2025-05-16T13:30:20Z</time>
      </trkpt>
      <trkpt lat="24.922441805596545" lon="118.54224607694896">
        <ele>19.82677936926484</ele>
        <time>2025-05-16T13:30:32Z</time>
      </trkpt>
      <trkpt lat="24.922769439001392" lon="118.54234088833587">
        <ele>21.204751763492823</ele>
        <time>2025-05-16T13:30:44Z</time>
      </trkpt>
      <trkpt lat="24.92307654253647" lon="118.54241141276796">
        <ele>21.954853553324938</ele>
        <time>2025-05-16T13:30:56Z</time>
      </trkpt>
      <trkpt lat="24.923227791945227" lon="118.54249251402838">
        <ele>22.207218250259757</ele>
        <time>2025-05-16T13:31:02Z</time>
      </trkpt>
      <trkpt lat="24.923540556515903" lon="118.54261601209413">
        <ele>23.186547443270683</ele>
        <time>2025-05-16T13:31:14Z</time>
      </trkpt>
      <trkpt lat="24.923824106217296" lon="118.54279370928202">
        <ele>26.425604490563273</ele>
        <time>2025-05-16T13:31:26Z</time>
      </trkpt>
      <trkpt lat="24.92412724338513" lon="118.54295688703532">
        <ele>28.62788776960224</ele>
        <time>2025-05-16T13:31:38Z</time>
      </trkpt>
      <trkpt lat="24.924413661849943" lon="118.54316852406726">
        <ele>28.38274165801704</ele>
        <time>2025-05-16T13:31:50Z</time>
      </trkpt>
      <trkpt lat="24.924478076779412" lon="118.54323753794185">
        <ele>27.93194555491209</ele>
        <time>2025-05-16T13:31:53Z</time>
      </trkpt>
      <trkpt lat="24.924553115232293" lon="118.54328030193996">
        <ele>27.79988749884069</ele>
        <time>2025-05-16T13:31:56Z</time>
      </trkpt>
      <trkpt lat="24.924819536110917" lon="118.54352075367879">
        <ele>25.707458834163845</ele>
        <time>2025-05-16T13:32:08Z</time>
      </trkpt>
      <trkpt lat="24.925074674094432" lon="118.54375924634564">
        <ele>24.125295851379633</ele>
        <time>2025-05-16T13:32:20Z</time>
      </trkpt>
      <trkpt lat="24.92513807013966" lon="118.54384234382175">
        <ele>23.241915801540017</ele>
        <time>2025-05-16T13:32:23Z</time>
      </trkpt>
      <trkpt lat="24.925395865921132" lon="118.5441210517524">
        <ele>20.57789931073785</ele>
        <time>2025-05-16T13:32:35Z</time>
      </trkpt>
      <trkpt lat="24.925614102961035" lon="118.54441879512848">
        <ele>18.245019095018506</ele>
        <time>2025-05-16T13:32:47Z</time>
      </trkpt>
      <trkpt lat="24.925786561318507" lon="118.5446489802969">
        <ele>17.232064857147634</ele>
        <time>2025-05-16T13:32:56Z</time>
      </trkpt>
      <trkpt lat="24.925855107096396" lon="118.54480345799175">
        <ele>17.167006209492683</ele>
        <time>2025-05-16T13:33:02Z</time>
      </trkpt>
      <trkpt lat="24.926052068466507" lon="118.54511901793295">
        <ele>16.326391516253352</ele>
        <time>2025-05-16T13:33:14Z</time>
      </trkpt>
      <trkpt lat="24.92620998653185" lon="118.54536646335617">
        <ele>15.02985662035644</ele>
        <time>2025-05-16T13:33:23Z</time>
      </trkpt>
      <trkpt lat="24.92625153641341" lon="118.54545908306737">
        <ele>14.569199773482978</ele>
        <time>2025-05-16T13:33:26Z</time>
      </trkpt>
      <trkpt lat="24.926304207960733" lon="118.54551665424337">
        <ele>14.102924096398056</ele>
        <time>2025-05-16T13:33:29Z</time>
      </trkpt>
      <trkpt lat="24.926396446352697" lon="118.54570232235794">
        <ele>14.517967471852899</ele>
        <time>2025-05-16T13:33:35Z</time>
      </trkpt>
      <trkpt lat="24.926566521719195" lon="118.54596728585">
        <ele>12.24141732789576</ele>
        <time>2025-05-16T13:33:45Z</time>
      </trkpt>
      <trkpt lat="24.92669967181403" lon="118.54622972336892">
        <ele>11.8051150534302</ele>
        <time>2025-05-16T13:33:54Z</time>
      </trkpt>
      <trkpt lat="24.926763271006752" lon="118.54639454211787">
        <ele>11.714768423698843</ele>
        <time>2025-05-16T13:34:00Z</time>
      </trkpt>
      <trkpt lat="24.926809795748312" lon="118.5466545728192">
        <ele>11.156730723567307</ele>
        <time>2025-05-16T13:34:09Z</time>
      </trkpt>
      <trkpt lat="24.926888710829957" lon="118.54667519086742">
        <ele>11.317252299748361</ele>
        <time>2025-05-16T13:34:12Z</time>
      </trkpt>
      <trkpt lat="24.92704360355404" lon="118.54663673947867">
        <ele>10.455630917102098</ele>
        <time>2025-05-16T13:34:18Z</time>
      </trkpt>
      <trkpt lat="24.927191437334393" lon="118.54655170074066">
        <ele>9.852080286480486</ele>
        <time>2025-05-16T13:34:24Z</time>
      </trkpt>
      <trkpt lat="24.927294003777646" lon="118.54639677717866">
        <ele>9.732933081686497</ele>
        <time>2025-05-16T13:34:30Z</time>
      </trkpt>
      <trkpt lat="24.927251847462465" lon="118.54632633364571">
        <ele>9.98695795610547</ele>
        <time>2025-05-16T13:34:33Z</time>
      </trkpt>
      <trkpt lat="24.92719055321661" lon="118.54627236802905">
        <ele>10.465821141377091</ele>
        <time>2025-05-16T13:34:36Z</time>
      </trkpt>
      <trkpt lat="24.92711641146926" lon="118.54611008386802">
        <ele>11.925114280544221</ele>
        <time>2025-05-16T13:34:42Z</time>
      </trkpt>
      <trkpt lat="24.92705655453795" lon="118.54605573127793">
        <ele>12.401765163987875</ele>
        <time>2025-05-16T13:34:45Z</time>
      </trkpt>
      <trkpt lat="24.92688206558343" lon="118.54575106764764">
        <ele>12.959561376832426</ele>
        <time>2025-05-16T13:34:57Z</time>
      </trkpt>
      <trkpt lat="24.926699809598684" lon="118.54546367115496">
        <ele>15.027301955968142</ele>
        <time>2025-05-16T13:35:09Z</time>
      </trkpt>
      <trkpt lat="24.9265163501838" lon="118.54516929570207">
        <ele>15.463982843793929</ele>
        <time>2025-05-16T13:35:21Z</time>
      </trkpt>
      <trkpt lat="24.926356241597855" lon="118.54487168022371">
        <ele>17.420846656896174</ele>
        <time>2025-05-16T13:35:33Z</time>
      </trkpt>
      <trkpt lat="24.926186288263615" lon="118.54458289181004">
        <ele>17.367377946153283</ele>
        <time>2025-05-16T13:35:45Z</time>
      </trkpt>
      <trkpt lat="24.926149763427542" lon="118.54450083188347">
        <ele>16.95073596853763</ele>
        <time>2025-05-16T13:35:48Z</time>
      </trkpt>
      <trkpt lat="24.926051595742283" lon="118.54436195053333">
        <ele>17.704872079193592</ele>
        <time>2025-05-16T13:35:54Z</time>
      </trkpt>
      <trkpt lat="24.925970236238932" lon="118.54420679695858">
        <ele>18.79494280088693</ele>
        <time>2025-05-16T13:36:00Z</time>
      </trkpt>
      <trkpt lat="24.925769250420657" lon="118.54393293035747">
        <ele>21.22188944555819</ele>
        <time>2025-05-16T13:36:12Z</time>
      </trkpt>
      <trkpt lat="24.925554446465174" lon="118.54367556335198">
        <ele>22.619666575454175</ele>
        <time>2025-05-16T13:36:24Z</time>
      </trkpt>
      <trkpt lat="24.925518755037253" lon="118.54360919460109">
        <ele>23.926075022667646</ele>
        <time>2025-05-16T13:36:27Z</time>
      </trkpt>
      <trkpt lat="24.92550011513807" lon="118.5435216894355">
        <ele>24.49535677395761</ele>
        <time>2025-05-16T13:36:30Z</time>
      </trkpt>
      <trkpt lat="24.925393791594384" lon="118.54339806633594">
        <ele>25.003591001965106</ele>
        <time>2025-05-16T13:36:36Z</time>
      </trkpt>
      <trkpt lat="24.925262135262876" lon="118.5433510646206">
        <ele>24.817363817244768</ele>
        <time>2025-05-16T13:36:42Z</time>
      </trkpt>
      <trkpt lat="24.92502774790377" lon="118.54312264073423">
        <ele>27.54027966503054</ele>
        <time>2025-05-16T13:36:54Z</time>
      </trkpt>
      <trkpt lat="24.92476895450228" lon="118.54291943527977">
        <ele>30.78502240218222</ele>
        <time>2025-05-16T13:37:06Z</time>
      </trkpt>
      <trkpt lat="24.924574500636837" lon="118.54277335747742">
        <ele>31.909511564299464</ele>
        <time>2025-05-16T13:37:15Z</time>
      </trkpt>
      <trkpt lat="24.924315060259016" lon="118.54261765719963">
        <ele>32.04784220736474</ele>
        <time>2025-05-16T13:37:27Z</time>
      </trkpt>
      <trkpt lat="24.92403707769656" lon="118.54242714061256">
        <ele>30.91800168156624</ele>
        <time>2025-05-16T13:37:39Z</time>
      </trkpt>
      <trkpt lat="24.92380937291874" lon="118.5422897205558">
        <ele>30.018121423199773</ele>
        <time>2025-05-16T13:37:49Z</time>
      </trkpt>
      <trkpt lat="24.923582149799643" lon="118.54219160285163">
        <ele>27.63104258850217</ele>
        <time>2025-05-16T13:37:57Z</time>
      </trkpt>
      <trkpt lat="24.923501003086248" lon="118.54214064636479">
        <ele>26.35341369919479</ele>
        <time>2025-05-16T13:38:00Z</time>
      </trkpt>
      <trkpt lat="24.923409940153476" lon="118.54211048068694">
        <ele>25.525711610913277</ele>
        <time>2025-05-16T13:38:03Z</time>
      </trkpt>
      <trkpt lat="24.92307612079068" lon="118.54204184872333">
        <ele>22.410795197822154</ele>
        <time>2025-05-16T13:38:15Z</time>
      </trkpt>
      <trkpt lat="24.922780248598173" lon="118.54189922232707">
        <ele>21.54297737684101</ele>
        <time>2025-05-16T13:38:27Z</time>
      </trkpt>
      <trkpt lat="24.92253934695078" lon="118.54181685876051">
        <ele>20.443492162041366</ele>
        <time>2025-05-16T13:38:36Z</time>
      </trkpt>
      <trkpt lat="24.922292789101817" lon="118.54176574995364">
        <ele>19.546374837867916</ele>
        <time>2025-05-16T13:38:45Z</time>
      </trkpt>
      <trkpt lat="24.92220320478558" lon="118.54176729647915">
        <ele>19.455341771245003</ele>
        <time>2025-05-16T13:38:48Z</time>
      </trkpt>
      <trkpt lat="24.922033077108246" lon="118.5417118603453">
        <ele>18.845588370226324</ele>
        <time>2025-05-16T13:38:54Z</time>
      </trkpt>
      <trkpt lat="24.921676178042286" lon="118.54168042896588">
        <ele>17.056489371694624</ele>
        <time>2025-05-16T13:39:06Z</time>
      </trkpt>
      <trkpt lat="24.921332370997423" lon="118.54166341708068">
        <ele>16.845608697272837</ele>
        <time>2025-05-16T13:39:18Z</time>
      </trkpt>
      <trkpt lat="24.920985136689225" lon="118.5416738287986">
        <ele>15.069400395266712</ele>
        <time>2025-05-16T13:39:30Z</time>
      </trkpt>
      <trkpt lat="24.920637208472538" lon="118.5416487274254">
        <ele>14.396660359576344</ele>
        <time>2025-05-16T13:39:42Z</time>
      </trkpt>
      <trkpt lat="24.920584833673054" lon="118.54159804699437">
        <ele>14.42197628132999</ele>
        <time>2025-05-16T13:39:45Z</time>
      </trkpt>
      <trkpt lat="24.920576130708422" lon="118.54124929564158">
        <ele>15.13252022024244</ele>
        <time>2025-05-16T13:39:57Z</time>
      </trkpt>
      <trkpt lat="24.92057606822577" lon="118.54088289471507">
        <ele>16.92353675700724</ele>
        <time>2025-05-16T13:40:09Z</time>
      </trkpt>
      <trkpt lat="24.920552108663536" lon="118.54058744706852">
        <ele>15.745031801983714</ele>
        <time>2025-05-16T13:40:21Z</time>
      </trkpt>
      <trkpt lat="24.920554655310156" lon="118.54044156303152">
        <ele>15.763875996693969</ele>
        <time>2025-05-16T13:40:27Z</time>
      </trkpt>
      <trkpt lat="24.920572523408328" lon="118.54033364935252">
        <ele>15.047499008476734</ele>
        <time>2025-05-16T13:40:30Z</time>
      </trkpt>
      <trkpt lat="24.920555137819857" lon="118.5401414343663">
        <ele>14.029240074567497</ele>
        <time>2025-05-16T13:40:36Z</time>
      </trkpt>
      <trkpt lat="24.920581668110746" lon="118.54005284506086">
        <ele>14.374477876350284</ele>
        <time>2025-05-16T13:40:39Z</time>
      </trkpt>
      <trkpt lat="24.920577270637462" lon="118.53989551339689">
        <ele>14.744510603137314</ele>
        <time>2025-05-16T13:40:45Z</time>
      </trkpt>
      <trkpt lat="24.920427237725818" lon="118.53961452954722">
        <ele>14.357255288399756</ele>
        <time>2025-05-16T13:40:57Z</time>
      </trkpt>
      <trkpt lat="24.920399680248313" lon="118.53956298347897">
        <ele>13.323245228268206</ele>
        <time>2025-05-16T13:41:00Z</time>
      </trkpt>
      <trkpt lat="24.92034264012771" lon="118.53952410299397">
        <ele>13.33890464156866</ele>
        <time>2025-05-16T13:41:03Z</time>
      </trkpt>
      <trkpt lat="24.920198525952348" lon="118.53948862345345">
        <ele>13.413133741356432</ele>
        <time>2025-05-16T13:41:09Z</time>
      </trkpt>
      <trkpt lat="24.920127078020876" lon="118.53945124333517">
        <ele>13.333305324427783</ele>
        <time>2025-05-16T13:41:12Z</time>
      </trkpt>
      <trkpt lat="24.919991317361294" lon="118.53933458109549">
        <ele>13.140297405421734</ele>
        <time>2025-05-16T13:41:18Z</time>
      </trkpt>
      <trkpt lat="24.91984365924261" lon="118.53927776968595">
        <ele>13.302116123959422</ele>
        <time>2025-05-16T13:41:24Z</time>
      </trkpt>
      <trkpt lat="24.91978212881303" lon="118.5391687573904">
        <ele>12.891969982534647</ele>
        <time>2025-05-16T13:41:28Z</time>
      </trkpt>
      <trkpt lat="24.91946671065056" lon="118.53905056841754">
        <ele>12.99384793639183</ele>
        <time>2025-05-16T13:41:40Z</time>
      </trkpt>
      <trkpt lat="24.919188619744922" lon="118.53895073011783">
        <ele>12.403023065067828</ele>
        <time>2025-05-16T13:41:49Z</time>
      </trkpt>
      <trkpt lat="24.919111552073925" lon="118.53890507297001">
        <ele>12.068971045315266</ele>
        <time>2025-05-16T13:41:52Z</time>
      </trkpt>
      <trkpt lat="24.91895618866958" lon="118.53884842825151">
        <ele>12.90346162673086</ele>
        <time>2025-05-16T13:41:59Z</time>
      </trkpt>
      <trkpt lat="24.918630967652113" lon="118.53876001651533">
        <ele>11.410337823443115</ele>
        <time>2025-05-16T13:42:10Z</time>
      </trkpt>
      <trkpt lat="24.91855066115659" lon="118.53873825814941">
        <ele>10.67052832338959</ele>
        <time>2025-05-16T13:42:13Z</time>
      </trkpt>
      <trkpt lat="24.918485105378117" lon="118.53874624533469">
        <ele>10.013526758179069</ele>
        <time>2025-05-16T13:42:17Z</time>
      </trkpt>
      <trkpt lat="24.91842659918685" lon="118.53872657017715">
        <ele>10.089342718012631</ele>
        <time>2025-05-16T13:42:20Z</time>
      </trkpt>
      <trkpt lat="24.918311801143876" lon="118.53862088721125">
        <ele>10.474800801835954</ele>
        <time>2025-05-16T13:42:25Z</time>
      </trkpt>
      <trkpt lat="24.918243686147033" lon="118.5385946927612">
        <ele>10.007299138233066</ele>
        <time>2025-05-16T13:42:28Z</time>
      </trkpt>
      <trkpt lat="24.91807812136702" lon="118.53858040968584">
        <ele>10.101910812780261</ele>
        <time>2025-05-16T13:42:35Z</time>
      </trkpt>
      <trkpt lat="24.917815441582416" lon="118.53852693613157">
        <ele>10.084885305725038</ele>
        <time>2025-05-16T13:42:43Z</time>
      </trkpt>
      <trkpt lat="24.917572907508003" lon="118.53836498120748">
        <ele>10.721558330580592</ele>
        <time>2025-05-16T13:42:58Z</time>
      </trkpt>
      <trkpt lat="24.917572907508003" lon="118.53836498120748">
        <ele>10.721558330580592</ele>
        <time>2025-05-16T13:42:59Z</time>
      </trkpt>
      <trkpt lat="24.917565701430537" lon="118.53816504539652">
        <ele>10.233213679865003</ele>
        <time>2025-05-16T13:43:53Z</time>
      </trkpt>
      <trkpt lat="24.917436014801133" lon="118.53815975697275">
        <ele>10.489511664025486</ele>
        <time>2025-05-16T13:43:58Z</time>
      </trkpt>
      <trkpt lat="24.91737734768968" lon="118.53822659623208">
        <ele>9.533769174478948</ele>
        <time>2025-05-16T13:44:01Z</time>
      </trkpt>
      <trkpt lat="24.9173271675624" lon="118.53848417912059">
        <ele>9.940554770641029</ele>
        <time>2025-05-16T13:44:10Z</time>
      </trkpt>
      <trkpt lat="24.91717186477735" lon="118.53875884804481">
        <ele>9.808107242919505</ele>
        <time>2025-05-16T13:44:20Z</time>
      </trkpt>
      <trkpt lat="24.917124198661615" lon="118.53893939701062">
        <ele>9.961808543652296</ele>
        <time>2025-05-16T13:44:25Z</time>
      </trkpt>
      <trkpt lat="24.91709416830044" lon="118.53924387827087">
        <ele>10.178025457076728</ele>
        <time>2025-05-16T13:44:34Z</time>
      </trkpt>
      <trkpt lat="24.917122893698668" lon="118.53935067200679">
        <ele>9.663788419216871</ele>
        <time>2025-05-16T13:44:37Z</time>
      </trkpt>
      <trkpt lat="24.917121049632925" lon="118.53944750761838">
        <ele>10.22398910485208</ele>
        <time>2025-05-16T13:44:40Z</time>
      </trkpt>
      <trkpt lat="24.917077930669418" lon="118.53953829898896">
        <ele>10.34587228577584</ele>
        <time>2025-05-16T13:44:43Z</time>
      </trkpt>
      <trkpt lat="24.916889809873545" lon="118.53967389562663">
        <ele>10.371247262693942</ele>
        <time>2025-05-16T13:44:49Z</time>
      </trkpt>
      <trkpt lat="24.916841546879084" lon="118.5397549217488">
        <ele>9.757281749509275</ele>
        <time>2025-05-16T13:44:52Z</time>
      </trkpt>
      <trkpt lat="24.916642009495348" lon="118.54001325845213">
        <ele>9.818785030394793</ele>
        <time>2025-05-16T13:45:01Z</time>
      </trkpt>
      <trkpt lat="24.916547296898774" lon="118.54017058997462">
        <ele>10.115483444184065</ele>
        <time>2025-05-16T13:45:07Z</time>
      </trkpt>
      <trkpt lat="24.916442465920277" lon="118.5404616383295">
        <ele>11.380511262454093</ele>
        <time>2025-05-16T13:45:16Z</time>
      </trkpt>
      <trkpt lat="24.916371724695406" lon="118.54049277804053">
        <ele>12.279714503325522</ele>
        <time>2025-05-16T13:45:19Z</time>
      </trkpt>
      <trkpt lat="24.916306556112424" lon="118.5404573085945">
        <ele>12.814254358410835</ele>
        <time>2025-05-16T13:45:22Z</time>
      </trkpt>
      <trkpt lat="24.916178132403466" lon="118.54015480520256">
        <ele>12.588212775066495</ele>
        <time>2025-05-16T13:45:34Z</time>
      </trkpt>
      <trkpt lat="24.91606419841671" lon="118.53982728946644">
        <ele>12.787843604572117</ele>
        <time>2025-05-16T13:45:46Z</time>
      </trkpt>
      <trkpt lat="24.915958445415505" lon="118.53945149661462">
        <ele>13.869245025329292</ele>
        <time>2025-05-16T13:45:59Z</time>
      </trkpt>
      <trkpt lat="24.915853983479284" lon="118.53909128259755">
        <ele>14.600129092112184</ele>
        <time>2025-05-16T13:46:10Z</time>
      </trkpt>
      <trkpt lat="24.915791519253364" lon="118.53879044051824">
        <ele>15.112404391169548</ele>
        <time>2025-05-16T13:46:19Z</time>
      </trkpt>
      <trkpt lat="24.91567538431337" lon="118.5384485960878">
        <ele>15.88435576390475</ele>
        <time>2025-05-16T13:46:31Z</time>
      </trkpt>
      <trkpt lat="24.915545805772314" lon="118.53808535508355">
        <ele>15.75739968009293</ele>
        <time>2025-05-16T13:46:43Z</time>
      </trkpt>
      <trkpt lat="24.915477787874956" lon="118.53790642626726">
        <ele>15.00962014310062</ele>
        <time>2025-05-16T13:46:49Z</time>
      </trkpt>
      <trkpt lat="24.915426794094042" lon="118.53783641611105">
        <ele>14.2641187813133</ele>
        <time>2025-05-16T13:46:52Z</time>
      </trkpt>
      <trkpt lat="24.91531491936202" lon="118.53746154864896">
        <ele>14.890487767755985</ele>
        <time>2025-05-16T13:47:05Z</time>
      </trkpt>
      <trkpt lat="24.915189691901926" lon="118.53716820426632">
        <ele>14.546272279694676</ele>
        <time>2025-05-16T13:47:13Z</time>
      </trkpt>
      <trkpt lat="24.915143171345434" lon="118.53710740533856">
        <ele>14.553672203794122</ele>
        <time>2025-05-16T13:47:16Z</time>
      </trkpt>
      <trkpt lat="24.915056769013646" lon="118.5370807182693">
        <ele>14.12357943225652</ele>
        <time>2025-05-16T13:47:19Z</time>
      </trkpt>
      <trkpt lat="24.914967126758846" lon="118.53708268993806">
        <ele>14.390917081385851</ele>
        <time>2025-05-16T13:47:22Z</time>
      </trkpt>
    </trkseg>
  </trk>
</gpx>