<?xml version="1.0" encoding="UTF-8"?>
<gpx xmlns="http://www.topografix.com/GPX/1/1" xmlns:gpxtpx="http://www.garmin.com/xmlschemas/TrackPointExtension/v1" xmlns:xsi="http://www.w3.org/2001/XMLSchema-instance" xsi:schemaLocation="http://www.topografix.com/GPX/1/1 http://www.topografix.com/GPX/1/1/gpx.xsd" version="1.1" creator="gpx.py -- https://github.com/tkrajina/gpxpy">
  <trk>
    <name>gpx from keep</name>
    <type>Run</type>
    <trkseg>
      <trkpt lat="24.91132974491779" lon="118.53739367638671">
        <ele>37.7686767578125</ele>
        <time>2025-08-09T13:04:16Z</time>
      </trkpt>
      <trkpt lat="24.911172539243317" lon="118.53772858352039">
        <ele>35.79486083984375</ele>
        <time>2025-08-09T13:04:25Z</time>
      </trkpt>
      <trkpt lat="24.910994307674414" lon="118.53805245879293">
        <ele>32.855224609375</ele>
        <time>2025-08-09T13:04:34Z</time>
      </trkpt>
      <trkpt lat="24.910827091807338" lon="118.53838535341127">
        <ele>26.8885498046875</ele>
        <time>2025-08-09T13:04:43Z</time>
      </trkpt>
      <trkpt lat="24.910783317246292" lon="118.53848161103156">
        <ele>25.9296875</ele>
        <time>2025-08-09T13:04:46Z</time>
      </trkpt>
      <trkpt lat="24.910773578692027" lon="118.53859591357683">
        <ele>27.6787109375</ele>
        <time>2025-08-09T13:04:49Z</time>
      </trkpt>
      <trkpt lat="24.910847773408637" lon="118.53868614638922">
        <ele>28.83245849609375</ele>
        <time>2025-08-09T13:04:52Z</time>
      </trkpt>
      <trkpt lat="24.911172944307157" lon="118.53878137461808">
        <ele>27.18743896484375</ele>
        <time>2025-08-09T13:05:01Z</time>
      </trkpt>
      <trkpt lat="24.911208093949547" lon="118.53884955154565">
        <ele>28.3126220703125</ele>
        <time>2025-08-09T13:05:04Z</time>
      </trkpt>
      <trkpt lat="24.911128888949015" lon="118.53919646714435">
        <ele>29.77960205078125</ele>
        <time>2025-08-09T13:05:13Z</time>
      </trkpt>
      <trkpt lat="24.911053652494434" lon="118.53953134671882">
        <ele>28.80609130859375</ele>
        <time>2025-08-09T13:05:22Z</time>
      </trkpt>
      <trkpt lat="24.91095435527551" lon="118.5398391536434">
        <ele>29.9476318359375</ele>
        <time>2025-08-09T13:05:31Z</time>
      </trkpt>
      <trkpt lat="24.91091156485212" lon="118.53993039308587">
        <ele>30.69903564453125</ele>
        <time>2025-08-09T13:05:34Z</time>
      </trkpt>
      <trkpt lat="24.9108902327086" lon="118.54022916675646">
        <ele>31.3094482421875</ele>
        <time>2025-08-09T13:05:43Z</time>
      </trkpt>
      <trkpt lat="24.91081492506497" lon="118.54053696402491">
        <ele>31.04364013671875</ele>
        <time>2025-08-09T13:05:52Z</time>
      </trkpt>
      <trkpt lat="24.910737696123405" lon="118.54088185266271">
        <ele>29.5850830078125</ele>
        <time>2025-08-09T13:06:04Z</time>
      </trkpt>
      <trkpt lat="24.9106665719515" lon="118.54127686374609">
        <ele>32.4793701171875</ele>
        <time>2025-08-09T13:06:16Z</time>
      </trkpt>
      <trkpt lat="24.91063401403212" lon="118.54147737447697">
        <ele>33.6181640625</ele>
        <time>2025-08-09T13:06:22Z</time>
      </trkpt>
      <trkpt lat="24.910525678530803" lon="118.54177613679029">
        <ele>25.095947265625</ele>
        <time>2025-08-09T13:06:31Z</time>
      </trkpt>
      <trkpt lat="24.91050290980243" lon="118.54188140350611">
        <ele>23.44305419921875</ele>
        <time>2025-08-09T13:06:34Z</time>
      </trkpt>
      <trkpt lat="24.910421389198117" lon="118.54209795325716">
        <ele>20.4737548828125</ele>
        <time>2025-08-09T13:06:40Z</time>
      </trkpt>
      <trkpt lat="24.910367091530397" lon="118.54242076476713">
        <ele>21.4715576171875</ele>
        <time>2025-08-09T13:06:49Z</time>
      </trkpt>
      <trkpt lat="24.910329595117926" lon="118.54265334685142">
        <ele>22.139404296875</ele>
        <time>2025-08-09T13:06:55Z</time>
      </trkpt>
      <trkpt lat="24.910225293974424" lon="118.54297414994353">
        <ele>20.78192138671875</ele>
        <time>2025-08-09T13:07:04Z</time>
      </trkpt>
      <trkpt lat="24.91021551698321" lon="118.54307840840809">
        <ele>20.5130615234375</ele>
        <time>2025-08-09T13:07:07Z</time>
      </trkpt>
      <trkpt lat="24.91023672255235" lon="118.54317664945691">
        <ele>19.7855224609375</ele>
        <time>2025-08-09T13:07:10Z</time>
      </trkpt>
      <trkpt lat="24.910233130604006" lon="118.54336912376326">
        <ele>20.2193603515625</ele>
        <time>2025-08-09T13:07:16Z</time>
      </trkpt>
      <trkpt lat="24.910281185368117" lon="118.54339819189623">
        <ele>20.720458984375</ele>
        <time>2025-08-09T13:07:19Z</time>
      </trkpt>
      <trkpt lat="24.910559070444165" lon="118.54336208382873">
        <ele>23.03900146484375</ele>
        <time>2025-08-09T13:07:28Z</time>
      </trkpt>
      <trkpt lat="24.910857956782834" lon="118.54332797918235">
        <ele>23.6751708984375</ele>
        <time>2025-08-09T13:07:37Z</time>
      </trkpt>
      <trkpt lat="24.911128868178356" lon="118.5433039011167">
        <ele>21.29852294921875</ele>
        <time>2025-08-09T13:07:46Z</time>
      </trkpt>
      <trkpt lat="24.911451693761997" lon="118.54324272804368">
        <ele>18.5277099609375</ele>
        <time>2025-08-09T13:07:58Z</time>
      </trkpt>
      <trkpt lat="24.911755534598402" lon="118.5431875709796">
        <ele>21.5341796875</ele>
        <time>2025-08-09T13:08:07Z</time>
      </trkpt>
      <trkpt lat="24.91206034539127" lon="118.54311837908052">
        <ele>20.3680419921875</ele>
        <time>2025-08-09T13:08:16Z</time>
      </trkpt>
      <trkpt lat="24.912333141290357" lon="118.54304016691935">
        <ele>20.2764892578125</ele>
        <time>2025-08-09T13:08:25Z</time>
      </trkpt>
      <trkpt lat="24.912619888077433" lon="118.54293989895122">
        <ele>20.01318359375</ele>
        <time>2025-08-09T13:08:34Z</time>
      </trkpt>
      <trkpt lat="24.912896661545563" lon="118.54285166111413">
        <ele>19.0269775390625</ele>
        <time>2025-08-09T13:08:43Z</time>
      </trkpt>
      <trkpt lat="24.913196467902235" lon="118.54278046367779">
        <ele>19.72039794921875</ele>
        <time>2025-08-09T13:08:52Z</time>
      </trkpt>
      <trkpt lat="24.91349429148443" lon="118.54271728610928">
        <ele>20.87847900390625</ele>
        <time>2025-08-09T13:09:01Z</time>
      </trkpt>
      <trkpt lat="24.91377211127565" lon="118.54265110229737">
        <ele>23.36285400390625</ele>
        <time>2025-08-09T13:09:10Z</time>
      </trkpt>
      <trkpt lat="24.914052896142845" lon="118.54256887816851">
        <ele>24.1429443359375</ele>
        <time>2025-08-09T13:09:19Z</time>
      </trkpt>
      <trkpt lat="24.914323692910262" lon="118.54249166697052">
        <ele>24.881103515625</ele>
        <time>2025-08-09T13:09:28Z</time>
      </trkpt>
      <trkpt lat="24.91458952243824" lon="118.54242949342094">
        <ele>24.5845947265625</ele>
        <time>2025-08-09T13:09:37Z</time>
      </trkpt>
      <trkpt lat="24.914851320073424" lon="118.54235228243184">
        <ele>24.36297607421875</ele>
        <time>2025-08-09T13:09:46Z</time>
      </trkpt>
      <trkpt lat="24.915174083086928" lon="118.54226303687014">
        <ele>25.37640380859375</ele>
        <time>2025-08-09T13:09:55Z</time>
      </trkpt>
      <trkpt lat="24.91545980777202" lon="118.54215374333346">
        <ele>25.9012451171875</ele>
        <time>2025-08-09T13:10:04Z</time>
      </trkpt>
      <trkpt lat="24.915744579794207" lon="118.54206650476405">
        <ele>27.50091552734375</ele>
        <time>2025-08-09T13:10:13Z</time>
      </trkpt>
      <trkpt lat="24.916037404590902" lon="118.54200432831296">
        <ele>27.3642578125</ele>
        <time>2025-08-09T13:10:22Z</time>
      </trkpt>
      <trkpt lat="24.916271111682054" lon="118.54188400955697">
        <ele>24.81121826171875</ele>
        <time>2025-08-09T13:10:31Z</time>
      </trkpt>
      <trkpt lat="24.916337087257318" lon="118.54187698730182">
        <ele>24.31243896484375</ele>
        <time>2025-08-09T13:10:34Z</time>
      </trkpt>
      <trkpt lat="24.916362177058424" lon="118.5419200940217">
        <ele>23.50787353515625</ele>
        <time>2025-08-09T13:10:37Z</time>
      </trkpt>
      <trkpt lat="24.916381451751313" lon="118.54204841513544">
        <ele>23.06182861328125</ele>
        <time>2025-08-09T13:10:40Z</time>
      </trkpt>
      <trkpt lat="24.916511098776102" lon="118.54235717942642">
        <ele>23.22369384765625</ele>
        <time>2025-08-09T13:10:49Z</time>
      </trkpt>
      <trkpt lat="24.916565203183705" lon="118.54240930585786">
        <ele>22.1663818359375</ele>
        <time>2025-08-09T13:10:52Z</time>
      </trkpt>
      <trkpt lat="24.91662621832095" lon="118.54242032913913">
        <ele>22.27972412109375</ele>
        <time>2025-08-09T13:10:55Z</time>
      </trkpt>
      <trkpt lat="24.916786107675726" lon="118.54237921538008">
        <ele>21.56951904296875</ele>
        <time>2025-08-09T13:11:01Z</time>
      </trkpt>
      <trkpt lat="24.91677105593235" lon="118.54235415381675">
        <ele>21.0064697265625</ele>
        <time>2025-08-09T13:11:16Z</time>
      </trkpt>
      <trkpt lat="24.916836051143775" lon="118.54235615430231">
        <ele>20.25018310546875</ele>
        <time>2025-08-09T13:11:19Z</time>
      </trkpt>
      <trkpt lat="24.917144762104567" lon="118.54224184700789">
        <ele>20.93511962890625</ele>
        <time>2025-08-09T13:11:28Z</time>
      </trkpt>
      <trkpt lat="24.917427590779685" lon="118.54218067418175">
        <ele>22.75177001953125</ele>
        <time>2025-08-09T13:11:37Z</time>
      </trkpt>
      <trkpt lat="24.917752454508857" lon="118.54213854604366">
        <ele>25.56878662109375</ele>
        <time>2025-08-09T13:11:46Z</time>
      </trkpt>
      <trkpt lat="24.918022366960226" lon="118.54211546943814">
        <ele>22.36767578125</ele>
        <time>2025-08-09T13:11:55Z</time>
      </trkpt>
      <trkpt lat="24.918215309641273" lon="118.5421014208041">
        <ele>24.11358642578125</ele>
        <time>2025-08-09T13:12:01Z</time>
      </trkpt>
      <trkpt lat="24.918509279250376" lon="118.54210641291185">
        <ele>26.331298828125</ele>
        <time>2025-08-09T13:12:10Z</time>
      </trkpt>
      <trkpt lat="24.918808226520508" lon="118.5421013795267">
        <ele>26.23297119140625</ele>
        <time>2025-08-09T13:12:19Z</time>
      </trkpt>
      <trkpt lat="24.919103202455233" lon="118.54210937910742">
        <ele>28.92498779296875</ele>
        <time>2025-08-09T13:12:28Z</time>
      </trkpt>
      <trkpt lat="24.91946221695984" lon="118.54213942952832">
        <ele>25.3990478515625</ele>
        <time>2025-08-09T13:12:40Z</time>
      </trkpt>
      <trkpt lat="24.91974718777982" lon="118.54214442225464">
        <ele>26.6676025390625</ele>
        <time>2025-08-09T13:12:49Z</time>
      </trkpt>
      <trkpt lat="24.920021168777286" lon="118.54215342579619">
        <ele>25.21282958984375</ele>
        <time>2025-08-09T13:12:58Z</time>
      </trkpt>
      <trkpt lat="24.920300127452297" lon="118.54215240386215">
        <ele>25.502685546875</ele>
        <time>2025-08-09T13:13:07Z</time>
      </trkpt>
      <trkpt lat="24.920587106603605" lon="118.54216140649574">
        <ele>26.05279541015625</ele>
        <time>2025-08-09T13:13:16Z</time>
      </trkpt>
      <trkpt lat="24.920780003853064" lon="118.5421263051069">
        <ele>27.50701904296875</ele>
        <time>2025-08-09T13:13:22Z</time>
      </trkpt>
      <trkpt lat="24.921117988800614" lon="118.54214131927793">
        <ele>26.0711669921875</ele>
        <time>2025-08-09T13:13:34Z</time>
      </trkpt>
      <trkpt lat="24.92140495279911" lon="118.54214330432481">
        <ele>26.05120849609375</ele>
        <time>2025-08-09T13:13:43Z</time>
      </trkpt>
      <trkpt lat="24.921766958106996" lon="118.54216934444929">
        <ele>26.9759521484375</ele>
        <time>2025-08-09T13:13:55Z</time>
      </trkpt>
      <trkpt lat="24.92210407914241" lon="118.54224751680759">
        <ele>27.955810546875</ele>
        <time>2025-08-09T13:14:07Z</time>
      </trkpt>
      <trkpt lat="24.922382100455597" lon="118.54227556769139">
        <ele>30.8094482421875</ele>
        <time>2025-08-09T13:14:16Z</time>
      </trkpt>
      <trkpt lat="24.92266219904002" lon="118.54233970862639">
        <ele>31.68780517578125</ele>
        <time>2025-08-09T13:14:25Z</time>
      </trkpt>
      <trkpt lat="24.92300237940342" lon="118.54244595031633">
        <ele>32.17510986328125</ele>
        <time>2025-08-09T13:14:37Z</time>
      </trkpt>
      <trkpt lat="24.923266548587556" lon="118.54254217188753">
        <ele>33.85205078125</ele>
        <time>2025-08-09T13:14:46Z</time>
      </trkpt>
      <trkpt lat="24.923593809322803" lon="118.54268550588485">
        <ele>34.500732421875</ele>
        <time>2025-08-09T13:14:58Z</time>
      </trkpt>
      <trkpt lat="24.923835072895734" lon="118.54282483512695">
        <ele>34.282958984375</ele>
        <time>2025-08-09T13:15:07Z</time>
      </trkpt>
      <trkpt lat="24.924091335812932" lon="118.5429651650529">
        <ele>34.2547607421875</ele>
        <time>2025-08-09T13:15:16Z</time>
      </trkpt>
      <trkpt lat="24.92439773563276" lon="118.54317365898868">
        <ele>34.9298095703125</ele>
        <time>2025-08-09T13:15:28Z</time>
      </trkpt>
      <trkpt lat="24.924638102973866" lon="118.54336310898303">
        <ele>37.0682373046875</ele>
        <time>2025-08-09T13:15:37Z</time>
      </trkpt>
      <trkpt lat="24.924848504970985" lon="118.54356759652869">
        <ele>37.05413818359375</ele>
        <time>2025-08-09T13:15:46Z</time>
      </trkpt>
      <trkpt lat="24.925064917286544" lon="118.54377809671172">
        <ele>36.37384033203125</ele>
        <time>2025-08-09T13:15:55Z</time>
      </trkpt>
      <trkpt lat="24.925265365948515" lon="118.54400563775367">
        <ele>33.9552001953125</ele>
        <time>2025-08-09T13:16:04Z</time>
      </trkpt>
      <trkpt lat="24.925448848596606" lon="118.54424921682765">
        <ele>31.564208984375</ele>
        <time>2025-08-09T13:16:13Z</time>
      </trkpt>
      <trkpt lat="24.925628338030126" lon="118.54449680351084">
        <ele>30.2197265625</ele>
        <time>2025-08-09T13:16:22Z</time>
      </trkpt>
      <trkpt lat="24.925797853613943" lon="118.5447574197882">
        <ele>30.0301513671875</ele>
        <time>2025-08-09T13:16:31Z</time>
      </trkpt>
      <trkpt lat="24.925957378495053" lon="118.54502304604748">
        <ele>28.3707275390625</ele>
        <time>2025-08-09T13:16:40Z</time>
      </trkpt>
      <trkpt lat="24.926126922006187" lon="118.54529969505879">
        <ele>27.15228271484375</ele>
        <time>2025-08-09T13:16:49Z</time>
      </trkpt>
      <trkpt lat="24.9263044473602" lon="118.54556932379153">
        <ele>27.3853759765625</ele>
        <time>2025-08-09T13:16:58Z</time>
      </trkpt>
      <trkpt lat="24.926479990690765" lon="118.54584897339197">
        <ele>28.8138427734375</ele>
        <time>2025-08-09T13:17:07Z</time>
      </trkpt>
      <trkpt lat="24.926638515407323" lon="118.54611959980875">
        <ele>27.2213134765625</ele>
        <time>2025-08-09T13:17:16Z</time>
      </trkpt>
      <trkpt lat="24.9267990371871" lon="118.5463902231064">
        <ele>26.7052001953125</ele>
        <time>2025-08-09T13:17:25Z</time>
      </trkpt>
      <trkpt lat="24.926877411658573" lon="118.54658266700959">
        <ele>26.1199951171875</ele>
        <time>2025-08-09T13:17:31Z</time>
      </trkpt>
      <trkpt lat="24.92692280940624" lon="118.54678513497319">
        <ele>27.3656005859375</ele>
        <time>2025-08-09T13:17:37Z</time>
      </trkpt>
      <trkpt lat="24.92709029183603" lon="118.54703971333534">
        <ele>28.26654052734375</ele>
        <time>2025-08-09T13:17:46Z</time>
      </trkpt>
      <trkpt lat="24.927265790536765" lon="118.54730431153985">
        <ele>25.46038818359375</ele>
        <time>2025-08-09T13:17:55Z</time>
      </trkpt>
      <trkpt lat="24.92731795116818" lon="118.54738950383049">
        <ele>25.7216796875</ele>
        <time>2025-08-09T13:17:58Z</time>
      </trkpt>
      <trkpt lat="24.92748216863917" lon="118.54751177308574">
        <ele>26.18243408203125</ele>
        <time>2025-08-09T13:18:04Z</time>
      </trkpt>
      <trkpt lat="24.927652649715213" lon="118.54776935046073">
        <ele>26.557861328125</ele>
        <time>2025-08-09T13:18:13Z</time>
      </trkpt>
      <trkpt lat="24.927811165138046" lon="118.54804496688224">
        <ele>26.49822998046875</ele>
        <time>2025-08-09T13:18:22Z</time>
      </trkpt>
      <trkpt lat="24.927975659428565" lon="118.54831155933901">
        <ele>28.5770263671875</ele>
        <time>2025-08-09T13:18:31Z</time>
      </trkpt>
      <trkpt lat="24.928131160060154" lon="118.5485821584606">
        <ele>29.470458984375</ele>
        <time>2025-08-09T13:18:40Z</time>
      </trkpt>
      <trkpt lat="24.928266674215706" lon="118.54885977158968">
        <ele>28.873046875</ele>
        <time>2025-08-09T13:18:49Z</time>
      </trkpt>
      <trkpt lat="24.92841118229744" lon="118.54913637861685">
        <ele>29.01824951171875</ele>
        <time>2025-08-09T13:18:58Z</time>
      </trkpt>
      <trkpt lat="24.928566680246146" lon="118.54940997499153">
        <ele>29.82305908203125</ele>
        <time>2025-08-09T13:19:07Z</time>
      </trkpt>
      <trkpt lat="24.928730132675724" lon="118.54966151908246">
        <ele>29.69952392578125</ele>
        <time>2025-08-09T13:19:16Z</time>
      </trkpt>
      <trkpt lat="24.928888596570726" lon="118.54992007620643">
        <ele>30.75689697265625</ele>
        <time>2025-08-09T13:19:25Z</time>
      </trkpt>
      <trkpt lat="24.92905704716057" lon="118.55017361885695">
        <ele>30.77349853515625</ele>
        <time>2025-08-09T13:19:34Z</time>
      </trkpt>
      <trkpt lat="24.929221480979628" lon="118.55041914163694">
        <ele>29.13946533203125</ele>
        <time>2025-08-09T13:19:43Z</time>
      </trkpt>
      <trkpt lat="24.92938393683688" lon="118.5506776901048">
        <ele>28.64044189453125</ele>
        <time>2025-08-09T13:19:52Z</time>
      </trkpt>
      <trkpt lat="24.929545403154705" lon="118.55094325083476">
        <ele>30.054931640625</ele>
        <time>2025-08-09T13:20:01Z</time>
      </trkpt>
      <trkpt lat="24.929709882804833" lon="118.55121782758042">
        <ele>28.5194091796875</ele>
        <time>2025-08-09T13:20:10Z</time>
      </trkpt>
      <trkpt lat="24.92986946933557" lon="118.55155252904959">
        <ele>29.65289306640625</ele>
        <time>2025-08-09T13:20:19Z</time>
      </trkpt>
      <trkpt lat="24.930020910029654" lon="118.55180805927121">
        <ele>30.86895751953125</ele>
        <time>2025-08-09T13:20:28Z</time>
      </trkpt>
      <trkpt lat="24.930208470585896" lon="118.55213473340046">
        <ele>32.6522216796875</ele>
        <time>2025-08-09T13:20:40Z</time>
      </trkpt>
      <trkpt lat="24.930365933184625" lon="118.55240629013969">
        <ele>31.091064453125</ele>
        <time>2025-08-09T13:20:49Z</time>
      </trkpt>
      <trkpt lat="24.930529353036427" lon="118.55265579753184">
        <ele>29.99200439453125</ele>
        <time>2025-08-09T13:20:58Z</time>
      </trkpt>
      <trkpt lat="24.930736878802332" lon="118.55297043337492">
        <ele>29.109130859375</ele>
        <time>2025-08-09T13:21:10Z</time>
      </trkpt>
      <trkpt lat="24.930893299371107" lon="118.55322294121727">
        <ele>30.17767333984375</ele>
        <time>2025-08-09T13:21:19Z</time>
      </trkpt>
      <trkpt lat="24.931051725849656" lon="118.55348045630994">
        <ele>30.783935546875</ele>
        <time>2025-08-09T13:21:28Z</time>
      </trkpt>
      <trkpt lat="24.931188137237402" lon="118.55372895172252">
        <ele>31.51959228515625</ele>
        <time>2025-08-09T13:21:37Z</time>
      </trkpt>
      <trkpt lat="24.93120227364808" lon="118.55380911302245">
        <ele>32.23309326171875</ele>
        <time>2025-08-09T13:21:40Z</time>
      </trkpt>
      <trkpt lat="24.93123439345484" lon="118.55388125660112">
        <ele>31.17083740234375</ele>
        <time>2025-08-09T13:21:43Z</time>
      </trkpt>
      <trkpt lat="24.93126845245773" lon="118.55391832907559">
        <ele>31.8751220703125</ele>
        <time>2025-08-09T13:21:46Z</time>
      </trkpt>
      <trkpt lat="24.93132127927393" lon="118.55382213110177">
        <ele>33.00555419921875</ele>
        <time>2025-08-09T13:21:52Z</time>
      </trkpt>
      <trkpt lat="24.931175831839763" lon="118.55355159251468">
        <ele>32.9642333984375</ele>
        <time>2025-08-09T13:22:01Z</time>
      </trkpt>
      <trkpt lat="24.931131688406136" lon="118.55346542013115">
        <ele>32.61944580078125</ele>
        <time>2025-08-09T13:22:04Z</time>
      </trkpt>
      <trkpt lat="24.931088347061277" lon="118.5532660158986">
        <ele>32.7957763671875</ele>
        <time>2025-08-09T13:22:10Z</time>
      </trkpt>
      <trkpt lat="24.931090185627905" lon="118.55317382690328">
        <ele>32.256591796875</ele>
        <time>2025-08-09T13:22:13Z</time>
      </trkpt>
      <trkpt lat="24.93111502060562" lon="118.55308163593513">
        <ele>32.62451171875</ele>
        <time>2025-08-09T13:22:16Z</time>
      </trkpt>
      <trkpt lat="24.931116842655086" lon="118.55298042762047">
        <ele>32.17840576171875</ele>
        <time>2025-08-09T13:22:19Z</time>
      </trkpt>
      <trkpt lat="24.93096741869233" lon="118.55272791659159">
        <ele>31.2138671875</ele>
        <time>2025-08-09T13:22:28Z</time>
      </trkpt>
      <trkpt lat="24.930864138734222" lon="118.55256157876613">
        <ele>31.76007080078125</ele>
        <time>2025-08-09T13:22:34Z</time>
      </trkpt>
      <trkpt lat="24.930844965253247" lon="118.55246237376677">
        <ele>32.1697998046875</ele>
        <time>2025-08-09T13:22:37Z</time>
      </trkpt>
      <trkpt lat="24.930659374497502" lon="118.552116664256">
        <ele>32.8194580078125</ele>
        <time>2025-08-09T13:22:49Z</time>
      </trkpt>
      <trkpt lat="24.930457819314785" lon="118.55179199507128">
        <ele>31.5369873046875</ele>
        <time>2025-08-09T13:23:01Z</time>
      </trkpt>
      <trkpt lat="24.930319352998136" lon="118.55152343611584">
        <ele>32.664794921875</ele>
        <time>2025-08-09T13:23:10Z</time>
      </trkpt>
      <trkpt lat="24.930267198393896" lon="118.55143425022823">
        <ele>32.370849609375</ele>
        <time>2025-08-09T13:23:13Z</time>
      </trkpt>
      <trkpt lat="24.930081819229763" lon="118.55121178889196">
        <ele>32.8238525390625</ele>
        <time>2025-08-09T13:23:22Z</time>
      </trkpt>
      <trkpt lat="24.92992735835278" lon="118.55094823505578">
        <ele>32.61090087890625</ele>
        <time>2025-08-09T13:23:31Z</time>
      </trkpt>
      <trkpt lat="24.92978786307081" lon="118.55066864255707">
        <ele>33.15057373046875</ele>
        <time>2025-08-09T13:23:40Z</time>
      </trkpt>
      <trkpt lat="24.929631385809383" lon="118.55039906963819">
        <ele>33.86846923828125</ele>
        <time>2025-08-09T13:23:49Z</time>
      </trkpt>
      <trkpt lat="24.929473924624954" lon="118.55013951554503">
        <ele>33.64801025390625</ele>
        <time>2025-08-09T13:23:58Z</time>
      </trkpt>
      <trkpt lat="24.92928648015985" lon="118.54988797824004">
        <ele>35.17852783203125</ele>
        <time>2025-08-09T13:24:07Z</time>
      </trkpt>
      <trkpt lat="24.929126014347943" lon="118.54962841869151">
        <ele>36.9146728515625</ele>
        <time>2025-08-09T13:24:16Z</time>
      </trkpt>
      <trkpt lat="24.92897554266877" lon="118.54936785336427">
        <ele>35.03778076171875</ele>
        <time>2025-08-09T13:24:25Z</time>
      </trkpt>
      <trkpt lat="24.928822055474186" lon="118.54910026975007">
        <ele>36.56298828125</ele>
        <time>2025-08-09T13:24:34Z</time>
      </trkpt>
      <trkpt lat="24.928651558380317" lon="118.548827673079">
        <ele>36.99420166015625</ele>
        <time>2025-08-09T13:24:43Z</time>
      </trkpt>
      <trkpt lat="24.928498056095417" lon="118.54855507209729">
        <ele>36.9488525390625</ele>
        <time>2025-08-09T13:24:52Z</time>
      </trkpt>
      <trkpt lat="24.9283455431235" lon="118.54827845886368">
        <ele>36.0546875</ele>
        <time>2025-08-09T13:25:01Z</time>
      </trkpt>
      <trkpt lat="24.928177035414322" lon="118.54800485037427">
        <ele>35.8330078125</ele>
        <time>2025-08-09T13:25:10Z</time>
      </trkpt>
      <trkpt lat="24.92801354579619" lon="118.54774226359096">
        <ele>35.50140380859375</ele>
        <time>2025-08-09T13:25:19Z</time>
      </trkpt>
      <trkpt lat="24.927856064603944" lon="118.54748568732037">
        <ele>34.6552734375</ele>
        <time>2025-08-09T13:25:28Z</time>
      </trkpt>
      <trkpt lat="24.927771730972008" lon="118.54731029019403">
        <ele>33.17535400390625</ele>
        <time>2025-08-09T13:25:34Z</time>
      </trkpt>
      <trkpt lat="24.927757546902537" lon="118.54721607419143">
        <ele>31.88201904296875</ele>
        <time>2025-08-09T13:25:37Z</time>
      </trkpt>
      <trkpt lat="24.927770338848763" lon="118.54711183280165">
        <ele>31.7838134765625</ele>
        <time>2025-08-09T13:25:40Z</time>
      </trkpt>
      <trkpt lat="24.92781416379638" lon="118.54702663285819">
        <ele>31.43218994140625</ele>
        <time>2025-08-09T13:25:43Z</time>
      </trkpt>
      <trkpt lat="24.927899024492433" lon="118.54696247850796">
        <ele>31.08258056640625</ele>
        <time>2025-08-09T13:25:46Z</time>
      </trkpt>
      <trkpt lat="24.92817680396762" lon="118.54687124782117">
        <ele>27.42767333984375</ele>
        <time>2025-08-09T13:25:55Z</time>
      </trkpt>
      <trkpt lat="24.928451585552143" lon="118.54678101932811">
        <ele>25.6689453125</ele>
        <time>2025-08-09T13:26:04Z</time>
      </trkpt>
      <trkpt lat="24.928712336802135" lon="118.54667475415802">
        <ele>24.37176513671875</ele>
        <time>2025-08-09T13:26:13Z</time>
      </trkpt>
      <trkpt lat="24.92905703766898" lon="118.54654943827268">
        <ele>22.4593505859375</ele>
        <time>2025-08-09T13:26:25Z</time>
      </trkpt>
      <trkpt lat="24.92932878042565" lon="118.54644016430056">
        <ele>21.183349609375</ele>
        <time>2025-08-09T13:26:34Z</time>
      </trkpt>
      <trkpt lat="24.929604562436122" lon="118.54635093648604">
        <ele>20.7645263671875</ele>
        <time>2025-08-09T13:26:43Z</time>
      </trkpt>
      <trkpt lat="24.929871323246594" lon="118.54625068312458">
        <ele>20.91680908203125</ele>
        <time>2025-08-09T13:26:52Z</time>
      </trkpt>
      <trkpt lat="24.930149049807902" lon="118.5461343909171">
        <ele>21.01129150390625</ele>
        <time>2025-08-09T13:27:01Z</time>
      </trkpt>
      <trkpt lat="24.93042076659762" lon="118.54601308677746">
        <ele>22.23388671875</ele>
        <time>2025-08-09T13:27:10Z</time>
      </trkpt>
      <trkpt lat="24.93068645934399" lon="118.54587975407782">
        <ele>22.4920654296875</ele>
        <time>2025-08-09T13:27:19Z</time>
      </trkpt>
      <trkpt lat="24.930970167206045" lon="118.54575544073616">
        <ele>22.291748046875</ele>
        <time>2025-08-09T13:27:28Z</time>
      </trkpt>
      <trkpt lat="24.93122276874896" lon="118.54557700060455">
        <ele>22.909912109375</ele>
        <time>2025-08-09T13:27:37Z</time>
      </trkpt>
      <trkpt lat="24.931467390743595" lon="118.54540858358529">
        <ele>24.022705078125</ele>
        <time>2025-08-09T13:27:46Z</time>
      </trkpt>
      <trkpt lat="24.931707969167142" lon="118.54521911547928">
        <ele>24.08758544921875</ele>
        <time>2025-08-09T13:27:55Z</time>
      </trkpt>
      <trkpt lat="24.93194253066855" lon="118.5450216271484">
        <ele>23.1407470703125</ele>
        <time>2025-08-09T13:28:04Z</time>
      </trkpt>
      <trkpt lat="24.932182092134944" lon="118.54482513931147">
        <ele>24.52490234375</ele>
        <time>2025-08-09T13:28:13Z</time>
      </trkpt>
      <trkpt lat="24.93233477029909" lon="118.54467977912526">
        <ele>25.03070068359375</ele>
        <time>2025-08-09T13:28:19Z</time>
      </trkpt>
      <trkpt lat="24.93233477029909" lon="118.54467977912526">
        <ele>25.03070068359375</ele>
        <time>2025-08-09T13:28:21Z</time>
      </trkpt>
    </trkseg>
  </trk>
</gpx>