<?xml version="1.0" encoding="UTF-8"?>
<gpx xmlns="http://www.topografix.com/GPX/1/1" xmlns:gpxtpx="http://www.garmin.com/xmlschemas/TrackPointExtension/v1" xmlns:xsi="http://www.w3.org/2001/XMLSchema-instance" xsi:schemaLocation="http://www.topografix.com/GPX/1/1 http://www.topografix.com/GPX/1/1/gpx.xsd" version="1.1" creator="gpx.py -- https://github.com/tkrajina/gpxpy">
  <trk>
    <name>gpx from keep</name>
    <type>Run</type>
    <trkseg>
      <trkpt lat="24.910822239992427" lon="118.53849591468688">
        <ele>10.112139891467521</ele>
        <time>2024-09-27T14:06:23Z</time>
      </trkpt>
      <trkpt lat="24.910665189539234" lon="118.53846194488254">
        <ele>10.133681907318532</ele>
        <time>2024-09-27T14:06:30Z</time>
      </trkpt>
      <trkpt lat="24.91050226324833" lon="118.53849657339536">
        <ele>10.159915689378977</ele>
        <time>2024-09-27T14:06:34Z</time>
      </trkpt>
      <trkpt lat="24.91039861019412" lon="118.53849395460576">
        <ele>9.836702314205468</ele>
        <time>2024-09-27T14:06:37Z</time>
      </trkpt>
      <trkpt lat="24.91020466789686" lon="118.53842319809587">
        <ele>9.32133403327316</ele>
        <time>2024-09-27T14:06:43Z</time>
      </trkpt>
      <trkpt lat="24.91011688198137" lon="118.53841268232954">
        <ele>9.302999495528638</ele>
        <time>2024-09-27T14:06:46Z</time>
      </trkpt>
      <trkpt lat="24.909943206364893" lon="118.53834675230902">
        <ele>8.69939726870507</ele>
        <time>2024-09-27T14:06:49Z</time>
      </trkpt>
      <trkpt lat="24.9098570028902" lon="118.53833344931608">
        <ele>8.472152275033295</ele>
        <time>2024-09-27T14:06:52Z</time>
      </trkpt>
      <trkpt lat="24.909568173692165" lon="118.53833875783907">
        <ele>8.658009678125381</ele>
        <time>2024-09-27T14:07:01Z</time>
      </trkpt>
      <trkpt lat="24.909239171342378" lon="118.53837910441398">
        <ele>7.766600540839136</ele>
        <time>2024-09-27T14:07:10Z</time>
      </trkpt>
      <trkpt lat="24.909145560133844" lon="118.53834751681458">
        <ele>7.367041246034205</ele>
        <time>2024-09-27T14:07:13Z</time>
      </trkpt>
      <trkpt lat="24.909111858467888" lon="118.53825589532633">
        <ele>7.397452404722571</ele>
        <time>2024-09-27T14:07:16Z</time>
      </trkpt>
      <trkpt lat="24.909148513548818" lon="118.53815013265326">
        <ele>6.907690793275833</ele>
        <time>2024-09-27T14:07:19Z</time>
      </trkpt>
      <trkpt lat="24.909136663075206" lon="118.53802184423105">
        <ele>8.35097557771951</ele>
        <time>2024-09-27T14:07:22Z</time>
      </trkpt>
      <trkpt lat="24.909162529266524" lon="118.537808841203">
        <ele>8.58696317113936</ele>
        <time>2024-09-27T14:07:28Z</time>
      </trkpt>
      <trkpt lat="24.909195908482644" lon="118.5377056283046">
        <ele>7.607239777222276</ele>
        <time>2024-09-27T14:07:31Z</time>
      </trkpt>
      <trkpt lat="24.909303730315223" lon="118.53748924891319">
        <ele>9.503313170745969</ele>
        <time>2024-09-27T14:07:37Z</time>
      </trkpt>
      <trkpt lat="24.909330562093366" lon="118.53720846500943">
        <ele>9.646051250398159</ele>
        <time>2024-09-27T14:07:46Z</time>
      </trkpt>
      <trkpt lat="24.909426190595063" lon="118.53696974181113">
        <ele>10.020809005014598</ele>
        <time>2024-09-27T14:07:52Z</time>
      </trkpt>
      <trkpt lat="24.909509056042122" lon="118.53664496571308">
        <ele>9.797772022895515</ele>
        <time>2024-09-27T14:08:01Z</time>
      </trkpt>
      <trkpt lat="24.909581605717534" lon="118.53632918248424">
        <ele>10.459005781449378</ele>
        <time>2024-09-27T14:08:10Z</time>
      </trkpt>
      <trkpt lat="24.90961716864557" lon="118.53601739293778">
        <ele>10.364364511333406</ele>
        <time>2024-09-27T14:08:19Z</time>
      </trkpt>
      <trkpt lat="24.909666666478163" lon="118.53565801272923">
        <ele>9.56878565903753</ele>
        <time>2024-09-27T14:08:29Z</time>
      </trkpt>
      <trkpt lat="24.909708453995336" lon="118.5353629365162">
        <ele>9.909363397397101</ele>
        <time>2024-09-27T14:08:37Z</time>
      </trkpt>
      <trkpt lat="24.90976376226996" lon="118.53499977570372">
        <ele>8.698378931730986</ele>
        <time>2024-09-27T14:08:47Z</time>
      </trkpt>
      <trkpt lat="24.909794565367736" lon="118.53460447507753">
        <ele>8.021993326954544</ele>
        <time>2024-09-27T14:08:59Z</time>
      </trkpt>
      <trkpt lat="24.909833549045814" lon="118.53440037713547">
        <ele>8.241469234228134</ele>
        <time>2024-09-27T14:09:05Z</time>
      </trkpt>
      <trkpt lat="24.90982780428467" lon="118.53416838589875">
        <ele>7.564178952947259</ele>
        <time>2024-09-27T14:09:11Z</time>
      </trkpt>
      <trkpt lat="24.909871335221762" lon="118.53395217987287">
        <ele>8.542869658209383</ele>
        <time>2024-09-27T14:09:17Z</time>
      </trkpt>
      <trkpt lat="24.909911037997414" lon="118.53385420146185">
        <ele>7.182331800460815</ele>
        <time>2024-09-27T14:09:20Z</time>
      </trkpt>
      <trkpt lat="24.910062069703955" lon="118.5337417984736">
        <ele>8.205327701754868</ele>
        <time>2024-09-27T14:09:26Z</time>
      </trkpt>
      <trkpt lat="24.91014299443013" lon="118.53375358949391">
        <ele>8.68605562672019</ele>
        <time>2024-09-27T14:09:29Z</time>
      </trkpt>
      <trkpt lat="24.910327708228582" lon="118.53371997191945">
        <ele>10.377687050960958</ele>
        <time>2024-09-27T14:09:35Z</time>
      </trkpt>
      <trkpt lat="24.910429371930707" lon="118.5336816837809">
        <ele>10.149001662619412</ele>
        <time>2024-09-27T14:09:38Z</time>
      </trkpt>
      <trkpt lat="24.910639814346297" lon="118.53365069599052">
        <ele>10.194933036342263</ele>
        <time>2024-09-27T14:09:45Z</time>
      </trkpt>
      <trkpt lat="24.91075104475038" lon="118.53368088297492">
        <ele>9.716543467715383</ele>
        <time>2024-09-27T14:09:48Z</time>
      </trkpt>
      <trkpt lat="24.911069448143277" lon="118.53370808295813">
        <ele>10.722801264375448</ele>
        <time>2024-09-27T14:10:00Z</time>
      </trkpt>
      <trkpt lat="24.911379754595153" lon="118.53371215351413">
        <ele>11.7622453533113</ele>
        <time>2024-09-27T14:10:09Z</time>
      </trkpt>
      <trkpt lat="24.911696246667486" lon="118.5337455560686">
        <ele>14.646540195681155</ele>
        <time>2024-09-27T14:10:18Z</time>
      </trkpt>
      <trkpt lat="24.9117976523491" lon="118.53375374033455">
        <ele>13.475633205845952</ele>
        <time>2024-09-27T14:10:21Z</time>
      </trkpt>
      <trkpt lat="24.91190135371792" lon="118.53378661527321">
        <ele>8.929450372233987</ele>
        <time>2024-09-27T14:10:24Z</time>
      </trkpt>
      <trkpt lat="24.91211371752677" lon="118.53378615411756">
        <ele>7.216404628008604</ele>
        <time>2024-09-27T14:10:30Z</time>
      </trkpt>
      <trkpt lat="24.91239945503461" lon="118.53374500742734">
        <ele>13.795695366337895</ele>
        <time>2024-09-27T14:10:38Z</time>
      </trkpt>
      <trkpt lat="24.912684548687043" lon="118.53373947529694">
        <ele>9.81710390932858</ele>
        <time>2024-09-27T14:10:46Z</time>
      </trkpt>
      <trkpt lat="24.91289281329673" lon="118.5337351260471">
        <ele>10.761529004201293</ele>
        <time>2024-09-27T14:10:52Z</time>
      </trkpt>
      <trkpt lat="24.913192713465467" lon="118.53381516400759">
        <ele>9.956735141575336</ele>
        <time>2024-09-27T14:11:01Z</time>
      </trkpt>
      <trkpt lat="24.913482883232312" lon="118.53384644044874">
        <ele>10.589768276549876</ele>
        <time>2024-09-27T14:11:10Z</time>
      </trkpt>
      <trkpt lat="24.913575354062324" lon="118.5338698927934">
        <ele>9.751946108415723</ele>
        <time>2024-09-27T14:11:13Z</time>
      </trkpt>
      <trkpt lat="24.913584372290867" lon="118.533921039682">
        <ele>11.928725996054709</ele>
        <time>2024-09-27T14:11:16Z</time>
      </trkpt>
      <trkpt lat="24.913500366510338" lon="118.53397099276393">
        <ele>7.861573942005634</ele>
        <time>2024-09-27T14:11:19Z</time>
      </trkpt>
      <trkpt lat="24.9133751160517" lon="118.5342490530316">
        <ele>10.025067697279155</ele>
        <time>2024-09-27T14:11:28Z</time>
      </trkpt>
      <trkpt lat="24.913223446351633" lon="118.53458313448027">
        <ele>9.556020881049335</ele>
        <time>2024-09-27T14:11:37Z</time>
      </trkpt>
      <trkpt lat="24.913092256293865" lon="118.53488889792891">
        <ele>9.889358958229423</ele>
        <time>2024-09-27T14:11:46Z</time>
      </trkpt>
      <trkpt lat="24.912985630378436" lon="118.5350850473492">
        <ele>10.514225887134671</ele>
        <time>2024-09-27T14:11:52Z</time>
      </trkpt>
      <trkpt lat="24.912901774400716" lon="118.53531801516198">
        <ele>10.737940763123333</ele>
        <time>2024-09-27T14:11:58Z</time>
      </trkpt>
      <trkpt lat="24.912777105087937" lon="118.53552251606266">
        <ele>9.63510075584054</ele>
        <time>2024-09-27T14:12:04Z</time>
      </trkpt>
      <trkpt lat="24.912738561702255" lon="118.53562519002827">
        <ele>9.71481725666672</ele>
        <time>2024-09-27T14:12:07Z</time>
      </trkpt>
      <trkpt lat="24.912542238355584" lon="118.53592805231064">
        <ele>9.898730349726975</ele>
        <time>2024-09-27T14:12:16Z</time>
      </trkpt>
      <trkpt lat="24.912484142063914" lon="118.53601285977135">
        <ele>11.198151131160557</ele>
        <time>2024-09-27T14:12:19Z</time>
      </trkpt>
      <trkpt lat="24.91244527532563" lon="118.53611550058453">
        <ele>9.995942298322916</ele>
        <time>2024-09-27T14:12:22Z</time>
      </trkpt>
      <trkpt lat="24.912389530374252" lon="118.53619584912948">
        <ele>9.719324150122702</ele>
        <time>2024-09-27T14:12:25Z</time>
      </trkpt>
      <trkpt lat="24.912262252704156" lon="118.53647222843131">
        <ele>10.647688580676913</ele>
        <time>2024-09-27T14:12:34Z</time>
      </trkpt>
      <trkpt lat="24.91202805415385" lon="118.53679712115726">
        <ele>10.962983130477369</ele>
        <time>2024-09-27T14:12:45Z</time>
      </trkpt>
      <trkpt lat="24.911934437216956" lon="118.53709502204194">
        <ele>9.626882185228169</ele>
        <time>2024-09-27T14:12:53Z</time>
      </trkpt>
      <trkpt lat="24.911931084471373" lon="118.53721091578485">
        <ele>10.84980187844485</ele>
        <time>2024-09-27T14:12:56Z</time>
      </trkpt>
      <trkpt lat="24.91181777151784" lon="118.53748217206795">
        <ele>9.603489058092237</ele>
        <time>2024-09-27T14:13:05Z</time>
      </trkpt>
      <trkpt lat="24.911770406704782" lon="118.53758725000137">
        <ele>10.354434228502214</ele>
        <time>2024-09-27T14:13:08Z</time>
      </trkpt>
      <trkpt lat="24.911709263431646" lon="118.53767550074888">
        <ele>10.718204592354596</ele>
        <time>2024-09-27T14:13:11Z</time>
      </trkpt>
      <trkpt lat="24.911661997133514" lon="118.5377791231594">
        <ele>9.999213302507997</ele>
        <time>2024-09-27T14:13:14Z</time>
      </trkpt>
      <trkpt lat="24.911661997133514" lon="118.5377791231594">
        <ele>9.999213302507997</ele>
        <time>2024-09-27T14:13:14Z</time>
      </trkpt>
    </trkseg>
  </trk>
</gpx>