<?xml version="1.0" encoding="UTF-8"?>
<gpx xmlns="http://www.topografix.com/GPX/1/1" xmlns:gpxtpx="http://www.garmin.com/xmlschemas/TrackPointExtension/v1" xmlns:xsi="http://www.w3.org/2001/XMLSchema-instance" xsi:schemaLocation="http://www.topografix.com/GPX/1/1 http://www.topografix.com/GPX/1/1/gpx.xsd" version="1.1" creator="gpx.py -- https://github.com/tkrajina/gpxpy">
  <trk>
    <name>gpx from keep</name>
    <type>Run</type>
    <trkseg>
      <trkpt lat="24.947103943715177" lon="118.55290827804353">
        <ele>11.283071061596274</ele>
        <time>2024-12-14T13:39:47Z</time>
      </trkpt>
      <trkpt lat="24.94707538373503" lon="118.55321779429171">
        <ele>10.483943308703601</ele>
        <time>2024-12-14T13:39:59Z</time>
      </trkpt>
      <trkpt lat="24.94702237062083" lon="118.55343796479833">
        <ele>12.82336906529963</ele>
        <time>2024-12-14T13:40:03Z</time>
      </trkpt>
      <trkpt lat="24.94700150544335" lon="118.55370807903098">
        <ele>13.019812772981822</ele>
        <time>2024-12-14T13:40:11Z</time>
      </trkpt>
      <trkpt lat="24.947005697391184" lon="118.55384694286403">
        <ele>12.46379117295146</ele>
        <time>2024-12-14T13:40:15Z</time>
      </trkpt>
      <trkpt lat="24.94693178305083" lon="118.55411562112374">
        <ele>13.961549173109233</ele>
        <time>2024-12-14T13:40:23Z</time>
      </trkpt>
      <trkpt lat="24.94686110627992" lon="118.55450598747413">
        <ele>14.522709702141583</ele>
        <time>2024-12-14T13:40:34Z</time>
      </trkpt>
      <trkpt lat="24.946778952964902" lon="118.55476033132076">
        <ele>12.321265509352088</ele>
        <time>2024-12-14T13:40:42Z</time>
      </trkpt>
      <trkpt lat="24.94674798569961" lon="118.55502204727209">
        <ele>11.349222271703184</ele>
        <time>2024-12-14T13:40:50Z</time>
      </trkpt>
      <trkpt lat="24.946665373374856" lon="118.55529978123366">
        <ele>11.378927076235414</ele>
        <time>2024-12-14T13:40:58Z</time>
      </trkpt>
      <trkpt lat="24.946572575361678" lon="118.55550898402656">
        <ele>11.407357200980186</ele>
        <time>2024-12-14T13:41:06Z</time>
      </trkpt>
    </trkseg>
  </trk>
</gpx>