<?xml version="1.0" encoding="UTF-8"?>
<gpx xmlns="http://www.topografix.com/GPX/1/1" xmlns:gpxtpx="http://www.garmin.com/xmlschemas/TrackPointExtension/v1" xmlns:xsi="http://www.w3.org/2001/XMLSchema-instance" xsi:schemaLocation="http://www.topografix.com/GPX/1/1 http://www.topografix.com/GPX/1/1/gpx.xsd" version="1.1" creator="gpx.py -- https://github.com/tkrajina/gpxpy">
  <trk>
    <name>gpx from keep</name>
    <type>Run</type>
    <trkseg>
      <trkpt lat="24.914197708866155" lon="118.54256989625823">
        <ele>10.052806538425223</ele>
        <time>2024-08-22T14:36:13Z</time>
      </trkpt>
      <trkpt lat="24.914085304310277" lon="118.54253161829888">
        <ele>9.862024682832494</ele>
        <time>2024-08-22T14:36:16Z</time>
      </trkpt>
      <trkpt lat="24.913943989053145" lon="118.54255825635688">
        <ele>9.599655007017464</ele>
        <time>2024-08-22T14:36:20Z</time>
      </trkpt>
      <trkpt lat="24.913646722328014" lon="118.54268506979236">
        <ele>8.376584238372743</ele>
        <time>2024-08-22T14:36:34Z</time>
      </trkpt>
      <trkpt lat="24.913408892924608" lon="118.54277719047187">
        <ele>8.38987635448575</ele>
        <time>2024-08-22T14:36:43Z</time>
      </trkpt>
      <trkpt lat="24.91310367343682" lon="118.54284130200993">
        <ele>7.4353940933942795</ele>
        <time>2024-08-22T14:36:55Z</time>
      </trkpt>
      <trkpt lat="24.91281470197463" lon="118.54291464215439">
        <ele>8.08182470407337</ele>
        <time>2024-08-22T14:37:07Z</time>
      </trkpt>
      <trkpt lat="24.912534155951914" lon="118.54301657248038">
        <ele>8.2679437501356</ele>
        <time>2024-08-22T14:37:19Z</time>
      </trkpt>
      <trkpt lat="24.912269627685895" lon="118.54310879459133">
        <ele>7.724397580139339</ele>
        <time>2024-08-22T14:37:31Z</time>
      </trkpt>
      <trkpt lat="24.911980302241233" lon="118.54316514596859">
        <ele>7.5481118420138955</ele>
        <time>2024-08-22T14:37:43Z</time>
      </trkpt>
      <trkpt lat="24.911696537755002" lon="118.54324125489123">
        <ele>8.104342916049063</ele>
        <time>2024-08-22T14:37:55Z</time>
      </trkpt>
      <trkpt lat="24.91140094108364" lon="118.54328531953988">
        <ele>8.217549928463995</ele>
        <time>2024-08-22T14:38:07Z</time>
      </trkpt>
      <trkpt lat="24.911097713361134" lon="118.54332364715168">
        <ele>8.051277875900269</ele>
        <time>2024-08-22T14:38:19Z</time>
      </trkpt>
      <trkpt lat="24.91082697505372" lon="118.54336129742416">
        <ele>7.55904109403491</ele>
        <time>2024-08-22T14:38:29Z</time>
      </trkpt>
      <trkpt lat="24.910507117579595" lon="118.54336189329081">
        <ele>7.380589885637164</ele>
        <time>2024-08-22T14:38:41Z</time>
      </trkpt>
      <trkpt lat="24.910423327231975" lon="118.54335742803492">
        <ele>7.827856274321675</ele>
        <time>2024-08-22T14:38:44Z</time>
      </trkpt>
      <trkpt lat="24.910423327231975" lon="118.54335742803492">
        <ele>7.827856274321675</ele>
        <time>2024-08-22T14:38:45Z</time>
      </trkpt>
    </trkseg>
  </trk>
</gpx>