<?xml version="1.0" encoding="UTF-8"?>
<gpx xmlns="http://www.topografix.com/GPX/1/1" xmlns:gpxtpx="http://www.garmin.com/xmlschemas/TrackPointExtension/v1" xmlns:xsi="http://www.w3.org/2001/XMLSchema-instance" xsi:schemaLocation="http://www.topografix.com/GPX/1/1 http://www.topografix.com/GPX/1/1/gpx.xsd" version="1.1" creator="gpx.py -- https://github.com/tkrajina/gpxpy">
  <trk>
    <name>gpx from keep</name>
    <type>Run</type>
    <trkseg>
      <trkpt lat="24.911106569550892" lon="118.53730445246613">
        <ele>35.6336055195848</ele>
        <time>2023-11-11T14:48:11Z</time>
      </trkpt>
      <trkpt lat="24.911303820369167" lon="118.53742476153968">
        <ele>32.75517905435874</ele>
        <time>2023-11-11T14:48:17Z</time>
      </trkpt>
      <trkpt lat="24.911165581739763" lon="118.53774663218869">
        <ele>30.346052125392962</ele>
        <time>2023-11-11T14:48:26Z</time>
      </trkpt>
      <trkpt lat="24.911025241336862" lon="118.53802538465452">
        <ele>27.576712438020262</ele>
        <time>2023-11-11T14:48:35Z</time>
      </trkpt>
      <trkpt lat="24.91097848895158" lon="118.53813066769804">
        <ele>28.53708841397919</ele>
        <time>2023-11-11T14:48:38Z</time>
      </trkpt>
      <trkpt lat="24.910912667822053" lon="118.53820486922713">
        <ele>29.28945265021412</ele>
        <time>2023-11-11T14:48:41Z</time>
      </trkpt>
      <trkpt lat="24.9108181936172" lon="118.53842947075097">
        <ele>28.022087315809976</ele>
        <time>2023-11-11T14:48:47Z</time>
      </trkpt>
      <trkpt lat="24.910794420701187" lon="118.53852773212087">
        <ele>27.803284781625603</ele>
        <time>2023-11-11T14:48:50Z</time>
      </trkpt>
      <trkpt lat="24.91073054363938" lon="118.53857786894328">
        <ele>28.148112858342582</ele>
        <time>2023-11-11T14:48:53Z</time>
      </trkpt>
      <trkpt lat="24.910457417365265" lon="118.53850569732688">
        <ele>29.154090033054878</ele>
        <time>2023-11-11T14:49:02Z</time>
      </trkpt>
      <trkpt lat="24.910156324500964" lon="118.53844656194065">
        <ele>29.399874114679623</ele>
        <time>2023-11-11T14:49:11Z</time>
      </trkpt>
      <trkpt lat="24.9098772124503" lon="118.53838040632203">
        <ele>28.41194008812839</ele>
        <time>2023-11-11T14:49:20Z</time>
      </trkpt>
      <trkpt lat="24.909784181927023" lon="118.53836136237693">
        <ele>28.75480817107374</ele>
        <time>2023-11-11T14:49:23Z</time>
      </trkpt>
      <trkpt lat="24.909502227961667" lon="118.53836438998343">
        <ele>30.09773186054098</ele>
        <time>2023-11-11T14:49:32Z</time>
      </trkpt>
      <trkpt lat="24.90933305693853" lon="118.53827917602675">
        <ele>30.408015916146663</ele>
        <time>2023-11-11T14:49:38Z</time>
      </trkpt>
      <trkpt lat="24.90932184081575" lon="118.53818392419765">
        <ele>30.55248745055321</ele>
        <time>2023-11-11T14:49:41Z</time>
      </trkpt>
      <trkpt lat="24.90941012082211" lon="118.53787509681302">
        <ele>30.33506924839513</ele>
        <time>2023-11-11T14:49:50Z</time>
      </trkpt>
      <trkpt lat="24.909465376947292" lon="118.5375552387991">
        <ele>31.364592438175112</ele>
        <time>2023-11-11T14:49:59Z</time>
      </trkpt>
      <trkpt lat="24.9095346534473" lon="118.53724640580532">
        <ele>30.915230949596026</ele>
        <time>2023-11-11T14:50:08Z</time>
      </trkpt>
      <trkpt lat="24.909577170736128" lon="118.53704084975499">
        <ele>30.84284046403833</ele>
        <time>2023-11-11T14:50:14Z</time>
      </trkpt>
      <trkpt lat="24.90949787170407" lon="118.53690749565263">
        <ele>30.465836297587988</ele>
        <time>2023-11-11T14:50:20Z</time>
      </trkpt>
      <trkpt lat="24.90955610599235" lon="118.53658261288895">
        <ele>30.88242494060602</ele>
        <time>2023-11-11T14:50:29Z</time>
      </trkpt>
      <trkpt lat="24.90958959209148" lon="118.53636501997461">
        <ele>32.05923671266767</ele>
        <time>2023-11-11T14:50:35Z</time>
      </trkpt>
      <trkpt lat="24.9095990706379" lon="118.53614341615308">
        <ele>33.405519669234934</ele>
        <time>2023-11-11T14:50:41Z</time>
      </trkpt>
      <trkpt lat="24.909642332484303" lon="118.53583256420659">
        <ele>32.701665733771364</ele>
        <time>2023-11-11T14:50:50Z</time>
      </trkpt>
      <trkpt lat="24.909694604385177" lon="118.53552772482797">
        <ele>31.677061433811918</ele>
        <time>2023-11-11T14:50:59Z</time>
      </trkpt>
      <trkpt lat="24.909726890553877" lon="118.53522890024705">
        <ele>30.505914820480115</ele>
        <time>2023-11-11T14:51:08Z</time>
      </trkpt>
      <trkpt lat="24.909773160117563" lon="118.53492505777491">
        <ele>29.628543131235453</ele>
        <time>2023-11-11T14:51:17Z</time>
      </trkpt>
      <trkpt lat="24.909845080683933" lon="118.53489597227102">
        <ele>28.628950485275734</ele>
        <time>2023-11-11T14:51:20Z</time>
      </trkpt>
      <trkpt lat="24.910099365989936" lon="118.53503032620796">
        <ele>28.678184765560474</ele>
        <time>2023-11-11T14:51:29Z</time>
      </trkpt>
      <trkpt lat="24.910393578349307" lon="118.53513659926509">
        <ele>32.25811232118789</ele>
        <time>2023-11-11T14:51:38Z</time>
      </trkpt>
      <trkpt lat="24.91062977696309" lon="118.53523385110618">
        <ele>32.33325110226071</ele>
        <time>2023-11-11T14:51:47Z</time>
      </trkpt>
      <trkpt lat="24.910793987679426" lon="118.53533211040708">
        <ele>32.9247953377676</ele>
        <time>2023-11-11T14:51:53Z</time>
      </trkpt>
      <trkpt lat="24.911088191905446" lon="118.53543537410236">
        <ele>33.660079470627686</ele>
        <time>2023-11-11T14:52:02Z</time>
      </trkpt>
      <trkpt lat="24.911354413942718" lon="118.5355446559087">
        <ele>32.226226058906406</ele>
        <time>2023-11-11T14:52:11Z</time>
      </trkpt>
      <trkpt lat="24.9116877874798" lon="118.53572211954894">
        <ele>32.030274697128576</ele>
        <time>2023-11-11T14:52:23Z</time>
      </trkpt>
      <trkpt lat="24.911863004648616" lon="118.5358243874188">
        <ele>32.507545985531</ele>
        <time>2023-11-11T14:52:29Z</time>
      </trkpt>
      <trkpt lat="24.9121511537543" lon="118.53590458675166">
        <ele>34.47298798307863</ele>
        <time>2023-11-11T14:52:38Z</time>
      </trkpt>
      <trkpt lat="24.91241035155499" lon="118.5360038399099">
        <ele>31.57135336918455</ele>
        <time>2023-11-11T14:52:47Z</time>
      </trkpt>
      <trkpt lat="24.912487463552694" lon="118.53605597686182">
        <ele>30.107169079743084</ele>
        <time>2023-11-11T14:52:50Z</time>
      </trkpt>
      <trkpt lat="24.912492583141667" lon="118.53610711600493">
        <ele>31.482183006563798</ele>
        <time>2023-11-11T14:52:53Z</time>
      </trkpt>
      <trkpt lat="24.91232830502217" lon="118.5364049380374">
        <ele>29.820861720395968</ele>
        <time>2023-11-11T14:53:02Z</time>
      </trkpt>
      <trkpt lat="24.912305559345544" lon="118.5365122308934">
        <ele>28.925143023189683</ele>
        <time>2023-11-11T14:53:05Z</time>
      </trkpt>
      <trkpt lat="24.912268756705657" lon="118.5365944564034">
        <ele>29.85071563431693</ele>
        <time>2023-11-11T14:53:08Z</time>
      </trkpt>
      <trkpt lat="24.91211336080012" lon="118.53684414277473">
        <ele>30.703008512690353</ele>
        <time>2023-11-11T14:53:17Z</time>
      </trkpt>
      <trkpt lat="24.911974002605394" lon="118.53711187442688">
        <ele>31.251391334010894</ele>
        <time>2023-11-11T14:53:26Z</time>
      </trkpt>
      <trkpt lat="24.911865663346152" lon="118.53739063096873">
        <ele>31.393638852694142</ele>
        <time>2023-11-11T14:53:35Z</time>
      </trkpt>
      <trkpt lat="24.911746313936963" lon="118.53766537480136">
        <ele>31.332537646170003</ele>
        <time>2023-11-11T14:53:44Z</time>
      </trkpt>
      <trkpt lat="24.91163097078384" lon="118.5379441263392">
        <ele>30.203280079407133</ele>
        <time>2023-11-11T14:53:54Z</time>
      </trkpt>
      <trkpt lat="24.911507610233254" lon="118.53821585703213">
        <ele>31.67118635627995</ele>
        <time>2023-11-11T14:54:03Z</time>
      </trkpt>
      <trkpt lat="24.91141506256362" lon="118.53840837346746">
        <ele>32.4382878420281</ele>
        <time>2023-11-11T14:54:09Z</time>
      </trkpt>
      <trkpt lat="24.911355474920853" lon="118.53858584657647">
        <ele>32.1860188571391</ele>
        <time>2023-11-11T14:54:15Z</time>
      </trkpt>
      <trkpt lat="24.911248851869647" lon="118.53874527429757">
        <ele>34.228166502164</ele>
        <time>2023-11-11T14:54:21Z</time>
      </trkpt>
      <trkpt lat="24.910967731672685" lon="118.53867510896144">
        <ele>31.497562870950226</ele>
        <time>2023-11-11T14:54:30Z</time>
      </trkpt>
      <trkpt lat="24.910683563855095" lon="118.53858388809479">
        <ele>30.865069841543082</ele>
        <time>2023-11-11T14:54:39Z</time>
      </trkpt>
      <trkpt lat="24.91040941490983" lon="118.53850169007426">
        <ele>30.235610216448855</ele>
        <time>2023-11-11T14:54:48Z</time>
      </trkpt>
      <trkpt lat="24.91009931871794" lon="118.53844055000378">
        <ele>28.316955658062955</ele>
        <time>2023-11-11T14:54:57Z</time>
      </trkpt>
      <trkpt lat="24.909813230487764" lon="118.53838442139407">
        <ele>28.116127575158362</ele>
        <time>2023-11-11T14:55:06Z</time>
      </trkpt>
      <trkpt lat="24.909676203791875" lon="118.53836437786268">
        <ele>27.363221707414233</ele>
        <time>2023-11-11T14:55:12Z</time>
      </trkpt>
      <trkpt lat="24.909549239726843" lon="118.53837240794105">
        <ele>28.34556023117148</ele>
        <time>2023-11-11T14:55:15Z</time>
      </trkpt>
      <trkpt lat="24.909306122493458" lon="118.53830624963814">
        <ele>28.725489468491162</ele>
        <time>2023-11-11T14:55:24Z</time>
      </trkpt>
      <trkpt lat="24.909324828935848" lon="118.53817891068512">
        <ele>28.129497427612034</ele>
        <time>2023-11-11T14:55:27Z</time>
      </trkpt>
      <trkpt lat="24.909324828935848" lon="118.53817891068512">
        <ele>28.129497427612034</ele>
        <time>2023-11-11T14:55:29Z</time>
      </trkpt>
    </trkseg>
  </trk>
</gpx>