<?xml version="1.0" encoding="UTF-8"?>
<gpx xmlns="http://www.topografix.com/GPX/1/1" xmlns:gpxtpx="http://www.garmin.com/xmlschemas/TrackPointExtension/v1" xmlns:xsi="http://www.w3.org/2001/XMLSchema-instance" xsi:schemaLocation="http://www.topografix.com/GPX/1/1 http://www.topografix.com/GPX/1/1/gpx.xsd" version="1.1" creator="gpx.py -- https://github.com/tkrajina/gpxpy">
  <trk>
    <name>gpx from keep</name>
    <type>Run</type>
    <trkseg>
      <trkpt lat="24.91110359085147" lon="118.53731347690307">
        <ele>40.62038114574467</ele>
        <time>2023-11-15T14:03:45Z</time>
      </trkpt>
      <trkpt lat="24.91123473959612" lon="118.5373856614937">
        <ele>39.04102468543705</ele>
        <time>2023-11-15T14:03:48Z</time>
      </trkpt>
      <trkpt lat="24.911286908431283" lon="118.53746186215112">
        <ele>39.857176106555684</ele>
        <time>2023-11-15T14:03:51Z</time>
      </trkpt>
      <trkpt lat="24.91127717358741" lon="118.53757616888237">
        <ele>38.537991545285564</ele>
        <time>2023-11-15T14:03:57Z</time>
      </trkpt>
      <trkpt lat="24.911204553246115" lon="118.53773660270576">
        <ele>36.84555446385472</ele>
        <time>2023-11-15T14:04:00Z</time>
      </trkpt>
      <trkpt lat="24.911131791624292" lon="118.53783587261272">
        <ele>35.623408470431336</ele>
        <time>2023-11-15T14:04:03Z</time>
      </trkpt>
      <trkpt lat="24.910999396528762" lon="118.53809156236728">
        <ele>34.46189476216323</ele>
        <time>2023-11-15T14:04:09Z</time>
      </trkpt>
      <trkpt lat="24.910910642887377" lon="118.53819384010546">
        <ele>32.734483361520454</ele>
        <time>2023-11-15T14:04:12Z</time>
      </trkpt>
      <trkpt lat="24.910862922115818" lon="118.53831315976726">
        <ele>32.104865179753865</ele>
        <time>2023-11-15T14:04:15Z</time>
      </trkpt>
      <trkpt lat="24.910837218388412" lon="118.53844150124594">
        <ele>30.97320220129593</ele>
        <time>2023-11-15T14:04:18Z</time>
      </trkpt>
      <trkpt lat="24.910795447938227" lon="118.53853976382695">
        <ele>30.436596173388498</ele>
        <time>2023-11-15T14:04:21Z</time>
      </trkpt>
      <trkpt lat="24.910703504070206" lon="118.53855882053637">
        <ele>31.77926473183291</ele>
        <time>2023-11-15T14:04:24Z</time>
      </trkpt>
      <trkpt lat="24.91060247478041" lon="118.53853977727107">
        <ele>32.43359484638756</ele>
        <time>2023-11-15T14:04:27Z</time>
      </trkpt>
      <trkpt lat="24.91052740763197" lon="118.53850569245077">
        <ele>32.94374308495316</ele>
        <time>2023-11-15T14:04:30Z</time>
      </trkpt>
      <trkpt lat="24.910218299893106" lon="118.53843953906295">
        <ele>32.53981429423853</ele>
        <time>2023-11-15T14:04:39Z</time>
      </trkpt>
      <trkpt lat="24.909877136985543" lon="118.53834731873599">
        <ele>33.339351109656306</ele>
        <time>2023-11-15T14:04:51Z</time>
      </trkpt>
      <trkpt lat="24.909568186776088" lon="118.53835034822497">
        <ele>33.09707415364773</ele>
        <time>2023-11-15T14:05:00Z</time>
      </trkpt>
      <trkpt lat="24.909469218823705" lon="118.53835837635695">
        <ele>33.63594787047759</ele>
        <time>2023-11-15T14:05:03Z</time>
      </trkpt>
      <trkpt lat="24.909364164781948" lon="118.53832830402546">
        <ele>33.854820505449204</ele>
        <time>2023-11-15T14:05:06Z</time>
      </trkpt>
      <trkpt lat="24.90930005923149" lon="118.53827817566834">
        <ele>34.31447377075767</ele>
        <time>2023-11-15T14:05:09Z</time>
      </trkpt>
      <trkpt lat="24.909346633177364" lon="118.53809468551772">
        <ele>33.28121221045218</ele>
        <time>2023-11-15T14:05:15Z</time>
      </trkpt>
      <trkpt lat="24.90942914811237" lon="118.53788813021886">
        <ele>33.49836720849767</ele>
        <time>2023-11-15T14:05:21Z</time>
      </trkpt>
      <trkpt lat="24.90947862933401" lon="118.53766553282733">
        <ele>34.122687662515034</ele>
        <time>2023-11-15T14:05:27Z</time>
      </trkpt>
      <trkpt lat="24.909485401918253" lon="118.53756726960127">
        <ele>34.596940553889816</ele>
        <time>2023-11-15T14:05:30Z</time>
      </trkpt>
      <trkpt lat="24.909576673157144" lon="118.5372574325125">
        <ele>35.37604572142508</ele>
        <time>2023-11-15T14:05:39Z</time>
      </trkpt>
      <trkpt lat="24.9096031880823" lon="118.53704987225487">
        <ele>35.22695663485444</ele>
        <time>2023-11-15T14:05:45Z</time>
      </trkpt>
      <trkpt lat="24.909569008756023" lon="118.53697066112329">
        <ele>37.169003005302606</ele>
        <time>2023-11-15T14:05:48Z</time>
      </trkpt>
      <trkpt lat="24.909504866065863" lon="118.53690548975239">
        <ele>37.59071454077665</ele>
        <time>2023-11-15T14:05:51Z</time>
      </trkpt>
      <trkpt lat="24.909508552605576" lon="118.53677112652008">
        <ele>38.09204042449931</ele>
        <time>2023-11-15T14:05:54Z</time>
      </trkpt>
      <trkpt lat="24.90955682446108" lon="118.536462286455">
        <ele>37.37887641899563</ele>
        <time>2023-11-15T14:06:03Z</time>
      </trkpt>
      <trkpt lat="24.9095633205629" lon="118.53624770269823">
        <ele>37.772495300571485</ele>
        <time>2023-11-15T14:06:09Z</time>
      </trkpt>
      <trkpt lat="24.909617536972313" lon="118.53591779903881">
        <ele>37.39587864509026</ele>
        <time>2023-11-15T14:06:18Z</time>
      </trkpt>
      <trkpt lat="24.909674768626243" lon="118.53559591342866">
        <ele>37.34243083076861</ele>
        <time>2023-11-15T14:06:27Z</time>
      </trkpt>
      <trkpt lat="24.90971230946902" lon="118.53540438454525">
        <ele>36.20076783667372</ele>
        <time>2023-11-15T14:06:33Z</time>
      </trkpt>
      <trkpt lat="24.90973052958618" lon="118.53507748214739">
        <ele>35.07167424624719</ele>
        <time>2023-11-15T14:06:42Z</time>
      </trkpt>
      <trkpt lat="24.90976006615143" lon="118.53488494766269">
        <ele>34.55052125327402</ele>
        <time>2023-11-15T14:06:48Z</time>
      </trkpt>
      <trkpt lat="24.909830042055916" lon="118.5348789261239">
        <ele>32.94102652157525</ele>
        <time>2023-11-15T14:06:51Z</time>
      </trkpt>
      <trkpt lat="24.910095330684413" lon="118.53501528491478">
        <ele>30.530649154350343</ele>
        <time>2023-11-15T14:07:00Z</time>
      </trkpt>
      <trkpt lat="24.910402617678333" lon="118.53515364568185">
        <ele>30.401085347685303</ele>
        <time>2023-11-15T14:07:12Z</time>
      </trkpt>
      <trkpt lat="24.910722933245005" lon="118.53530504079991">
        <ele>29.325026177721362</ele>
        <time>2023-11-15T14:07:24Z</time>
      </trkpt>
      <trkpt lat="24.910821031546288" lon="118.53535216373632">
        <ele>28.852583227671918</ele>
        <time>2023-11-15T14:07:27Z</time>
      </trkpt>
      <trkpt lat="24.911114188287875" lon="118.53543537228953">
        <ele>28.50818989563203</ele>
        <time>2023-11-15T14:07:36Z</time>
      </trkpt>
      <trkpt lat="24.911385407253224" lon="118.53554365099363">
        <ele>30.190252790752236</ele>
        <time>2023-11-15T14:07:45Z</time>
      </trkpt>
      <trkpt lat="24.911524601531955" lon="118.535633888995">
        <ele>29.13576336296333</ele>
        <time>2023-11-15T14:07:51Z</time>
      </trkpt>
      <trkpt lat="24.91169675067994" lon="118.53570707770427">
        <ele>30.655963456350154</ele>
        <time>2023-11-15T14:07:57Z</time>
      </trkpt>
      <trkpt lat="24.911787870682648" lon="118.53576322519767">
        <ele>32.85778179637166</ele>
        <time>2023-11-15T14:08:00Z</time>
      </trkpt>
      <trkpt lat="24.91204006280506" lon="118.53585947109853">
        <ele>32.178938602659436</ele>
        <time>2023-11-15T14:08:09Z</time>
      </trkpt>
      <trkpt lat="24.912253139545484" lon="118.53590457964052">
        <ele>31.973122212528633</ele>
        <time>2023-11-15T14:08:15Z</time>
      </trkpt>
      <trkpt lat="24.912431329740535" lon="118.53599581654217">
        <ele>29.685352918747576</ele>
        <time>2023-11-15T14:08:21Z</time>
      </trkpt>
      <trkpt lat="24.912489458555285" lon="118.53605397125027">
        <ele>28.9331170005729</ele>
        <time>2023-11-15T14:08:24Z</time>
      </trkpt>
      <trkpt lat="24.912461634610256" lon="118.5361271728439">
        <ele>27.80115752547285</ele>
        <time>2023-11-15T14:08:27Z</time>
      </trkpt>
      <trkpt lat="24.912269468179744" lon="118.5364711218487">
        <ele>28.386686227998748</ele>
        <time>2023-11-15T14:08:39Z</time>
      </trkpt>
      <trkpt lat="24.912211675601426" lon="118.5365563570964">
        <ele>28.27614904277377</ele>
        <time>2023-11-15T14:08:42Z</time>
      </trkpt>
      <trkpt lat="24.9120733780458" lon="118.53684915910442">
        <ele>28.835611273620582</ele>
        <time>2023-11-15T14:08:51Z</time>
      </trkpt>
      <trkpt lat="24.91194807833405" lon="118.53714295989057">
        <ele>28.49334645884238</ele>
        <time>2023-11-15T14:09:00Z</time>
      </trkpt>
      <trkpt lat="24.91180490577427" lon="118.53749190663615">
        <ele>28.4006671636184</ele>
        <time>2023-11-15T14:09:12Z</time>
      </trkpt>
      <trkpt lat="24.911683548846554" lon="118.53776364158952">
        <ele>28.209114722506758</ele>
        <time>2023-11-15T14:09:21Z</time>
      </trkpt>
      <trkpt lat="24.911553236771116" lon="118.5380554278434">
        <ele>26.781943629951144</ele>
        <time>2023-11-15T14:09:30Z</time>
      </trkpt>
      <trkpt lat="24.911408859872758" lon="118.53831913766575">
        <ele>28.947283592316086</ele>
        <time>2023-11-15T14:09:39Z</time>
      </trkpt>
      <trkpt lat="24.91129749439085" lon="118.53859086384672">
        <ele>29.65863516194058</ele>
        <time>2023-11-15T14:09:48Z</time>
      </trkpt>
      <trkpt lat="24.911267728630616" lon="118.53869213298745">
        <ele>29.928730507723124</ele>
        <time>2023-11-15T14:09:51Z</time>
      </trkpt>
      <trkpt lat="24.911195822848615" lon="118.53872923574005">
        <ele>31.268472033323146</ele>
        <time>2023-11-15T14:09:54Z</time>
      </trkpt>
      <trkpt lat="24.910937715353832" lon="118.53866608726409">
        <ele>29.43146549539639</ele>
        <time>2023-11-15T14:10:03Z</time>
      </trkpt>
      <trkpt lat="24.91066852490086" lon="118.53856584150297">
        <ele>28.744583490532808</ele>
        <time>2023-11-15T14:10:12Z</time>
      </trkpt>
      <trkpt lat="24.91031833395669" lon="118.53846058776814">
        <ele>27.498418499817788</ele>
        <time>2023-11-15T14:10:24Z</time>
      </trkpt>
      <trkpt lat="24.9100362086442" lon="118.53838841647314">
        <ele>27.4786512340969</ele>
        <time>2023-11-15T14:10:33Z</time>
      </trkpt>
      <trkpt lat="24.90986216422862" lon="118.53835834898064">
        <ele>26.01089096298347</ele>
        <time>2023-11-15T14:10:39Z</time>
      </trkpt>
      <trkpt lat="24.90955618386836" lon="118.5383483437516">
        <ele>25.45369786228629</ele>
        <time>2023-11-15T14:10:48Z</time>
      </trkpt>
      <trkpt lat="24.90938414598802" lon="118.53832128404356">
        <ele>26.137002600291837</ele>
        <time>2023-11-15T14:10:54Z</time>
      </trkpt>
      <trkpt lat="24.90930009128221" lon="118.53829221286578">
        <ele>27.058879498764494</ele>
        <time>2023-11-15T14:10:57Z</time>
      </trkpt>
      <trkpt lat="24.909290950545245" lon="118.53823004870732">
        <ele>26.685363638637376</ele>
        <time>2023-11-15T14:11:00Z</time>
      </trkpt>
    </trkseg>
  </trk>
</gpx>