<?xml version="1.0" encoding="UTF-8"?>
<gpx xmlns="http://www.topografix.com/GPX/1/1" xmlns:gpxtpx="http://www.garmin.com/xmlschemas/TrackPointExtension/v1" xmlns:xsi="http://www.w3.org/2001/XMLSchema-instance" xsi:schemaLocation="http://www.topografix.com/GPX/1/1 http://www.topografix.com/GPX/1/1/gpx.xsd" version="1.1" creator="gpx.py -- https://github.com/tkrajina/gpxpy">
  <trk>
    <name>gpx from keep</name>
    <type>Ride</type>
    <trkseg>
      <trkpt lat="24.904093684255002" lon="118.60863817765355">
        <ele>57.5533447265625</ele>
        <time>2026-01-08T14:09:30Z</time>
      </trkpt>
      <trkpt lat="24.90414771337136" lon="118.60858120957812">
        <ele>49.1021728515625</ele>
        <time>2026-01-08T14:09:39Z</time>
      </trkpt>
      <trkpt lat="24.90437401608686" lon="118.60805151863784">
        <ele>38.2435302734375</ele>
        <time>2026-01-08T14:09:49Z</time>
      </trkpt>
      <trkpt lat="24.904453139304117" lon="118.60783364311682">
        <ele>34.8701171875</ele>
        <time>2026-01-08T14:09:53Z</time>
      </trkpt>
      <trkpt lat="24.904479309421255" lon="118.60754680916783">
        <ele>30.7110595703125</ele>
        <time>2026-01-08T14:09:59Z</time>
      </trkpt>
      <trkpt lat="24.90457646586852" lon="118.6072609660789">
        <ele>25.357666015625</ele>
        <time>2026-01-08T14:10:05Z</time>
      </trkpt>
      <trkpt lat="24.904623496351526" lon="118.6071979983813">
        <ele>22.9334716796875</ele>
        <time>2026-01-08T14:10:07Z</time>
      </trkpt>
      <trkpt lat="24.904655550878864" lon="118.60709705279348">
        <ele>21.07061767578125</ele>
        <time>2026-01-08T14:10:09Z</time>
      </trkpt>
      <trkpt lat="24.904665613234904" lon="118.60698711325274">
        <ele>22.05828857421875</ele>
        <time>2026-01-08T14:10:11Z</time>
      </trkpt>
      <trkpt lat="24.904780748342155" lon="118.60672324985525">
        <ele>22.2178955078125</ele>
        <time>2026-01-08T14:10:17Z</time>
      </trkpt>
      <trkpt lat="24.90486496019344" lon="118.60632345710323">
        <ele>21.471923828125</ele>
        <time>2026-01-08T14:10:27Z</time>
      </trkpt>
      <trkpt lat="24.904861006855665" lon="118.60623950120599">
        <ele>20.39031982421875</ele>
        <time>2026-01-08T14:10:29Z</time>
      </trkpt>
      <trkpt lat="24.9048390513691" lon="118.60616354210462">
        <ele>21.90777587890625</ele>
        <time>2026-01-08T14:10:31Z</time>
      </trkpt>
      <trkpt lat="24.904932254543628" lon="118.60576074012869">
        <ele>19.0238037109375</ele>
        <time>2026-01-08T14:10:39Z</time>
      </trkpt>
      <trkpt lat="24.90493930668874" lon="118.6056597897332">
        <ele>19.2274169921875</ele>
        <time>2026-01-08T14:10:41Z</time>
      </trkpt>
      <trkpt lat="24.90499844310507" lon="118.6053809216154">
        <ele>19.06494140625</ele>
        <time>2026-01-08T14:10:48Z</time>
      </trkpt>
      <trkpt lat="24.90509652771984" lon="118.60518800682573">
        <ele>16.458251953125</ele>
        <time>2026-01-08T14:10:52Z</time>
      </trkpt>
      <trkpt lat="24.905167683218032" lon="118.60485615618083">
        <ele>17.4515380859375</ele>
        <time>2026-01-08T14:10:58Z</time>
      </trkpt>
      <trkpt lat="24.905211734809658" lon="118.60473820675743">
        <ele>19.9290771484375</ele>
        <time>2026-01-08T14:11:00Z</time>
      </trkpt>
      <trkpt lat="24.90524792016837" lon="118.60434038041909">
        <ele>21.67401123046875</ele>
        <time>2026-01-08T14:11:07Z</time>
      </trkpt>
      <trkpt lat="24.905372144620678" lon="118.60381459350923">
        <ele>26.22650146484375</ele>
        <time>2026-01-08T14:11:17Z</time>
      </trkpt>
      <trkpt lat="24.905403175192852" lon="118.6037366231537">
        <ele>23.78436279296875</ele>
        <time>2026-01-08T14:11:19Z</time>
      </trkpt>
      <trkpt lat="24.905430344569083" lon="118.6033407783383">
        <ele>25.13323974609375</ele>
        <time>2026-01-08T14:11:30Z</time>
      </trkpt>
      <trkpt lat="24.905454389037132" lon="118.6032288197847">
        <ele>24.1339111328125</ele>
        <time>2026-01-08T14:11:33Z</time>
      </trkpt>
      <trkpt lat="24.9055274123369" lon="118.60314984479626">
        <ele>22.8975830078125</ele>
        <time>2026-01-08T14:11:34Z</time>
      </trkpt>
      <trkpt lat="24.905581450521677" lon="118.60304088205973">
        <ele>23.10009765625</ele>
        <time>2026-01-08T14:11:36Z</time>
      </trkpt>
      <trkpt lat="24.905613494140702" lon="118.6029249228714">
        <ele>22.37603759765625</ele>
        <time>2026-01-08T14:11:38Z</time>
      </trkpt>
      <trkpt lat="24.90571756087871" lon="118.60272598803854">
        <ele>21.87359619140625</ele>
        <time>2026-01-08T14:11:42Z</time>
      </trkpt>
      <trkpt lat="24.905719614302484" lon="118.60259203558434">
        <ele>23.149169921875</ele>
        <time>2026-01-08T14:11:44Z</time>
      </trkpt>
      <trkpt lat="24.90574065531605" lon="118.60248107300085">
        <ele>22.6126708984375</ele>
        <time>2026-01-08T14:11:46Z</time>
      </trkpt>
      <trkpt lat="24.905872789561254" lon="118.60208519786964">
        <ele>18.90667724609375</ele>
        <time>2026-01-08T14:11:54Z</time>
      </trkpt>
      <trkpt lat="24.905890833110533" lon="118.60196223675534">
        <ele>19.9456787109375</ele>
        <time>2026-01-08T14:11:56Z</time>
      </trkpt>
      <trkpt lat="24.9059328594828" lon="118.60187526181116">
        <ele>20.91998291015625</ele>
        <time>2026-01-08T14:11:58Z</time>
      </trkpt>
      <trkpt lat="24.906003868377628" lon="118.60182427313039">
        <ele>22.78936767578125</ele>
        <time>2026-01-08T14:12:00Z</time>
      </trkpt>
      <trkpt lat="24.905998898576765" lon="118.60174329899412">
        <ele>17.02874755859375</ele>
        <time>2026-01-08T14:13:22Z</time>
      </trkpt>
      <trkpt lat="24.906012929462452" lon="118.60165232632946">
        <ele>17.23553466796875</ele>
        <time>2026-01-08T14:13:25Z</time>
      </trkpt>
      <trkpt lat="24.906053960876577" lon="118.601548355368">
        <ele>17.14752197265625</ele>
        <time>2026-01-08T14:13:28Z</time>
      </trkpt>
      <trkpt lat="24.906059989320358" lon="118.60146538002552">
        <ele>17.464111328125</ele>
        <time>2026-01-08T14:13:30Z</time>
      </trkpt>
      <trkpt lat="24.905985027294204" lon="118.60138640877076">
        <ele>17.118896484375</ele>
        <time>2026-01-08T14:13:32Z</time>
      </trkpt>
      <trkpt lat="24.905946099006588" lon="118.60119346780077">
        <ele>17.03192138671875</ele>
        <time>2026-01-08T14:13:36Z</time>
      </trkpt>
      <trkpt lat="24.906033255313496" lon="118.60068160275713">
        <ele>16.56378173828125</ele>
        <time>2026-01-08T14:13:46Z</time>
      </trkpt>
      <trkpt lat="24.90615439379498" lon="118.6001767213329">
        <ele>16.88934326171875</ele>
        <time>2026-01-08T14:13:56Z</time>
      </trkpt>
      <trkpt lat="24.906243469440362" lon="118.59987378555775">
        <ele>18.4359130859375</ele>
        <time>2026-01-08T14:14:02Z</time>
      </trkpt>
      <trkpt lat="24.906278520802747" lon="118.59967282742275">
        <ele>17.77783203125</ele>
        <time>2026-01-08T14:14:06Z</time>
      </trkpt>
      <trkpt lat="24.90639663455867" lon="118.59918191937649">
        <ele>22.21759033203125</ele>
        <time>2026-01-08T14:14:20Z</time>
      </trkpt>
      <trkpt lat="24.906472741296106" lon="118.59870200089333">
        <ele>16.3370361328125</ele>
        <time>2026-01-08T14:14:33Z</time>
      </trkpt>
      <trkpt lat="24.906563854535914" lon="118.59813508292203">
        <ele>15.69097900390625</ele>
        <time>2026-01-08T14:14:45Z</time>
      </trkpt>
      <trkpt lat="24.90670294419562" lon="118.59758514426633">
        <ele>18.53875732421875</ele>
        <time>2026-01-08T14:14:59Z</time>
      </trkpt>
      <trkpt lat="24.906792022061175" lon="118.59707019136502">
        <ele>21.0010986328125</ele>
        <time>2026-01-08T14:15:13Z</time>
      </trkpt>
      <trkpt lat="24.906849045022643" lon="118.59687720408941">
        <ele>18.8734130859375</ele>
        <time>2026-01-08T14:15:18Z</time>
      </trkpt>
      <trkpt lat="24.90684406031341" lon="118.59678221197589">
        <ele>18.8682861328125</ele>
        <time>2026-01-08T14:15:21Z</time>
      </trkpt>
      <trkpt lat="24.906921083517695" lon="118.59655122317461">
        <ele>18.204833984375</ele>
        <time>2026-01-08T14:15:25Z</time>
      </trkpt>
      <trkpt lat="24.906929096905486" lon="118.59644722921621">
        <ele>19.3409423828125</ele>
        <time>2026-01-08T14:15:27Z</time>
      </trkpt>
      <trkpt lat="24.906905110393602" lon="118.59637223530468">
        <ele>28.0775146484375</ele>
        <time>2026-01-08T14:15:31Z</time>
      </trkpt>
      <trkpt lat="24.906910137984717" lon="118.59615324633786">
        <ele>20.82037353515625</ele>
        <time>2026-01-08T14:15:39Z</time>
      </trkpt>
      <trkpt lat="24.907051175643858" lon="118.59564925394957">
        <ele>21.18841552734375</ele>
        <time>2026-01-08T14:15:48Z</time>
      </trkpt>
      <trkpt lat="24.907064182005836" lon="118.59556825468972">
        <ele>24.917236328125</ele>
        <time>2026-01-08T14:15:49Z</time>
      </trkpt>
      <trkpt lat="24.90712517941689" lon="118.5955082514839">
        <ele>21.174072265625</ele>
        <time>2026-01-08T14:15:50Z</time>
      </trkpt>
      <trkpt lat="24.907269182888925" lon="118.595250243875">
        <ele>17.998779296875</ele>
        <time>2026-01-08T14:15:56Z</time>
      </trkpt>
      <trkpt lat="24.90734017550118" lon="118.59522123903088">
        <ele>16.98822021484375</ele>
        <time>2026-01-08T14:15:57Z</time>
      </trkpt>
      <trkpt lat="24.90738317587447" lon="118.5951442360218">
        <ele>17.73492431640625</ele>
        <time>2026-01-08T14:15:59Z</time>
      </trkpt>
      <trkpt lat="24.90737218478024" lon="118.5950502363427">
        <ele>16.932373046875</ele>
        <time>2026-01-08T14:16:03Z</time>
      </trkpt>
      <trkpt lat="24.907341196578436" lon="118.59494923753243">
        <ele>17.0264892578125</ele>
        <time>2026-01-08T14:16:07Z</time>
      </trkpt>
      <trkpt lat="24.907357206563145" lon="118.59477023351846">
        <ele>15.86920166015625</ele>
        <time>2026-01-08T14:17:06Z</time>
      </trkpt>
      <trkpt lat="24.907325215817153" lon="118.59469323399664">
        <ele>14.46826171875</ele>
        <time>2026-01-08T14:17:10Z</time>
      </trkpt>
      <trkpt lat="24.907326230628694" lon="118.59442122549032">
        <ele>9.627532958984375</ele>
        <time>2026-01-08T14:17:24Z</time>
      </trkpt>
      <trkpt lat="24.90743822689559" lon="118.59414720559761">
        <ele>12.345458984375</ele>
        <time>2026-01-08T14:17:28Z</time>
      </trkpt>
      <trkpt lat="24.907558223056302" lon="118.59366316685312">
        <ele>20.42950439453125</ele>
        <time>2026-01-08T14:17:36Z</time>
      </trkpt>
      <trkpt lat="24.90758022243286" lon="118.59344214760686">
        <ele>23.7884521484375</ele>
        <time>2026-01-08T14:17:40Z</time>
      </trkpt>
      <trkpt lat="24.907684207803303" lon="118.59313211151543">
        <ele>25.48114013671875</ele>
        <time>2026-01-08T14:17:46Z</time>
      </trkpt>
      <trkpt lat="24.90776818780327" lon="118.5926630529942">
        <ele>28.04278564453125</ele>
        <time>2026-01-08T14:17:54Z</time>
      </trkpt>
      <trkpt lat="24.90787716134376" lon="118.59234100299678">
        <ele>29.43963623046875</ele>
        <time>2026-01-08T14:18:00Z</time>
      </trkpt>
      <trkpt lat="24.907919142318438" lon="118.59206796008361">
        <ele>30.17095947265625</ele>
        <time>2026-01-08T14:18:06Z</time>
      </trkpt>
      <trkpt lat="24.907996118285403" lon="118.5918429190212">
        <ele>30.39996337890625</ele>
        <time>2026-01-08T14:18:11Z</time>
      </trkpt>
      <trkpt lat="24.908011085786146" lon="118.5914288456774">
        <ele>37.16845703125</ele>
        <time>2026-01-08T14:18:19Z</time>
      </trkpt>
      <trkpt lat="24.908027075690427" lon="118.59133582716254">
        <ele>39.72900390625</ele>
        <time>2026-01-08T14:18:21Z</time>
      </trkpt>
      <trkpt lat="24.908156050985045" lon="118.59125880351307">
        <ele>37.73797607421875</ele>
        <time>2026-01-08T14:18:53Z</time>
      </trkpt>
      <trkpt lat="24.908255998147705" lon="118.59086471659192">
        <ele>35.67657470703125</ele>
        <time>2026-01-08T14:19:10Z</time>
      </trkpt>
      <trkpt lat="24.908251976406017" lon="118.59066567352922">
        <ele>35.20904541015625</ele>
        <time>2026-01-08T14:20:06Z</time>
      </trkpt>
      <trkpt lat="24.908336926246143" lon="118.59035459598971">
        <ele>35.33172607421875</ele>
        <time>2026-01-08T14:20:12Z</time>
      </trkpt>
      <trkpt lat="24.90841090794867" lon="118.59029357625725">
        <ele>31.26702880859375</ele>
        <time>2026-01-08T14:20:14Z</time>
      </trkpt>
      <trkpt lat="24.908485866065085" lon="118.59006551479088">
        <ele>27.7066650390625</ele>
        <time>2026-01-08T14:20:19Z</time>
      </trkpt>
      <trkpt lat="24.908544817457354" lon="118.58979444045144">
        <ele>31.93939208984375</ele>
        <time>2026-01-08T14:20:24Z</time>
      </trkpt>
      <trkpt lat="24.908549800863096" lon="118.58969341298419">
        <ele>33.5196533203125</ele>
        <time>2026-01-08T14:20:26Z</time>
      </trkpt>
      <trkpt lat="24.908573783308093" lon="118.58960538728128">
        <ele>33.0213623046875</ele>
        <time>2026-01-08T14:20:28Z</time>
      </trkpt>
      <trkpt lat="24.908668740124654" lon="118.58942633061864">
        <ele>28.0914306640625</ele>
        <time>2026-01-08T14:20:34Z</time>
      </trkpt>
      <trkpt lat="24.90880562430062" lon="118.58889816406858">
        <ele>29.99700927734375</ele>
        <time>2026-01-08T14:20:45Z</time>
      </trkpt>
      <trkpt lat="24.908889569245602" lon="118.58868108967252">
        <ele>30.6728515625</ele>
        <time>2026-01-08T14:20:49Z</time>
      </trkpt>
      <trkpt lat="24.909175425846794" lon="118.58819990948635">
        <ele>22.8167724609375</ele>
        <time>2026-01-08T14:21:00Z</time>
      </trkpt>
      <trkpt lat="24.909220400888973" lon="118.58811787787414">
        <ele>25.9383544921875</ele>
        <time>2026-01-08T14:21:26Z</time>
      </trkpt>
      <trkpt lat="24.909232380914386" lon="118.58803884926643">
        <ele>20.69854736328125</ele>
        <time>2026-01-08T14:21:34Z</time>
      </trkpt>
      <trkpt lat="24.909314353542264" lon="118.58797081944074">
        <ele>17.9033203125</ele>
        <time>2026-01-08T14:21:37Z</time>
      </trkpt>
      <trkpt lat="24.909358322827664" lon="118.58786777936386">
        <ele>19.63848876953125</ele>
        <time>2026-01-08T14:21:39Z</time>
      </trkpt>
      <trkpt lat="24.909406237716247" lon="118.58755165910543">
        <ele>16.900146484375</ele>
        <time>2026-01-08T14:21:45Z</time>
      </trkpt>
      <trkpt lat="24.909477169007282" lon="118.58732556749712">
        <ele>15.24017333984375</ele>
        <time>2026-01-08T14:21:49Z</time>
      </trkpt>
      <trkpt lat="24.90955902503802" lon="118.58684536919121">
        <ele>15.005615234375</ele>
        <time>2026-01-08T14:21:57Z</time>
      </trkpt>
      <trkpt lat="24.90965591170006" lon="118.58650621947417">
        <ele>17.228759765625</ele>
        <time>2026-01-08T14:22:03Z</time>
      </trkpt>
      <trkpt lat="24.90971675138409" lon="118.58602100061897">
        <ele>16.60638427734375</ele>
        <time>2026-01-08T14:22:11Z</time>
      </trkpt>
      <trkpt lat="24.90971571528609" lon="118.58590994990247">
        <ele>16.6055908203125</ele>
        <time>2026-01-08T14:22:13Z</time>
      </trkpt>
      <trkpt lat="24.909769630254537" lon="118.58567783802549">
        <ele>16.374755859375</ele>
        <time>2026-01-08T14:22:17Z</time>
      </trkpt>
      <trkpt lat="24.909798458499356" lon="118.58519860417512">
        <ele>16.8270263671875</ele>
        <time>2026-01-08T14:22:25Z</time>
      </trkpt>
      <trkpt lat="24.90990737728377" lon="118.58501750603119">
        <ele>15.94244384765625</ele>
        <time>2026-01-08T14:22:31Z</time>
      </trkpt>
      <trkpt lat="24.909932329569784" lon="118.58489844383129">
        <ele>20.33489990234375</ele>
        <time>2026-01-08T14:22:33Z</time>
      </trkpt>
      <trkpt lat="24.90985228516091" lon="118.58475137367317">
        <ele>19.2783203125</ele>
        <time>2026-01-08T14:22:37Z</time>
      </trkpt>
      <trkpt lat="24.9098362141715" lon="118.58456127534191">
        <ele>16.97711181640625</ele>
        <time>2026-01-08T14:22:41Z</time>
      </trkpt>
      <trkpt lat="24.909918077811504" lon="118.58424610081465">
        <ele>15.33447265625</ele>
        <time>2026-01-08T14:22:47Z</time>
      </trkpt>
      <trkpt lat="24.9099989778658" lon="118.58402897598302">
        <ele>15.34625244140625</ele>
        <time>2026-01-08T14:22:51Z</time>
      </trkpt>
      <trkpt lat="24.91014576675277" lon="118.58357871100067">
        <ele>14.517578125</ele>
        <time>2026-01-08T14:22:59Z</time>
      </trkpt>
      <trkpt lat="24.91028157430007" lon="118.58318647130143">
        <ele>14.197998046875</ele>
        <time>2026-01-08T14:23:07Z</time>
      </trkpt>
      <trkpt lat="24.91033851734301" lon="118.58307840255047">
        <ele>17.85748291015625</ele>
        <time>2026-01-08T14:23:09Z</time>
      </trkpt>
      <trkpt lat="24.910375426522126" lon="118.58289228699336">
        <ele>18.23870849609375</ele>
        <time>2026-01-08T14:23:13Z</time>
      </trkpt>
      <trkpt lat="24.91032439862618" lon="118.5828172444591">
        <ele>18.2823486328125</ele>
        <time>2026-01-08T14:23:15Z</time>
      </trkpt>
      <trkpt lat="24.909914358220544" lon="118.5826111448233">
        <ele>16.4332275390625</ele>
        <time>2026-01-08T14:23:26Z</time>
      </trkpt>
      <trkpt lat="24.909501317750273" lon="118.58240804516386">
        <ele>20.7489013671875</ele>
        <time>2026-01-08T14:23:34Z</time>
      </trkpt>
      <trkpt lat="24.90918421925303" lon="118.58211888097262">
        <ele>20.9853515625</ele>
        <time>2026-01-08T14:23:43Z</time>
      </trkpt>
      <trkpt lat="24.9091251908477" lon="118.5820458373757">
        <ele>20.892822265625</ele>
        <time>2026-01-08T14:23:45Z</time>
      </trkpt>
      <trkpt lat="24.909139144971217" lon="118.58195877924014">
        <ele>20.07196044921875</ele>
        <time>2026-01-08T14:23:48Z</time>
      </trkpt>
      <trkpt lat="24.909445874381625" lon="118.58151746236427">
        <ele>19.8984375</ele>
        <time>2026-01-08T14:23:58Z</time>
      </trkpt>
      <trkpt lat="24.909502813021103" lon="118.58141638932955">
        <ele>20.19671630859375</ele>
        <time>2026-01-08T14:24:00Z</time>
      </trkpt>
      <trkpt lat="24.909837537094823" lon="118.58099207049332">
        <ele>18.5606689453125</ele>
        <time>2026-01-08T14:24:10Z</time>
      </trkpt>
      <trkpt lat="24.90997142980287" lon="118.58083194729403">
        <ele>17.83917236328125</ele>
        <time>2026-01-08T14:24:14Z</time>
      </trkpt>
      <trkpt lat="24.910000382688672" lon="118.58075488999604">
        <ele>19.47412109375</ele>
        <time>2026-01-08T14:24:15Z</time>
      </trkpt>
      <trkpt lat="24.910286126965342" lon="118.58037559370598">
        <ele>21.4864501953125</ele>
        <time>2026-01-08T14:24:23Z</time>
      </trkpt>
      <trkpt lat="24.91058386426383" lon="118.57999829084824">
        <ele>18.94219970703125</ele>
        <time>2026-01-08T14:24:31Z</time>
      </trkpt>
      <trkpt lat="24.91072072703544" lon="118.57980113102923">
        <ele>19.27081298828125</ele>
        <time>2026-01-08T14:24:35Z</time>
      </trkpt>
      <trkpt lat="24.910775655683352" lon="118.57969604629128">
        <ele>19.5738525390625</ele>
        <time>2026-01-08T14:24:37Z</time>
      </trkpt>
      <trkpt lat="24.91096345224835" lon="118.57940780844216">
        <ele>20.15655517578125</ele>
        <time>2026-01-08T14:24:43Z</time>
      </trkpt>
      <trkpt lat="24.910995394758285" lon="118.57932273906647">
        <ele>23.19744873046875</ele>
        <time>2026-01-08T14:24:44Z</time>
      </trkpt>
      <trkpt lat="24.911304088765547" lon="118.57890838536544">
        <ele>23.5321044921875</ele>
        <time>2026-01-08T14:24:54Z</time>
      </trkpt>
      <trkpt lat="24.911553793180655" lon="118.57850903959556">
        <ele>26.00665283203125</ele>
        <time>2026-01-08T14:25:02Z</time>
      </trkpt>
      <trkpt lat="24.9116067339816" lon="118.57843097077709">
        <ele>25.267333984375</ele>
        <time>2026-01-08T14:25:04Z</time>
      </trkpt>
      <trkpt lat="24.911778673324168" lon="118.5783759127603">
        <ele>20.1099853515625</ele>
        <time>2026-01-08T14:25:10Z</time>
      </trkpt>
      <trkpt lat="24.91191541541904" lon="118.57802260360386">
        <ele>21.16705322265625</ele>
        <time>2026-01-08T14:26:01Z</time>
      </trkpt>
      <trkpt lat="24.912175025642647" lon="118.57751414332125">
        <ele>19.8765869140625</ele>
        <time>2026-01-08T14:26:11Z</time>
      </trkpt>
      <trkpt lat="24.912366774532337" lon="118.57719985014387">
        <ele>23.31658935546875</ele>
        <time>2026-01-08T14:26:17Z</time>
      </trkpt>
      <trkpt lat="24.912524508987637" lon="118.57686553603322">
        <ele>24.06878662109375</ele>
        <time>2026-01-08T14:26:23Z</time>
      </trkpt>
      <trkpt lat="24.912576455981196" lon="118.57680347553914">
        <ele>23.1260986328125</ele>
        <time>2026-01-08T14:26:25Z</time>
      </trkpt>
      <trkpt lat="24.912848079995715" lon="118.5763520370114">
        <ele>24.1649169921875</ele>
        <time>2026-01-08T14:26:35Z</time>
      </trkpt>
      <trkpt lat="24.912947920118945" lon="118.57616084925576">
        <ele>23.637451171875</ele>
        <time>2026-01-08T14:26:39Z</time>
      </trkpt>
      <trkpt lat="24.913092768628484" lon="118.57599067672672">
        <ele>20.61334228515625</ele>
        <time>2026-01-08T14:26:44Z</time>
      </trkpt>
      <trkpt lat="24.913197548340083" lon="118.5757274151987">
        <ele>20.0718994140625</ele>
        <time>2026-01-08T14:26:50Z</time>
      </trkpt>
      <trkpt lat="24.913299412252762" lon="118.57557325764334">
        <ele>18.72711181640625</ele>
        <time>2026-01-08T14:26:54Z</time>
      </trkpt>
      <trkpt lat="24.913412296792625" lon="118.57544812679143">
        <ele>17.1097412109375</ele>
        <time>2026-01-08T14:27:02Z</time>
      </trkpt>
      <trkpt lat="24.91339536305075" lon="118.5755282068019">
        <ele>11.7283935546875</ele>
        <time>2026-01-08T14:27:10Z</time>
      </trkpt>
      <trkpt lat="24.913371303312903" lon="118.57544913061398">
        <ele>13.0460205078125</ele>
        <time>2026-01-08T14:27:15Z</time>
      </trkpt>
      <trkpt lat="24.913420245966606" lon="118.5753860649198">
        <ele>12.97381591796875</ele>
        <time>2026-01-08T14:27:20Z</time>
      </trkpt>
      <trkpt lat="24.913666849642816" lon="118.57494060206017">
        <ele>13.80743408203125</ele>
        <time>2026-01-08T14:27:33Z</time>
      </trkpt>
      <trkpt lat="24.913966364339945" lon="118.57440903636487">
        <ele>16.02142333984375</ele>
        <time>2026-01-08T14:27:43Z</time>
      </trkpt>
      <trkpt lat="24.914238956133378" lon="118.57397656369518">
        <ele>17.503173828125</ele>
        <time>2026-01-08T14:27:51Z</time>
      </trkpt>
      <trkpt lat="24.914341825252954" lon="118.5738424139107">
        <ele>16.21832275390625</ele>
        <time>2026-01-08T14:27:56Z</time>
      </trkpt>
      <trkpt lat="24.914370749516564" lon="118.57376032416111">
        <ele>17.43218994140625</ele>
        <time>2026-01-08T14:27:58Z</time>
      </trkpt>
      <trkpt lat="24.91464829578527" lon="118.57329179770218">
        <ele>20.24114990234375</ele>
        <time>2026-01-08T14:28:08Z</time>
      </trkpt>
      <trkpt lat="24.91486687350093" lon="118.57285930460742">
        <ele>19.79400634765625</ele>
        <time>2026-01-08T14:28:17Z</time>
      </trkpt>
      <trkpt lat="24.91509835008071" lon="118.57232969058414">
        <ele>18.45501708984375</ele>
        <time>2026-01-08T14:28:27Z</time>
      </trkpt>
      <trkpt lat="24.915316860254254" lon="118.57184611725032">
        <ele>17.68841552734375</ele>
        <time>2026-01-08T14:28:35Z</time>
      </trkpt>
      <trkpt lat="24.915401604650594" lon="118.57159381552358">
        <ele>17.91387939453125</ele>
        <time>2026-01-08T14:28:39Z</time>
      </trkpt>
      <trkpt lat="24.91559715682698" lon="118.57116529224295">
        <ele>18.18267822265625</ele>
        <time>2026-01-08T14:28:47Z</time>
      </trkpt>
      <trkpt lat="24.915785688682472" lon="118.57072374442646">
        <ele>17.90478515625</ele>
        <time>2026-01-08T14:28:55Z</time>
      </trkpt>
      <trkpt lat="24.91585260231617" lon="118.57064764665901">
        <ele>16.07696533203125</ele>
        <time>2026-01-08T14:28:57Z</time>
      </trkpt>
      <trkpt lat="24.91594954608931" lon="118.57060558835664">
        <ele>15.9149169921875</ele>
        <time>2026-01-08T14:28:59Z</time>
      </trkpt>
      <trkpt lat="24.916379341121804" lon="118.57046338352812">
        <ele>17.59210205078125</ele>
        <time>2026-01-08T14:29:07Z</time>
      </trkpt>
      <trkpt lat="24.916830115821202" lon="118.57030515634122">
        <ele>19.30853271484375</ele>
        <time>2026-01-08T14:29:15Z</time>
      </trkpt>
      <trkpt lat="24.917289880866146" lon="118.57013991852457">
        <ele>18.754638671875</ele>
        <time>2026-01-08T14:29:23Z</time>
      </trkpt>
      <trkpt lat="24.917725676227374" lon="118.57000171503658">
        <ele>18.5445556640625</ele>
        <time>2026-01-08T14:29:33Z</time>
      </trkpt>
      <trkpt lat="24.91795655605866" lon="118.56991759309132">
        <ele>17.63970947265625</ele>
        <time>2026-01-08T14:29:41Z</time>
      </trkpt>
      <trkpt lat="24.917975464229553" lon="118.5698324841999">
        <ele>17.8170166015625</ele>
        <time>2026-01-08T14:29:44Z</time>
      </trkpt>
      <trkpt lat="24.917977343858688" lon="118.56971833922039">
        <ele>17.2603759765625</ele>
        <time>2026-01-08T14:29:47Z</time>
      </trkpt>
      <trkpt lat="24.918093165524674" lon="118.56956513578858">
        <ele>19.14691162109375</ele>
        <time>2026-01-08T14:29:53Z</time>
      </trkpt>
      <trkpt lat="24.917961008071213" lon="118.56939993289618">
        <ele>18.6900634765625</ele>
        <time>2026-01-08T14:30:46Z</time>
      </trkpt>
      <trkpt lat="24.91788894636939" lon="118.56933285139861">
        <ele>18.68603515625</ele>
        <time>2026-01-08T14:30:49Z</time>
      </trkpt>
      <trkpt lat="24.917719735087204" lon="118.56911458017449">
        <ele>19.2943115234375</ele>
        <time>2026-01-08T14:30:56Z</time>
      </trkpt>
      <trkpt lat="24.91764167337992" lon="118.5690474981485">
        <ele>18.61370849609375</ele>
        <time>2026-01-08T14:30:59Z</time>
      </trkpt>
      <trkpt lat="24.91758557571622" lon="118.56895037506169">
        <ele>18.4869384765625</ele>
        <time>2026-01-08T14:31:02Z</time>
      </trkpt>
      <trkpt lat="24.917541388284043" lon="118.56877314523551">
        <ele>17.7391357421875</ele>
        <time>2026-01-08T14:31:06Z</time>
      </trkpt>
      <trkpt lat="24.917582758554182" lon="118.56821039268539">
        <ele>17.41815185546875</ele>
        <time>2026-01-08T14:31:18Z</time>
      </trkpt>
      <trkpt lat="24.917616113752754" lon="118.56764562238641">
        <ele>17.43353271484375</ele>
        <time>2026-01-08T14:31:28Z</time>
      </trkpt>
      <trkpt lat="24.917634433642654" lon="118.56706080942836">
        <ele>17.78955078125</ele>
        <time>2026-01-08T14:31:38Z</time>
      </trkpt>
      <trkpt lat="24.917652837914087" lon="118.56655909850626">
        <ele>17.177001953125</ele>
        <time>2026-01-08T14:31:46Z</time>
      </trkpt>
      <trkpt lat="24.917675230663416" lon="118.56605737503874">
        <ele>17.57220458984375</ele>
        <time>2026-01-08T14:31:54Z</time>
      </trkpt>
      <trkpt lat="24.91768093659242" lon="118.56581702447733">
        <ele>17.7564697265625</ele>
        <time>2026-01-08T14:31:58Z</time>
      </trkpt>
      <trkpt lat="24.917610349925702" lon="118.56533431764441">
        <ele>17.61322021484375</ele>
        <time>2026-01-08T14:32:06Z</time>
      </trkpt>
      <trkpt lat="24.917513894864882" lon="118.56496076580473">
        <ele>18.5399169921875</ele>
        <time>2026-01-08T14:32:12Z</time>
      </trkpt>
      <trkpt lat="24.917327315567555" lon="118.5644850577127">
        <ele>20.533203125</ele>
        <time>2026-01-08T14:32:20Z</time>
      </trkpt>
      <trkpt lat="24.91712583159309" lon="118.56408846222897">
        <ele>20.7626953125</ele>
        <time>2026-01-08T14:32:28Z</time>
      </trkpt>
      <trkpt lat="24.916930480881685" lon="118.56379902621612">
        <ele>22.31622314453125</ele>
        <time>2026-01-08T14:32:34Z</time>
      </trkpt>
      <trkpt lat="24.91670420381036" lon="118.56356467495202">
        <ele>23.06689453125</ele>
        <time>2026-01-08T14:32:40Z</time>
      </trkpt>
      <trkpt lat="24.916369632804216" lon="118.56310096433357">
        <ele>22.7835693359375</ele>
        <time>2026-01-08T14:32:50Z</time>
      </trkpt>
      <trkpt lat="24.916088102432564" lon="118.56267930767864">
        <ele>23.41912841796875</ele>
        <time>2026-01-08T14:32:58Z</time>
      </trkpt>
      <trkpt lat="24.91579957649354" lon="118.56226565611713">
        <ele>24.00726318359375</ele>
        <time>2026-01-08T14:33:06Z</time>
      </trkpt>
      <trkpt lat="24.915510051795593" lon="118.56185800641784">
        <ele>23.236572265625</ele>
        <time>2026-01-08T14:33:14Z</time>
      </trkpt>
      <trkpt lat="24.915214505321284" lon="118.56143933082753">
        <ele>22.85711669921875</ele>
        <time>2026-01-08T14:33:22Z</time>
      </trkpt>
      <trkpt lat="24.914906887161326" lon="118.5609745697608">
        <ele>23.34246826171875</ele>
        <time>2026-01-08T14:33:32Z</time>
      </trkpt>
      <trkpt lat="24.91468842309463" lon="118.56063099999186">
        <ele>22.74786376953125</ele>
        <time>2026-01-08T14:33:42Z</time>
      </trkpt>
      <trkpt lat="24.91456421531478" lon="118.56047574245969">
        <ele>23.94744873046875</ele>
        <time>2026-01-08T14:33:48Z</time>
      </trkpt>
      <trkpt lat="24.914541074224452" lon="118.56037657348371">
        <ele>25.49884033203125</ele>
        <time>2026-01-08T14:33:50Z</time>
      </trkpt>
      <trkpt lat="24.91437664554919" lon="118.56006805123495">
        <ele>25.198974609375</ele>
        <time>2026-01-08T14:34:00Z</time>
      </trkpt>
      <trkpt lat="24.914083100005286" lon="118.55967137891265">
        <ele>21.3514404296875</ele>
        <time>2026-01-08T14:34:10Z</time>
      </trkpt>
      <trkpt lat="24.91389673285164" lon="118.55940792773592">
        <ele>20.887451171875</ele>
        <time>2026-01-08T14:34:16Z</time>
      </trkpt>
      <trkpt lat="24.913784539546207" lon="118.55926868892288">
        <ele>21.41204833984375</ele>
        <time>2026-01-08T14:34:20Z</time>
      </trkpt>
      <trkpt lat="24.91353293530796" lon="118.55884595219307">
        <ele>19.0152587890625</ele>
        <time>2026-01-08T14:34:30Z</time>
      </trkpt>
      <trkpt lat="24.913411580719906" lon="118.55860252256433">
        <ele>17.9779052734375</ele>
        <time>2026-01-08T14:34:38Z</time>
      </trkpt>
      <trkpt lat="24.91336129707937" lon="118.55841318345153">
        <ele>22.8756103515625</ele>
        <time>2026-01-08T14:34:42Z</time>
      </trkpt>
      <trkpt lat="24.913310194637468" lon="118.55834205786455">
        <ele>25.50146484375</ele>
        <time>2026-01-08T14:34:44Z</time>
      </trkpt>
      <trkpt lat="24.913217161254845" lon="118.55831200968274">
        <ele>24.54541015625</ele>
        <time>2026-01-08T14:34:47Z</time>
      </trkpt>
      <trkpt lat="24.913162052877503" lon="118.55823687674011">
        <ele>24.0885009765625</ele>
        <time>2026-01-08T14:34:49Z</time>
      </trkpt>
      <trkpt lat="24.91300550185088" lon="118.5578682127632">
        <ele>23.350341796875</ele>
        <time>2026-01-08T14:34:57Z</time>
      </trkpt>
      <trkpt lat="24.91294139335313" lon="118.55779307890592">
        <ele>22.165283203125</ele>
        <time>2026-01-08T14:34:59Z</time>
      </trkpt>
      <trkpt lat="24.912745734922556" lon="118.55735728519547">
        <ele>21.3897705078125</ele>
        <time>2026-01-08T14:35:07Z</time>
      </trkpt>
      <trkpt lat="24.912550073516837" lon="118.55692448842717">
        <ele>20.57183837890625</ele>
        <time>2026-01-08T14:35:15Z</time>
      </trkpt>
      <trkpt lat="24.912376351142743" lon="118.5564606224799">
        <ele>20.18499755859375</ele>
        <time>2026-01-08T14:35:23Z</time>
      </trkpt>
      <trkpt lat="24.91221764909383" lon="118.55601578231541">
        <ele>18.13677978515625</ele>
        <time>2026-01-08T14:35:31Z</time>
      </trkpt>
      <trkpt lat="24.91212829645545" lon="118.55579335955818">
        <ele>17.45367431640625</ele>
        <time>2026-01-08T14:35:35Z</time>
      </trkpt>
      <trkpt lat="24.912065894939712" lon="118.55554488204457">
        <ele>17.51806640625</ele>
        <time>2026-01-08T14:35:39Z</time>
      </trkpt>
      <trkpt lat="24.911832055963384" lon="118.55502187495905">
        <ele>18.95281982421875</ele>
        <time>2026-01-08T14:35:49Z</time>
      </trkpt>
      <trkpt lat="24.91178589922684" lon="118.55492468664949">
        <ele>19.37945556640625</ele>
        <time>2026-01-08T14:35:51Z</time>
      </trkpt>
      <trkpt lat="24.911703254293943" lon="118.55453592209592">
        <ele>20.39569091796875</ele>
        <time>2026-01-08T14:36:02Z</time>
      </trkpt>
      <trkpt lat="24.911664137262836" lon="118.55446378112518">
        <ele>19.6668701171875</ele>
        <time>2026-01-08T14:36:05Z</time>
      </trkpt>
      <trkpt lat="24.91153293044984" lon="118.55433152620255">
        <ele>19.43756103515625</ele>
        <time>2026-01-08T14:36:10Z</time>
      </trkpt>
      <trkpt lat="24.911337050426432" lon="118.55380247588262">
        <ele>19.17437744140625</ele>
        <time>2026-01-08T14:36:21Z</time>
      </trkpt>
      <trkpt lat="24.91111614353474" lon="118.55326239230399">
        <ele>19.26171875</ele>
        <time>2026-01-08T14:36:32Z</time>
      </trkpt>
      <trkpt lat="24.911052797987153" lon="118.55305998153823">
        <ele>19.30908203125</ele>
        <time>2026-01-08T14:36:36Z</time>
      </trkpt>
      <trkpt lat="24.91107663978884" lon="118.55297179845505">
        <ele>19.18560791015625</ele>
        <time>2026-01-08T14:36:40Z</time>
      </trkpt>
      <trkpt lat="24.9110071971549" lon="118.55271527353541">
        <ele>18.83245849609375</ele>
        <time>2026-01-08T14:37:07Z</time>
      </trkpt>
      <trkpt lat="24.910775603258717" lon="118.55236255649686">
        <ele>19.35308837890625</ele>
        <time>2026-01-08T14:37:16Z</time>
      </trkpt>
      <trkpt lat="24.910544650965832" lon="118.55181342036337">
        <ele>20.99896240234375</ele>
        <time>2026-01-08T14:37:26Z</time>
      </trkpt>
      <trkpt lat="24.910372958006167" lon="118.55141759364828">
        <ele>20.42352294921875</ele>
        <time>2026-01-08T14:37:34Z</time>
      </trkpt>
      <trkpt lat="24.910350816989876" lon="118.55133842664205">
        <ele>20.25909423828125</ele>
        <time>2026-01-08T14:37:36Z</time>
      </trkpt>
      <trkpt lat="24.91028973781326" lon="118.55129032834415">
        <ele>20.05401611328125</ele>
        <time>2026-01-08T14:37:38Z</time>
      </trkpt>
      <trkpt lat="24.910200220528736" lon="118.55100071507425">
        <ele>20.407958984375</ele>
        <time>2026-01-08T14:37:44Z</time>
      </trkpt>
      <trkpt lat="24.91011186063432" lon="118.55079828606206">
        <ele>19.923095703125</ele>
        <time>2026-01-08T14:37:48Z</time>
      </trkpt>
      <trkpt lat="24.90992892448332" lon="118.55027917483311">
        <ele>20.7962646484375</ele>
        <time>2026-01-08T14:37:58Z</time>
      </trkpt>
      <trkpt lat="24.90973412292317" lon="118.54983622020205">
        <ele>22.76849365234375</ele>
        <time>2026-01-08T14:38:06Z</time>
      </trkpt>
      <trkpt lat="24.909541342122374" lon="118.5494082903468">
        <ele>21.62664794921875</ele>
        <time>2026-01-08T14:38:14Z</time>
      </trkpt>
      <trkpt lat="24.90937548934031" lon="118.54894827927497">
        <ele>21.5128173828125</ele>
        <time>2026-01-08T14:38:22Z</time>
      </trkpt>
      <trkpt lat="24.90917854391678" lon="118.54844215757308">
        <ele>22.52392578125</ele>
        <time>2026-01-08T14:38:30Z</time>
      </trkpt>
      <trkpt lat="24.909048973649163" lon="118.54813848018655">
        <ele>22.542724609375</ele>
        <time>2026-01-08T14:38:36Z</time>
      </trkpt>
      <trkpt lat="24.909059787003063" lon="118.54804326343688">
        <ele>22.2122802734375</ele>
        <time>2026-01-08T14:38:38Z</time>
      </trkpt>
      <trkpt lat="24.909119645959905" lon="118.54797510443588">
        <ele>21.67974853515625</ele>
        <time>2026-01-08T14:38:40Z</time>
      </trkpt>
      <trkpt lat="24.909566100373056" lon="118.54772750934369">
        <ele>20.842529296875</ele>
        <time>2026-01-08T14:38:49Z</time>
      </trkpt>
      <trkpt lat="24.909853789233985" lon="118.54758917309327">
        <ele>21.31292724609375</ele>
        <time>2026-01-08T14:38:55Z</time>
      </trkpt>
      <trkpt lat="24.910298169170076" lon="118.5473054911689">
        <ele>22.2464599609375</ele>
        <time>2026-01-08T14:39:05Z</time>
      </trkpt>
      <trkpt lat="24.910767566494123" lon="118.54703383198941">
        <ele>23.13690185546875</ele>
        <time>2026-01-08T14:39:15Z</time>
      </trkpt>
      <trkpt lat="24.91120393969986" lon="118.54674914178293">
        <ele>24.7239990234375</ele>
        <time>2026-01-08T14:39:25Z</time>
      </trkpt>
      <trkpt lat="24.911580454768547" lon="118.54653261150436">
        <ele>26.71307373046875</ele>
        <time>2026-01-08T14:39:33Z</time>
      </trkpt>
      <trkpt lat="24.911806972886126" lon="118.5463080709539">
        <ele>24.8096923828125</ele>
        <time>2026-01-08T14:39:39Z</time>
      </trkpt>
      <trkpt lat="24.91186879290931" lon="118.54622286697307">
        <ele>24.0355224609375</ele>
        <time>2026-01-08T14:39:41Z</time>
      </trkpt>
      <trkpt lat="24.91187862395142" lon="118.54613967101955">
        <ele>22.93206787109375</ele>
        <time>2026-01-08T14:39:43Z</time>
      </trkpt>
      <trkpt lat="24.91185543707902" lon="118.54604545114218">
        <ele>21.75299072265625</ele>
        <time>2026-01-08T14:39:46Z</time>
      </trkpt>
      <trkpt lat="24.91165143666721" lon="118.54553826686406">
        <ele>20.6328125</ele>
        <time>2026-01-08T14:39:57Z</time>
      </trkpt>
      <trkpt lat="24.91142942127272" lon="118.54502706385539">
        <ele>19.03070068359375</ele>
        <time>2026-01-08T14:40:07Z</time>
      </trkpt>
      <trkpt lat="24.911213404030047" lon="118.54451985963154">
        <ele>19.02557373046875</ele>
        <time>2026-01-08T14:40:17Z</time>
      </trkpt>
      <trkpt lat="24.911086777604638" lon="118.54421011883674">
        <ele>17.873046875</ele>
        <time>2026-01-08T14:40:23Z</time>
      </trkpt>
      <trkpt lat="24.910981165876013" lon="118.54391039721902">
        <ele>19.0467529296875</ele>
        <time>2026-01-08T14:40:29Z</time>
      </trkpt>
      <trkpt lat="24.91085687403785" lon="118.54376304617735">
        <ele>18.81072998046875</ele>
        <time>2026-01-08T14:40:33Z</time>
      </trkpt>
      <trkpt lat="24.910778783796108" lon="118.54371493397544">
        <ele>19.26837158203125</ele>
        <time>2026-01-08T14:40:35Z</time>
      </trkpt>
      <trkpt lat="24.910700760929853" lon="118.54369890017158">
        <ele>18.5970458984375</ele>
        <time>2026-01-08T14:40:37Z</time>
      </trkpt>
      <trkpt lat="24.910545902555334" lon="118.54375605066122">
        <ele>19.39166259765625</ele>
        <time>2026-01-08T14:40:43Z</time>
      </trkpt>
      <trkpt lat="24.91062987192305" lon="118.54374702276782">
        <ele>19.0927734375</ele>
        <time>2026-01-08T14:41:03Z</time>
      </trkpt>
    </trkseg>
  </trk>
</gpx>