<?xml version="1.0" encoding="UTF-8"?>
<gpx xmlns="http://www.topografix.com/GPX/1/1" xmlns:gpxtpx="http://www.garmin.com/xmlschemas/TrackPointExtension/v1" xmlns:xsi="http://www.w3.org/2001/XMLSchema-instance" xsi:schemaLocation="http://www.topografix.com/GPX/1/1 http://www.topografix.com/GPX/1/1/gpx.xsd" version="1.1" creator="gpx.py -- https://github.com/tkrajina/gpxpy">
  <trk>
    <name>gpx from keep</name>
    <type>Run</type>
    <trkseg>
      <trkpt lat="24.911271778482174" lon="118.53740471000498">
        <ele>34.5897216796875</ele>
        <time>2025-12-20T12:20:23Z</time>
      </trkpt>
      <trkpt lat="24.911140446770357" lon="118.5376864732835">
        <ele>25.1502685546875</ele>
        <time>2025-12-20T12:20:32Z</time>
      </trkpt>
      <trkpt lat="24.911016095474448" lon="118.53796121456037">
        <ele>23.34271240234375</ele>
        <time>2025-12-20T12:20:41Z</time>
      </trkpt>
      <trkpt lat="24.91083692344401" lon="118.53831215892251">
        <ele>24.2835693359375</ele>
        <time>2025-12-20T12:20:53Z</time>
      </trkpt>
      <trkpt lat="24.91078337202955" lon="118.53850567461798">
        <ele>23.48846435546875</ele>
        <time>2025-12-20T12:20:59Z</time>
      </trkpt>
      <trkpt lat="24.910782620741855" lon="118.53861496321198">
        <ele>23.57366943359375</ele>
        <time>2025-12-20T12:21:02Z</time>
      </trkpt>
      <trkpt lat="24.910860764770874" lon="118.53868313755622">
        <ele>21.71685791015625</ele>
        <time>2025-12-20T12:21:05Z</time>
      </trkpt>
      <trkpt lat="24.911150863232297" lon="118.53874427848353">
        <ele>21.92938232421875</ele>
        <time>2025-12-20T12:21:14Z</time>
      </trkpt>
      <trkpt lat="24.91121499528629" lon="118.53880643765544">
        <ele>23.0167236328125</ele>
        <time>2025-12-20T12:21:17Z</time>
      </trkpt>
      <trkpt lat="24.911201240210236" lon="118.53891372069313">
        <ele>23.48779296875</ele>
        <time>2025-12-20T12:21:20Z</time>
      </trkpt>
      <trkpt lat="24.911105968966037" lon="118.53923055793322">
        <ele>24.63592529296875</ele>
        <time>2025-12-20T12:21:29Z</time>
      </trkpt>
      <trkpt lat="24.91102964233945" lon="118.53952533272091">
        <ele>23.61895751953125</ele>
        <time>2025-12-20T12:21:38Z</time>
      </trkpt>
      <trkpt lat="24.910946300407925" lon="118.53981408918813">
        <ele>22.4998779296875</ele>
        <time>2025-12-20T12:21:47Z</time>
      </trkpt>
      <trkpt lat="24.910909504751718" lon="118.53990332310235">
        <ele>22.29974365234375</ele>
        <time>2025-12-20T12:21:50Z</time>
      </trkpt>
      <trkpt lat="24.910855186372576" lon="118.54020610971709">
        <ele>24.090087890625</ele>
        <time>2025-12-20T12:21:59Z</time>
      </trkpt>
      <trkpt lat="24.910822364542472" lon="118.54028431363636">
        <ele>23.68994140625</ele>
        <time>2025-12-20T12:22:02Z</time>
      </trkpt>
      <trkpt lat="24.91076221576896" lon="118.54066529687222">
        <ele>24.42694091796875</ele>
        <time>2025-12-20T12:22:14Z</time>
      </trkpt>
      <trkpt lat="24.91069888217382" lon="118.54096406524884">
        <ele>23.603271484375</ele>
        <time>2025-12-20T12:22:23Z</time>
      </trkpt>
      <trkpt lat="24.910642459127" lon="118.5412237304258">
        <ele>19.69287109375</ele>
        <time>2025-12-20T12:22:32Z</time>
      </trkpt>
      <trkpt lat="24.910634066439872" lon="118.54150143538635">
        <ele>18.2977294921875</ele>
        <time>2025-12-20T12:22:41Z</time>
      </trkpt>
      <trkpt lat="24.910546712562326" lon="118.54179317828098">
        <ele>20.46417236328125</ele>
        <time>2025-12-20T12:22:50Z</time>
      </trkpt>
      <trkpt lat="24.910438380345457" lon="118.54209494453032">
        <ele>20.543212890625</ele>
        <time>2025-12-20T12:22:59Z</time>
      </trkpt>
      <trkpt lat="24.910363115754976" lon="118.54243179256613">
        <ele>20.530029296875</ele>
        <time>2025-12-20T12:23:08Z</time>
      </trkpt>
      <trkpt lat="24.91027980986019" lon="118.54275059197519">
        <ele>19.9488525390625</ele>
        <time>2025-12-20T12:23:17Z</time>
      </trkpt>
      <trkpt lat="24.91024826091514" lon="118.5429601136114">
        <ele>20.5091552734375</ele>
        <time>2025-12-20T12:23:23Z</time>
      </trkpt>
      <trkpt lat="24.91025548587058" lon="118.5430663759044">
        <ele>19.9815673828125</ele>
        <time>2025-12-20T12:23:26Z</time>
      </trkpt>
      <trkpt lat="24.910278650799523" lon="118.54314556986355">
        <ele>22.20684814453125</ele>
        <time>2025-12-20T12:23:29Z</time>
      </trkpt>
      <trkpt lat="24.910276816862268" lon="118.5432237628463">
        <ele>21.7845458984375</ele>
        <time>2025-12-20T12:23:32Z</time>
      </trkpt>
      <trkpt lat="24.910242097563685" lon="118.54335408615593">
        <ele>23.32257080078125</ele>
        <time>2025-12-20T12:23:38Z</time>
      </trkpt>
      <trkpt lat="24.910283157553067" lon="118.54338515972202">
        <ele>23.52142333984375</ele>
        <time>2025-12-20T12:23:41Z</time>
      </trkpt>
      <trkpt lat="24.910643037568093" lon="118.54335205332934">
        <ele>25.1590576171875</ele>
        <time>2025-12-20T12:23:53Z</time>
      </trkpt>
      <trkpt lat="24.910917925109057" lon="118.54331694787183">
        <ele>22.77972412109375</ele>
        <time>2025-12-20T12:24:02Z</time>
      </trkpt>
      <trkpt lat="24.91119482929277" lon="118.5432898619737">
        <ele>18.9774169921875</ele>
        <time>2025-12-20T12:24:11Z</time>
      </trkpt>
      <trkpt lat="24.911460667025665" lon="118.54323069777354">
        <ele>15.38421630859375</ele>
        <time>2025-12-20T12:24:23Z</time>
      </trkpt>
      <trkpt lat="24.91176251874548" lon="118.5431805531858">
        <ele>18.91046142578125</ele>
        <time>2025-12-20T12:24:32Z</time>
      </trkpt>
      <trkpt lat="24.912064317170504" lon="118.54310534662423">
        <ele>19.09527587890625</ele>
        <time>2025-12-20T12:24:41Z</time>
      </trkpt>
      <trkpt lat="24.91234612030354" lon="118.54303114371095">
        <ele>19.88018798828125</ele>
        <time>2025-12-20T12:24:50Z</time>
      </trkpt>
      <trkpt lat="24.912615916373152" lon="118.54295293149167">
        <ele>18.559814453125</ele>
        <time>2025-12-20T12:24:59Z</time>
      </trkpt>
      <trkpt lat="24.9128796852837" lon="118.54286168714906">
        <ele>17.0670166015625</ele>
        <time>2025-12-20T12:25:08Z</time>
      </trkpt>
      <trkpt lat="24.913157494733607" lon="118.5427904912713">
        <ele>17.80010986328125</ele>
        <time>2025-12-20T12:25:17Z</time>
      </trkpt>
      <trkpt lat="24.913443326436887" lon="118.54273032203308">
        <ele>19.12396240234375</ele>
        <time>2025-12-20T12:25:26Z</time>
      </trkpt>
      <trkpt lat="24.91377608927657" lon="118.5426410770849">
        <ele>18.09771728515625</ele>
        <time>2025-12-20T12:25:38Z</time>
      </trkpt>
      <trkpt lat="24.9140388938033" lon="118.54256687414983">
        <ele>18.98834228515625</ele>
        <time>2025-12-20T12:25:47Z</time>
      </trkpt>
      <trkpt lat="24.914324675574235" lon="118.54248364690439">
        <ele>17.3133544921875</ele>
        <time>2025-12-20T12:25:56Z</time>
      </trkpt>
      <trkpt lat="24.914618468893508" lon="118.5424064338505">
        <ele>19.93359375</ele>
        <time>2025-12-20T12:26:05Z</time>
      </trkpt>
      <trkpt lat="24.914945205656622" lon="118.5423051581207">
        <ele>23.6180419921875</ele>
        <time>2025-12-20T12:26:17Z</time>
      </trkpt>
      <trkpt lat="24.91528496614642" lon="118.54221591121332">
        <ele>20.61358642578125</ele>
        <time>2025-12-20T12:26:29Z</time>
      </trkpt>
      <trkpt lat="24.91553969498454" lon="118.5421066196356">
        <ele>19.19793701171875</ele>
        <time>2025-12-20T12:26:38Z</time>
      </trkpt>
      <trkpt lat="24.915885462665347" lon="118.54202138169738">
        <ele>19.867919921875</ele>
        <time>2025-12-20T12:26:50Z</time>
      </trkpt>
      <trkpt lat="24.91621312630535" lon="118.54188702116262">
        <ele>21.46588134765625</ele>
        <time>2025-12-20T12:27:02Z</time>
      </trkpt>
      <trkpt lat="24.916282986245168" lon="118.54182686485484">
        <ele>22.4915771484375</ele>
        <time>2025-12-20T12:27:05Z</time>
      </trkpt>
      <trkpt lat="24.916330790422577" lon="118.54173964168652">
        <ele>21.42388916015625</ele>
        <time>2025-12-20T12:27:08Z</time>
      </trkpt>
      <trkpt lat="24.91635157197892" lon="118.541640389723">
        <ele>21.29449462890625</ele>
        <time>2025-12-20T12:27:11Z</time>
      </trkpt>
      <trkpt lat="24.916290942796568" lon="118.5413476528599">
        <ele>22.03631591796875</ele>
        <time>2025-12-20T12:27:20Z</time>
      </trkpt>
      <trkpt lat="24.91625753099926" lon="118.54115717122545">
        <ele>22.943603515625</ele>
        <time>2025-12-20T12:27:26Z</time>
      </trkpt>
      <trkpt lat="24.916267882713633" lon="118.54086241893306">
        <ele>22.88525390625</ele>
        <time>2025-12-20T12:27:35Z</time>
      </trkpt>
      <trkpt lat="24.916372058832938" lon="118.54049547147535">
        <ele>25.5064697265625</ele>
        <time>2025-12-20T12:27:47Z</time>
      </trkpt>
      <trkpt lat="24.916511241181922" lon="118.54013553466021">
        <ele>25.66778564453125</ele>
        <time>2025-12-20T12:27:59Z</time>
      </trkpt>
      <trkpt lat="24.916631603309817" lon="118.53985680502228">
        <ele>23.11981201171875</ele>
        <time>2025-12-20T12:28:08Z</time>
      </trkpt>
      <trkpt lat="24.916775984241823" lon="118.53958909953795">
        <ele>22.99871826171875</ele>
        <time>2025-12-20T12:28:17Z</time>
      </trkpt>
      <trkpt lat="24.916952186813305" lon="118.53924519000715">
        <ele>21.60931396484375</ele>
        <time>2025-12-20T12:28:29Z</time>
      </trkpt>
      <trkpt lat="24.917066537122853" lon="118.53896444636865">
        <ele>22.07476806640625</ele>
        <time>2025-12-20T12:28:38Z</time>
      </trkpt>
      <trkpt lat="24.917177887575843" lon="118.53868470270375">
        <ele>22.06103515625</ele>
        <time>2025-12-20T12:28:47Z</time>
      </trkpt>
      <trkpt lat="24.917288189930968" lon="118.53838490320219">
        <ele>22.202392578125</ele>
        <time>2025-12-20T12:28:56Z</time>
      </trkpt>
      <trkpt lat="24.917417534947703" lon="118.53810615507075">
        <ele>23.8966064453125</ele>
        <time>2025-12-20T12:29:05Z</time>
      </trkpt>
      <trkpt lat="24.91754786582583" lon="118.5378223907062">
        <ele>21.8033447265625</ele>
        <time>2025-12-20T12:29:14Z</time>
      </trkpt>
      <trkpt lat="24.917664168350445" lon="118.53752659222587">
        <ele>21.25897216796875</ele>
        <time>2025-12-20T12:29:23Z</time>
      </trkpt>
      <trkpt lat="24.917778484653457" lon="118.53723780963385">
        <ele>21.30596923828125</ele>
        <time>2025-12-20T12:29:32Z</time>
      </trkpt>
      <trkpt lat="24.917899792695735" lon="118.53694701819127">
        <ele>20.2427978515625</ele>
        <time>2025-12-20T12:29:41Z</time>
      </trkpt>
      <trkpt lat="24.918047145945476" lon="118.53667828168325">
        <ele>18.5550537109375</ele>
        <time>2025-12-20T12:29:50Z</time>
      </trkpt>
      <trkpt lat="24.91816546813486" lon="118.53639550652933">
        <ele>19.21612548828125</ele>
        <time>2025-12-20T12:29:59Z</time>
      </trkpt>
      <trkpt lat="24.918295823890837" lon="118.53612877149365">
        <ele>20.302734375</ele>
        <time>2025-12-20T12:30:08Z</time>
      </trkpt>
      <trkpt lat="24.918391404564925" lon="118.53595629410555">
        <ele>20.157958984375</ele>
        <time>2025-12-20T12:30:14Z</time>
      </trkpt>
      <trkpt lat="24.91849072314042" lon="118.5356735131901">
        <ele>19.46734619140625</ele>
        <time>2025-12-20T12:30:23Z</time>
      </trkpt>
      <trkpt lat="24.91854962000546" lon="118.53563339907366">
        <ele>20.62420654296875</ele>
        <time>2025-12-20T12:30:26Z</time>
      </trkpt>
      <trkpt lat="24.91850474962817" lon="118.53568554520358">
        <ele>20.66796875</ele>
        <time>2025-12-20T12:30:29Z</time>
      </trkpt>
      <trkpt lat="24.918648904849587" lon="118.53533757913203">
        <ele>20.13494873046875</ele>
        <time>2025-12-20T12:30:41Z</time>
      </trkpt>
      <trkpt lat="24.9187044487919" lon="118.53514905557203">
        <ele>20.86376953125</ele>
        <time>2025-12-20T12:30:47Z</time>
      </trkpt>
      <trkpt lat="24.918720989953815" lon="118.53495752520202">
        <ele>21.44232177734375</ele>
        <time>2025-12-20T12:30:53Z</time>
      </trkpt>
      <trkpt lat="24.91879189863087" lon="118.5349234259187">
        <ele>21.05322265625</ele>
        <time>2025-12-20T12:30:56Z</time>
      </trkpt>
      <trkpt lat="24.918837911330428" lon="118.53493144490905">
        <ele>21.41705322265625</ele>
        <time>2025-12-20T12:30:59Z</time>
      </trkpt>
      <trkpt lat="24.918870976101925" lon="118.53496052306042">
        <ele>22.43157958984375</ele>
        <time>2025-12-20T12:31:11Z</time>
      </trkpt>
      <trkpt lat="24.91919408626394" lon="118.53502568075248">
        <ele>23.0137939453125</ele>
        <time>2025-12-20T12:31:23Z</time>
      </trkpt>
      <trkpt lat="24.919483997767756" lon="118.5350056050861">
        <ele>22.8311767578125</ele>
        <time>2025-12-20T12:31:32Z</time>
      </trkpt>
      <trkpt lat="24.919775076464695" lon="118.535055723357">
        <ele>22.12005615234375</ele>
        <time>2025-12-20T12:31:41Z</time>
      </trkpt>
      <trkpt lat="24.920050181202253" lon="118.53511587034566">
        <ele>22.67864990234375</ele>
        <time>2025-12-20T12:31:50Z</time>
      </trkpt>
      <trkpt lat="24.920329290032424" lon="118.53517802246564">
        <ele>23.0614013671875</ele>
        <time>2025-12-20T12:31:59Z</time>
      </trkpt>
      <trkpt lat="24.920609384290874" lon="118.53523415779873">
        <ele>24.5408935546875</ele>
        <time>2025-12-20T12:32:08Z</time>
      </trkpt>
      <trkpt lat="24.92087851096185" lon="118.53530332970243">
        <ele>24.175048828125</ele>
        <time>2025-12-20T12:32:17Z</time>
      </trkpt>
      <trkpt lat="24.921148637339268" lon="118.53537250137371">
        <ele>24.09112548828125</ele>
        <time>2025-12-20T12:32:26Z</time>
      </trkpt>
      <trkpt lat="24.92142176551992" lon="118.53544267543019">
        <ele>24.853271484375</ele>
        <time>2025-12-20T12:32:35Z</time>
      </trkpt>
      <trkpt lat="24.921697919254168" lon="118.53552387941181">
        <ele>25.4952392578125</ele>
        <time>2025-12-20T12:32:44Z</time>
      </trkpt>
      <trkpt lat="24.92196511438293" lon="118.53562213057114">
        <ele>25.9881591796875</ele>
        <time>2025-12-20T12:32:53Z</time>
      </trkpt>
      <trkpt lat="24.92222629583574" lon="118.53571436533092">
        <ele>24.56451416015625</ele>
        <time>2025-12-20T12:33:02Z</time>
      </trkpt>
      <trkpt lat="24.9224874462489" lon="118.53579356411306">
        <ele>24.8763427734375</ele>
        <time>2025-12-20T12:33:11Z</time>
      </trkpt>
      <trkpt lat="24.92275164333323" lon="118.53589281731477">
        <ele>25.71826171875</ele>
        <time>2025-12-20T12:33:20Z</time>
      </trkpt>
      <trkpt lat="24.923084938985678" lon="118.53603819129629">
        <ele>27.23321533203125</ele>
        <time>2025-12-20T12:33:32Z</time>
      </trkpt>
      <trkpt lat="24.923348140163597" lon="118.53613944919738">
        <ele>28.43743896484375</ele>
        <time>2025-12-20T12:33:41Z</time>
      </trkpt>
      <trkpt lat="24.92361033409884" lon="118.53623769862398">
        <ele>28.151123046875</ele>
        <time>2025-12-20T12:33:50Z</time>
      </trkpt>
      <trkpt lat="24.923861583335277" lon="118.53635901118312">
        <ele>27.10107421875</ele>
        <time>2025-12-20T12:33:59Z</time>
      </trkpt>
      <trkpt lat="24.924111874478264" lon="118.53649837228092">
        <ele>27.42578125</ele>
        <time>2025-12-20T12:34:08Z</time>
      </trkpt>
      <trkpt lat="24.924366169133098" lon="118.53663973785476">
        <ele>26.024658203125</ele>
        <time>2025-12-20T12:34:17Z</time>
      </trkpt>
      <trkpt lat="24.92461742619044" lon="118.53676505956052">
        <ele>26.20281982421875</ele>
        <time>2025-12-20T12:34:26Z</time>
      </trkpt>
      <trkpt lat="24.924872686856116" lon="118.5368923858514">
        <ele>26.0361328125</ele>
        <time>2025-12-20T12:34:35Z</time>
      </trkpt>
      <trkpt lat="24.925122296909677" lon="118.53717011696664">
        <ele>25.89483642578125</ele>
        <time>2025-12-20T12:34:47Z</time>
      </trkpt>
      <trkpt lat="24.9251874318186" lon="118.53723227959101">
        <ele>27.08319091796875</ele>
        <time>2025-12-20T12:34:50Z</time>
      </trkpt>
      <trkpt lat="24.92527150589926" lon="118.53726937342388">
        <ele>27.883544921875</ele>
        <time>2025-12-20T12:34:53Z</time>
      </trkpt>
      <trkpt lat="24.925549499213737" lon="118.53728339174903">
        <ele>28.6448974609375</ele>
        <time>2025-12-20T12:35:02Z</time>
      </trkpt>
      <trkpt lat="24.925732575513745" lon="118.53732749745465">
        <ele>29.02105712890625</ele>
        <time>2025-12-20T12:35:08Z</time>
      </trkpt>
      <trkpt lat="24.92597890926442" lon="118.5374869078167">
        <ele>28.20709228515625</ele>
        <time>2025-12-20T12:35:17Z</time>
      </trkpt>
      <trkpt lat="24.926219273076978" lon="118.53765935253485">
        <ele>26.77825927734375</ele>
        <time>2025-12-20T12:35:26Z</time>
      </trkpt>
      <trkpt lat="24.926476587464112" lon="118.53781174152935">
        <ele>27.3641357421875</ele>
        <time>2025-12-20T12:35:35Z</time>
      </trkpt>
      <trkpt lat="24.926735907724662" lon="118.53796713756148">
        <ele>26.5494384765625</ele>
        <time>2025-12-20T12:35:44Z</time>
      </trkpt>
      <trkpt lat="24.926989251000595" lon="118.53813255977671">
        <ele>26.14910888671875</ele>
        <time>2025-12-20T12:35:53Z</time>
      </trkpt>
      <trkpt lat="24.927238612271875" lon="118.53830600254109">
        <ele>24.6290283203125</ele>
        <time>2025-12-20T12:36:02Z</time>
      </trkpt>
      <trkpt lat="24.927491983424755" lon="118.5384844571933">
        <ele>23.82666015625</ele>
        <time>2025-12-20T12:36:11Z</time>
      </trkpt>
      <trkpt lat="24.92773036932902" lon="118.5386689276005">
        <ele>24.72039794921875</ele>
        <time>2025-12-20T12:36:20Z</time>
      </trkpt>
      <trkpt lat="24.927955790028225" lon="118.53886843722478">
        <ele>23.5068359375</ele>
        <time>2025-12-20T12:36:29Z</time>
      </trkpt>
      <trkpt lat="24.928170247209255" lon="118.5390839882225">
        <ele>21.27178955078125</ele>
        <time>2025-12-20T12:36:38Z</time>
      </trkpt>
      <trkpt lat="24.928412676357596" lon="118.53928950936621">
        <ele>22.41851806640625</ele>
        <time>2025-12-20T12:36:47Z</time>
      </trkpt>
      <trkpt lat="24.928655072620995" lon="118.5394809923742">
        <ele>25.23211669921875</ele>
        <time>2025-12-20T12:36:56Z</time>
      </trkpt>
      <trkpt lat="24.92889249980338" lon="118.53968651086936">
        <ele>26.109375</ele>
        <time>2025-12-20T12:37:05Z</time>
      </trkpt>
      <trkpt lat="24.929051766509687" lon="118.5398158356556">
        <ele>25.94049072265625</ele>
        <time>2025-12-20T12:37:11Z</time>
      </trkpt>
      <trkpt lat="24.92912092463033" lon="118.5398910258338">
        <ele>25.90380859375</ele>
        <time>2025-12-20T12:37:14Z</time>
      </trkpt>
      <trkpt lat="24.929131220450056" lon="118.5400243703965">
        <ele>25.87652587890625</ele>
        <time>2025-12-20T12:37:17Z</time>
      </trkpt>
      <trkpt lat="24.929392580448354" lon="118.54020281325442">
        <ele>21.52191162109375</ele>
        <time>2025-12-20T12:37:26Z</time>
      </trkpt>
      <trkpt lat="24.929633951097024" lon="118.54038526664036">
        <ele>21.09844970703125</ele>
        <time>2025-12-20T12:37:35Z</time>
      </trkpt>
      <trkpt lat="24.929884334864653" lon="118.54057473616695">
        <ele>20.23162841796875</ele>
        <time>2025-12-20T12:37:44Z</time>
      </trkpt>
      <trkpt lat="24.930125742990256" lon="118.54077523319629">
        <ele>20.9176025390625</ele>
        <time>2025-12-20T12:37:53Z</time>
      </trkpt>
      <trkpt lat="24.930350169778272" lon="118.54098375035942">
        <ele>20.79937744140625</ele>
        <time>2025-12-20T12:38:02Z</time>
      </trkpt>
      <trkpt lat="24.930575581800717" lon="118.54118625051483">
        <ele>20.46697998046875</ele>
        <time>2025-12-20T12:38:11Z</time>
      </trkpt>
      <trkpt lat="24.930808978185528" lon="118.54138273330805">
        <ele>21.20745849609375</ele>
        <time>2025-12-20T12:38:20Z</time>
      </trkpt>
      <trkpt lat="24.93104340146582" lon="118.54159224751534">
        <ele>21.175048828125</ele>
        <time>2025-12-20T12:38:29Z</time>
      </trkpt>
      <trkpt lat="24.931280788058977" lon="118.54178571941615">
        <ele>20.02301025390625</ele>
        <time>2025-12-20T12:38:38Z</time>
      </trkpt>
      <trkpt lat="24.931504194858306" lon="118.54198821353576">
        <ele>22.57232666015625</ele>
        <time>2025-12-20T12:38:47Z</time>
      </trkpt>
      <trkpt lat="24.931739583439505" lon="118.54218368766783">
        <ele>21.7493896484375</ele>
        <time>2025-12-20T12:38:56Z</time>
      </trkpt>
      <trkpt lat="24.9319620069975" lon="118.54239520129636">
        <ele>20.0379638671875</ele>
        <time>2025-12-20T12:39:05Z</time>
      </trkpt>
      <trkpt lat="24.932176458037016" lon="118.54261974619132">
        <ele>20.31011962890625</ele>
        <time>2025-12-20T12:39:14Z</time>
      </trkpt>
      <trkpt lat="24.932400850343697" lon="118.54281822378906">
        <ele>18.88116455078125</ele>
        <time>2025-12-20T12:39:23Z</time>
      </trkpt>
      <trkpt lat="24.932619225085492" lon="118.5430086804399">
        <ele>19.13592529296875</ele>
        <time>2025-12-20T12:39:32Z</time>
      </trkpt>
      <trkpt lat="24.932686358329246" lon="118.5430758418203">
        <ele>18.59295654296875</ele>
        <time>2025-12-20T12:39:35Z</time>
      </trkpt>
      <trkpt lat="24.93273553011606" lon="118.54316004633641">
        <ele>19.745361328125</ele>
        <time>2025-12-20T12:39:38Z</time>
      </trkpt>
      <trkpt lat="24.932764729965832" lon="118.54325628161">
        <ele>20.03369140625</ele>
        <time>2025-12-20T12:39:41Z</time>
      </trkpt>
      <trkpt lat="24.932775944759214" lon="118.54335853257078">
        <ele>21.5379638671875</ele>
        <time>2025-12-20T12:39:44Z</time>
      </trkpt>
      <trkpt lat="24.93275615511544" lon="118.5434567754324">
        <ele>22.84722900390625</ele>
        <time>2025-12-20T12:39:47Z</time>
      </trkpt>
      <trkpt lat="24.932585681915146" lon="118.54369537218449">
        <ele>23.43658447265625</ele>
        <time>2025-12-20T12:39:56Z</time>
      </trkpt>
      <trkpt lat="24.93253386618626" lon="118.54377958168654">
        <ele>23.34368896484375</ele>
        <time>2025-12-20T12:39:59Z</time>
      </trkpt>
      <trkpt lat="24.932336377339947" lon="118.5440101577627">
        <ele>23.76446533203125</ele>
        <time>2025-12-20T12:40:08Z</time>
      </trkpt>
      <trkpt lat="24.932207722221357" lon="118.5441665469272">
        <ele>23.3077392578125</ele>
        <time>2025-12-20T12:40:14Z</time>
      </trkpt>
      <trkpt lat="24.931984165160355" lon="118.5443640412384">
        <ele>22.42608642578125</ele>
        <time>2025-12-20T12:40:23Z</time>
      </trkpt>
      <trkpt lat="24.931760615025574" lon="118.54456554367077">
        <ele>23.0064697265625</ele>
        <time>2025-12-20T12:40:32Z</time>
      </trkpt>
      <trkpt lat="24.931522053152843" lon="118.54476103106654">
        <ele>25.0897216796875</ele>
        <time>2025-12-20T12:40:42Z</time>
      </trkpt>
      <trkpt lat="24.931276468214595" lon="118.54494549099174">
        <ele>25.724609375</ele>
        <time>2025-12-20T12:40:51Z</time>
      </trkpt>
      <trkpt lat="24.931033856952343" lon="118.54511792059535">
        <ele>27.884765625</ele>
        <time>2025-12-20T12:41:00Z</time>
      </trkpt>
      <trkpt lat="24.930782172039347" lon="118.54525426360077">
        <ele>27.5821533203125</ele>
        <time>2025-12-20T12:41:09Z</time>
      </trkpt>
      <trkpt lat="24.930530517162545" lon="118.54540564162617">
        <ele>26.89825439453125</ele>
        <time>2025-12-20T12:41:18Z</time>
      </trkpt>
      <trkpt lat="24.930272817388722" lon="118.54553496681406">
        <ele>26.71209716796875</ele>
        <time>2025-12-20T12:41:27Z</time>
      </trkpt>
      <trkpt lat="24.930017108575697" lon="118.54566028169049">
        <ele>27.8057861328125</ele>
        <time>2025-12-20T12:41:36Z</time>
      </trkpt>
      <trkpt lat="24.92975136603756" lon="118.54576855634896">
        <ele>27.5364990234375</ele>
        <time>2025-12-20T12:41:45Z</time>
      </trkpt>
      <trkpt lat="24.92948061971805" lon="118.54587482614875">
        <ele>26.92864990234375</ele>
        <time>2025-12-20T12:41:54Z</time>
      </trkpt>
      <trkpt lat="24.929199874397977" lon="118.54598109618489">
        <ele>26.3946533203125</ele>
        <time>2025-12-20T12:42:03Z</time>
      </trkpt>
      <trkpt lat="24.928920118410225" lon="118.54608235390796">
        <ele>26.3822021484375</ele>
        <time>2025-12-20T12:42:12Z</time>
      </trkpt>
      <trkpt lat="24.928630349325417" lon="118.5461765954387">
        <ele>26.24554443359375</ele>
        <time>2025-12-20T12:42:21Z</time>
      </trkpt>
      <trkpt lat="24.92836853362213" lon="118.54624978531889">
        <ele>24.74169921875</ele>
        <time>2025-12-20T12:42:30Z</time>
      </trkpt>
      <trkpt lat="24.928074714182536" lon="118.54631896781744">
        <ele>26.07421875</ele>
        <time>2025-12-20T12:42:39Z</time>
      </trkpt>
      <trkpt lat="24.927803931532118" lon="118.54640819539775">
        <ele>24.35992431640625</ele>
        <time>2025-12-20T12:42:48Z</time>
      </trkpt>
      <trkpt lat="24.92750213087932" lon="118.54648639906743">
        <ele>26.3997802734375</ele>
        <time>2025-12-20T12:42:57Z</time>
      </trkpt>
      <trkpt lat="24.927411153762886" lon="118.54649141709714">
        <ele>25.957275390625</ele>
        <time>2025-12-20T12:43:00Z</time>
      </trkpt>
      <trkpt lat="24.927323238430947" lon="118.5465275074327">
        <ele>26.81646728515625</ele>
        <time>2025-12-20T12:43:03Z</time>
      </trkpt>
      <trkpt lat="24.92725437649145" lon="118.54659166181587">
        <ele>26.88848876953125</ele>
        <time>2025-12-20T12:43:06Z</time>
      </trkpt>
      <trkpt lat="24.926981665214846" lon="118.54671697247207">
        <ele>27.5294189453125</ele>
        <time>2025-12-20T12:43:15Z</time>
      </trkpt>
      <trkpt lat="24.926916766314882" lon="118.54676308416488">
        <ele>28.18878173828125</ele>
        <time>2025-12-20T12:43:18Z</time>
      </trkpt>
      <trkpt lat="24.926872059936382" lon="118.54690742222625">
        <ele>18.28704833984375</ele>
        <time>2025-12-20T12:43:42Z</time>
      </trkpt>
      <trkpt lat="24.927059345885358" lon="118.54706477341527">
        <ele>20.5787353515625</ele>
        <time>2025-12-20T12:43:51Z</time>
      </trkpt>
      <trkpt lat="24.927119357281175" lon="118.5470747924055">
        <ele>21.11383056640625</ele>
        <time>2025-12-20T12:44:18Z</time>
      </trkpt>
      <trkpt lat="24.92719966132244" lon="118.54723415456924">
        <ele>21.43243408203125</ele>
        <time>2025-12-20T12:44:24Z</time>
      </trkpt>
      <trkpt lat="24.927331933394463" lon="118.54738148443158">
        <ele>20.74542236328125</ele>
        <time>2025-12-20T12:44:30Z</time>
      </trkpt>
      <trkpt lat="24.927493198602264" lon="118.54752780908265">
        <ele>20.24822998046875</ele>
        <time>2025-12-20T12:44:36Z</time>
      </trkpt>
      <trkpt lat="24.927665700799846" lon="118.54779641129677">
        <ele>21.09051513671875</ele>
        <time>2025-12-20T12:44:45Z</time>
      </trkpt>
      <trkpt lat="24.927825217753952" lon="118.54807302961274">
        <ele>21.375244140625</ele>
        <time>2025-12-20T12:44:54Z</time>
      </trkpt>
      <trkpt lat="24.927984727984906" lon="118.54834764021018">
        <ele>21.34381103515625</ele>
        <time>2025-12-20T12:45:03Z</time>
      </trkpt>
      <trkpt lat="24.92813224481119" lon="118.54862625749054">
        <ele>21.3599853515625</ele>
        <time>2025-12-20T12:45:12Z</time>
      </trkpt>
      <trkpt lat="24.928276747645885" lon="118.5488988582803">
        <ele>21.93841552734375</ele>
        <time>2025-12-20T12:45:21Z</time>
      </trkpt>
      <trkpt lat="24.92842225708768" lon="118.54917646700974">
        <ele>21.3447265625</ele>
        <time>2025-12-20T12:45:30Z</time>
      </trkpt>
      <trkpt lat="24.928569761445008" lon="118.54945307012521">
        <ele>21.96112060546875</ele>
        <time>2025-12-20T12:45:39Z</time>
      </trkpt>
      <trkpt lat="24.92873724498712" lon="118.54972165096727">
        <ele>20.83990478515625</ele>
        <time>2025-12-20T12:45:48Z</time>
      </trkpt>
      <trkpt lat="24.92889673442991" lon="118.54999423806915">
        <ele>20.622314453125</ele>
        <time>2025-12-20T12:45:57Z</time>
      </trkpt>
      <trkpt lat="24.92908017844971" lon="118.55024577450891">
        <ele>20.91558837890625</ele>
        <time>2025-12-20T12:46:06Z</time>
      </trkpt>
      <trkpt lat="24.92917750952216" lon="118.55043117079164">
        <ele>22.36151123046875</ele>
        <time>2025-12-20T12:46:12Z</time>
      </trkpt>
      <trkpt lat="24.929347965980533" lon="118.55069072073326">
        <ele>22.3778076171875</ele>
        <time>2025-12-20T12:46:21Z</time>
      </trkpt>
      <trkpt lat="24.92952847730605" lon="118.55098233592798">
        <ele>25.7401123046875</ele>
        <time>2025-12-20T12:46:30Z</time>
      </trkpt>
      <trkpt lat="24.929679945581476" lon="118.55124989813983">
        <ele>26.21734619140625</ele>
        <time>2025-12-20T12:46:39Z</time>
      </trkpt>
      <trkpt lat="24.929705312457898" lon="118.55145332975471">
        <ele>25.81866455078125</ele>
        <time>2025-12-20T12:46:45Z</time>
      </trkpt>
      <trkpt lat="24.929805603657314" lon="118.55162168008579">
        <ele>24.30975341796875</ele>
        <time>2025-12-20T12:46:51Z</time>
      </trkpt>
      <trkpt lat="24.92995581615955" lon="118.55175094316817">
        <ele>23.06951904296875</ele>
        <time>2025-12-20T12:46:57Z</time>
      </trkpt>
      <trkpt lat="24.93016136950732" lon="118.5520746105513">
        <ele>24.2586669921875</ele>
        <time>2025-12-20T12:47:09Z</time>
      </trkpt>
      <trkpt lat="24.93035194943233" lon="118.55241430782002">
        <ele>24.5145263671875</ele>
        <time>2025-12-20T12:47:21Z</time>
      </trkpt>
      <trkpt lat="24.930510377007074" lon="118.55266782378061">
        <ele>23.22412109375</ele>
        <time>2025-12-20T12:47:30Z</time>
      </trkpt>
      <trkpt lat="24.930647815611927" lon="118.55292735077067">
        <ele>25.68218994140625</ele>
        <time>2025-12-20T12:47:39Z</time>
      </trkpt>
      <trkpt lat="24.930697960026002" lon="118.55301352478669">
        <ele>25.78424072265625</ele>
        <time>2025-12-20T12:47:42Z</time>
      </trkpt>
      <trkpt lat="24.930697960026002" lon="118.55301352478669">
        <ele>25.78424072265625</ele>
        <time>2025-12-20T12:47:44Z</time>
      </trkpt>
    </trkseg>
  </trk>
</gpx>