<?xml version="1.0" encoding="UTF-8"?>
<gpx xmlns="http://www.topografix.com/GPX/1/1" xmlns:gpxtpx="http://www.garmin.com/xmlschemas/TrackPointExtension/v1" xmlns:xsi="http://www.w3.org/2001/XMLSchema-instance" xsi:schemaLocation="http://www.topografix.com/GPX/1/1 http://www.topografix.com/GPX/1/1/gpx.xsd" version="1.1" creator="gpx.py -- https://github.com/tkrajina/gpxpy">
  <trk>
    <name>gpx from keep</name>
    <type>Run</type>
    <trkseg>
      <trkpt lat="24.91132417334189" lon="118.5373624913407">
        <ele>10.355005412362516</ele>
        <time>2024-12-24T13:09:22Z</time>
      </trkpt>
      <trkpt lat="24.91136603239445" lon="118.53732179960598">
        <ele>10.404897318221629</ele>
        <time>2024-12-24T13:09:26Z</time>
      </trkpt>
      <trkpt lat="24.911476655998335" lon="118.53706427606441">
        <ele>10.860413066111505</ele>
        <time>2024-12-24T13:09:34Z</time>
      </trkpt>
      <trkpt lat="24.911527561538897" lon="118.53703029210817">
        <ele>11.433330091647804</ele>
        <time>2024-12-24T13:09:38Z</time>
      </trkpt>
      <trkpt lat="24.91152793137739" lon="118.53679038167695">
        <ele>11.210715404711664</ele>
        <time>2024-12-24T13:09:46Z</time>
      </trkpt>
      <trkpt lat="24.91149551973592" lon="118.53673361259827">
        <ele>11.828490659594536</ele>
        <time>2024-12-24T13:09:50Z</time>
      </trkpt>
      <trkpt lat="24.91139240995034" lon="118.53664936748712">
        <ele>12.077192318625748</ele>
        <time>2024-12-24T13:09:56Z</time>
      </trkpt>
      <trkpt lat="24.911264261658136" lon="118.53660056156947">
        <ele>14.01492731552571</ele>
        <time>2024-12-24T13:10:02Z</time>
      </trkpt>
      <trkpt lat="24.91107713339288" lon="118.53644794045898">
        <ele>12.25730683747679</ele>
        <time>2024-12-24T13:10:08Z</time>
      </trkpt>
      <trkpt lat="24.91102452055223" lon="118.536370089638">
        <ele>12.350971087813377</ele>
        <time>2024-12-24T13:10:11Z</time>
      </trkpt>
      <trkpt lat="24.91102535207213" lon="118.53621457868148">
        <ele>12.638360396027565</ele>
        <time>2024-12-24T13:10:17Z</time>
      </trkpt>
      <trkpt lat="24.91113244951376" lon="118.5362037608075">
        <ele>12.516135865822434</ele>
        <time>2024-12-24T13:10:20Z</time>
      </trkpt>
      <trkpt lat="24.911353787057212" lon="118.53623219555">
        <ele>12.053790806792676</ele>
        <time>2024-12-24T13:10:23Z</time>
      </trkpt>
      <trkpt lat="24.911501539603222" lon="118.53634460516197">
        <ele>11.072257148101926</ele>
        <time>2024-12-24T13:10:26Z</time>
      </trkpt>
      <trkpt lat="24.9116972482703" lon="118.53666028972037">
        <ele>10.226846131496131</ele>
        <time>2024-12-24T13:10:32Z</time>
      </trkpt>
      <trkpt lat="24.9118113946385" lon="118.53685399953497">
        <ele>10.990495304577053</ele>
        <time>2024-12-24T13:10:38Z</time>
      </trkpt>
      <trkpt lat="24.91179459020604" lon="118.5369894126556">
        <ele>10.412002579309046</ele>
        <time>2024-12-24T13:10:41Z</time>
      </trkpt>
      <trkpt lat="24.911668282921514" lon="118.53727098919006">
        <ele>9.540963268838823</ele>
        <time>2024-12-24T13:10:47Z</time>
      </trkpt>
      <trkpt lat="24.911616467075138" lon="118.53746562565239">
        <ele>10.229624737985432</ele>
        <time>2024-12-24T13:10:53Z</time>
      </trkpt>
      <trkpt lat="24.911531567124236" lon="118.53754991010267">
        <ele>10.101357160136104</ele>
        <time>2024-12-24T13:10:56Z</time>
      </trkpt>
      <trkpt lat="24.911380047392942" lon="118.53778877490191">
        <ele>9.347012035548687</ele>
        <time>2024-12-24T13:11:02Z</time>
      </trkpt>
      <trkpt lat="24.911280580983806" lon="118.53807217643023">
        <ele>10.518713381141424</ele>
        <time>2024-12-24T13:11:11Z</time>
      </trkpt>
      <trkpt lat="24.91114055167548" lon="118.53817865544768">
        <ele>9.597286658361554</ele>
        <time>2024-12-24T13:11:14Z</time>
      </trkpt>
      <trkpt lat="24.91100762424893" lon="118.53830971945864">
        <ele>10.30592048726976</ele>
        <time>2024-12-24T13:11:17Z</time>
      </trkpt>
      <trkpt lat="24.910906574716698" lon="118.53845142837508">
        <ele>10.79278610367328</ele>
        <time>2024-12-24T13:11:21Z</time>
      </trkpt>
      <trkpt lat="24.910925383320237" lon="118.53853243319035">
        <ele>10.11204197164625</ele>
        <time>2024-12-24T13:11:25Z</time>
      </trkpt>
      <trkpt lat="24.910998502313856" lon="118.53858461805693">
        <ele>9.847192307934165</ele>
        <time>2024-12-24T13:11:29Z</time>
      </trkpt>
      <trkpt lat="24.911236047464172" lon="118.53853842792243">
        <ele>10.892976979725063</ele>
        <time>2024-12-24T13:11:37Z</time>
      </trkpt>
      <trkpt lat="24.911257378919895" lon="118.53844801548568">
        <ele>10.913180319592357</ele>
        <time>2024-12-24T13:11:41Z</time>
      </trkpt>
      <trkpt lat="24.911229579694414" lon="118.5380936712536">
        <ele>9.661932080984116</ele>
        <time>2024-12-24T13:11:53Z</time>
      </trkpt>
      <trkpt lat="24.911240802116627" lon="118.53800973392396">
        <ele>10.105996137484908</ele>
        <time>2024-12-24T13:11:56Z</time>
      </trkpt>
      <trkpt lat="24.91121099903711" lon="118.53782893412398">
        <ele>9.681960423476994</ele>
        <time>2024-12-24T13:12:02Z</time>
      </trkpt>
      <trkpt lat="24.91123428601688" lon="118.53773389415494">
        <ele>9.882587922737002</ele>
        <time>2024-12-24T13:12:05Z</time>
      </trkpt>
      <trkpt lat="24.911426560314077" lon="118.53765855843324">
        <ele>10.226172156631947</ele>
        <time>2024-12-24T13:12:08Z</time>
      </trkpt>
      <trkpt lat="24.911572241642304" lon="118.53763752178781">
        <ele>10.663993095047772</ele>
        <time>2024-12-24T13:12:11Z</time>
      </trkpt>
      <trkpt lat="24.911699465900252" lon="118.53764314706596">
        <ele>10.646152907051146</ele>
        <time>2024-12-24T13:12:14Z</time>
      </trkpt>
      <trkpt lat="24.911799972534556" lon="118.537623005231">
        <ele>11.069073725491762</ele>
        <time>2024-12-24T13:12:17Z</time>
      </trkpt>
      <trkpt lat="24.91186527452559" lon="118.53755834506838">
        <ele>10.469370624050498</ele>
        <time>2024-12-24T13:12:20Z</time>
      </trkpt>
      <trkpt lat="24.911986972738962" lon="118.53724817118777">
        <ele>10.813917479477823</ele>
        <time>2024-12-24T13:12:29Z</time>
      </trkpt>
      <trkpt lat="24.912031697977433" lon="118.53713666795232">
        <ele>9.838363350369036</ele>
        <time>2024-12-24T13:12:32Z</time>
      </trkpt>
      <trkpt lat="24.91206182045685" lon="118.53687588176575">
        <ele>9.895686909556389</ele>
        <time>2024-12-24T13:12:38Z</time>
      </trkpt>
      <trkpt lat="24.912042470397957" lon="118.53674163515767">
        <ele>10.588486972264946</ele>
        <time>2024-12-24T13:12:41Z</time>
      </trkpt>
      <trkpt lat="24.91206716435599" lon="118.53665715511636">
        <ele>10.435649189166725</ele>
        <time>2024-12-24T13:12:44Z</time>
      </trkpt>
      <trkpt lat="24.91215850030871" lon="118.53652498483406">
        <ele>10.25566953420639</ele>
        <time>2024-12-24T13:12:50Z</time>
      </trkpt>
      <trkpt lat="24.912301651469786" lon="118.53642125630317">
        <ele>10.86596979945898</ele>
        <time>2024-12-24T13:12:56Z</time>
      </trkpt>
      <trkpt lat="24.91245428705821" lon="118.53615940207636">
        <ele>12.009081900119781</ele>
        <time>2024-12-24T13:13:05Z</time>
      </trkpt>
      <trkpt lat="24.912468461233704" lon="118.53608160142132">
        <ele>10.63250541035086</ele>
        <time>2024-12-24T13:13:11Z</time>
      </trkpt>
      <trkpt lat="24.912447448904935" lon="118.5360323346989">
        <ele>10.441560877487063</ele>
        <time>2024-12-24T13:13:17Z</time>
      </trkpt>
      <trkpt lat="24.912462528577443" lon="118.53591658717681">
        <ele>10.423536216840148</ele>
        <time>2024-12-24T13:13:23Z</time>
      </trkpt>
      <trkpt lat="24.91264236654408" lon="118.53556428742108">
        <ele>10.569320967420936</ele>
        <time>2024-12-24T13:13:39Z</time>
      </trkpt>
      <trkpt lat="24.912757228219068" lon="118.53532881031312">
        <ele>11.076505180448294</ele>
        <time>2024-12-24T13:13:47Z</time>
      </trkpt>
      <trkpt lat="24.91285429449297" lon="118.53502742658894">
        <ele>10.537707495503128</ele>
        <time>2024-12-24T13:13:55Z</time>
      </trkpt>
      <trkpt lat="24.912951866482626" lon="118.53481147292452">
        <ele>10.177512404508889</ele>
        <time>2024-12-24T13:14:02Z</time>
      </trkpt>
      <trkpt lat="24.91301798149878" lon="118.5345883323722">
        <ele>10.998591128736734</ele>
        <time>2024-12-24T13:14:08Z</time>
      </trkpt>
      <trkpt lat="24.913064918308216" lon="118.53448927478195">
        <ele>10.293053665198386</ele>
        <time>2024-12-24T13:14:11Z</time>
      </trkpt>
      <trkpt lat="24.91309492510944" lon="118.53427618843324">
        <ele>10.929908503778279</ele>
        <time>2024-12-24T13:14:17Z</time>
      </trkpt>
      <trkpt lat="24.913145898231974" lon="118.53421385978758">
        <ele>11.212836801074445</ele>
        <time>2024-12-24T13:14:20Z</time>
      </trkpt>
      <trkpt lat="24.91328462648733" lon="118.5340906445132">
        <ele>9.719462809152901</ele>
        <time>2024-12-24T13:14:26Z</time>
      </trkpt>
      <trkpt lat="24.91345092886489" lon="118.5339767897208">
        <ele>10.147813700139523</ele>
        <time>2024-12-24T13:14:32Z</time>
      </trkpt>
      <trkpt lat="24.913712629297954" lon="118.53397795272507">
        <ele>10.689760751090944</ele>
        <time>2024-12-24T13:14:47Z</time>
      </trkpt>
      <trkpt lat="24.913792642912252" lon="118.53410176553265">
        <ele>10.78935497161001</ele>
        <time>2024-12-24T13:14:53Z</time>
      </trkpt>
      <trkpt lat="24.913855295562097" lon="118.53407766403815">
        <ele>10.685508762486279</ele>
        <time>2024-12-24T13:14:56Z</time>
      </trkpt>
      <trkpt lat="24.913937711453695" lon="118.53408156417062">
        <ele>10.07696045935154</ele>
        <time>2024-12-24T13:14:59Z</time>
      </trkpt>
      <trkpt lat="24.914188333751998" lon="118.5340280295136">
        <ele>10.159866267815232</ele>
        <time>2024-12-24T13:15:08Z</time>
      </trkpt>
      <trkpt lat="24.91453369649788" lon="118.53404271032588">
        <ele>12.304233090020716</ele>
        <time>2024-12-24T13:15:20Z</time>
      </trkpt>
      <trkpt lat="24.91489413371773" lon="118.53411691945907">
        <ele>12.959783300757408</ele>
        <time>2024-12-24T13:15:33Z</time>
      </trkpt>
      <trkpt lat="24.915175328932563" lon="118.53416488524314">
        <ele>12.69552930444479</ele>
        <time>2024-12-24T13:15:41Z</time>
      </trkpt>
      <trkpt lat="24.91553894127105" lon="118.53417375068804">
        <ele>13.047511288896203</ele>
        <time>2024-12-24T13:15:53Z</time>
      </trkpt>
      <trkpt lat="24.915932663115886" lon="118.5342472781348">
        <ele>12.551833465695381</ele>
        <time>2024-12-24T13:16:05Z</time>
      </trkpt>
      <trkpt lat="24.916303165608152" lon="118.53433341766002">
        <ele>12.570648794062436</ele>
        <time>2024-12-24T13:16:17Z</time>
      </trkpt>
      <trkpt lat="24.91661362907457" lon="118.53439096084881">
        <ele>13.293807603418827</ele>
        <time>2024-12-24T13:16:27Z</time>
      </trkpt>
      <trkpt lat="24.916703975507183" lon="118.53443874348278">
        <ele>14.261050109751523</ele>
        <time>2024-12-24T13:16:30Z</time>
      </trkpt>
      <trkpt lat="24.91698076282791" lon="118.53447495494595">
        <ele>14.92408892698586</ele>
        <time>2024-12-24T13:16:39Z</time>
      </trkpt>
      <trkpt lat="24.91725095387704" lon="118.53452496813702">
        <ele>14.15250266622752</ele>
        <time>2024-12-24T13:16:48Z</time>
      </trkpt>
      <trkpt lat="24.917529726868917" lon="118.5345804396817">
        <ele>14.712113628163934</ele>
        <time>2024-12-24T13:16:57Z</time>
      </trkpt>
      <trkpt lat="24.917710402632327" lon="118.53462407426852">
        <ele>14.602554167620838</ele>
        <time>2024-12-24T13:17:03Z</time>
      </trkpt>
      <trkpt lat="24.91780679333356" lon="118.53463160889243">
        <ele>14.677738686092198</ele>
        <time>2024-12-24T13:17:06Z</time>
      </trkpt>
      <trkpt lat="24.91808133423395" lon="118.53469971548691">
        <ele>14.81545812357217</ele>
        <time>2024-12-24T13:17:15Z</time>
      </trkpt>
      <trkpt lat="24.91833499375149" lon="118.53482371708348">
        <ele>13.36063314601779</ele>
        <time>2024-12-24T13:17:24Z</time>
      </trkpt>
      <trkpt lat="24.918500191280362" lon="118.53498668922744">
        <ele>13.602383204735816</ele>
        <time>2024-12-24T13:17:33Z</time>
      </trkpt>
      <trkpt lat="24.918540092093355" lon="118.53504901931322">
        <ele>13.09218328166753</ele>
        <time>2024-12-24T13:17:36Z</time>
      </trkpt>
      <trkpt lat="24.91861317272428" lon="118.53542323756996">
        <ele>11.491437878459692</ele>
        <time>2024-12-24T13:17:48Z</time>
      </trkpt>
      <trkpt lat="24.918610208914757" lon="118.53553776500402">
        <ele>11.236570864915848</ele>
        <time>2024-12-24T13:17:52Z</time>
      </trkpt>
      <trkpt lat="24.91857714184291" lon="118.53562087885204">
        <ele>10.616518539376557</ele>
        <time>2024-12-24T13:17:55Z</time>
      </trkpt>
      <trkpt lat="24.91852476033983" lon="118.53584765380975">
        <ele>10.519951550289989</ele>
        <time>2024-12-24T13:18:03Z</time>
      </trkpt>
      <trkpt lat="24.91852404957605" lon="118.53602460908456">
        <ele>9.898500878363848</ele>
        <time>2024-12-24T13:18:09Z</time>
      </trkpt>
      <trkpt lat="24.918483615803904" lon="118.53612068039216">
        <ele>9.87238233257085</ele>
        <time>2024-12-24T13:18:12Z</time>
      </trkpt>
      <trkpt lat="24.918354676043684" lon="118.53628733413376">
        <ele>10.183255776762962</ele>
        <time>2024-12-24T13:18:18Z</time>
      </trkpt>
      <trkpt lat="24.91831689856457" lon="118.53639417613431">
        <ele>10.266305956989527</ele>
        <time>2024-12-24T13:18:21Z</time>
      </trkpt>
      <trkpt lat="24.918199842583437" lon="118.53654407791433">
        <ele>10.137340491637588</ele>
        <time>2024-12-24T13:18:27Z</time>
      </trkpt>
      <trkpt lat="24.918073021887928" lon="118.53678817526438">
        <ele>9.970112620852888</ele>
        <time>2024-12-24T13:18:36Z</time>
      </trkpt>
      <trkpt lat="24.91806038298172" lon="118.53686594806744">
        <ele>10.265975802205503</ele>
        <time>2024-12-24T13:18:39Z</time>
      </trkpt>
      <trkpt lat="24.91798042660839" lon="118.53705035843367">
        <ele>10.133991803973913</ele>
        <time>2024-12-24T13:18:45Z</time>
      </trkpt>
      <trkpt lat="24.918003922900933" lon="118.53715613871726">
        <ele>10.215177406556904</ele>
        <time>2024-12-24T13:18:48Z</time>
      </trkpt>
      <trkpt lat="24.918090866104" lon="118.5373163259577">
        <ele>10.45100093074143</ele>
        <time>2024-12-24T13:18:54Z</time>
      </trkpt>
      <trkpt lat="24.918095533566717" lon="118.53740893000372">
        <ele>11.08543614950031</ele>
        <time>2024-12-24T13:18:57Z</time>
      </trkpt>
      <trkpt lat="24.91802548194983" lon="118.53774024453695">
        <ele>10.219639606773853</ele>
        <time>2024-12-24T13:19:06Z</time>
      </trkpt>
      <trkpt lat="24.91781667946346" lon="118.53799187472059">
        <ele>10.015319654718041</ele>
        <time>2024-12-24T13:19:12Z</time>
      </trkpt>
      <trkpt lat="24.917740970859715" lon="118.53807974677741">
        <ele>10.276584808714688</ele>
        <time>2024-12-24T13:19:15Z</time>
      </trkpt>
      <trkpt lat="24.917699389816168" lon="118.53818021061404">
        <ele>10.759677987545729</ele>
        <time>2024-12-24T13:19:18Z</time>
      </trkpt>
      <trkpt lat="24.91747784146985" lon="118.53845774893017">
        <ele>10.630739381536841</ele>
        <time>2024-12-24T13:19:27Z</time>
      </trkpt>
      <trkpt lat="24.917426889027162" lon="118.53852971152635">
        <ele>10.89328667987138</ele>
        <time>2024-12-24T13:19:30Z</time>
      </trkpt>
      <trkpt lat="24.917462424240487" lon="118.53857375228132">
        <ele>10.646913447417319</ele>
        <time>2024-12-24T13:19:36Z</time>
      </trkpt>
      <trkpt lat="24.9174545924115" lon="118.53869525405351">
        <ele>11.227177825756371</ele>
        <time>2024-12-24T13:19:42Z</time>
      </trkpt>
      <trkpt lat="24.917376180722155" lon="118.53882661241427">
        <ele>10.505874199792743</ele>
        <time>2024-12-24T13:19:46Z</time>
      </trkpt>
      <trkpt lat="24.91732941702507" lon="118.53896299396955">
        <ele>10.431176810525358</ele>
        <time>2024-12-24T13:19:50Z</time>
      </trkpt>
      <trkpt lat="24.91734655860268" lon="118.53909493160847">
        <ele>11.088158940896392</ele>
        <time>2024-12-24T13:19:54Z</time>
      </trkpt>
      <trkpt lat="24.917306730817536" lon="118.53939398664508">
        <ele>10.432747377082705</ele>
        <time>2024-12-24T13:20:01Z</time>
      </trkpt>
      <trkpt lat="24.917311672412996" lon="118.53954218414019">
        <ele>10.696618760935962</ele>
        <time>2024-12-24T13:20:04Z</time>
      </trkpt>
      <trkpt lat="24.917240764559303" lon="118.53967917145857">
        <ele>10.632990512996912</ele>
        <time>2024-12-24T13:20:07Z</time>
      </trkpt>
      <trkpt lat="24.917132761777435" lon="118.53980045911128">
        <ele>11.345645734108984</ele>
        <time>2024-12-24T13:20:10Z</time>
      </trkpt>
      <trkpt lat="24.916989341087238" lon="118.53985704666698">
        <ele>10.120243079960346</ele>
        <time>2024-12-24T13:20:13Z</time>
      </trkpt>
      <trkpt lat="24.91677696667366" lon="118.53999539716666">
        <ele>10.810487478971481</ele>
        <time>2024-12-24T13:20:19Z</time>
      </trkpt>
      <trkpt lat="24.916645551413296" lon="118.54017010919347">
        <ele>10.61635866202414</ele>
        <time>2024-12-24T13:20:25Z</time>
      </trkpt>
      <trkpt lat="24.91660716496813" lon="118.5403183442181">
        <ele>11.507052875123918</ele>
        <time>2024-12-24T13:20:31Z</time>
      </trkpt>
      <trkpt lat="24.91664513181745" lon="118.5403541385533">
        <ele>11.190360506996512</ele>
        <time>2024-12-24T13:20:37Z</time>
      </trkpt>
      <trkpt lat="24.916561382191336" lon="118.54051566199956">
        <ele>11.885302880778909</ele>
        <time>2024-12-24T13:20:46Z</time>
      </trkpt>
      <trkpt lat="24.91655842021119" lon="118.54077446998129">
        <ele>13.165576019324362</ele>
        <time>2024-12-24T13:20:52Z</time>
      </trkpt>
      <trkpt lat="24.91646460735426" lon="118.54107679681614">
        <ele>12.834196160547435</ele>
        <time>2024-12-24T13:21:01Z</time>
      </trkpt>
      <trkpt lat="24.91639488970161" lon="118.54134554689158">
        <ele>12.711800734512508</ele>
        <time>2024-12-24T13:21:10Z</time>
      </trkpt>
      <trkpt lat="24.91640702300987" lon="118.54141510985721">
        <ele>13.160674110986292</ele>
        <time>2024-12-24T13:21:13Z</time>
      </trkpt>
      <trkpt lat="24.916496536867072" lon="118.54157689477869">
        <ele>12.450378122739494</ele>
        <time>2024-12-24T13:21:19Z</time>
      </trkpt>
      <trkpt lat="24.916463941381828" lon="118.54165581690617">
        <ele>12.64901380147785</ele>
        <time>2024-12-24T13:21:22Z</time>
      </trkpt>
      <trkpt lat="24.916414854123712" lon="118.54171650502998">
        <ele>12.549516908824444</ele>
        <time>2024-12-24T13:21:25Z</time>
      </trkpt>
      <trkpt lat="24.916183872837532" lon="118.54180253551768">
        <ele>12.928589180111885</ele>
        <time>2024-12-24T13:21:34Z</time>
      </trkpt>
      <trkpt lat="24.9160363256394" lon="118.54198136014487">
        <ele>12.742803181521595</ele>
        <time>2024-12-24T13:21:43Z</time>
      </trkpt>
      <trkpt lat="24.91589711981244" lon="118.5420628529956">
        <ele>13.206100112758577</ele>
        <time>2024-12-24T13:21:49Z</time>
      </trkpt>
      <trkpt lat="24.91580298297859" lon="118.54209704578426">
        <ele>13.364351411350071</ele>
        <time>2024-12-24T13:21:53Z</time>
      </trkpt>
      <trkpt lat="24.91573598720765" lon="118.54214211947104">
        <ele>12.98241166677326</ele>
        <time>2024-12-24T13:21:57Z</time>
      </trkpt>
      <trkpt lat="24.915594065689653" lon="118.54216693561165">
        <ele>12.943465582095087</ele>
        <time>2024-12-24T13:22:01Z</time>
      </trkpt>
      <trkpt lat="24.91542162148558" lon="118.54222050812203">
        <ele>12.232735791243613</ele>
        <time>2024-12-24T13:22:05Z</time>
      </trkpt>
      <trkpt lat="24.915100732631558" lon="118.54225240847148">
        <ele>12.828128932975233</ele>
        <time>2024-12-24T13:22:14Z</time>
      </trkpt>
      <trkpt lat="24.914863203464805" lon="118.54227164021586">
        <ele>11.833944492973387</ele>
        <time>2024-12-24T13:22:20Z</time>
      </trkpt>
      <trkpt lat="24.91475280195251" lon="118.542304569615">
        <ele>11.117600616067648</ele>
        <time>2024-12-24T13:22:23Z</time>
      </trkpt>
      <trkpt lat="24.914625002295356" lon="118.54231572373067">
        <ele>10.91764784231782</ele>
        <time>2024-12-24T13:22:26Z</time>
      </trkpt>
      <trkpt lat="24.91451257930348" lon="118.54235269969874">
        <ele>10.626428266055882</ele>
        <time>2024-12-24T13:22:29Z</time>
      </trkpt>
      <trkpt lat="24.914405426850436" lon="118.54235277787126">
        <ele>10.804964679293334</ele>
        <time>2024-12-24T13:22:32Z</time>
      </trkpt>
      <trkpt lat="24.91421281793544" lon="118.542409206698">
        <ele>10.140093876980245</ele>
        <time>2024-12-24T13:22:38Z</time>
      </trkpt>
      <trkpt lat="24.913985129682217" lon="118.54242518403004">
        <ele>10.737321875058115</ele>
        <time>2024-12-24T13:22:47Z</time>
      </trkpt>
      <trkpt lat="24.913909567876278" lon="118.5425180916325">
        <ele>10.301765440031886</ele>
        <time>2024-12-24T13:22:50Z</time>
      </trkpt>
      <trkpt lat="24.913824507786703" lon="118.5425878988468">
        <ele>10.381575236096978</ele>
        <time>2024-12-24T13:22:53Z</time>
      </trkpt>
      <trkpt lat="24.913740502771816" lon="118.54262972815643">
        <ele>10.31521109957248</ele>
        <time>2024-12-24T13:22:56Z</time>
      </trkpt>
      <trkpt lat="24.913649923751056" lon="118.54264243820779">
        <ele>10.167194261215627</ele>
        <time>2024-12-24T13:22:59Z</time>
      </trkpt>
      <trkpt lat="24.913425532799938" lon="118.54261298902134">
        <ele>10.243041682988405</ele>
        <time>2024-12-24T13:23:08Z</time>
      </trkpt>
      <trkpt lat="24.913322690376802" lon="118.54263671037647">
        <ele>9.92754191160202</ele>
        <time>2024-12-24T13:23:11Z</time>
      </trkpt>
      <trkpt lat="24.913210908385945" lon="118.54268645823872">
        <ele>8.909785750322044</ele>
        <time>2024-12-24T13:23:14Z</time>
      </trkpt>
      <trkpt lat="24.91310223980074" lon="118.54269189511423">
        <ele>8.510473478585482</ele>
        <time>2024-12-24T13:23:17Z</time>
      </trkpt>
      <trkpt lat="24.91292790268414" lon="118.54274616728776">
        <ele>8.789097524248064</ele>
        <time>2024-12-24T13:23:23Z</time>
      </trkpt>
      <trkpt lat="24.912855823912768" lon="118.54274628194798">
        <ele>9.227405070327222</ele>
        <time>2024-12-24T13:23:26Z</time>
      </trkpt>
      <trkpt lat="24.912573735266232" lon="118.54283385270114">
        <ele>10.25910415314138</ele>
        <time>2024-12-24T13:23:35Z</time>
      </trkpt>
      <trkpt lat="24.912276537650968" lon="118.54293440553904">
        <ele>9.960768718272448</ele>
        <time>2024-12-24T13:23:44Z</time>
      </trkpt>
      <trkpt lat="24.911980159289662" lon="118.5430237556771">
        <ele>8.789131998084486</ele>
        <time>2024-12-24T13:23:53Z</time>
      </trkpt>
      <trkpt lat="24.91186137269499" lon="118.54304191523333">
        <ele>8.720719951204956</ele>
        <time>2024-12-24T13:23:57Z</time>
      </trkpt>
      <trkpt lat="24.91174594654741" lon="118.54302957542806">
        <ele>8.307835799641907</ele>
        <time>2024-12-24T13:24:01Z</time>
      </trkpt>
      <trkpt lat="24.911496924177158" lon="118.54309995118057">
        <ele>9.979685753583908</ele>
        <time>2024-12-24T13:24:11Z</time>
      </trkpt>
      <trkpt lat="24.911192588470875" lon="118.5431097548107">
        <ele>10.623316348530352</ele>
        <time>2024-12-24T13:24:23Z</time>
      </trkpt>
      <trkpt lat="24.911126924581314" lon="118.54316766560454">
        <ele>9.808138384483755</ele>
        <time>2024-12-24T13:24:26Z</time>
      </trkpt>
      <trkpt lat="24.910852226380374" lon="118.54319741306107">
        <ele>9.113545643165708</ele>
        <time>2024-12-24T13:24:41Z</time>
      </trkpt>
      <trkpt lat="24.910664324516464" lon="118.54322655903712">
        <ele>7.7277491725981236</ele>
        <time>2024-12-24T13:24:47Z</time>
      </trkpt>
      <trkpt lat="24.910485119691685" lon="118.54322046017614">
        <ele>8.248982207849622</ele>
        <time>2024-12-24T13:24:53Z</time>
      </trkpt>
      <trkpt lat="24.910410912961797" lon="118.54315530739211">
        <ele>7.924909166060388</ele>
        <time>2024-12-24T13:24:59Z</time>
      </trkpt>
      <trkpt lat="24.910397772444444" lon="118.54306591029531">
        <ele>8.861847481690347</ele>
        <time>2024-12-24T13:25:05Z</time>
      </trkpt>
      <trkpt lat="24.910419439774827" lon="118.54293720421501">
        <ele>8.693879823200405</ele>
        <time>2024-12-24T13:25:11Z</time>
      </trkpt>
      <trkpt lat="24.9104470100302" lon="118.54287023780817">
        <ele>8.83554762788117</ele>
        <time>2024-12-24T13:25:14Z</time>
      </trkpt>
      <trkpt lat="24.91043245241536" lon="118.54266337481461">
        <ele>9.255468639545143</ele>
        <time>2024-12-24T13:25:20Z</time>
      </trkpt>
      <trkpt lat="24.91049666397803" lon="118.54240335926393">
        <ele>9.688763707876205</ele>
        <time>2024-12-24T13:25:26Z</time>
      </trkpt>
      <trkpt lat="24.910500224296168" lon="118.54227968829079">
        <ele>9.378297335468233</ele>
        <time>2024-12-24T13:25:29Z</time>
      </trkpt>
      <trkpt lat="24.91057676147545" lon="118.54207399496765">
        <ele>8.274035432375968</ele>
        <time>2024-12-24T13:25:35Z</time>
      </trkpt>
      <trkpt lat="24.910559853100757" lon="118.54198713367205">
        <ele>8.158729276619852</ele>
        <time>2024-12-24T13:25:38Z</time>
      </trkpt>
      <trkpt lat="24.91035483497995" lon="118.5416925875702">
        <ele>8.276860433630645</ele>
        <time>2024-12-24T13:25:47Z</time>
      </trkpt>
      <trkpt lat="24.910169775823853" lon="118.54149460657587">
        <ele>7.929608803242445</ele>
        <time>2024-12-24T13:25:53Z</time>
      </trkpt>
      <trkpt lat="24.910114169333784" lon="118.5414019038592">
        <ele>7.685032710433006</ele>
        <time>2024-12-24T13:25:56Z</time>
      </trkpt>
      <trkpt lat="24.910039458821725" lon="118.54132523890978">
        <ele>8.037603034637868</ele>
        <time>2024-12-24T13:25:59Z</time>
      </trkpt>
      <trkpt lat="24.910037624029197" lon="118.54121688432932">
        <ele>8.298390155658126</ele>
        <time>2024-12-24T13:26:03Z</time>
      </trkpt>
      <trkpt lat="24.910298090384742" lon="118.54118908693641">
        <ele>8.54215692076832</ele>
        <time>2024-12-24T13:26:09Z</time>
      </trkpt>
      <trkpt lat="24.910415028078532" lon="118.54112186915985">
        <ele>8.983020175248384</ele>
        <time>2024-12-24T13:26:12Z</time>
      </trkpt>
      <trkpt lat="24.91068715949154" lon="118.54085301184897">
        <ele>9.334858771413565</ele>
        <time>2024-12-24T13:26:21Z</time>
      </trkpt>
      <trkpt lat="24.910827680360295" lon="118.54073168622591">
        <ele>9.42082157265395</ele>
        <time>2024-12-24T13:26:30Z</time>
      </trkpt>
      <trkpt lat="24.910901912990077" lon="118.54062914625072">
        <ele>9.742412935942411</ele>
        <time>2024-12-24T13:26:36Z</time>
      </trkpt>
      <trkpt lat="24.91093405286618" lon="118.5404146904115">
        <ele>8.799015756696463</ele>
        <time>2024-12-24T13:26:45Z</time>
      </trkpt>
      <trkpt lat="24.91093497012601" lon="118.54008969349162">
        <ele>8.297043833881617</ele>
        <time>2024-12-24T13:26:51Z</time>
      </trkpt>
      <trkpt lat="24.911019840312626" lon="118.5397965805006">
        <ele>8.145555530674756</ele>
        <time>2024-12-24T13:26:57Z</time>
      </trkpt>
      <trkpt lat="24.911076767881354" lon="118.53963713630324">
        <ele>7.8835488790646195</ele>
        <time>2024-12-24T13:27:00Z</time>
      </trkpt>
      <trkpt lat="24.91109855041508" lon="118.53935062080089">
        <ele>8.24499811604619</ele>
        <time>2024-12-24T13:27:06Z</time>
      </trkpt>
      <trkpt lat="24.911199806504367" lon="118.53900347519598">
        <ele>7.641068711876869</ele>
        <time>2024-12-24T13:27:15Z</time>
      </trkpt>
      <trkpt lat="24.91124937155149" lon="118.53882281661849">
        <ele>9.021407147869468</ele>
        <time>2024-12-24T13:27:21Z</time>
      </trkpt>
      <trkpt lat="24.9112353268967" lon="118.5386156725263">
        <ele>9.574055081233382</ele>
        <time>2024-12-24T13:27:27Z</time>
      </trkpt>
      <trkpt lat="24.911349782589877" lon="118.53841908350051">
        <ele>10.345017828047276</ele>
        <time>2024-12-24T13:27:33Z</time>
      </trkpt>
      <trkpt lat="24.911386046274526" lon="118.53832353858618">
        <ele>10.433594183064997</ele>
        <time>2024-12-24T13:27:36Z</time>
      </trkpt>
      <trkpt lat="24.911390219809753" lon="118.5381278574215">
        <ele>10.717864188365638</ele>
        <time>2024-12-24T13:27:42Z</time>
      </trkpt>
      <trkpt lat="24.911367257700007" lon="118.53803712751925">
        <ele>11.226004392839968</ele>
        <time>2024-12-24T13:27:45Z</time>
      </trkpt>
      <trkpt lat="24.911319997688757" lon="118.5379364281242">
        <ele>10.845795549452305</ele>
        <time>2024-12-24T13:27:48Z</time>
      </trkpt>
      <trkpt lat="24.911637251737105" lon="118.53780963138182">
        <ele>10.111405233852565</ele>
        <time>2024-12-24T13:27:54Z</time>
      </trkpt>
      <trkpt lat="24.91186998823383" lon="118.53769195098275">
        <ele>11.006389410234988</ele>
        <time>2024-12-24T13:28:03Z</time>
      </trkpt>
      <trkpt lat="24.911920323050772" lon="118.53758505480539">
        <ele>10.507477619685233</ele>
        <time>2024-12-24T13:28:06Z</time>
      </trkpt>
      <trkpt lat="24.911970903231122" lon="118.53727791005548">
        <ele>11.112894313409925</ele>
        <time>2024-12-24T13:28:14Z</time>
      </trkpt>
      <trkpt lat="24.91201272620329" lon="118.53712672326496">
        <ele>10.511322969570756</ele>
        <time>2024-12-24T13:28:18Z</time>
      </trkpt>
      <trkpt lat="24.91202558441011" lon="118.5369513661771">
        <ele>10.381506715901196</ele>
        <time>2024-12-24T13:28:22Z</time>
      </trkpt>
      <trkpt lat="24.912054009385262" lon="118.53682290944526">
        <ele>10.782350158318877</ele>
        <time>2024-12-24T13:28:25Z</time>
      </trkpt>
      <trkpt lat="24.912089803203575" lon="118.53673534595943">
        <ele>10.649972359649837</ele>
        <time>2024-12-24T13:28:28Z</time>
      </trkpt>
      <trkpt lat="24.912243222900727" lon="118.53650281159752">
        <ele>10.794813982211053</ele>
        <time>2024-12-24T13:28:37Z</time>
      </trkpt>
      <trkpt lat="24.91230991796791" lon="118.53644088188666">
        <ele>10.687682314775884</ele>
        <time>2024-12-24T13:28:40Z</time>
      </trkpt>
      <trkpt lat="24.912443881183314" lon="118.53621477602698">
        <ele>11.106593829579651</ele>
        <time>2024-12-24T13:28:49Z</time>
      </trkpt>
      <trkpt lat="24.912490405431825" lon="118.53619967879871">
        <ele>11.14095014706254</ele>
        <time>2024-12-24T13:28:52Z</time>
      </trkpt>
      <trkpt lat="24.91253849165996" lon="118.53622311845749">
        <ele>11.024786457419395</ele>
        <time>2024-12-24T13:28:55Z</time>
      </trkpt>
      <trkpt lat="24.912582857284463" lon="118.53626809597763">
        <ele>10.376593928784132</ele>
        <time>2024-12-24T13:28:58Z</time>
      </trkpt>
      <trkpt lat="24.91263789377338" lon="118.53629694375326">
        <ele>10.744551700539887</ele>
        <time>2024-12-24T13:29:01Z</time>
      </trkpt>
      <trkpt lat="24.912731454144016" lon="118.53629287644591">
        <ele>10.68854923453182</ele>
        <time>2024-12-24T13:29:04Z</time>
      </trkpt>
      <trkpt lat="24.912902540512064" lon="118.53623433286363">
        <ele>11.40427806507796</ele>
        <time>2024-12-24T13:29:10Z</time>
      </trkpt>
      <trkpt lat="24.913037024858202" lon="118.53613641527045">
        <ele>12.576661826111376</ele>
        <time>2024-12-24T13:29:16Z</time>
      </trkpt>
      <trkpt lat="24.913201680892243" lon="118.53615493874635">
        <ele>12.962640344165266</ele>
        <time>2024-12-24T13:29:22Z</time>
      </trkpt>
      <trkpt lat="24.913274133416756" lon="118.53612592474602">
        <ele>13.201546928845346</ele>
        <time>2024-12-24T13:29:25Z</time>
      </trkpt>
      <trkpt lat="24.91343680822509" lon="118.53614694641134">
        <ele>12.46337638888508</ele>
        <time>2024-12-24T13:29:31Z</time>
      </trkpt>
      <trkpt lat="24.913519573407907" lon="118.53619023960515">
        <ele>12.907107491977513</ele>
        <time>2024-12-24T13:29:34Z</time>
      </trkpt>
      <trkpt lat="24.91370082814982" lon="118.53640018939957">
        <ele>12.848117910325527</ele>
        <time>2024-12-24T13:29:40Z</time>
      </trkpt>
      <trkpt lat="24.91377981421139" lon="118.53653550338585">
        <ele>12.948600272648036</ele>
        <time>2024-12-24T13:29:43Z</time>
      </trkpt>
      <trkpt lat="24.91388282217854" lon="118.53654871075935">
        <ele>12.83287746924907</ele>
        <time>2024-12-24T13:29:46Z</time>
      </trkpt>
      <trkpt lat="24.91395652595013" lon="118.53663135316944">
        <ele>12.615341186523438</ele>
        <time>2024-12-24T13:29:49Z</time>
      </trkpt>
      <trkpt lat="24.914095111258877" lon="118.53672336776991">
        <ele>13.203488702885807</ele>
        <time>2024-12-24T13:29:58Z</time>
      </trkpt>
      <trkpt lat="24.914197949539243" lon="118.53675722029925">
        <ele>13.68580578174442</ele>
        <time>2024-12-24T13:30:01Z</time>
      </trkpt>
      <trkpt lat="24.914324628619696" lon="118.53676623915915">
        <ele>12.94760045222938</ele>
        <time>2024-12-24T13:30:04Z</time>
      </trkpt>
      <trkpt lat="24.914416917936094" lon="118.53685436615434">
        <ele>13.62214123364538</ele>
        <time>2024-12-24T13:30:07Z</time>
      </trkpt>
      <trkpt lat="24.914449345461726" lon="118.53691723725842">
        <ele>14.176178269088268</ele>
        <time>2024-12-24T13:30:10Z</time>
      </trkpt>
      <trkpt lat="24.914534074281942" lon="118.53692857138971">
        <ele>14.302667033858597</ele>
        <time>2024-12-24T13:30:13Z</time>
      </trkpt>
      <trkpt lat="24.914731890619322" lon="118.53702762308131">
        <ele>15.05609537474811</ele>
        <time>2024-12-24T13:30:20Z</time>
      </trkpt>
      <trkpt lat="24.914835453736593" lon="118.53700422970267">
        <ele>15.008498329669237</ele>
        <time>2024-12-24T13:30:23Z</time>
      </trkpt>
      <trkpt lat="24.914935805350385" lon="118.53701687745254">
        <ele>14.895041521638632</ele>
        <time>2024-12-24T13:30:26Z</time>
      </trkpt>
      <trkpt lat="24.91501788283916" lon="118.53706730077961">
        <ele>15.294648341834545</ele>
        <time>2024-12-24T13:30:29Z</time>
      </trkpt>
      <trkpt lat="24.91505185713039" lon="118.53715543633847">
        <ele>15.11742404755205</ele>
        <time>2024-12-24T13:30:32Z</time>
      </trkpt>
      <trkpt lat="24.915145541842023" lon="118.53715647685853">
        <ele>16.480076940730214</ele>
        <time>2024-12-24T13:30:35Z</time>
      </trkpt>
      <trkpt lat="24.915220387544426" lon="118.537364928222">
        <ele>16.262266470119357</ele>
        <time>2024-12-24T13:30:41Z</time>
      </trkpt>
      <trkpt lat="24.915279246587648" lon="118.53746034791997">
        <ele>16.15597239881754</ele>
        <time>2024-12-24T13:30:44Z</time>
      </trkpt>
      <trkpt lat="24.915316425292747" lon="118.53755703305377">
        <ele>16.44026616960764</ele>
        <time>2024-12-24T13:30:47Z</time>
      </trkpt>
      <trkpt lat="24.91537247131506" lon="118.5379317766231">
        <ele>15.906329127028584</ele>
        <time>2024-12-24T13:31:05Z</time>
      </trkpt>
      <trkpt lat="24.91542337719128" lon="118.5381477620936">
        <ele>15.467688977718353</ele>
        <time>2024-12-24T13:31:11Z</time>
      </trkpt>
      <trkpt lat="24.915551494427977" lon="118.53837348907747">
        <ele>16.90054894797504</ele>
        <time>2024-12-24T13:31:17Z</time>
      </trkpt>
      <trkpt lat="24.91567031194612" lon="118.53866149273244">
        <ele>17.067946886643767</ele>
        <time>2024-12-24T13:31:24Z</time>
      </trkpt>
      <trkpt lat="24.915721617335524" lon="118.53888317941312">
        <ele>16.947862272150815</ele>
        <time>2024-12-24T13:31:30Z</time>
      </trkpt>
      <trkpt lat="24.915722050242106" lon="118.53900556299088">
        <ele>16.028541778214276</ele>
        <time>2024-12-24T13:31:33Z</time>
      </trkpt>
      <trkpt lat="24.915807819224952" lon="118.53931856345906">
        <ele>15.300774930045009</ele>
        <time>2024-12-24T13:31:42Z</time>
      </trkpt>
      <trkpt lat="24.915917935555182" lon="118.53952458190932">
        <ele>14.01207959651947</ele>
        <time>2024-12-24T13:31:48Z</time>
      </trkpt>
      <trkpt lat="24.916127385603758" lon="118.53977548313128">
        <ele>13.344462681561708</ele>
        <time>2024-12-24T13:31:57Z</time>
      </trkpt>
      <trkpt lat="24.916193266372055" lon="118.53985503052351">
        <ele>13.287528849206865</ele>
        <time>2024-12-24T13:32:00Z</time>
      </trkpt>
      <trkpt lat="24.91622340448982" lon="118.5399630179759">
        <ele>12.915477223694324</ele>
        <time>2024-12-24T13:32:03Z</time>
      </trkpt>
      <trkpt lat="24.916230686927026" lon="118.54014037488342">
        <ele>13.750482596457005</ele>
        <time>2024-12-24T13:32:09Z</time>
      </trkpt>
      <trkpt lat="24.91629115520173" lon="118.54021021173932">
        <ele>12.507455430924892</ele>
        <time>2024-12-24T13:32:12Z</time>
      </trkpt>
      <trkpt lat="24.916467060182093" lon="118.54028520073554">
        <ele>12.972429799847305</ele>
        <time>2024-12-24T13:32:18Z</time>
      </trkpt>
      <trkpt lat="24.916574167444946" lon="118.54030562952477">
        <ele>11.804719166830182</ele>
        <time>2024-12-24T13:32:22Z</time>
      </trkpt>
      <trkpt lat="24.916622688323073" lon="118.54036968210735">
        <ele>11.165878491476178</ele>
        <time>2024-12-24T13:32:25Z</time>
      </trkpt>
      <trkpt lat="24.91656404595375" lon="118.54067576423274">
        <ele>12.90072681568563</ele>
        <time>2024-12-24T13:32:34Z</time>
      </trkpt>
      <trkpt lat="24.916495265688003" lon="118.5407785640443">
        <ele>12.703393639996648</ele>
        <time>2024-12-24T13:32:37Z</time>
      </trkpt>
      <trkpt lat="24.916417984880177" lon="118.54098043355282">
        <ele>13.52004929818213</ele>
        <time>2024-12-24T13:32:46Z</time>
      </trkpt>
      <trkpt lat="24.916359252921637" lon="118.54104433816981">
        <ele>13.143708793446422</ele>
        <time>2024-12-24T13:32:49Z</time>
      </trkpt>
      <trkpt lat="24.9163853207045" lon="118.54118171194325">
        <ele>12.83671777881682</ele>
        <time>2024-12-24T13:32:55Z</time>
      </trkpt>
      <trkpt lat="24.916543264851406" lon="118.54134512470748">
        <ele>12.588965917006135</ele>
        <time>2024-12-24T13:33:01Z</time>
      </trkpt>
      <trkpt lat="24.91650763184859" lon="118.54151614734141">
        <ele>12.812414617277682</ele>
        <time>2024-12-24T13:33:07Z</time>
      </trkpt>
      <trkpt lat="24.916377429409213" lon="118.54165099250709">
        <ele>12.873354653827846</ele>
        <time>2024-12-24T13:33:16Z</time>
      </trkpt>
      <trkpt lat="24.916314916617008" lon="118.54176600022429">
        <ele>11.83428459893912</ele>
        <time>2024-12-24T13:33:22Z</time>
      </trkpt>
      <trkpt lat="24.916007963790996" lon="118.54199857459012">
        <ele>12.342760774306953</ele>
        <time>2024-12-24T13:33:28Z</time>
      </trkpt>
      <trkpt lat="24.91583769230745" lon="118.5421149655889">
        <ele>12.821814064867795</ele>
        <time>2024-12-24T13:33:31Z</time>
      </trkpt>
      <trkpt lat="24.915636724171335" lon="118.5422010258409">
        <ele>12.726888381876051</ele>
        <time>2024-12-24T13:33:34Z</time>
      </trkpt>
      <trkpt lat="24.91544913188975" lon="118.5422393573616">
        <ele>12.918363836593926</ele>
        <time>2024-12-24T13:33:37Z</time>
      </trkpt>
      <trkpt lat="24.915205570508967" lon="118.54233905289306">
        <ele>13.07120266277343</ele>
        <time>2024-12-24T13:33:43Z</time>
      </trkpt>
    </trkseg>
  </trk>
</gpx>