<?xml version="1.0" encoding="UTF-8"?>
<gpx xmlns="http://www.topografix.com/GPX/1/1" xmlns:gpxtpx="http://www.garmin.com/xmlschemas/TrackPointExtension/v1" xmlns:xsi="http://www.w3.org/2001/XMLSchema-instance" xsi:schemaLocation="http://www.topografix.com/GPX/1/1 http://www.topografix.com/GPX/1/1/gpx.xsd" version="1.1" creator="gpx.py -- https://github.com/tkrajina/gpxpy">
  <trk>
    <name>gpx from keep</name>
    <type>Run</type>
    <trkseg>
      <trkpt lat="24.911355562064912" lon="118.53727713014617">
        <ele>10.696756686967916</ele>
        <time>2025-03-16T13:59:41Z</time>
      </trkpt>
      <trkpt lat="24.911357314448445" lon="118.53734535006484">
        <ele>10.646306094713509</ele>
        <time>2025-03-16T13:59:44Z</time>
      </trkpt>
      <trkpt lat="24.91131982301345" lon="118.5374739198394">
        <ele>10.529640268534422</ele>
        <time>2025-03-16T13:59:47Z</time>
      </trkpt>
      <trkpt lat="24.911267035002577" lon="118.5375702837951">
        <ele>9.812555538490415</ele>
        <time>2025-03-16T13:59:50Z</time>
      </trkpt>
      <trkpt lat="24.911199471853813" lon="118.5376511066371">
        <ele>9.427261750213802</ele>
        <time>2025-03-16T13:59:53Z</time>
      </trkpt>
      <trkpt lat="24.91108549258556" lon="118.53786308298493">
        <ele>9.141926355659962</ele>
        <time>2025-03-16T13:59:59Z</time>
      </trkpt>
      <trkpt lat="24.911008093979806" lon="118.53794065621341">
        <ele>9.699057446792722</ele>
        <time>2025-03-16T14:00:02Z</time>
      </trkpt>
      <trkpt lat="24.910870670039184" lon="118.53822756509298">
        <ele>10.021673112176359</ele>
        <time>2025-03-16T14:00:11Z</time>
      </trkpt>
      <trkpt lat="24.910797919157382" lon="118.53841800498496">
        <ele>9.755295176059008</ele>
        <time>2025-03-16T14:00:17Z</time>
      </trkpt>
      <trkpt lat="24.910838064032472" lon="118.53853502410698">
        <ele>10.055808612145483</ele>
        <time>2025-03-16T14:00:20Z</time>
      </trkpt>
      <trkpt lat="24.91092495024303" lon="118.53860502711389">
        <ele>10.705689349211752</ele>
        <time>2025-03-16T14:00:23Z</time>
      </trkpt>
      <trkpt lat="24.91119366112517" lon="118.53870911389046">
        <ele>10.302989679388702</ele>
        <time>2025-03-16T14:00:32Z</time>
      </trkpt>
      <trkpt lat="24.911271003014324" lon="118.53864263207798">
        <ele>10.0185836404562</ele>
        <time>2025-03-16T14:00:35Z</time>
      </trkpt>
      <trkpt lat="24.911286903679528" lon="118.53846532756852">
        <ele>9.213829485699534</ele>
        <time>2025-03-16T14:00:41Z</time>
      </trkpt>
      <trkpt lat="24.91137400602113" lon="118.53818964847777">
        <ele>10.004541120491922</ele>
        <time>2025-03-16T14:00:50Z</time>
      </trkpt>
      <trkpt lat="24.911426818114734" lon="118.53809230916798">
        <ele>10.251758949831128</ele>
        <time>2025-03-16T14:00:53Z</time>
      </trkpt>
      <trkpt lat="24.91149245521915" lon="118.53790191173752">
        <ele>9.642629739828408</ele>
        <time>2025-03-16T14:00:59Z</time>
      </trkpt>
      <trkpt lat="24.91159953940076" lon="118.53770587645458">
        <ele>9.561861230060458</ele>
        <time>2025-03-16T14:01:05Z</time>
      </trkpt>
      <trkpt lat="24.911733665957254" lon="118.53752632032747">
        <ele>9.37978421524167</ele>
        <time>2025-03-16T14:01:11Z</time>
      </trkpt>
      <trkpt lat="24.9119145589088" lon="118.53718805119192">
        <ele>9.51764089986682</ele>
        <time>2025-03-16T14:01:23Z</time>
      </trkpt>
      <trkpt lat="24.91199962454119" lon="118.53690325503513">
        <ele>10.146229337900877</ele>
        <time>2025-03-16T14:01:32Z</time>
      </trkpt>
      <trkpt lat="24.91202488628758" lon="118.53681989192985">
        <ele>10.237752961926162</ele>
        <time>2025-03-16T14:01:35Z</time>
      </trkpt>
      <trkpt lat="24.91218732779943" lon="118.53650465521417">
        <ele>9.956742452457547</ele>
        <time>2025-03-16T14:01:45Z</time>
      </trkpt>
      <trkpt lat="24.91226521887112" lon="118.53640243300981">
        <ele>10.027298436500132</ele>
        <time>2025-03-16T14:01:49Z</time>
      </trkpt>
      <trkpt lat="24.91243438405949" lon="118.53606929652996">
        <ele>9.941968060098588</ele>
        <time>2025-03-16T14:02:01Z</time>
      </trkpt>
      <trkpt lat="24.912400786913228" lon="118.53595647348206">
        <ele>10.082691427320242</ele>
        <time>2025-03-16T14:02:05Z</time>
      </trkpt>
      <trkpt lat="24.91232407386927" lon="118.5359050474956">
        <ele>9.503418046049774</ele>
        <time>2025-03-16T14:02:09Z</time>
      </trkpt>
      <trkpt lat="24.912244752672514" lon="118.5358118588572">
        <ele>10.680102332495153</ele>
        <time>2025-03-16T14:02:13Z</time>
      </trkpt>
      <trkpt lat="24.91220737658191" lon="118.53570902624743">
        <ele>10.052098765969276</ele>
        <time>2025-03-16T14:02:17Z</time>
      </trkpt>
      <trkpt lat="24.9122573711373" lon="118.53562796887255">
        <ele>10.547901411540806</ele>
        <time>2025-03-16T14:02:20Z</time>
      </trkpt>
      <trkpt lat="24.912398956899494" lon="118.5352634115951">
        <ele>9.856260859407485</ele>
        <time>2025-03-16T14:02:32Z</time>
      </trkpt>
      <trkpt lat="24.912448393954186" lon="118.53517773885633">
        <ele>9.540250895544887</ele>
        <time>2025-03-16T14:02:35Z</time>
      </trkpt>
      <trkpt lat="24.912597399849375" lon="118.53481324482307">
        <ele>9.815352952107787</ele>
        <time>2025-03-16T14:02:47Z</time>
      </trkpt>
      <trkpt lat="24.912740605601" lon="118.53455129416385">
        <ele>10.100376320071518</ele>
        <time>2025-03-16T14:02:56Z</time>
      </trkpt>
      <trkpt lat="24.91288064958539" lon="118.53419997942737">
        <ele>9.126064259558916</ele>
        <time>2025-03-16T14:03:08Z</time>
      </trkpt>
      <trkpt lat="24.91291666661508" lon="118.53402324150319">
        <ele>9.124982511624694</ele>
        <time>2025-03-16T14:03:14Z</time>
      </trkpt>
      <trkpt lat="24.912964295695485" lon="118.53394016155295">
        <ele>9.632806161418557</ele>
        <time>2025-03-16T14:03:17Z</time>
      </trkpt>
      <trkpt lat="24.913030705824767" lon="118.53387698559672">
        <ele>9.76875917147845</ele>
        <time>2025-03-16T14:03:20Z</time>
      </trkpt>
      <trkpt lat="24.91311861633545" lon="118.5338516657017">
        <ele>9.348749454133213</ele>
        <time>2025-03-16T14:03:23Z</time>
      </trkpt>
      <trkpt lat="24.91346772152775" lon="118.53384941214804">
        <ele>11.16055368911475</ele>
        <time>2025-03-16T14:03:35Z</time>
      </trkpt>
      <trkpt lat="24.913803249558217" lon="118.53389794421959">
        <ele>10.103293519467115</ele>
        <time>2025-03-16T14:03:47Z</time>
      </trkpt>
      <trkpt lat="24.914153918530896" lon="118.53390787630718">
        <ele>10.676411899738014</ele>
        <time>2025-03-16T14:03:59Z</time>
      </trkpt>
      <trkpt lat="24.914416512515796" lon="118.53394429257283">
        <ele>11.512982858344913</ele>
        <time>2025-03-16T14:04:08Z</time>
      </trkpt>
      <trkpt lat="24.914662810649613" lon="118.53400055165116">
        <ele>12.84074959717691</ele>
        <time>2025-03-16T14:04:17Z</time>
      </trkpt>
      <trkpt lat="24.914748329390335" lon="118.5340373821768">
        <ele>12.568950470536947</ele>
        <time>2025-03-16T14:04:20Z</time>
      </trkpt>
      <trkpt lat="24.915097967507783" lon="118.53408091209226">
        <ele>13.258378492668271</ele>
        <time>2025-03-16T14:04:32Z</time>
      </trkpt>
      <trkpt lat="24.915390395444213" lon="118.5341342851205">
        <ele>12.74931847769767</ele>
        <time>2025-03-16T14:04:44Z</time>
      </trkpt>
      <trkpt lat="24.915552192044068" lon="118.53414052889423">
        <ele>13.80558741465211</ele>
        <time>2025-03-16T14:04:50Z</time>
      </trkpt>
      <trkpt lat="24.91584068169427" lon="118.53419979623492">
        <ele>12.881651487201452</ele>
        <time>2025-03-16T14:04:59Z</time>
      </trkpt>
      <trkpt lat="24.91593775786398" lon="118.53423286250624">
        <ele>12.758635079488158</ele>
        <time>2025-03-16T14:05:02Z</time>
      </trkpt>
      <trkpt lat="24.91624899665442" lon="118.53429656431496">
        <ele>12.952564097940922</ele>
        <time>2025-03-16T14:05:12Z</time>
      </trkpt>
      <trkpt lat="24.916528689396852" lon="118.53435942255223">
        <ele>13.33865783084184</ele>
        <time>2025-03-16T14:05:21Z</time>
      </trkpt>
      <trkpt lat="24.91662144744832" lon="118.53436272140712">
        <ele>13.66235435847193</ele>
        <time>2025-03-16T14:05:24Z</time>
      </trkpt>
      <trkpt lat="24.916885322825415" lon="118.5344179000795">
        <ele>14.914182541891932</ele>
        <time>2025-03-16T14:05:33Z</time>
      </trkpt>
      <trkpt lat="24.91715841535222" lon="118.5344520188181">
        <ele>14.768233202397823</ele>
        <time>2025-03-16T14:05:42Z</time>
      </trkpt>
      <trkpt lat="24.917423955378183" lon="118.53452012031273">
        <ele>14.653192339465022</ele>
        <time>2025-03-16T14:05:51Z</time>
      </trkpt>
      <trkpt lat="24.917689139142833" lon="118.53458911952984">
        <ele>14.79981447942555</ele>
        <time>2025-03-16T14:06:00Z</time>
      </trkpt>
      <trkpt lat="24.917858334390743" lon="118.53464135425185">
        <ele>14.43834747839719</ele>
        <time>2025-03-16T14:06:06Z</time>
      </trkpt>
      <trkpt lat="24.918132813072972" lon="118.5347020092135">
        <ele>14.081978767178953</ele>
        <time>2025-03-16T14:06:15Z</time>
      </trkpt>
      <trkpt lat="24.918400313653695" lon="118.53477631524454">
        <ele>12.593304893001914</ele>
        <time>2025-03-16T14:06:24Z</time>
      </trkpt>
      <trkpt lat="24.918558053683988" lon="118.53486737793986">
        <ele>12.76493692304939</ele>
        <time>2025-03-16T14:06:30Z</time>
      </trkpt>
      <trkpt lat="24.918620350710793" lon="118.53493425515389">
        <ele>13.030183215625584</ele>
        <time>2025-03-16T14:06:33Z</time>
      </trkpt>
      <trkpt lat="24.918663100754724" lon="118.53502283911261">
        <ele>12.688451625406742</ele>
        <time>2025-03-16T14:06:36Z</time>
      </trkpt>
      <trkpt lat="24.918670588504597" lon="118.53512227161038">
        <ele>12.50337952002883</ele>
        <time>2025-03-16T14:06:39Z</time>
      </trkpt>
      <trkpt lat="24.91863708180717" lon="118.53530727511794">
        <ele>11.147530882619321</ele>
        <time>2025-03-16T14:06:45Z</time>
      </trkpt>
      <trkpt lat="24.918481490823982" lon="118.53564788982912">
        <ele>10.188919551670551</ele>
        <time>2025-03-16T14:06:57Z</time>
      </trkpt>
      <trkpt lat="24.918396349429443" lon="118.53590552655187">
        <ele>9.923580423928797</ele>
        <time>2025-03-16T14:07:06Z</time>
      </trkpt>
      <trkpt lat="24.918212913291654" lon="118.53625073927441">
        <ele>10.014194802381098</ele>
        <time>2025-03-16T14:07:18Z</time>
      </trkpt>
      <trkpt lat="24.91816150662609" lon="118.53633344054882">
        <ele>10.44670412875712</ele>
        <time>2025-03-16T14:07:21Z</time>
      </trkpt>
      <trkpt lat="24.918107052604586" lon="118.53651799432129">
        <ele>10.328752025961876</ele>
        <time>2025-03-16T14:07:27Z</time>
      </trkpt>
      <trkpt lat="24.91792814428434" lon="118.53682708096">
        <ele>9.893943176604807</ele>
        <time>2025-03-16T14:07:39Z</time>
      </trkpt>
      <trkpt lat="24.91777633260675" lon="118.53718705415015">
        <ele>10.106655477546155</ele>
        <time>2025-03-16T14:07:51Z</time>
      </trkpt>
      <trkpt lat="24.917647376348885" lon="118.53756683553443">
        <ele>9.933184022083879</ele>
        <time>2025-03-16T14:08:03Z</time>
      </trkpt>
      <trkpt lat="24.91755411311808" lon="118.53785359740654">
        <ele>9.75444089062512</ele>
        <time>2025-03-16T14:08:12Z</time>
      </trkpt>
      <trkpt lat="24.917470662735198" lon="118.53800047952913">
        <ele>10.148812512867153</ele>
        <time>2025-03-16T14:08:18Z</time>
      </trkpt>
      <trkpt lat="24.91744848818337" lon="118.53810372942561">
        <ele>10.384013379924</ele>
        <time>2025-03-16T14:08:21Z</time>
      </trkpt>
      <trkpt lat="24.91740507146554" lon="118.53819089710106">
        <ele>10.271493501029909</ele>
        <time>2025-03-16T14:08:24Z</time>
      </trkpt>
      <trkpt lat="24.91738847011626" lon="118.53827505829655">
        <ele>10.231348698958755</ele>
        <time>2025-03-16T14:08:27Z</time>
      </trkpt>
      <trkpt lat="24.917300677428205" lon="118.5384217058527">
        <ele>10.102438942529261</ele>
        <time>2025-03-16T14:08:33Z</time>
      </trkpt>
      <trkpt lat="24.917241154414366" lon="118.53862455990331">
        <ele>10.41028987057507</ele>
        <time>2025-03-16T14:08:39Z</time>
      </trkpt>
      <trkpt lat="24.91722344583298" lon="118.53873695535665">
        <ele>10.425440811552107</ele>
        <time>2025-03-16T14:08:42Z</time>
      </trkpt>
      <trkpt lat="24.91722881269053" lon="118.53881583763483">
        <ele>9.663519620895386</ele>
        <time>2025-03-16T14:08:45Z</time>
      </trkpt>
      <trkpt lat="24.91719821433606" lon="118.53886068695495">
        <ele>9.965709545649588</ele>
        <time>2025-03-16T14:08:48Z</time>
      </trkpt>
      <trkpt lat="24.917192432149733" lon="118.5390073906962">
        <ele>9.580034034326673</ele>
        <time>2025-03-16T14:08:54Z</time>
      </trkpt>
      <trkpt lat="24.917149611907902" lon="118.53908027266486">
        <ele>9.76511191856116</ele>
        <time>2025-03-16T14:08:57Z</time>
      </trkpt>
      <trkpt lat="24.91712411810308" lon="118.53919468018046">
        <ele>10.018013961613178</ele>
        <time>2025-03-16T14:09:00Z</time>
      </trkpt>
      <trkpt lat="24.91702102461966" lon="118.5393662583665">
        <ele>9.796941856853664</ele>
        <time>2025-03-16T14:09:06Z</time>
      </trkpt>
      <trkpt lat="24.916862323414595" lon="118.5395129111486">
        <ele>10.330802239477634</ele>
        <time>2025-03-16T14:09:12Z</time>
      </trkpt>
      <trkpt lat="24.916773438008843" lon="118.5397080559197">
        <ele>10.140516806393862</ele>
        <time>2025-03-16T14:09:18Z</time>
      </trkpt>
      <trkpt lat="24.916661248975938" lon="118.53988293107527">
        <ele>9.646337121725082</ele>
        <time>2025-03-16T14:09:24Z</time>
      </trkpt>
      <trkpt lat="24.91659527140896" lon="118.5400440085534">
        <ele>10.562114871107042</ele>
        <time>2025-03-16T14:09:30Z</time>
      </trkpt>
      <trkpt lat="24.91655156456446" lon="118.54023292021536">
        <ele>11.570724370889366</ele>
        <time>2025-03-16T14:09:36Z</time>
      </trkpt>
      <trkpt lat="24.916541802752967" lon="118.54044113066065">
        <ele>11.561916158534586</ele>
        <time>2025-03-16T14:09:42Z</time>
      </trkpt>
      <trkpt lat="24.916408726539238" lon="118.54062635797064">
        <ele>12.094437173567712</ele>
        <time>2025-03-16T14:09:48Z</time>
      </trkpt>
      <trkpt lat="24.91636173745476" lon="118.54071607954002">
        <ele>11.121530597098172</ele>
        <time>2025-03-16T14:09:51Z</time>
      </trkpt>
      <trkpt lat="24.916311491748395" lon="118.54093965786221">
        <ele>12.80157583206892</ele>
        <time>2025-03-16T14:09:58Z</time>
      </trkpt>
      <trkpt lat="24.91631801413198" lon="118.54123812174068">
        <ele>12.602183201350272</ele>
        <time>2025-03-16T14:10:07Z</time>
      </trkpt>
      <trkpt lat="24.916363224154473" lon="118.54153259357176">
        <ele>12.595571776852012</ele>
        <time>2025-03-16T14:10:16Z</time>
      </trkpt>
      <trkpt lat="24.916380566001646" lon="118.54162603123386">
        <ele>12.798512876965106</ele>
        <time>2025-03-16T14:10:19Z</time>
      </trkpt>
      <trkpt lat="24.916376496084226" lon="118.54171045288243">
        <ele>12.783277270384133</ele>
        <time>2025-03-16T14:10:22Z</time>
      </trkpt>
      <trkpt lat="24.91632609608201" lon="118.54178864825165">
        <ele>12.297855568118393</ele>
        <time>2025-03-16T14:10:25Z</time>
      </trkpt>
      <trkpt lat="24.916253841363886" lon="118.54184028296211">
        <ele>12.676676076836884</ele>
        <time>2025-03-16T14:10:28Z</time>
      </trkpt>
      <trkpt lat="24.91601219332813" lon="118.54194401697362">
        <ele>12.187467795796692</ele>
        <time>2025-03-16T14:10:37Z</time>
      </trkpt>
      <trkpt lat="24.915656929461786" lon="118.54203336552268">
        <ele>12.68230857886374</ele>
        <time>2025-03-16T14:10:49Z</time>
      </trkpt>
      <trkpt lat="24.915562637845504" lon="118.54205417595252">
        <ele>12.44691637903452</ele>
        <time>2025-03-16T14:10:52Z</time>
      </trkpt>
      <trkpt lat="24.91538883709282" lon="118.54211627968937">
        <ele>12.024596398696303</ele>
        <time>2025-03-16T14:10:58Z</time>
      </trkpt>
      <trkpt lat="24.915131561218278" lon="118.54223928377095">
        <ele>12.129094458185136</ele>
        <time>2025-03-16T14:11:07Z</time>
      </trkpt>
      <trkpt lat="24.9149684080246" lon="118.54230702759197">
        <ele>12.516574181616306</ele>
        <time>2025-03-16T14:11:13Z</time>
      </trkpt>
      <trkpt lat="24.914730966734563" lon="118.54234653920506">
        <ele>11.096574498340487</ele>
        <time>2025-03-16T14:11:22Z</time>
      </trkpt>
      <trkpt lat="24.914568616881454" lon="118.54240677246294">
        <ele>10.726189840584993</ele>
        <time>2025-03-16T14:11:28Z</time>
      </trkpt>
      <trkpt lat="24.91421093584599" lon="118.54248277557657">
        <ele>9.958799386397004</ele>
        <time>2025-03-16T14:11:40Z</time>
      </trkpt>
      <trkpt lat="24.913944254552888" lon="118.54255679277584">
        <ele>10.645836918614805</ele>
        <time>2025-03-16T14:11:49Z</time>
      </trkpt>
      <trkpt lat="24.913605757347476" lon="118.54266630870643">
        <ele>9.170461221598089</ele>
        <time>2025-03-16T14:12:01Z</time>
      </trkpt>
      <trkpt lat="24.913336643015917" lon="118.54271633609189">
        <ele>8.933007934130728</ele>
        <time>2025-03-16T14:12:10Z</time>
      </trkpt>
      <trkpt lat="24.91300654024665" lon="118.54277741829931">
        <ele>8.254130190238357</ele>
        <time>2025-03-16T14:12:22Z</time>
      </trkpt>
      <trkpt lat="24.912666727108988" lon="118.5428805569249">
        <ele>9.38612422440201</ele>
        <time>2025-03-16T14:12:34Z</time>
      </trkpt>
      <trkpt lat="24.912432760626903" lon="118.54297537217654">
        <ele>8.730059130117297</ele>
        <time>2025-03-16T14:12:43Z</time>
      </trkpt>
      <trkpt lat="24.912183124789824" lon="118.54305639588368">
        <ele>8.448291341774166</ele>
        <time>2025-03-16T14:12:52Z</time>
      </trkpt>
      <trkpt lat="24.911839199017077" lon="118.54312376315944">
        <ele>7.929240350611508</ele>
        <time>2025-03-16T14:13:04Z</time>
      </trkpt>
      <trkpt lat="24.911517539878524" lon="118.54320480049486">
        <ele>8.260034212842584</ele>
        <time>2025-03-16T14:13:16Z</time>
      </trkpt>
      <trkpt lat="24.911171695351452" lon="118.54324551862436">
        <ele>8.564980507828295</ele>
        <time>2025-03-16T14:13:28Z</time>
      </trkpt>
      <trkpt lat="24.910888526944053" lon="118.5432695559862">
        <ele>8.239792397245765</ele>
        <time>2025-03-16T14:13:37Z</time>
      </trkpt>
      <trkpt lat="24.910808467958407" lon="118.54328923993165">
        <ele>8.387136694975197</ele>
        <time>2025-03-16T14:13:40Z</time>
      </trkpt>
      <trkpt lat="24.910474301084392" lon="118.5432926225774">
        <ele>8.052006855607033</ele>
        <time>2025-03-16T14:13:52Z</time>
      </trkpt>
      <trkpt lat="24.91038218060665" lon="118.5433009677427">
        <ele>8.192179098725319</ele>
        <time>2025-03-16T14:13:55Z</time>
      </trkpt>
      <trkpt lat="24.910321025351074" lon="118.54328764884423">
        <ele>8.44886479433626</ele>
        <time>2025-03-16T14:13:58Z</time>
      </trkpt>
      <trkpt lat="24.910280203005428" lon="118.54309223279074">
        <ele>7.66448696423322</ele>
        <time>2025-03-16T14:14:04Z</time>
      </trkpt>
      <trkpt lat="24.910316294862053" lon="118.54285978131556">
        <ele>7.177282580174506</ele>
        <time>2025-03-16T14:14:13Z</time>
      </trkpt>
      <trkpt lat="24.91036199611814" lon="118.54268374609327">
        <ele>7.455826000310481</ele>
        <time>2025-03-16T14:14:19Z</time>
      </trkpt>
      <trkpt lat="24.91038841382643" lon="118.5424059122566">
        <ele>8.400165546685457</ele>
        <time>2025-03-16T14:14:28Z</time>
      </trkpt>
      <trkpt lat="24.9103933567941" lon="118.54215459199422">
        <ele>7.986044319346547</ele>
        <time>2025-03-16T14:14:34Z</time>
      </trkpt>
      <trkpt lat="24.910417534195787" lon="118.54194932809239">
        <ele>7.983098743483424</ele>
        <time>2025-03-16T14:14:40Z</time>
      </trkpt>
      <trkpt lat="24.91046143971599" lon="118.54178176571739">
        <ele>8.076687531545758</ele>
        <time>2025-03-16T14:14:46Z</time>
      </trkpt>
      <trkpt lat="24.910443674601023" lon="118.54154423710766">
        <ele>7.849085411988199</ele>
        <time>2025-03-16T14:14:52Z</time>
      </trkpt>
      <trkpt lat="24.91041561734687" lon="118.54143983358523">
        <ele>8.029193975031376</ele>
        <time>2025-03-16T14:14:55Z</time>
      </trkpt>
      <trkpt lat="24.91040679692976" lon="118.54132546410437">
        <ele>8.409871538169682</ele>
        <time>2025-03-16T14:14:58Z</time>
      </trkpt>
      <trkpt lat="24.910416698583692" lon="118.54118337938554">
        <ele>8.213505234569311</ele>
        <time>2025-03-16T14:15:01Z</time>
      </trkpt>
      <trkpt lat="24.91040090749601" lon="118.54105123556586">
        <ele>7.965076171793044</ele>
        <time>2025-03-16T14:15:04Z</time>
      </trkpt>
      <trkpt lat="24.91050218926968" lon="118.54089662459315">
        <ele>8.324262230657041</ele>
        <time>2025-03-16T14:15:07Z</time>
      </trkpt>
      <trkpt lat="24.910676011559953" lon="118.54069202302445">
        <ele>7.366627776995301</ele>
        <time>2025-03-16T14:15:13Z</time>
      </trkpt>
      <trkpt lat="24.910768592032156" lon="118.54060496353493">
        <ele>8.252814737148583</ele>
        <time>2025-03-16T14:15:19Z</time>
      </trkpt>
      <trkpt lat="24.910867354580006" lon="118.54026439592744">
        <ele>8.026910811662674</ele>
        <time>2025-03-16T14:15:31Z</time>
      </trkpt>
    </trkseg>
  </trk>
</gpx>