<?xml version="1.0" encoding="UTF-8"?>
<gpx xmlns="http://www.topografix.com/GPX/1/1" xmlns:gpxtpx="http://www.garmin.com/xmlschemas/TrackPointExtension/v1" xmlns:xsi="http://www.w3.org/2001/XMLSchema-instance" xsi:schemaLocation="http://www.topografix.com/GPX/1/1 http://www.topografix.com/GPX/1/1/gpx.xsd" version="1.1" creator="gpx.py -- https://github.com/tkrajina/gpxpy">
  <trk>
    <name>gpx from keep</name>
    <type>Run</type>
    <trkseg>
      <trkpt lat="24.91128892436088" lon="118.53746888081673">
        <ele>22.63763427734375</ele>
        <time>2025-10-13T13:00:51Z</time>
      </trkpt>
      <trkpt lat="24.911132694702555" lon="118.53779376023795">
        <ele>23.3856201171875</ele>
        <time>2025-10-13T13:01:00Z</time>
      </trkpt>
      <trkpt lat="24.911041204642576" lon="118.53801034354028">
        <ele>23.628173828125</ele>
        <time>2025-10-13T13:01:06Z</time>
      </trkpt>
      <trkpt lat="24.910877954352152" lon="118.53832819855785">
        <ele>25.725341796875</ele>
        <time>2025-10-13T13:01:15Z</time>
      </trkpt>
      <trkpt lat="24.910830221646403" lon="118.53844250438489">
        <ele>25.46014404296875</ele>
        <time>2025-10-13T13:01:18Z</time>
      </trkpt>
      <trkpt lat="24.910823453167897" lon="118.53854377246724">
        <ele>23.7255859375</ele>
        <time>2025-10-13T13:01:21Z</time>
      </trkpt>
      <trkpt lat="24.910857717373993" lon="118.53866208226366">
        <ele>23.53985595703125</ele>
        <time>2025-10-13T13:01:24Z</time>
      </trkpt>
      <trkpt lat="24.910965786584445" lon="118.5386991725184">
        <ele>22.14373779296875</ele>
        <time>2025-10-13T13:01:27Z</time>
      </trkpt>
      <trkpt lat="24.91117885251231" lon="118.53874126861203">
        <ele>22.5103759765625</ele>
        <time>2025-10-13T13:01:33Z</time>
      </trkpt>
      <trkpt lat="24.91123901239801" lon="118.53881545972477">
        <ele>22.04595947265625</ele>
        <time>2025-10-13T13:01:36Z</time>
      </trkpt>
      <trkpt lat="24.911148874866328" lon="118.5391914526321">
        <ele>21.8924560546875</ele>
        <time>2025-10-13T13:01:45Z</time>
      </trkpt>
      <trkpt lat="24.91106166937171" lon="118.539539367052">
        <ele>21.37152099609375</ele>
        <time>2025-10-13T13:01:54Z</time>
      </trkpt>
      <trkpt lat="24.910969371098115" lon="118.53984717339793">
        <ele>23.505859375</ele>
        <time>2025-10-13T13:02:03Z</time>
      </trkpt>
      <trkpt lat="24.910934619772075" lon="118.53995645898429">
        <ele>25.39215087890625</ele>
        <time>2025-10-13T13:02:06Z</time>
      </trkpt>
      <trkpt lat="24.91089331685188" lon="118.54026726476928">
        <ele>24.30035400390625</ele>
        <time>2025-10-13T13:02:15Z</time>
      </trkpt>
      <trkpt lat="24.91083206443483" lon="118.54060112749745">
        <ele>30.94287109375</ele>
        <time>2025-10-13T13:02:24Z</time>
      </trkpt>
      <trkpt lat="24.91079456250478" lon="118.5408247026585">
        <ele>30.25543212890625</ele>
        <time>2025-10-13T13:02:30Z</time>
      </trkpt>
      <trkpt lat="24.91079582464798" lon="118.54094400733199">
        <ele>29.7353515625</ele>
        <time>2025-10-13T13:02:33Z</time>
      </trkpt>
      <trkpt lat="24.910702604184124" lon="118.54129390451662">
        <ele>26.7230224609375</ele>
        <time>2025-10-13T13:02:45Z</time>
      </trkpt>
      <trkpt lat="24.910680321787513" lon="118.54162173640105">
        <ele>25.750244140625</ele>
        <time>2025-10-13T13:02:54Z</time>
      </trkpt>
      <trkpt lat="24.910646759495876" lon="118.54182124204219">
        <ele>21.34063720703125</ele>
        <time>2025-10-13T13:03:00Z</time>
      </trkpt>
      <trkpt lat="24.910492597607757" lon="118.54219920208999">
        <ele>26.12652587890625</ele>
        <time>2025-10-13T13:03:09Z</time>
      </trkpt>
      <trkpt lat="24.910421399974275" lon="118.54256812839819">
        <ele>29.52294921875</ele>
        <time>2025-10-13T13:03:18Z</time>
      </trkpt>
      <trkpt lat="24.91031811672048" lon="118.5428969523525">
        <ele>31.0247802734375</ele>
        <time>2025-10-13T13:03:27Z</time>
      </trkpt>
      <trkpt lat="24.910258581248343" lon="118.54311148712017">
        <ele>30.720458984375</ele>
        <time>2025-10-13T13:03:33Z</time>
      </trkpt>
      <trkpt lat="24.910258810867948" lon="118.54321975421487">
        <ele>28.64288330078125</ele>
        <time>2025-10-13T13:03:36Z</time>
      </trkpt>
      <trkpt lat="24.91022020020182" lon="118.5434012035313">
        <ele>28.09130859375</ele>
        <time>2025-10-13T13:03:42Z</time>
      </trkpt>
      <trkpt lat="24.910275237024237" lon="118.5434222514378">
        <ele>25.46636962890625</ele>
        <time>2025-10-13T13:03:45Z</time>
      </trkpt>
      <trkpt lat="24.91058804733654" lon="118.54335305962115">
        <ele>25.0958251953125</ele>
        <time>2025-10-13T13:03:54Z</time>
      </trkpt>
      <trkpt lat="24.910898923510498" lon="118.54331494425914">
        <ele>20.74249267578125</ele>
        <time>2025-10-13T13:04:03Z</time>
      </trkpt>
      <trkpt lat="24.91121781123879" lon="118.54328284309496">
        <ele>22.62603759765625</ele>
        <time>2025-10-13T13:04:12Z</time>
      </trkpt>
      <trkpt lat="24.911557596166386" lon="118.5432036243056">
        <ele>19.39691162109375</ele>
        <time>2025-10-13T13:04:24Z</time>
      </trkpt>
      <trkpt lat="24.911859422313942" lon="118.54314144997852">
        <ele>18.48004150390625</ele>
        <time>2025-10-13T13:04:33Z</time>
      </trkpt>
      <trkpt lat="24.91216423299152" lon="118.54307225795449">
        <ele>17.6778564453125</ele>
        <time>2025-10-13T13:04:42Z</time>
      </trkpt>
      <trkpt lat="24.912457034502616" lon="118.54299805417983">
        <ele>16.35406494140625</ele>
        <time>2025-10-13T13:04:51Z</time>
      </trkpt>
      <trkpt lat="24.912788785542453" lon="118.54290279533332">
        <ele>18.9168701171875</ele>
        <time>2025-10-13T13:05:00Z</time>
      </trkpt>
      <trkpt lat="24.91312654397003" lon="118.54281154566327">
        <ele>21.72259521484375</ele>
        <time>2025-10-13T13:05:09Z</time>
      </trkpt>
      <trkpt lat="24.913422367901866" lon="118.54274836831043">
        <ele>20.9884033203125</ele>
        <time>2025-10-13T13:05:18Z</time>
      </trkpt>
      <trkpt lat="24.913712192520833" lon="118.54268519121938">
        <ele>19.95465087890625</ele>
        <time>2025-10-13T13:05:27Z</time>
      </trkpt>
      <trkpt lat="24.913895031923467" lon="118.54262202141855">
        <ele>19.97003173828125</ele>
        <time>2025-10-13T13:05:33Z</time>
      </trkpt>
      <trkpt lat="24.914214813407124" lon="118.54254079698032">
        <ele>20.95220947265625</ele>
        <time>2025-10-13T13:05:42Z</time>
      </trkpt>
      <trkpt lat="24.91447156042981" lon="118.54243952664905">
        <ele>22.18878173828125</ele>
        <time>2025-10-13T13:05:51Z</time>
      </trkpt>
      <trkpt lat="24.914557576383565" lon="118.54245255317959">
        <ele>21.239990234375</ele>
        <time>2025-10-13T13:05:54Z</time>
      </trkpt>
      <trkpt lat="24.914602492649685" lon="118.54241645998923">
        <ele>20.1373291015625</ele>
        <time>2025-10-13T13:05:57Z</time>
      </trkpt>
      <trkpt lat="24.914878279675378" lon="118.54233523796529">
        <ele>20.54443359375</ele>
        <time>2025-10-13T13:06:06Z</time>
      </trkpt>
      <trkpt lat="24.915201068527374" lon="118.5422580224492">
        <ele>23.26556396484375</ele>
        <time>2025-10-13T13:06:15Z</time>
      </trkpt>
      <trkpt lat="24.91548378280567" lon="118.54214371653622">
        <ele>22.694091796875</ele>
        <time>2025-10-13T13:06:24Z</time>
      </trkpt>
      <trkpt lat="24.915779555423473" lon="118.54205747968369">
        <ele>24.16741943359375</ele>
        <time>2025-10-13T13:06:33Z</time>
      </trkpt>
      <trkpt lat="24.916055345742937" lon="118.5419782615724">
        <ele>22.43890380859375</ele>
        <time>2025-10-13T13:06:42Z</time>
      </trkpt>
      <trkpt lat="24.91635508256883" lon="118.54187598352573">
        <ele>21.9844970703125</ele>
        <time>2025-10-13T13:06:51Z</time>
      </trkpt>
      <trkpt lat="24.916480875978966" lon="118.54178875509173">
        <ele>23.256591796875</ele>
        <time>2025-10-13T13:07:00Z</time>
      </trkpt>
      <trkpt lat="24.916678748259077" lon="118.54174262504743">
        <ele>22.7158203125</ele>
        <time>2025-10-13T13:07:09Z</time>
      </trkpt>
      <trkpt lat="24.91678771777946" lon="118.54173559976078">
        <ele>23.16748046875</ele>
        <time>2025-10-13T13:07:12Z</time>
      </trkpt>
      <trkpt lat="24.916855658222328" lon="118.54171253685968">
        <ele>22.3070068359375</ele>
        <time>2025-10-13T13:07:15Z</time>
      </trkpt>
      <trkpt lat="24.917118651870716" lon="118.54172655396071">
        <ele>20.9544677734375</ele>
        <time>2025-10-13T13:07:24Z</time>
      </trkpt>
      <trkpt lat="24.91745054228026" lon="118.54169745749411">
        <ele>20.9876708984375</ele>
        <time>2025-10-13T13:07:36Z</time>
      </trkpt>
      <trkpt lat="24.917628454217226" lon="118.54166837171516">
        <ele>21.4154052734375</ele>
        <time>2025-10-13T13:07:42Z</time>
      </trkpt>
      <trkpt lat="24.91790744997287" lon="118.54168439278668">
        <ele>22.5655517578125</ele>
        <time>2025-10-13T13:07:51Z</time>
      </trkpt>
      <trkpt lat="24.918180440021036" lon="118.54169740667601">
        <ele>23.30938720703125</ele>
        <time>2025-10-13T13:08:00Z</time>
      </trkpt>
      <trkpt lat="24.91847543785059" lon="118.54171543167469">
        <ele>25.1864013671875</ele>
        <time>2025-10-13T13:08:09Z</time>
      </trkpt>
      <trkpt lat="24.918755439936472" lon="118.5417344602338">
        <ele>25.39068603515625</ele>
        <time>2025-10-13T13:08:18Z</time>
      </trkpt>
      <trkpt lat="24.91904841842887" lon="118.5417434625928">
        <ele>26.45660400390625</ele>
        <time>2025-10-13T13:08:27Z</time>
      </trkpt>
      <trkpt lat="24.919331378736956" lon="118.54174344289137">
        <ele>25.3111572265625</ele>
        <time>2025-10-13T13:08:36Z</time>
      </trkpt>
      <trkpt lat="24.919616282193036" lon="118.54171735730093">
        <ele>25.6845703125</ele>
        <time>2025-10-13T13:08:45Z</time>
      </trkpt>
      <trkpt lat="24.919912251536026" lon="118.5417223493401">
        <ele>24.6923828125</ele>
        <time>2025-10-13T13:08:54Z</time>
      </trkpt>
      <trkpt lat="24.92021313311658" lon="118.54168723984111">
        <ele>25.0885009765625</ele>
        <time>2025-10-13T13:09:03Z</time>
      </trkpt>
      <trkpt lat="24.92037698595375" lon="118.54163008412286">
        <ele>26.06439208984375</ele>
        <time>2025-10-13T13:09:09Z</time>
      </trkpt>
      <trkpt lat="24.920653925268727" lon="118.54162003950884">
        <ele>26.445556640625</ele>
        <time>2025-10-13T13:09:18Z</time>
      </trkpt>
      <trkpt lat="24.92082206284149" lon="118.54169421515464">
        <ele>27.87164306640625</ele>
        <time>2025-10-13T13:09:24Z</time>
      </trkpt>
      <trkpt lat="24.921092068442054" lon="118.54171424695389">
        <ele>28.00518798828125</ele>
        <time>2025-10-13T13:09:33Z</time>
      </trkpt>
      <trkpt lat="24.921366021241248" lon="118.54171021775925">
        <ele>28.59600830078125</ele>
        <time>2025-10-13T13:09:42Z</time>
      </trkpt>
      <trkpt lat="24.921646018881862" lon="118.54172724126315">
        <ele>28.91717529296875</ele>
        <time>2025-10-13T13:09:51Z</time>
      </trkpt>
      <trkpt lat="24.92193005943375" lon="118.54176431503649">
        <ele>29.7850341796875</ele>
        <time>2025-10-13T13:10:00Z</time>
      </trkpt>
      <trkpt lat="24.92219810652546" lon="118.54180339492365">
        <ele>31.486328125</ele>
        <time>2025-10-13T13:10:09Z</time>
      </trkpt>
      <trkpt lat="24.92248515088494" lon="118.54184247342974">
        <ele>31.4840087890625</ele>
        <time>2025-10-13T13:10:18Z</time>
      </trkpt>
      <trkpt lat="24.922760261964477" lon="118.54191162838826">
        <ele>32.431396484375</ele>
        <time>2025-10-13T13:10:27Z</time>
      </trkpt>
      <trkpt lat="24.923038368116796" lon="118.54197877791651">
        <ele>31.68206787109375</ele>
        <time>2025-10-13T13:10:36Z</time>
      </trkpt>
      <trkpt lat="24.923310455467867" lon="118.54203690503743">
        <ele>29.2642822265625</ele>
        <time>2025-10-13T13:10:45Z</time>
      </trkpt>
      <trkpt lat="24.923570680585122" lon="118.54215819122585">
        <ele>33.0579833984375</ele>
        <time>2025-10-13T13:10:54Z</time>
      </trkpt>
      <trkpt lat="24.92386701868879" lon="118.5423346122125">
        <ele>32.81781005859375</ele>
        <time>2025-10-13T13:11:06Z</time>
      </trkpt>
      <trkpt lat="24.924186384704385" lon="118.54252606787729">
        <ele>34.4559326171875</ele>
        <time>2025-10-13T13:11:18Z</time>
      </trkpt>
      <trkpt lat="24.9245047667219" lon="118.54272554212105">
        <ele>32.97808837890625</ele>
        <time>2025-10-13T13:11:30Z</time>
      </trkpt>
      <trkpt lat="24.924749130032804" lon="118.54291198769512">
        <ele>33.7401123046875</ele>
        <time>2025-10-13T13:11:39Z</time>
      </trkpt>
      <trkpt lat="24.924987507879095" lon="118.54310544966664">
        <ele>32.7625732421875</ele>
        <time>2025-10-13T13:11:48Z</time>
      </trkpt>
      <trkpt lat="24.92521891722561" lon="118.54331394768387">
        <ele>33.21600341796875</ele>
        <time>2025-10-13T13:11:57Z</time>
      </trkpt>
      <trkpt lat="24.925290051358466" lon="118.54338211044329">
        <ele>32.65093994140625</ele>
        <time>2025-10-13T13:12:00Z</time>
      </trkpt>
      <trkpt lat="24.92545121495864" lon="118.54347031599262">
        <ele>33.1846923828125</ele>
        <time>2025-10-13T13:12:06Z</time>
      </trkpt>
      <trkpt lat="24.92552559317292" lon="118.54365476307063">
        <ele>31.961669921875</ele>
        <time>2025-10-13T13:12:12Z</time>
      </trkpt>
      <trkpt lat="24.925709049407423" lon="118.54388431129352">
        <ele>32.33599853515625</ele>
        <time>2025-10-13T13:12:21Z</time>
      </trkpt>
      <trkpt lat="24.92589053127597" lon="118.54412688924172">
        <ele>30.60211181640625</ele>
        <time>2025-10-13T13:12:30Z</time>
      </trkpt>
      <trkpt lat="24.926061010537058" lon="118.54436846320053">
        <ele>29.3662109375</ele>
        <time>2025-10-13T13:12:39Z</time>
      </trkpt>
      <trkpt lat="24.92622656312508" lon="118.5446461221472">
        <ele>28.7847900390625</ele>
        <time>2025-10-13T13:12:48Z</time>
      </trkpt>
      <trkpt lat="24.92636513948704" lon="118.54493480633583">
        <ele>29.41986083984375</ele>
        <time>2025-10-13T13:12:57Z</time>
      </trkpt>
      <trkpt lat="24.926530694695487" lon="118.54521646856695">
        <ele>27.642333984375</ele>
        <time>2025-10-13T13:13:06Z</time>
      </trkpt>
      <trkpt lat="24.92671028799459" lon="118.54551917661705">
        <ele>26.18963623046875</ele>
        <time>2025-10-13T13:13:15Z</time>
      </trkpt>
      <trkpt lat="24.926881866936963" lon="118.54581586732017">
        <ele>25.09808349609375</ele>
        <time>2025-10-13T13:13:24Z</time>
      </trkpt>
      <trkpt lat="24.9270433470492" lon="118.5460644420384">
        <ele>21.3763427734375</ele>
        <time>2025-10-13T13:13:33Z</time>
      </trkpt>
      <trkpt lat="24.92721087441514" lon="118.54633807249823">
        <ele>18.4583740234375</ele>
        <time>2025-10-13T13:13:42Z</time>
      </trkpt>
      <trkpt lat="24.92729598716026" lon="118.5464002119803">
        <ele>18.14306640625</ele>
        <time>2025-10-13T13:13:45Z</time>
      </trkpt>
      <trkpt lat="24.927355119501648" lon="118.54647037184166">
        <ele>17.97705078125</ele>
        <time>2025-10-13T13:13:48Z</time>
      </trkpt>
      <trkpt lat="24.92731231418774" lon="118.54656459469678">
        <ele>23.187744140625</ele>
        <time>2025-10-13T13:13:51Z</time>
      </trkpt>
      <trkpt lat="24.92731231418774" lon="118.54656459469678">
        <ele>23.187744140625</ele>
        <time>2025-10-13T13:13:54Z</time>
      </trkpt>
      <trkpt lat="24.92728435021258" lon="118.54658063403164">
        <ele>25.79095458984375</ele>
        <time>2025-10-13T13:13:57Z</time>
      </trkpt>
      <trkpt lat="24.927090561829242" lon="118.54667286229723">
        <ele>29.86126708984375</ele>
        <time>2025-10-13T13:14:03Z</time>
      </trkpt>
      <trkpt lat="24.92699455136355" lon="118.54666084097933">
        <ele>30.86224365234375</ele>
        <time>2025-10-13T13:14:06Z</time>
      </trkpt>
      <trkpt lat="24.926819016262844" lon="118.54638120061604">
        <ele>30.5980224609375</ele>
        <time>2025-10-13T13:14:15Z</time>
      </trkpt>
      <trkpt lat="24.926673514511442" lon="118.54612160208482">
        <ele>29.603271484375</ele>
        <time>2025-10-13T13:14:24Z</time>
      </trkpt>
      <trkpt lat="24.92653000394405" lon="118.54585899357477">
        <ele>29.4678955078125</ele>
        <time>2025-10-13T13:14:33Z</time>
      </trkpt>
      <trkpt lat="24.926386480685917" lon="118.54559137038518">
        <ele>29.09222412109375</ele>
        <time>2025-10-13T13:14:42Z</time>
      </trkpt>
      <trkpt lat="24.926163877819448" lon="118.54528064709572">
        <ele>33.414306640625</ele>
        <time>2025-10-13T13:14:54Z</time>
      </trkpt>
      <trkpt lat="24.926006386008243" lon="118.54503005943508">
        <ele>33.58642578125</ele>
        <time>2025-10-13T13:15:03Z</time>
      </trkpt>
      <trkpt lat="24.925817728600585" lon="118.5446982761184">
        <ele>31.67620849609375</ele>
        <time>2025-10-13T13:15:15Z</time>
      </trkpt>
      <trkpt lat="24.925638203473227" lon="118.54443264780647">
        <ele>34.72320556640625</ele>
        <time>2025-10-13T13:15:24Z</time>
      </trkpt>
      <trkpt lat="24.925467714300616" lon="118.54418606229933">
        <ele>35.54486083984375</ele>
        <time>2025-10-13T13:15:33Z</time>
      </trkpt>
      <trkpt lat="24.925343401072492" lon="118.5440276860018">
        <ele>36.724853515625</ele>
        <time>2025-10-13T13:15:39Z</time>
      </trkpt>
      <trkpt lat="24.92514499858314" lon="118.54382219887327">
        <ele>37.23651123046875</ele>
        <time>2025-10-13T13:15:48Z</time>
      </trkpt>
      <trkpt lat="24.92503072619306" lon="118.54368487112605">
        <ele>37.7132568359375</ele>
        <time>2025-10-13T13:15:54Z</time>
      </trkpt>
      <trkpt lat="24.924753228678675" lon="118.54343026608548">
        <ele>39.8355712890625</ele>
        <time>2025-10-13T13:16:06Z</time>
      </trkpt>
      <trkpt lat="24.924612019720996" lon="118.54332200967033">
        <ele>40.7891845703125</ele>
        <time>2025-10-13T13:16:12Z</time>
      </trkpt>
      <trkpt lat="24.924562975718977" lon="118.54329795385654">
        <ele>39.31439208984375</ele>
        <time>2025-10-13T13:16:33Z</time>
      </trkpt>
      <trkpt lat="24.924285568461666" lon="118.54308745395998">
        <ele>40.7867431640625</ele>
        <time>2025-10-13T13:16:45Z</time>
      </trkpt>
      <trkpt lat="24.924027238130666" lon="118.54291504540082">
        <ele>40.8338623046875</ele>
        <time>2025-10-13T13:16:54Z</time>
      </trkpt>
      <trkpt lat="24.923760959258512" lon="118.54276669598796">
        <ele>39.77960205078125</ele>
        <time>2025-10-13T13:17:03Z</time>
      </trkpt>
      <trkpt lat="24.923498694070787" lon="118.54262536290511">
        <ele>41.310791015625</ele>
        <time>2025-10-13T13:17:12Z</time>
      </trkpt>
      <trkpt lat="24.92320252752361" lon="118.54252814137242">
        <ele>39.3797607421875</ele>
        <time>2025-10-13T13:17:21Z</time>
      </trkpt>
      <trkpt lat="24.922921343470378" lon="118.54242390091638">
        <ele>37.8580322265625</ele>
        <time>2025-10-13T13:17:30Z</time>
      </trkpt>
      <trkpt lat="24.922627219044546" lon="118.54234672859995">
        <ele>37.1475830078125</ele>
        <time>2025-10-13T13:17:39Z</time>
      </trkpt>
      <trkpt lat="24.922343140444692" lon="118.54229161052787">
        <ele>38.7181396484375</ele>
        <time>2025-10-13T13:17:48Z</time>
      </trkpt>
      <trkpt lat="24.92218612154649" lon="118.5422725738118">
        <ele>38.466796875</ele>
        <time>2025-10-13T13:17:54Z</time>
      </trkpt>
      <trkpt lat="24.922105150189644" lon="118.54228059951342">
        <ele>34.91485595703125</ele>
        <time>2025-10-13T13:17:57Z</time>
      </trkpt>
      <trkpt lat="24.921792047460734" lon="118.54221245068904">
        <ele>37.3450927734375</ele>
        <time>2025-10-13T13:18:06Z</time>
      </trkpt>
      <trkpt lat="24.921603037317677" lon="118.54219542116479">
        <ele>35.131591796875</ele>
        <time>2025-10-13T13:18:12Z</time>
      </trkpt>
      <trkpt lat="24.92129111786883" lon="118.54221248556523">
        <ele>34.90057373046875</ele>
        <time>2025-10-13T13:18:21Z</time>
      </trkpt>
      <trkpt lat="24.921002167105893" lon="118.54221651572412">
        <ele>33.37640380859375</ele>
        <time>2025-10-13T13:18:30Z</time>
      </trkpt>
      <trkpt lat="24.920684198816538" lon="118.5422105227989">
        <ele>31.41412353515625</ele>
        <time>2025-10-13T13:18:39Z</time>
      </trkpt>
      <trkpt lat="24.920364144397137" lon="118.54216442955575">
        <ele>29.11126708984375</ele>
        <time>2025-10-13T13:18:48Z</time>
      </trkpt>
      <trkpt lat="24.92017311069974" lon="118.54213637249585">
        <ele>29.77301025390625</ele>
        <time>2025-10-13T13:18:54Z</time>
      </trkpt>
      <trkpt lat="24.919856161676915" lon="118.54213940210202">
        <ele>29.87847900390625</ele>
        <time>2025-10-13T13:19:03Z</time>
      </trkpt>
      <trkpt lat="24.919523232176328" lon="118.54215045292405">
        <ele>29.485107421875</ele>
        <time>2025-10-13T13:19:12Z</time>
      </trkpt>
      <trkpt lat="24.919208250427523" lon="118.54213844469591">
        <ele>30.4583740234375</ele>
        <time>2025-10-13T13:19:21Z</time>
      </trkpt>
      <trkpt lat="24.91893221562209" lon="118.54210437843876">
        <ele>30.30474853515625</ele>
        <time>2025-10-13T13:19:30Z</time>
      </trkpt>
      <trkpt lat="24.918614227762358" lon="118.54208936285318">
        <ele>31.63494873046875</ele>
        <time>2025-10-13T13:19:39Z</time>
      </trkpt>
      <trkpt lat="24.918426238971247" lon="118.54208235833339">
        <ele>32.0692138671875</ele>
        <time>2025-10-13T13:19:45Z</time>
      </trkpt>
      <trkpt lat="24.918086368804182" lon="118.54212047755291">
        <ele>34.59759521484375</ele>
        <time>2025-10-13T13:19:54Z</time>
      </trkpt>
      <trkpt lat="24.917761531040796" lon="118.54217463586437">
        <ele>37.921875</ele>
        <time>2025-10-13T13:20:03Z</time>
      </trkpt>
      <trkpt lat="24.917422621717623" lon="118.54219470968681">
        <ele>37.81378173828125</ele>
        <time>2025-10-13T13:20:12Z</time>
      </trkpt>
      <trkpt lat="24.917126777571756" lon="118.54224786331474">
        <ele>35.5423583984375</ele>
        <time>2025-10-13T13:20:21Z</time>
      </trkpt>
      <trkpt lat="24.91703486163856" lon="118.5422809524903">
        <ele>34.238525390625</ele>
        <time>2025-10-13T13:20:24Z</time>
      </trkpt>
      <trkpt lat="24.91703486163856" lon="118.5422809524903">
        <ele>34.238525390625</ele>
        <time>2025-10-13T13:20:27Z</time>
      </trkpt>
      <trkpt lat="24.916979059128856" lon="118.54236917690753">
        <ele>33.310791015625</ele>
        <time>2025-10-13T13:20:42Z</time>
      </trkpt>
      <trkpt lat="24.91677919906242" lon="118.54242132099299">
        <ele>32.07916259765625</ele>
        <time>2025-10-13T13:20:48Z</time>
      </trkpt>
      <trkpt lat="24.916691219984287" lon="118.54242533712592">
        <ele>31.04425048828125</ele>
        <time>2025-10-13T13:20:51Z</time>
      </trkpt>
      <trkpt lat="24.916500164920546" lon="118.54238725531422">
        <ele>31.17071533203125</ele>
        <time>2025-10-13T13:20:57Z</time>
      </trkpt>
      <trkpt lat="24.916311279605146" lon="118.54242837107847">
        <ele>30.266357421875</ele>
        <time>2025-10-13T13:21:03Z</time>
      </trkpt>
      <trkpt lat="24.91602351124098" lon="118.54251761363666">
        <ele>27.83294677734375</ele>
        <time>2025-10-13T13:21:12Z</time>
      </trkpt>
      <trkpt lat="24.915653655329248" lon="118.54256074678261">
        <ele>33.1427001953125</ele>
        <time>2025-10-13T13:21:21Z</time>
      </trkpt>
      <trkpt lat="24.915329833665734" lon="118.54262292405403">
        <ele>36.51422119140625</ele>
        <time>2025-10-13T13:21:30Z</time>
      </trkpt>
      <trkpt lat="24.91502610759033" lon="118.54273121437008">
        <ele>35.96209716796875</ele>
        <time>2025-10-13T13:21:39Z</time>
      </trkpt>
      <trkpt lat="24.914716311382968" lon="118.54280642259124">
        <ele>36.26544189453125</ele>
        <time>2025-10-13T13:21:48Z</time>
      </trkpt>
      <trkpt lat="24.914381618809095" lon="118.5429287490483">
        <ele>34.4512939453125</ele>
        <time>2025-10-13T13:21:57Z</time>
      </trkpt>
      <trkpt lat="24.914170814637167" lon="118.54300695723956">
        <ele>33.1263427734375</ele>
        <time>2025-10-13T13:22:06Z</time>
      </trkpt>
      <trkpt lat="24.91413791939067" lon="118.54305407602263">
        <ele>29.53369140625</ele>
        <time>2025-10-13T13:22:12Z</time>
      </trkpt>
      <trkpt lat="24.91410698121432" lon="118.54308114505844">
        <ele>29.524169921875</ele>
        <time>2025-10-13T13:22:15Z</time>
      </trkpt>
      <trkpt lat="24.913931054737276" lon="118.54310421425242">
        <ele>29.72216796875</ele>
        <time>2025-10-13T13:22:21Z</time>
      </trkpt>
      <trkpt lat="24.913737073295746" lon="118.54310021784781">
        <ele>30.2413330078125</ele>
        <time>2025-10-13T13:22:27Z</time>
      </trkpt>
      <trkpt lat="24.91341131443772" lon="118.54319246812891">
        <ele>32.14990234375</ele>
        <time>2025-10-13T13:22:36Z</time>
      </trkpt>
      <trkpt lat="24.913337401242412" lon="118.54322856224749">
        <ele>31.03924560546875</ele>
        <time>2025-10-13T13:22:39Z</time>
      </trkpt>
      <trkpt lat="24.912999601207126" lon="118.54330076355012">
        <ele>32.59771728515625</ele>
        <time>2025-10-13T13:22:48Z</time>
      </trkpt>
      <trkpt lat="24.9126687872847" lon="118.54336694937">
        <ele>33.67120361328125</ele>
        <time>2025-10-13T13:22:57Z</time>
      </trkpt>
      <trkpt lat="24.91235403656795" lon="118.54346421022721">
        <ele>30.4420166015625</ele>
        <time>2025-10-13T13:23:06Z</time>
      </trkpt>
      <trkpt lat="24.91204821030188" lon="118.54352638404636">
        <ele>33.2803955078125</ele>
        <time>2025-10-13T13:23:15Z</time>
      </trkpt>
      <trkpt lat="24.91172339075538" lon="118.54359056394759">
        <ele>31.34100341796875</ele>
        <time>2025-10-13T13:23:24Z</time>
      </trkpt>
      <trkpt lat="24.91132461508896" lon="118.54367078809086">
        <ele>29.31390380859375</ele>
        <time>2025-10-13T13:23:36Z</time>
      </trkpt>
      <trkpt lat="24.91111975110334" lon="118.54372192741577">
        <ele>30.13592529296875</ele>
        <time>2025-10-13T13:23:42Z</time>
      </trkpt>
      <trkpt lat="24.91111975110334" lon="118.54372192741577">
        <ele>30.13592529296875</ele>
        <time>2025-10-13T13:23:45Z</time>
      </trkpt>
      <trkpt lat="24.910928691274506" lon="118.5436808401671">
        <ele>26.02947998046875</ele>
        <time>2025-10-13T13:24:04Z</time>
      </trkpt>
      <trkpt lat="24.910879358229565" lon="118.54351944815203">
        <ele>21.8912353515625</ele>
        <time>2025-10-13T13:24:10Z</time>
      </trkpt>
      <trkpt lat="24.91082917480409" lon="118.54342923014038">
        <ele>20.22247314453125</ele>
        <time>2025-10-13T13:24:13Z</time>
      </trkpt>
      <trkpt lat="24.910756068474736" lon="118.54337409970663">
        <ele>20.8416748046875</ele>
        <time>2025-10-13T13:24:16Z</time>
      </trkpt>
      <trkpt lat="24.910405229536007" lon="118.54342725470941">
        <ele>31.69183349609375</ele>
        <time>2025-10-13T13:24:25Z</time>
      </trkpt>
      <trkpt lat="24.910299256974454" lon="118.54343327685933">
        <ele>31.2232666015625</ele>
        <time>2025-10-13T13:24:28Z</time>
      </trkpt>
      <trkpt lat="24.91025009645158" lon="118.54335408559943">
        <ele>27.097900390625</ele>
        <time>2025-10-13T13:24:31Z</time>
      </trkpt>
      <trkpt lat="24.910278810211818" lon="118.54322075529451">
        <ele>27.016845703125</ele>
        <time>2025-10-13T13:24:34Z</time>
      </trkpt>
      <trkpt lat="24.910296230774534" lon="118.54294908297719">
        <ele>24.59454345703125</ele>
        <time>2025-10-13T13:24:40Z</time>
      </trkpt>
      <trkpt lat="24.910358726080357" lon="118.54271650182017">
        <ele>23.9351806640625</ele>
        <time>2025-10-13T13:24:46Z</time>
      </trkpt>
      <trkpt lat="24.91040794588581" lon="118.54235559919617">
        <ele>22.7236328125</ele>
        <time>2025-10-13T13:24:55Z</time>
      </trkpt>
      <trkpt lat="24.910427686522652" lon="118.54223629948088">
        <ele>23.68292236328125</ele>
        <time>2025-10-13T13:24:58Z</time>
      </trkpt>
      <trkpt lat="24.910427686522652" lon="118.54223629948088">
        <ele>23.68292236328125</ele>
        <time>2025-10-13T13:25:00Z</time>
      </trkpt>
    </trkseg>
  </trk>
</gpx>