<?xml version="1.0" encoding="UTF-8"?>
<gpx xmlns="http://www.topografix.com/GPX/1/1" xmlns:gpxtpx="http://www.garmin.com/xmlschemas/TrackPointExtension/v1" xmlns:xsi="http://www.w3.org/2001/XMLSchema-instance" xsi:schemaLocation="http://www.topografix.com/GPX/1/1 http://www.topografix.com/GPX/1/1/gpx.xsd" version="1.1" creator="gpx.py -- https://github.com/tkrajina/gpxpy">
  <trk>
    <name>gpx from keep</name>
    <type>Ride</type>
    <trkseg>
      <trkpt lat="24.90341357453072" lon="118.56091476033353">
        <ele>12.472458534874022</ele>
        <time>2025-05-15T14:21:47Z</time>
      </trkpt>
      <trkpt lat="24.903785478765506" lon="118.5608938531206">
        <ele>12.398976150900126</ele>
        <time>2025-05-15T14:22:02Z</time>
      </trkpt>
      <trkpt lat="24.90412849327504" lon="118.56077445835675">
        <ele>12.08674175478518</ele>
        <time>2025-05-15T14:22:10Z</time>
      </trkpt>
      <trkpt lat="24.9042841272849" lon="118.56068977810212">
        <ele>12.45703811571002</ele>
        <time>2025-05-15T14:22:17Z</time>
      </trkpt>
      <trkpt lat="24.904404374082034" lon="118.560585135236">
        <ele>11.402245508506894</ele>
        <time>2025-05-15T14:22:22Z</time>
      </trkpt>
      <trkpt lat="24.904604129090508" lon="118.56052363593942">
        <ele>12.035824122838676</ele>
        <time>2025-05-15T14:22:27Z</time>
      </trkpt>
      <trkpt lat="24.90476578913828" lon="118.56042752730616">
        <ele>12.189760472625494</ele>
        <time>2025-05-15T14:22:31Z</time>
      </trkpt>
      <trkpt lat="24.905024112615628" lon="118.56038553353469">
        <ele>12.554611317813396</ele>
        <time>2025-05-15T14:22:37Z</time>
      </trkpt>
      <trkpt lat="24.905120750667912" lon="118.56034998013527">
        <ele>13.323189375922084</ele>
        <time>2025-05-15T14:22:40Z</time>
      </trkpt>
      <trkpt lat="24.905205682057726" lon="118.56028978399702">
        <ele>13.397696927189827</ele>
        <time>2025-05-15T14:22:43Z</time>
      </trkpt>
      <trkpt lat="24.90531467881521" lon="118.56025450134281">
        <ele>13.56361173093319</ele>
        <time>2025-05-15T14:22:46Z</time>
      </trkpt>
      <trkpt lat="24.9053929669485" lon="118.56020454179166">
        <ele>13.810670956037939</ele>
        <time>2025-05-15T14:22:48Z</time>
      </trkpt>
      <trkpt lat="24.905484463745324" lon="118.56021907161077">
        <ele>13.096635213121772</ele>
        <time>2025-05-15T14:22:50Z</time>
      </trkpt>
      <trkpt lat="24.905700026179957" lon="118.56019722878892">
        <ele>12.836902340874076</ele>
        <time>2025-05-15T14:22:55Z</time>
      </trkpt>
      <trkpt lat="24.905777412801104" lon="118.56017076061735">
        <ele>12.655842735432088</ele>
        <time>2025-05-15T14:22:57Z</time>
      </trkpt>
      <trkpt lat="24.905872174598574" lon="118.56019131724909">
        <ele>12.777732152491808</ele>
        <time>2025-05-15T14:22:59Z</time>
      </trkpt>
      <trkpt lat="24.90594880381873" lon="118.56016977365253">
        <ele>12.600108943879604</ele>
        <time>2025-05-15T14:23:01Z</time>
      </trkpt>
      <trkpt lat="24.90609917516593" lon="118.56016662356397">
        <ele>12.790368013083935</ele>
        <time>2025-05-15T14:23:05Z</time>
      </trkpt>
      <trkpt lat="24.90658837310828" lon="118.5600642740356">
        <ele>12.445855542086065</ele>
        <time>2025-05-15T14:23:20Z</time>
      </trkpt>
      <trkpt lat="24.9067925273618" lon="118.56006346907259">
        <ele>12.034262143075466</ele>
        <time>2025-05-15T14:23:26Z</time>
      </trkpt>
      <trkpt lat="24.907066117830226" lon="118.55998208240351">
        <ele>12.411054741591215</ele>
        <time>2025-05-15T14:23:35Z</time>
      </trkpt>
      <trkpt lat="24.9071659653134" lon="118.5599755503349">
        <ele>12.468187880702317</ele>
        <time>2025-05-15T14:23:38Z</time>
      </trkpt>
      <trkpt lat="24.907609892883738" lon="118.55986803658732">
        <ele>12.415201220661402</ele>
        <time>2025-05-15T14:23:51Z</time>
      </trkpt>
      <trkpt lat="24.907712677203598" lon="118.55985489638717">
        <ele>13.523680336773396</ele>
        <time>2025-05-15T14:23:54Z</time>
      </trkpt>
      <trkpt lat="24.907778687526655" lon="118.55981249909098">
        <ele>14.086991793476045</ele>
        <time>2025-05-15T14:23:56Z</time>
      </trkpt>
      <trkpt lat="24.907875099041547" lon="118.5597989457901">
        <ele>13.936114930547774</ele>
        <time>2025-05-15T14:23:59Z</time>
      </trkpt>
      <trkpt lat="24.908038444942374" lon="118.5598358134114">
        <ele>14.667152320034802</ele>
        <time>2025-05-15T14:24:03Z</time>
      </trkpt>
      <trkpt lat="24.90821074232017" lon="118.55973501674022">
        <ele>15.068040386773646</ele>
        <time>2025-05-15T14:24:09Z</time>
      </trkpt>
      <trkpt lat="24.908476858594057" lon="118.55966105612602">
        <ele>14.817808673717082</ele>
        <time>2025-05-15T14:24:16Z</time>
      </trkpt>
      <trkpt lat="24.908569967948765" lon="118.55965362983125">
        <ele>14.868037058971822</ele>
        <time>2025-05-15T14:24:19Z</time>
      </trkpt>
      <trkpt lat="24.90864971550995" lon="118.55962493600447">
        <ele>14.880109210498631</ele>
        <time>2025-05-15T14:24:21Z</time>
      </trkpt>
      <trkpt lat="24.908940836811038" lon="118.55958945743586">
        <ele>15.148168082349002</ele>
        <time>2025-05-15T14:24:27Z</time>
      </trkpt>
      <trkpt lat="24.90902150941436" lon="118.55956537105303">
        <ele>15.09690329246223</ele>
        <time>2025-05-15T14:24:29Z</time>
      </trkpt>
      <trkpt lat="24.909108248981546" lon="118.55950510154435">
        <ele>14.742179605178535</ele>
        <time>2025-05-15T14:24:31Z</time>
      </trkpt>
      <trkpt lat="24.909189531638066" lon="118.55950188426912">
        <ele>14.680201595649123</ele>
        <time>2025-05-15T14:24:33Z</time>
      </trkpt>
      <trkpt lat="24.90925796682604" lon="118.55945421678588">
        <ele>14.252784306183457</ele>
        <time>2025-05-15T14:24:35Z</time>
      </trkpt>
      <trkpt lat="24.90933049612954" lon="118.55945831209813">
        <ele>14.587320069782436</ele>
        <time>2025-05-15T14:24:37Z</time>
      </trkpt>
      <trkpt lat="24.90959676495363" lon="118.55938412341953">
        <ele>15.043444817885756</ele>
        <time>2025-05-15T14:24:44Z</time>
      </trkpt>
      <trkpt lat="24.909684372387776" lon="118.55938068306453">
        <ele>14.912561333738267</ele>
        <time>2025-05-15T14:24:47Z</time>
      </trkpt>
      <trkpt lat="24.909756849427584" lon="118.5593533427715">
        <ele>14.786628229543567</ele>
        <time>2025-05-15T14:24:49Z</time>
      </trkpt>
      <trkpt lat="24.90984186533218" lon="118.55935068649366">
        <ele>15.028513797558844</ele>
        <time>2025-05-15T14:24:51Z</time>
      </trkpt>
      <trkpt lat="24.909912731449637" lon="118.55932125345936">
        <ele>14.611761027947068</ele>
        <time>2025-05-15T14:24:53Z</time>
      </trkpt>
      <trkpt lat="24.910020107001813" lon="118.55932019988037">
        <ele>14.870593695901334</ele>
        <time>2025-05-15T14:24:56Z</time>
      </trkpt>
      <trkpt lat="24.910279572563358" lon="118.55924246695494">
        <ele>15.222486387006938</ele>
        <time>2025-05-15T14:25:02Z</time>
      </trkpt>
      <trkpt lat="24.91036737222557" lon="118.55925265862096">
        <ele>15.003149820491672</ele>
        <time>2025-05-15T14:25:04Z</time>
      </trkpt>
      <trkpt lat="24.91043930755354" lon="118.55919116432202">
        <ele>14.927147630602121</ele>
        <time>2025-05-15T14:25:06Z</time>
      </trkpt>
      <trkpt lat="24.91053370228683" lon="118.5592138423889">
        <ele>15.101411951705813</ele>
        <time>2025-05-15T14:25:08Z</time>
      </trkpt>
      <trkpt lat="24.91062165837353" lon="118.55921360598197">
        <ele>15.183528991416097</ele>
        <time>2025-05-15T14:25:10Z</time>
      </trkpt>
      <trkpt lat="24.91081850693733" lon="118.55915976113084">
        <ele>14.65132255665958</ele>
        <time>2025-05-15T14:25:14Z</time>
      </trkpt>
      <trkpt lat="24.91091126918049" lon="118.5591156475968">
        <ele>14.73171566054225</ele>
        <time>2025-05-15T14:25:16Z</time>
      </trkpt>
      <trkpt lat="24.911122026101083" lon="118.55912734532885">
        <ele>14.87473892327398</ele>
        <time>2025-05-15T14:25:20Z</time>
      </trkpt>
      <trkpt lat="24.911225019689002" lon="118.55915031431984">
        <ele>15.030127355828881</ele>
        <time>2025-05-15T14:25:22Z</time>
      </trkpt>
      <trkpt lat="24.91131302667732" lon="118.55906532159361">
        <ele>15.429844831116498</ele>
        <time>2025-05-15T14:25:25Z</time>
      </trkpt>
      <trkpt lat="24.911576743288997" lon="118.55903921546252">
        <ele>13.983479967340827</ele>
        <time>2025-05-15T14:25:31Z</time>
      </trkpt>
      <trkpt lat="24.911706858401335" lon="118.55905653492881">
        <ele>13.888427779078484</ele>
        <time>2025-05-15T14:25:34Z</time>
      </trkpt>
      <trkpt lat="24.911809264436165" lon="118.55905187666077">
        <ele>14.246394044719636</ele>
        <time>2025-05-15T14:25:36Z</time>
      </trkpt>
      <trkpt lat="24.911879373434825" lon="118.55900349705604">
        <ele>13.996951879002154</ele>
        <time>2025-05-15T14:25:38Z</time>
      </trkpt>
      <trkpt lat="24.911988626013066" lon="118.55897526816987">
        <ele>13.300331209786236</ele>
        <time>2025-05-15T14:25:40Z</time>
      </trkpt>
      <trkpt lat="24.912060145817524" lon="118.55899847698626">
        <ele>12.553976635448635</ele>
        <time>2025-05-15T14:25:42Z</time>
      </trkpt>
      <trkpt lat="24.912213837638326" lon="118.55896018308182">
        <ele>12.130530158057809</ele>
        <time>2025-05-15T14:25:46Z</time>
      </trkpt>
      <trkpt lat="24.91237229728919" lon="118.55894618930687">
        <ele>12.238452474586666</ele>
        <time>2025-05-15T14:25:50Z</time>
      </trkpt>
      <trkpt lat="24.91267556538008" lon="118.5588264316041">
        <ele>12.390738164074719</ele>
        <time>2025-05-15T14:25:58Z</time>
      </trkpt>
      <trkpt lat="24.912771172646302" lon="118.55875722175186">
        <ele>11.949615941382945</ele>
        <time>2025-05-15T14:26:01Z</time>
      </trkpt>
      <trkpt lat="24.912889354594864" lon="118.55878792991392">
        <ele>11.372282864525914</ele>
        <time>2025-05-15T14:26:04Z</time>
      </trkpt>
      <trkpt lat="24.91290468462826" lon="118.55870152133024">
        <ele>11.837701939977705</ele>
        <time>2025-05-15T14:26:09Z</time>
      </trkpt>
      <trkpt lat="24.912805053023202" lon="118.55854351757989">
        <ele>11.700368258170784</ele>
        <time>2025-05-15T14:26:43Z</time>
      </trkpt>
      <trkpt lat="24.912771139901547" lon="118.55844258671578">
        <ele>11.851446044631302</ele>
        <time>2025-05-15T14:26:46Z</time>
      </trkpt>
      <trkpt lat="24.91293150227403" lon="118.55819444592152">
        <ele>10.964155653491616</ele>
        <time>2025-05-15T14:28:39Z</time>
      </trkpt>
      <trkpt lat="24.91294888290551" lon="118.55810711357303">
        <ele>11.072091334499419</ele>
        <time>2025-05-15T14:28:41Z</time>
      </trkpt>
      <trkpt lat="24.912877821387703" lon="118.55792081602935">
        <ele>10.204611318185925</ele>
        <time>2025-05-15T14:28:45Z</time>
      </trkpt>
      <trkpt lat="24.91287788597381" lon="118.55770856204391">
        <ele>10.836763044819236</ele>
        <time>2025-05-15T14:28:49Z</time>
      </trkpt>
      <trkpt lat="24.91281925793399" lon="118.55761779288046">
        <ele>10.384180693887174</ele>
        <time>2025-05-15T14:28:51Z</time>
      </trkpt>
      <trkpt lat="24.912757315634362" lon="118.55756329788075">
        <ele>9.643061559647322</ele>
        <time>2025-05-15T14:28:53Z</time>
      </trkpt>
      <trkpt lat="24.912693608603018" lon="118.5574695922821">
        <ele>9.037975424900651</ele>
        <time>2025-05-15T14:28:55Z</time>
      </trkpt>
      <trkpt lat="24.91261366706575" lon="118.5572581357274">
        <ele>8.714100460521877</ele>
        <time>2025-05-15T14:28:59Z</time>
      </trkpt>
      <trkpt lat="24.912594261745657" lon="118.55715372126899">
        <ele>8.368472473695874</ele>
        <time>2025-05-15T14:29:01Z</time>
      </trkpt>
      <trkpt lat="24.91245120960415" lon="118.55662256480414">
        <ele>9.073928064666688</ele>
        <time>2025-05-15T14:29:11Z</time>
      </trkpt>
      <trkpt lat="24.91225233516539" lon="118.55609024754318">
        <ele>7.0291172582656145</ele>
        <time>2025-05-15T14:29:21Z</time>
      </trkpt>
      <trkpt lat="24.912141304819162" lon="118.55576696817202">
        <ele>6.6141122076660395</ele>
        <time>2025-05-15T14:29:27Z</time>
      </trkpt>
      <trkpt lat="24.912097972247697" lon="118.55557097000408">
        <ele>7.505752830766141</ele>
        <time>2025-05-15T14:29:31Z</time>
      </trkpt>
      <trkpt lat="24.911946999526315" lon="118.55526826861015">
        <ele>7.765438883565366</ele>
        <time>2025-05-15T14:29:37Z</time>
      </trkpt>
      <trkpt lat="24.911922820616823" lon="118.55516906799674">
        <ele>8.012759405188262</ele>
        <time>2025-05-15T14:29:39Z</time>
      </trkpt>
      <trkpt lat="24.911873465263387" lon="118.55507237972915">
        <ele>8.208320286124945</ele>
        <time>2025-05-15T14:29:41Z</time>
      </trkpt>
      <trkpt lat="24.911830042719924" lon="118.55490852226106">
        <ele>8.109508857131004</ele>
        <time>2025-05-15T14:29:45Z</time>
      </trkpt>
      <trkpt lat="24.911835444181087" lon="118.55479749756265">
        <ele>8.482387624680996</ele>
        <time>2025-05-15T14:29:48Z</time>
      </trkpt>
      <trkpt lat="24.911801410068154" lon="118.55470493799267">
        <ele>8.720235893502831</ele>
        <time>2025-05-15T14:29:51Z</time>
      </trkpt>
      <trkpt lat="24.911741991143813" lon="118.55462221590871">
        <ele>8.036916361190379</ele>
        <time>2025-05-15T14:29:54Z</time>
      </trkpt>
      <trkpt lat="24.91170830444815" lon="118.55453454792905">
        <ele>8.640562183223665</ele>
        <time>2025-05-15T14:29:57Z</time>
      </trkpt>
      <trkpt lat="24.911631764655695" lon="118.55448790136825">
        <ele>7.875089631415904</ele>
        <time>2025-05-15T14:29:59Z</time>
      </trkpt>
      <trkpt lat="24.91157509531483" lon="118.55439492388">
        <ele>8.259142693132162</ele>
        <time>2025-05-15T14:30:02Z</time>
      </trkpt>
      <trkpt lat="24.911549975497287" lon="118.55431714663709">
        <ele>8.285112868063152</ele>
        <time>2025-05-15T14:30:07Z</time>
      </trkpt>
      <trkpt lat="24.911471337638663" lon="118.55416863463803">
        <ele>9.205499101430178</ele>
        <time>2025-05-15T14:30:17Z</time>
      </trkpt>
      <trkpt lat="24.911291410608943" lon="118.55371501872808">
        <ele>8.057914201170206</ele>
        <time>2025-05-15T14:30:27Z</time>
      </trkpt>
      <trkpt lat="24.911243842391354" lon="118.55363946015412">
        <ele>7.8384867599233985</ele>
        <time>2025-05-15T14:30:29Z</time>
      </trkpt>
      <trkpt lat="24.911079618668307" lon="118.55323110394893">
        <ele>7.869213999249041</ele>
        <time>2025-05-15T14:30:37Z</time>
      </trkpt>
      <trkpt lat="24.911058214043894" lon="118.55313964916363">
        <ele>7.571612695232034</ele>
        <time>2025-05-15T14:30:39Z</time>
      </trkpt>
      <trkpt lat="24.911077222205" lon="118.55296758384326">
        <ele>7.340568885207176</ele>
        <time>2025-05-15T14:30:57Z</time>
      </trkpt>
      <trkpt lat="24.91105773360752" lon="118.55287721247889">
        <ele>8.069942419417202</ele>
        <time>2025-05-15T14:31:02Z</time>
      </trkpt>
      <trkpt lat="24.910997411342347" lon="118.55281663469657">
        <ele>7.788522372953594</ele>
        <time>2025-05-15T14:31:20Z</time>
      </trkpt>
      <trkpt lat="24.910982618053755" lon="118.55271749331307">
        <ele>8.05745229497552</ele>
        <time>2025-05-15T14:31:24Z</time>
      </trkpt>
      <trkpt lat="24.910826637096225" lon="118.5525144330567">
        <ele>7.482670607045293</ele>
        <time>2025-05-15T14:31:34Z</time>
      </trkpt>
      <trkpt lat="24.910715311661" lon="118.55222886248598">
        <ele>8.201332913711667</ele>
        <time>2025-05-15T14:31:43Z</time>
      </trkpt>
      <trkpt lat="24.910603560846155" lon="118.55209645088743">
        <ele>7.907442989759147</ele>
        <time>2025-05-15T14:31:47Z</time>
      </trkpt>
      <trkpt lat="24.91054693934316" lon="118.55177214575417">
        <ele>7.801915866322815</ele>
        <time>2025-05-15T14:31:53Z</time>
      </trkpt>
      <trkpt lat="24.91055087289549" lon="118.55164613717598">
        <ele>7.616833589039743</ele>
        <time>2025-05-15T14:31:55Z</time>
      </trkpt>
      <trkpt lat="24.910455119258437" lon="118.55135098216064">
        <ele>7.392326726578176</ele>
        <time>2025-05-15T14:32:01Z</time>
      </trkpt>
      <trkpt lat="24.910306328494173" lon="118.55106131746663">
        <ele>7.960500787943602</ele>
        <time>2025-05-15T14:32:07Z</time>
      </trkpt>
      <trkpt lat="24.91028348073435" lon="118.5509408231321">
        <ele>7.975146086886525</ele>
        <time>2025-05-15T14:32:09Z</time>
      </trkpt>
      <trkpt lat="24.910173283551757" lon="118.55064819376358">
        <ele>8.05586064234376</ele>
        <time>2025-05-15T14:32:15Z</time>
      </trkpt>
      <trkpt lat="24.910123287002552" lon="118.55055621522025">
        <ele>8.055786181241274</ele>
        <time>2025-05-15T14:32:17Z</time>
      </trkpt>
      <trkpt lat="24.910077357030296" lon="118.55033121194013">
        <ele>7.7717599822208285</ele>
        <time>2025-05-15T14:32:21Z</time>
      </trkpt>
      <trkpt lat="24.909931057497328" lon="118.55015106382689">
        <ele>7.964460350573063</ele>
        <time>2025-05-15T14:32:25Z</time>
      </trkpt>
      <trkpt lat="24.909706855066204" lon="118.54966194985563">
        <ele>8.250390287488699</ele>
        <time>2025-05-15T14:32:35Z</time>
      </trkpt>
      <trkpt lat="24.909471205865877" lon="118.5493226273228">
        <ele>6.91847425326705</ele>
        <time>2025-05-15T14:32:43Z</time>
      </trkpt>
      <trkpt lat="24.909391683541994" lon="118.54913635741428">
        <ele>7.666149474680424</ele>
        <time>2025-05-15T14:32:47Z</time>
      </trkpt>
      <trkpt lat="24.90923097571731" lon="118.54878775091439">
        <ele>7.835956988856196</ele>
        <time>2025-05-15T14:32:55Z</time>
      </trkpt>
      <trkpt lat="24.909213736918186" lon="118.54870807292436">
        <ele>6.981098426505923</ele>
        <time>2025-05-15T14:32:57Z</time>
      </trkpt>
      <trkpt lat="24.909039642027864" lon="118.54823483229842">
        <ele>7.881515850313008</ele>
        <time>2025-05-15T14:33:07Z</time>
      </trkpt>
      <trkpt lat="24.90903569839322" lon="118.54813256331133">
        <ele>7.520183008164167</ele>
        <time>2025-05-15T14:33:10Z</time>
      </trkpt>
      <trkpt lat="24.909083610209347" lon="118.54803798575043">
        <ele>7.565216587856412</ele>
        <time>2025-05-15T14:33:13Z</time>
      </trkpt>
      <trkpt lat="24.909295271073194" lon="118.54785362620126">
        <ele>7.630859015509486</ele>
        <time>2025-05-15T14:33:19Z</time>
      </trkpt>
      <trkpt lat="24.909558349442516" lon="118.54770335045632">
        <ele>8.138389549218118</ele>
        <time>2025-05-15T14:33:25Z</time>
      </trkpt>
      <trkpt lat="24.909657110413843" lon="118.54766824497818">
        <ele>7.394061801955104</ele>
        <time>2025-05-15T14:33:27Z</time>
      </trkpt>
      <trkpt lat="24.90992925745793" lon="118.54749713132233">
        <ele>7.710742145776749</ele>
        <time>2025-05-15T14:33:33Z</time>
      </trkpt>
      <trkpt lat="24.910174838000486" lon="118.54738488831053">
        <ele>7.969225930981338</ele>
        <time>2025-05-15T14:33:39Z</time>
      </trkpt>
      <trkpt lat="24.910554983955617" lon="118.54712643151571">
        <ele>8.356040759012103</ele>
        <time>2025-05-15T14:33:51Z</time>
      </trkpt>
      <trkpt lat="24.910956924007735" lon="118.54687585416222">
        <ele>7.100779644213617</ele>
        <time>2025-05-15T14:34:06Z</time>
      </trkpt>
      <trkpt lat="24.911166829654842" lon="118.54672532535172">
        <ele>7.2390752444043756</ele>
        <time>2025-05-15T14:34:14Z</time>
      </trkpt>
      <trkpt lat="24.911250226984826" lon="118.54669177913763">
        <ele>7.230336721986532</ele>
        <time>2025-05-15T14:34:17Z</time>
      </trkpt>
      <trkpt lat="24.911478135838806" lon="118.54656159677167">
        <ele>8.022103330120444</ele>
        <time>2025-05-15T14:34:25Z</time>
      </trkpt>
      <trkpt lat="24.91172733121459" lon="118.54645772720399">
        <ele>7.273894463665783</ele>
        <time>2025-05-15T14:34:34Z</time>
      </trkpt>
      <trkpt lat="24.911811773206907" lon="118.5464024124782">
        <ele>7.727773744612932</ele>
        <time>2025-05-15T14:34:37Z</time>
      </trkpt>
      <trkpt lat="24.911861280013675" lon="118.5461959938744">
        <ele>8.473527013324201</ele>
        <time>2025-05-15T14:34:42Z</time>
      </trkpt>
      <trkpt lat="24.911864460852897" lon="118.5460828488381">
        <ele>8.617859465070069</ele>
        <time>2025-05-15T14:34:45Z</time>
      </trkpt>
      <trkpt lat="24.911698390427855" lon="118.54563017500051">
        <ele>7.287520324811339</ele>
        <time>2025-05-15T14:34:57Z</time>
      </trkpt>
      <trkpt lat="24.911531681960778" lon="118.54526127190108">
        <ele>5.705645855516195</ele>
        <time>2025-05-15T14:35:05Z</time>
      </trkpt>
      <trkpt lat="24.911347076373204" lon="118.54477035925605">
        <ele>7.9122148510068655</ele>
        <time>2025-05-15T14:35:15Z</time>
      </trkpt>
      <trkpt lat="24.911148849957765" lon="118.54427902130291">
        <ele>7.615195979364216</ele>
        <time>2025-05-15T14:35:25Z</time>
      </trkpt>
      <trkpt lat="24.910985240236492" lon="118.54393831889716">
        <ele>7.611203147098422</ele>
        <time>2025-05-15T14:35:34Z</time>
      </trkpt>
      <trkpt lat="24.91086874778438" lon="118.54379002024719">
        <ele>7.819878646172583</ele>
        <time>2025-05-15T14:35:39Z</time>
      </trkpt>
      <trkpt lat="24.91080328722272" lon="118.54374172978916">
        <ele>7.892932406626642</ele>
        <time>2025-05-15T14:35:41Z</time>
      </trkpt>
      <trkpt lat="24.91072228682211" lon="118.54372672305362">
        <ele>7.495318687520921</ele>
        <time>2025-05-15T14:35:43Z</time>
      </trkpt>
      <trkpt lat="24.910567537771858" lon="118.5437633877571">
        <ele>8.222560229711235</ele>
        <time>2025-05-15T14:35:48Z</time>
      </trkpt>
      <trkpt lat="24.910724651867344" lon="118.54374993365583">
        <ele>7.718727670609951</ele>
        <time>2025-05-15T14:36:12Z</time>
      </trkpt>
      <trkpt lat="24.910801448779957" lon="118.54372004514319">
        <ele>7.953577429056168</ele>
        <time>2025-05-15T14:36:22Z</time>
      </trkpt>
      <trkpt lat="24.910840256912632" lon="118.54374210286561">
        <ele>7.5848696529865265</ele>
        <time>2025-05-15T14:36:25Z</time>
      </trkpt>
    </trkseg>
  </trk>
</gpx>