<?xml version="1.0" encoding="UTF-8"?>
<gpx xmlns="http://www.topografix.com/GPX/1/1" xmlns:gpxtpx="http://www.garmin.com/xmlschemas/TrackPointExtension/v1" xmlns:xsi="http://www.w3.org/2001/XMLSchema-instance" xsi:schemaLocation="http://www.topografix.com/GPX/1/1 http://www.topografix.com/GPX/1/1/gpx.xsd" version="1.1" creator="gpx.py -- https://github.com/tkrajina/gpxpy">
  <trk>
    <name>gpx from keep</name>
    <type>Ride</type>
    <trkseg>
      <trkpt lat="24.909226008268725" lon="118.53799224884962">
        <ele>7.637729582169712</ele>
        <time>2024-12-14T12:52:10Z</time>
      </trkpt>
      <trkpt lat="24.90941262164622" lon="118.53816617937265">
        <ele>7.827913081625827</ele>
        <time>2024-12-14T12:52:13Z</time>
      </trkpt>
      <trkpt lat="24.909332206223095" lon="118.53816496570721">
        <ele>7.648337975144386</ele>
        <time>2024-12-14T12:52:26Z</time>
      </trkpt>
      <trkpt lat="24.909154489613158" lon="118.53846907242112">
        <ele>7.871159713715315</ele>
        <time>2024-12-14T12:53:04Z</time>
      </trkpt>
      <trkpt lat="24.909085877279583" lon="118.53878359791757">
        <ele>7.402757997624576</ele>
        <time>2024-12-14T12:53:15Z</time>
      </trkpt>
      <trkpt lat="24.90910175563804" lon="118.53890229668708">
        <ele>7.629174399189651</ele>
        <time>2024-12-14T12:53:17Z</time>
      </trkpt>
      <trkpt lat="24.909080463878755" lon="118.53898826977226">
        <ele>7.804072598926723</ele>
        <time>2024-12-14T12:53:19Z</time>
      </trkpt>
      <trkpt lat="24.909073356183324" lon="118.53918318880295">
        <ele>7.725377015769482</ele>
        <time>2024-12-14T12:53:23Z</time>
      </trkpt>
      <trkpt lat="24.908910784961943" lon="118.53960838212491">
        <ele>7.720847021788359</ele>
        <time>2024-12-14T12:53:39Z</time>
      </trkpt>
      <trkpt lat="24.90894906201139" lon="118.53978172039807">
        <ele>7.657270667143166</ele>
        <time>2024-12-14T12:53:45Z</time>
      </trkpt>
      <trkpt lat="24.90893666267619" lon="118.53988581062885">
        <ele>7.509790192358196</ele>
        <time>2024-12-14T12:53:49Z</time>
      </trkpt>
      <trkpt lat="24.90898478177502" lon="118.54019659769666">
        <ele>7.930071843788028</ele>
        <time>2024-12-14T12:53:56Z</time>
      </trkpt>
      <trkpt lat="24.909016364376107" lon="118.54030917784803">
        <ele>7.949824799783528</ele>
        <time>2024-12-14T12:53:59Z</time>
      </trkpt>
      <trkpt lat="24.909063094508838" lon="118.54039560332336">
        <ele>7.91964856069535</ele>
        <time>2024-12-14T12:54:04Z</time>
      </trkpt>
      <trkpt lat="24.909093275220936" lon="118.5406643492347">
        <ele>7.448424239642918</ele>
        <time>2024-12-14T12:54:11Z</time>
      </trkpt>
      <trkpt lat="24.909071730093313" lon="118.54074977237914">
        <ele>7.012071207165718</ele>
        <time>2024-12-14T12:54:13Z</time>
      </trkpt>
      <trkpt lat="24.90907434319339" lon="118.5408544503177">
        <ele>7.378093587234616</ele>
        <time>2024-12-14T12:54:16Z</time>
      </trkpt>
      <trkpt lat="24.909039547806838" lon="118.54099888542582">
        <ele>7.723467653617263</ele>
        <time>2024-12-14T12:54:20Z</time>
      </trkpt>
      <trkpt lat="24.908927440736974" lon="118.54097098186773">
        <ele>8.128098961897194</ele>
        <time>2024-12-14T12:54:22Z</time>
      </trkpt>
      <trkpt lat="24.908821890978654" lon="118.54097092861105">
        <ele>8.747799105010927</ele>
        <time>2024-12-14T12:54:24Z</time>
      </trkpt>
      <trkpt lat="24.90876941618388" lon="118.5410703367568">
        <ele>8.944409482181072</ele>
        <time>2024-12-14T12:54:26Z</time>
      </trkpt>
      <trkpt lat="24.90877395009723" lon="118.54115253597014">
        <ele>8.723420772701502</ele>
        <time>2024-12-14T12:54:28Z</time>
      </trkpt>
      <trkpt lat="24.90875131389367" lon="118.54127400540737">
        <ele>8.731863087974489</ele>
        <time>2024-12-14T12:54:30Z</time>
      </trkpt>
      <trkpt lat="24.908568869815667" lon="118.5416717601305">
        <ele>8.044517420232296</ele>
        <time>2024-12-14T12:54:38Z</time>
      </trkpt>
      <trkpt lat="24.90853420871672" lon="118.54178875341856">
        <ele>7.817856636829674</ele>
        <time>2024-12-14T12:54:40Z</time>
      </trkpt>
      <trkpt lat="24.908339423044122" lon="118.54208799568637">
        <ele>8.14949934836477</ele>
        <time>2024-12-14T12:54:46Z</time>
      </trkpt>
      <trkpt lat="24.908312524068666" lon="118.5421894993195">
        <ele>8.094777442514896</ele>
        <time>2024-12-14T12:54:48Z</time>
      </trkpt>
      <trkpt lat="24.90832599740333" lon="118.54233203330695">
        <ele>7.307832698337734</ele>
        <time>2024-12-14T12:54:52Z</time>
      </trkpt>
      <trkpt lat="24.9083898132461" lon="118.54250823346851">
        <ele>7.508957432582974</ele>
        <time>2024-12-14T12:54:56Z</time>
      </trkpt>
      <trkpt lat="24.908537809375005" lon="118.54271867310091">
        <ele>7.452955776825547</ele>
        <time>2024-12-14T12:55:02Z</time>
      </trkpt>
      <trkpt lat="24.90860017005776" lon="118.54278408924786">
        <ele>8.156104207970202</ele>
        <time>2024-12-14T12:55:05Z</time>
      </trkpt>
      <trkpt lat="24.908624655000892" lon="118.54288282541837">
        <ele>8.893804940395057</ele>
        <time>2024-12-14T12:55:08Z</time>
      </trkpt>
      <trkpt lat="24.908575536137587" lon="118.54295166156183">
        <ele>10.109623366966844</ele>
        <time>2024-12-14T12:55:11Z</time>
      </trkpt>
      <trkpt lat="24.90859409024933" lon="118.54305770227573">
        <ele>9.689837693236768</ele>
        <time>2024-12-14T12:55:15Z</time>
      </trkpt>
      <trkpt lat="24.908712837602035" lon="118.5431665817816">
        <ele>8.134455567225814</ele>
        <time>2024-12-14T12:55:19Z</time>
      </trkpt>
      <trkpt lat="24.908870018099677" lon="118.54322292287223">
        <ele>7.742439880035818</ele>
        <time>2024-12-14T12:55:23Z</time>
      </trkpt>
      <trkpt lat="24.908943139996172" lon="118.54323008846508">
        <ele>8.097551813349128</ele>
        <time>2024-12-14T12:55:25Z</time>
      </trkpt>
      <trkpt lat="24.909019717688597" lon="118.54326412047769">
        <ele>7.55369112547487</ele>
        <time>2024-12-14T12:55:28Z</time>
      </trkpt>
      <trkpt lat="24.908940959535652" lon="118.54331806032543">
        <ele>8.05254200194031</ele>
        <time>2024-12-14T12:55:32Z</time>
      </trkpt>
      <trkpt lat="24.90885305345739" lon="118.54331478705005">
        <ele>7.434777396731079</ele>
        <time>2024-12-14T12:55:34Z</time>
      </trkpt>
      <trkpt lat="24.90833619657104" lon="118.54336345673524">
        <ele>8.2303146738559</ele>
        <time>2024-12-14T12:55:47Z</time>
      </trkpt>
      <trkpt lat="24.90787653457671" lon="118.5433751361946">
        <ele>7.585544165223837</ele>
        <time>2024-12-14T12:55:58Z</time>
      </trkpt>
      <trkpt lat="24.907795415748495" lon="118.54337828696896">
        <ele>8.203423166647553</ele>
        <time>2024-12-14T12:56:00Z</time>
      </trkpt>
      <trkpt lat="24.90762220074015" lon="118.543339958765">
        <ele>7.96665851585567</ele>
        <time>2024-12-14T12:56:05Z</time>
      </trkpt>
      <trkpt lat="24.9075467521073" lon="118.54338836645778">
        <ele>8.145680547691882</ele>
        <time>2024-12-14T12:56:08Z</time>
      </trkpt>
      <trkpt lat="24.90751087172356" lon="118.54345750952558">
        <ele>7.920865291729569</ele>
        <time>2024-12-14T12:56:11Z</time>
      </trkpt>
      <trkpt lat="24.9075514947652" lon="118.54386900607533">
        <ele>8.257865766063333</ele>
        <time>2024-12-14T12:56:45Z</time>
      </trkpt>
      <trkpt lat="24.907533784644755" lon="118.54410458458253">
        <ele>8.373862707987428</ele>
        <time>2024-12-14T12:56:51Z</time>
      </trkpt>
      <trkpt lat="24.907575802862084" lon="118.54429231126095">
        <ele>7.77674138918519</ele>
        <time>2024-12-14T12:56:55Z</time>
      </trkpt>
      <trkpt lat="24.907745840557975" lon="118.54473556417426">
        <ele>7.812139975838363</ele>
        <time>2024-12-14T12:57:05Z</time>
      </trkpt>
      <trkpt lat="24.90780201057522" lon="118.54481229451126">
        <ele>7.955343917943537</ele>
        <time>2024-12-14T12:57:07Z</time>
      </trkpt>
      <trkpt lat="24.907956686556055" lon="118.54525888533664">
        <ele>7.215116082690656</ele>
        <time>2024-12-14T12:57:17Z</time>
      </trkpt>
      <trkpt lat="24.907996322410124" lon="118.54534001498658">
        <ele>7.659744906239212</ele>
        <time>2024-12-14T12:57:19Z</time>
      </trkpt>
      <trkpt lat="24.90801082463355" lon="118.54545201650522">
        <ele>8.210926653817296</ele>
        <time>2024-12-14T12:57:21Z</time>
      </trkpt>
      <trkpt lat="24.908205434185295" lon="118.54597606629737">
        <ele>7.657275455072522</ele>
        <time>2024-12-14T12:57:31Z</time>
      </trkpt>
      <trkpt lat="24.908431262414965" lon="118.54650294683022">
        <ele>8.189450226724148</ele>
        <time>2024-12-14T12:57:42Z</time>
      </trkpt>
      <trkpt lat="24.90861636295656" lon="118.54695557986965">
        <ele>8.194306125864387</ele>
        <time>2024-12-14T12:57:52Z</time>
      </trkpt>
      <trkpt lat="24.90866574662822" lon="118.5471236385483">
        <ele>7.96377572324127</ele>
        <time>2024-12-14T12:57:56Z</time>
      </trkpt>
      <trkpt lat="24.908678613243573" lon="118.54722761607883">
        <ele>7.8612677082419395</ele>
        <time>2024-12-14T12:57:58Z</time>
      </trkpt>
      <trkpt lat="24.908848184815692" lon="118.54767842765327">
        <ele>8.792321015149355</ele>
        <time>2024-12-14T12:58:11Z</time>
      </trkpt>
      <trkpt lat="24.909057365763132" lon="118.54812644450107">
        <ele>7.980294644832611</ele>
        <time>2024-12-14T12:58:25Z</time>
      </trkpt>
      <trkpt lat="24.90911013798975" lon="118.54828720906343">
        <ele>8.086661062203348</ele>
        <time>2024-12-14T12:58:29Z</time>
      </trkpt>
      <trkpt lat="24.909281853597342" lon="118.54863664140746">
        <ele>8.731907453387976</ele>
        <time>2024-12-14T12:58:37Z</time>
      </trkpt>
      <trkpt lat="24.909346861716212" lon="118.54882090505285">
        <ele>7.970987665466964</ele>
        <time>2024-12-14T12:58:41Z</time>
      </trkpt>
      <trkpt lat="24.90943800766178" lon="118.54899493589436">
        <ele>8.382896627299488</ele>
        <time>2024-12-14T12:58:45Z</time>
      </trkpt>
      <trkpt lat="24.909488104745876" lon="118.54917384822639">
        <ele>8.714508167468011</ele>
        <time>2024-12-14T12:58:49Z</time>
      </trkpt>
      <trkpt lat="24.90949750566966" lon="118.549256434639">
        <ele>8.323333764448762</ele>
        <time>2024-12-14T12:58:51Z</time>
      </trkpt>
      <trkpt lat="24.90971453515187" lon="118.54967693419118">
        <ele>7.447555348277092</ele>
        <time>2024-12-14T12:59:01Z</time>
      </trkpt>
      <trkpt lat="24.90983299411267" lon="118.54994136023244">
        <ele>7.456056781113148</ele>
        <time>2024-12-14T12:59:07Z</time>
      </trkpt>
      <trkpt lat="24.909838968799278" lon="118.55003031582733">
        <ele>6.796132452785969</ele>
        <time>2024-12-14T12:59:09Z</time>
      </trkpt>
      <trkpt lat="24.90987845993632" lon="118.55013024770028">
        <ele>7.364168217405677</ele>
        <time>2024-12-14T12:59:12Z</time>
      </trkpt>
      <trkpt lat="24.90993338673301" lon="118.5502015920401">
        <ele>7.776187784038484</ele>
        <time>2024-12-14T12:59:14Z</time>
      </trkpt>
      <trkpt lat="24.909954763065834" lon="118.55027861752417">
        <ele>7.636637421324849</ele>
        <time>2024-12-14T12:59:16Z</time>
      </trkpt>
      <trkpt lat="24.9100617141217" lon="118.55052295856487">
        <ele>8.014578336849809</ele>
        <time>2024-12-14T12:59:22Z</time>
      </trkpt>
      <trkpt lat="24.910125457037203" lon="118.55080679587782">
        <ele>7.064021433703601</ele>
        <time>2024-12-14T12:59:29Z</time>
      </trkpt>
      <trkpt lat="24.910122739239316" lon="118.55090887036587">
        <ele>7.92247021663934</ele>
        <time>2024-12-14T12:59:32Z</time>
      </trkpt>
      <trkpt lat="24.91022160814769" lon="118.55118484204847">
        <ele>7.386649025604129</ele>
        <time>2024-12-14T12:59:38Z</time>
      </trkpt>
      <trkpt lat="24.910459920844275" lon="118.55155440913961">
        <ele>6.7196150328963995</ele>
        <time>2024-12-14T12:59:49Z</time>
      </trkpt>
      <trkpt lat="24.910722513091965" lon="118.55203893031803">
        <ele>6.8060446018353105</ele>
        <time>2024-12-14T13:00:00Z</time>
      </trkpt>
      <trkpt lat="24.91088159137478" lon="118.55244942477484">
        <ele>7.188416812568903</ele>
        <time>2024-12-14T13:00:10Z</time>
      </trkpt>
      <trkpt lat="24.911051177142284" lon="118.55275108447853">
        <ele>7.286234554834664</ele>
        <time>2024-12-14T13:00:40Z</time>
      </trkpt>
      <trkpt lat="24.91114236484756" lon="118.55298754749381">
        <ele>8.324103699065745</ele>
        <time>2024-12-14T13:00:50Z</time>
      </trkpt>
      <trkpt lat="24.9110910596492" lon="118.55307501059106">
        <ele>7.937752539291978</ele>
        <time>2024-12-14T13:00:56Z</time>
      </trkpt>
      <trkpt lat="24.9112726118005" lon="118.55353739986393">
        <ele>8.154284417629242</ele>
        <time>2024-12-14T13:01:06Z</time>
      </trkpt>
      <trkpt lat="24.911434062616703" lon="118.55398138318795">
        <ele>8.323431237600744</ele>
        <time>2024-12-14T13:01:16Z</time>
      </trkpt>
      <trkpt lat="24.911583407221315" lon="118.55437105112685">
        <ele>8.612878671847284</ele>
        <time>2024-12-14T13:01:30Z</time>
      </trkpt>
      <trkpt lat="24.911718902717567" lon="118.55456711745694">
        <ele>8.419560635462403</ele>
        <time>2024-12-14T13:01:37Z</time>
      </trkpt>
      <trkpt lat="24.91180255542403" lon="118.55475391462454">
        <ele>7.629096359014511</ele>
        <time>2024-12-14T13:01:45Z</time>
      </trkpt>
      <trkpt lat="24.911791629655177" lon="118.55485808004113">
        <ele>7.389985664747655</ele>
        <time>2024-12-14T13:01:48Z</time>
      </trkpt>
      <trkpt lat="24.91180043934828" lon="118.55495260292595">
        <ele>8.140332935377955</ele>
        <time>2024-12-14T13:01:51Z</time>
      </trkpt>
      <trkpt lat="24.911911040694353" lon="118.55522616259216">
        <ele>8.358386736363173</ele>
        <time>2024-12-14T13:01:58Z</time>
      </trkpt>
      <trkpt lat="24.912113055347124" lon="118.55562364054721">
        <ele>7.383968968875706</ele>
        <time>2024-12-14T13:02:08Z</time>
      </trkpt>
      <trkpt lat="24.912181039588" lon="118.5558894074453">
        <ele>8.851950662210584</ele>
        <time>2024-12-14T13:02:14Z</time>
      </trkpt>
      <trkpt lat="24.912314589370524" lon="118.55612879539362">
        <ele>7.344810570590198</ele>
        <time>2024-12-14T13:02:20Z</time>
      </trkpt>
      <trkpt lat="24.91247895046412" lon="118.55667795578138">
        <ele>8.35066955909133</ele>
        <time>2024-12-14T13:02:32Z</time>
      </trkpt>
      <trkpt lat="24.912700485187212" lon="118.55719857898697">
        <ele>7.823624201118946</ele>
        <time>2024-12-14T13:03:01Z</time>
      </trkpt>
      <trkpt lat="24.912767527814314" lon="118.55735974612404">
        <ele>7.16573668923229</ele>
        <time>2024-12-14T13:03:05Z</time>
      </trkpt>
      <trkpt lat="24.912998304910378" lon="118.55779241575883">
        <ele>8.321964583359659</ele>
        <time>2024-12-14T13:03:17Z</time>
      </trkpt>
      <trkpt lat="24.913100083668226" lon="118.55801703542537">
        <ele>10.626171331852674</ele>
        <time>2024-12-14T13:03:25Z</time>
      </trkpt>
      <trkpt lat="24.913094591712877" lon="118.5581132911616">
        <ele>11.179993727244437</ele>
        <time>2024-12-14T13:03:31Z</time>
      </trkpt>
      <trkpt lat="24.91320181517417" lon="118.5582692379726">
        <ele>11.913253511302173</ele>
        <time>2024-12-14T13:04:27Z</time>
      </trkpt>
      <trkpt lat="24.913341890672648" lon="118.55839172970444">
        <ele>12.307495686225593</ele>
        <time>2024-12-14T13:04:34Z</time>
      </trkpt>
      <trkpt lat="24.91340516079502" lon="118.55849978203774">
        <ele>12.307732967659831</ele>
        <time>2024-12-14T13:04:38Z</time>
      </trkpt>
      <trkpt lat="24.913451413427268" lon="118.55866432398395">
        <ele>13.046032956801355</ele>
        <time>2024-12-14T13:04:42Z</time>
      </trkpt>
      <trkpt lat="24.913571300690986" lon="118.55887416862046">
        <ele>13.61971027776599</ele>
        <time>2024-12-14T13:04:50Z</time>
      </trkpt>
      <trkpt lat="24.913760716928994" lon="118.55908322014473">
        <ele>14.997257320210338</ele>
        <time>2024-12-14T13:05:00Z</time>
      </trkpt>
      <trkpt lat="24.9138091730969" lon="118.55915988109469">
        <ele>14.550922704860568</ele>
        <time>2024-12-14T13:05:02Z</time>
      </trkpt>
      <trkpt lat="24.913858171221268" lon="118.55931338553599">
        <ele>14.436764108017087</ele>
        <time>2024-12-14T13:05:06Z</time>
      </trkpt>
      <trkpt lat="24.91384426694072" lon="118.55939825429607">
        <ele>13.553039042279124</ele>
        <time>2024-12-14T13:05:08Z</time>
      </trkpt>
      <trkpt lat="24.91394275502615" lon="118.55954181687812">
        <ele>14.462828154675663</ele>
        <time>2024-12-14T13:05:12Z</time>
      </trkpt>
      <trkpt lat="24.9142842905384" lon="118.55987550951771">
        <ele>13.255908641032875</ele>
        <time>2024-12-14T13:05:22Z</time>
      </trkpt>
      <trkpt lat="24.914475897329293" lon="118.56015420092267">
        <ele>11.856486393138766</ele>
        <time>2024-12-14T13:05:32Z</time>
      </trkpt>
      <trkpt lat="24.914513694627473" lon="118.56026744276254">
        <ele>12.845542532391846</ele>
        <time>2024-12-14T13:05:36Z</time>
      </trkpt>
      <trkpt lat="24.91456577176473" lon="118.56034004857509">
        <ele>12.890473430044949</ele>
        <time>2024-12-14T13:05:40Z</time>
      </trkpt>
      <trkpt lat="24.91464120431046" lon="118.56040845018606">
        <ele>12.192109216935933</ele>
        <time>2024-12-14T13:05:45Z</time>
      </trkpt>
      <trkpt lat="24.914707869755983" lon="118.56044579583673">
        <ele>12.024036232382059</ele>
        <time>2024-12-14T13:05:49Z</time>
      </trkpt>
      <trkpt lat="24.914765962717365" lon="118.5605272520923">
        <ele>12.4918064288795</ele>
        <time>2024-12-14T13:05:51Z</time>
      </trkpt>
      <trkpt lat="24.914839194159256" lon="118.56070684459429">
        <ele>11.765693733468652</ele>
        <time>2024-12-14T13:05:56Z</time>
      </trkpt>
      <trkpt lat="24.914945767970842" lon="118.56088102208147">
        <ele>9.663035403005779</ele>
        <time>2024-12-14T13:06:00Z</time>
      </trkpt>
      <trkpt lat="24.91519470117396" lon="118.56135908929818">
        <ele>2.2128117084503174</ele>
        <time>2024-12-14T13:06:14Z</time>
      </trkpt>
      <trkpt lat="24.91546379497947" lon="118.56175559161343">
        <ele>0.9150779331102967</ele>
        <time>2024-12-14T13:06:28Z</time>
      </trkpt>
      <trkpt lat="24.91568986543552" lon="118.56209926318706">
        <ele>0.49172073788940907</ele>
        <time>2024-12-14T13:06:41Z</time>
      </trkpt>
      <trkpt lat="24.91572793221416" lon="118.56218088260226">
        <ele>-0.1741473488509655</ele>
        <time>2024-12-14T13:06:44Z</time>
      </trkpt>
      <trkpt lat="24.91602316744764" lon="118.56258600520059">
        <ele>-0.36312596779316664</ele>
        <time>2024-12-14T13:07:01Z</time>
      </trkpt>
      <trkpt lat="24.916349166675978" lon="118.56298491342345">
        <ele>6.281687133945525</ele>
        <time>2024-12-14T13:07:17Z</time>
      </trkpt>
      <trkpt lat="24.916517033610784" lon="118.56316081311363">
        <ele>9.01226856186986</ele>
        <time>2024-12-14T13:07:25Z</time>
      </trkpt>
      <trkpt lat="24.91658284025455" lon="118.56325887247493">
        <ele>9.511957653798163</ele>
        <time>2024-12-14T13:07:27Z</time>
      </trkpt>
      <trkpt lat="24.916741538970722" lon="118.56343312382272">
        <ele>9.323234137147665</ele>
        <time>2024-12-14T13:07:31Z</time>
      </trkpt>
      <trkpt lat="24.916929183839002" lon="118.56374843843176">
        <ele>9.955141824670136</ele>
        <time>2024-12-14T13:07:41Z</time>
      </trkpt>
      <trkpt lat="24.917001150856542" lon="118.56379678862093">
        <ele>9.885017325170338</ele>
        <time>2024-12-14T13:07:43Z</time>
      </trkpt>
      <trkpt lat="24.917157954436043" lon="118.56408519546">
        <ele>10.04038491845131</ele>
        <time>2024-12-14T13:07:49Z</time>
      </trkpt>
      <trkpt lat="24.917248942146554" lon="118.56428034666904">
        <ele>11.225656581111252</ele>
        <time>2024-12-14T13:07:56Z</time>
      </trkpt>
      <trkpt lat="24.917385930705358" lon="118.56441404463612">
        <ele>10.546963952481747</ele>
        <time>2024-12-14T13:08:06Z</time>
      </trkpt>
      <trkpt lat="24.917392299358777" lon="118.56443547026288">
        <ele>10.542589515447617</ele>
        <time>2024-12-14T13:08:08Z</time>
      </trkpt>
    </trkseg>
  </trk>
</gpx>