<?xml version="1.0" encoding="UTF-8"?>
<gpx xmlns="http://www.topografix.com/GPX/1/1" xmlns:gpxtpx="http://www.garmin.com/xmlschemas/TrackPointExtension/v1" xmlns:xsi="http://www.w3.org/2001/XMLSchema-instance" xsi:schemaLocation="http://www.topografix.com/GPX/1/1 http://www.topografix.com/GPX/1/1/gpx.xsd" version="1.1" creator="gpx.py -- https://github.com/tkrajina/gpxpy">
  <trk>
    <name>gpx from keep</name>
    <type>Run</type>
    <trkseg>
      <trkpt lat="24.910796853454727" lon="118.53856927562582">
        <ele>9.821555071510375</ele>
        <time>2024-10-02T13:59:10Z</time>
      </trkpt>
      <trkpt lat="24.910577896463572" lon="118.53851490827918">
        <ele>10.164040045812726</ele>
        <time>2024-10-02T13:59:19Z</time>
      </trkpt>
      <trkpt lat="24.9104704547788" lon="118.53851762235507">
        <ele>10.11281590629369</ele>
        <time>2024-10-02T13:59:22Z</time>
      </trkpt>
      <trkpt lat="24.910174218501478" lon="118.53847043259064">
        <ele>8.699275203980505</ele>
        <time>2024-10-02T13:59:31Z</time>
      </trkpt>
      <trkpt lat="24.909876590153115" lon="118.53839926126534">
        <ele>8.65382223483175</ele>
        <time>2024-10-02T13:59:40Z</time>
      </trkpt>
      <trkpt lat="24.909605005062" lon="118.53836283114785">
        <ele>7.438074272125959</ele>
        <time>2024-10-02T13:59:49Z</time>
      </trkpt>
      <trkpt lat="24.90949368073233" lon="118.53837942659737">
        <ele>7.738740884698927</ele>
        <time>2024-10-02T13:59:52Z</time>
      </trkpt>
      <trkpt lat="24.90938256386397" lon="118.53842723115407">
        <ele>7.681633790023625</ele>
        <time>2024-10-02T13:59:55Z</time>
      </trkpt>
      <trkpt lat="24.90925325854058" lon="118.53843707993735">
        <ele>7.3287146389484406</ele>
        <time>2024-10-02T13:59:58Z</time>
      </trkpt>
      <trkpt lat="24.909155946916872" lon="118.53838715019621">
        <ele>7.489121942780912</ele>
        <time>2024-10-02T14:00:01Z</time>
      </trkpt>
      <trkpt lat="24.909086815714655" lon="118.53832435063124">
        <ele>7.637534644454718</ele>
        <time>2024-10-02T14:00:04Z</time>
      </trkpt>
      <trkpt lat="24.90909381783464" lon="118.53820586363027">
        <ele>7.030443189665675</ele>
        <time>2024-10-02T14:00:07Z</time>
      </trkpt>
      <trkpt lat="24.909173309313683" lon="118.53801344495308">
        <ele>7.678653747774661</ele>
        <time>2024-10-02T14:00:13Z</time>
      </trkpt>
      <trkpt lat="24.909223012405715" lon="118.53769789312182">
        <ele>8.808638169430196</ele>
        <time>2024-10-02T14:00:22Z</time>
      </trkpt>
      <trkpt lat="24.909294057484118" lon="118.53759606343804">
        <ele>9.129065451212227</ele>
        <time>2024-10-02T14:00:25Z</time>
      </trkpt>
      <trkpt lat="24.909324856631205" lon="118.53749885763003">
        <ele>10.233356039971113</ele>
        <time>2024-10-02T14:00:28Z</time>
      </trkpt>
      <trkpt lat="24.90935106905081" lon="118.53721492579936">
        <ele>12.12237706873566</ele>
        <time>2024-10-02T14:00:37Z</time>
      </trkpt>
      <trkpt lat="24.90947565904384" lon="118.53684885624469">
        <ele>11.347813463769853</ele>
        <time>2024-10-02T14:00:48Z</time>
      </trkpt>
      <trkpt lat="24.909525087297652" lon="118.53658385075849">
        <ele>9.519659188576043</ele>
        <time>2024-10-02T14:00:56Z</time>
      </trkpt>
      <trkpt lat="24.909609011780393" lon="118.53631899090843">
        <ele>9.620318838395178</ele>
        <time>2024-10-02T14:01:04Z</time>
      </trkpt>
      <trkpt lat="24.90962566170625" lon="118.53599441018103">
        <ele>9.658665631897748</ele>
        <time>2024-10-02T14:01:14Z</time>
      </trkpt>
      <trkpt lat="24.909680574417365" lon="118.53560313131904">
        <ele>9.976645283401012</ele>
        <time>2024-10-02T14:01:26Z</time>
      </trkpt>
      <trkpt lat="24.909728228261265" lon="118.5353918381205">
        <ele>9.636506598442793</ele>
        <time>2024-10-02T14:01:32Z</time>
      </trkpt>
      <trkpt lat="24.909766735146572" lon="118.53500843524664">
        <ele>8.861865038983524</ele>
        <time>2024-10-02T14:01:44Z</time>
      </trkpt>
      <trkpt lat="24.909804802317748" lon="118.53470699352512">
        <ele>8.13394796103239</ele>
        <time>2024-10-02T14:01:53Z</time>
      </trkpt>
      <trkpt lat="24.909852594120274" lon="118.5343286344748">
        <ele>7.03829076513648</ele>
        <time>2024-10-02T14:02:05Z</time>
      </trkpt>
      <trkpt lat="24.909889591252263" lon="118.53402533890076">
        <ele>7.609556891955435</ele>
        <time>2024-10-02T14:02:14Z</time>
      </trkpt>
      <trkpt lat="24.909934996557862" lon="118.53393200719697">
        <ele>7.578947561793029</ele>
        <time>2024-10-02T14:02:17Z</time>
      </trkpt>
      <trkpt lat="24.91000347853049" lon="118.5338634868653">
        <ele>7.67250114120543</ele>
        <time>2024-10-02T14:02:20Z</time>
      </trkpt>
      <trkpt lat="24.910084114961634" lon="118.53382707065856">
        <ele>7.628511464223266</ele>
        <time>2024-10-02T14:02:23Z</time>
      </trkpt>
      <trkpt lat="24.910415671274762" lon="118.5337732593">
        <ele>9.715059197507799</ele>
        <time>2024-10-02T14:02:35Z</time>
      </trkpt>
      <trkpt lat="24.91069888112798" lon="118.53377847053247">
        <ele>10.02920906431973</ele>
        <time>2024-10-02T14:02:44Z</time>
      </trkpt>
      <trkpt lat="24.911086600000424" lon="118.5337530850516">
        <ele>9.804400039836764</ele>
        <time>2024-10-02T14:02:56Z</time>
      </trkpt>
      <trkpt lat="24.911446388519856" lon="118.53377134275398">
        <ele>10.421632409095764</ele>
        <time>2024-10-02T14:03:08Z</time>
      </trkpt>
      <trkpt lat="24.91177321167849" lon="118.53376187596963">
        <ele>9.042576847597957</ele>
        <time>2024-10-02T14:03:20Z</time>
      </trkpt>
      <trkpt lat="24.912049071947013" lon="118.53377849016968">
        <ele>10.029550218954682</ele>
        <time>2024-10-02T14:03:29Z</time>
      </trkpt>
      <trkpt lat="24.91240704099404" lon="118.53375471308621">
        <ele>10.5373879596591</ele>
        <time>2024-10-02T14:03:41Z</time>
      </trkpt>
      <trkpt lat="24.912765948633314" lon="118.53375839431386">
        <ele>9.232142372056842</ele>
        <time>2024-10-02T14:03:53Z</time>
      </trkpt>
      <trkpt lat="24.91285676257823" lon="118.53375890728286">
        <ele>10.286877407692373</ele>
        <time>2024-10-02T14:03:56Z</time>
      </trkpt>
      <trkpt lat="24.913110857358863" lon="118.5338312782083">
        <ele>9.57400491926819</ele>
        <time>2024-10-02T14:04:05Z</time>
      </trkpt>
      <trkpt lat="24.913470317210827" lon="118.53385740240365">
        <ele>9.446684638038278</ele>
        <time>2024-10-02T14:04:17Z</time>
      </trkpt>
      <trkpt lat="24.91381036635824" lon="118.53392801271534">
        <ele>9.852029656991363</ele>
        <time>2024-10-02T14:04:29Z</time>
      </trkpt>
      <trkpt lat="24.91398580653359" lon="118.53394627135943">
        <ele>10.590464593842626</ele>
        <time>2024-10-02T14:04:35Z</time>
      </trkpt>
      <trkpt lat="24.914325546384283" lon="118.5340062695643">
        <ele>11.347336764447391</ele>
        <time>2024-10-02T14:04:47Z</time>
      </trkpt>
      <trkpt lat="24.914656045592384" lon="118.53407411057337">
        <ele>12.705699865706265</ele>
        <time>2024-10-02T14:04:59Z</time>
      </trkpt>
      <trkpt lat="24.914931757923632" lon="118.53412472961759">
        <ele>11.95299493148923</ele>
        <time>2024-10-02T14:05:08Z</time>
      </trkpt>
      <trkpt lat="24.915210321331703" lon="118.53415947297796">
        <ele>8.891650130040944</ele>
        <time>2024-10-02T14:05:17Z</time>
      </trkpt>
      <trkpt lat="24.915368325118177" lon="118.53419548794471">
        <ele>10.494114358909428</ele>
        <time>2024-10-02T14:05:23Z</time>
      </trkpt>
      <trkpt lat="24.91540473161847" lon="118.53429256743483">
        <ele>10.952253634110093</ele>
        <time>2024-10-02T14:05:26Z</time>
      </trkpt>
      <trkpt lat="24.91531824244487" lon="118.53455383465318">
        <ele>10.794555120170116</ele>
        <time>2024-10-02T14:05:35Z</time>
      </trkpt>
      <trkpt lat="24.915201145964566" lon="118.5347977816391">
        <ele>11.260837078094482</ele>
        <time>2024-10-02T14:05:44Z</time>
      </trkpt>
      <trkpt lat="24.915129210775927" lon="118.53511265936892">
        <ele>12.525593220256269</ele>
        <time>2024-10-02T14:05:53Z</time>
      </trkpt>
      <trkpt lat="24.915075546511954" lon="118.53541775150264">
        <ele>12.37512482330203</ele>
        <time>2024-10-02T14:06:02Z</time>
      </trkpt>
      <trkpt lat="24.915041722817676" lon="118.53560967999924">
        <ele>13.387008811347187</ele>
        <time>2024-10-02T14:06:08Z</time>
      </trkpt>
      <trkpt lat="24.915032172783317" lon="118.53598386501275">
        <ele>14.646373541094363</ele>
        <time>2024-10-02T14:06:20Z</time>
      </trkpt>
      <trkpt lat="24.91503656743458" lon="118.53638204123423">
        <ele>14.510986248962581</ele>
        <time>2024-10-02T14:06:32Z</time>
      </trkpt>
      <trkpt lat="24.915062760932297" lon="118.5367017097928">
        <ele>14.68561163265258</ele>
        <time>2024-10-02T14:06:41Z</time>
      </trkpt>
      <trkpt lat="24.91512091806079" lon="118.53709031324003">
        <ele>15.006720435805619</ele>
        <time>2024-10-02T14:06:53Z</time>
      </trkpt>
      <trkpt lat="24.915176558801633" lon="118.53737392391794">
        <ele>14.947917997837067</ele>
        <time>2024-10-02T14:07:02Z</time>
      </trkpt>
      <trkpt lat="24.915331450632213" lon="118.53770551108447">
        <ele>14.821968460455537</ele>
        <time>2024-10-02T14:07:14Z</time>
      </trkpt>
      <trkpt lat="24.91545313370164" lon="118.5380713781478">
        <ele>14.559597596526146</ele>
        <time>2024-10-02T14:07:26Z</time>
      </trkpt>
      <trkpt lat="24.915496006904025" lon="118.53815751022599">
        <ele>14.872696590609848</ele>
        <time>2024-10-02T14:07:29Z</time>
      </trkpt>
      <trkpt lat="24.91555075013729" lon="118.53833692612893">
        <ele>15.732460969127715</ele>
        <time>2024-10-02T14:07:35Z</time>
      </trkpt>
      <trkpt lat="24.91566482900384" lon="118.53859721295406">
        <ele>16.354940847493708</ele>
        <time>2024-10-02T14:07:44Z</time>
      </trkpt>
      <trkpt lat="24.915759336533757" lon="118.53890024195587">
        <ele>15.487127300351858</ele>
        <time>2024-10-02T14:07:53Z</time>
      </trkpt>
      <trkpt lat="24.915843086287868" lon="118.53918454669902">
        <ele>14.22510796226561</ele>
        <time>2024-10-02T14:08:02Z</time>
      </trkpt>
      <trkpt lat="24.915927510904798" lon="118.53948383573146">
        <ele>13.326623181812465</ele>
        <time>2024-10-02T14:08:11Z</time>
      </trkpt>
      <trkpt lat="24.916000414007677" lon="118.53977137937575">
        <ele>12.817964856512845</ele>
        <time>2024-10-02T14:08:20Z</time>
      </trkpt>
      <trkpt lat="24.9160180950795" lon="118.5399406414213">
        <ele>13.77332768868655</ele>
        <time>2024-10-02T14:08:26Z</time>
      </trkpt>
      <trkpt lat="24.916102410613448" lon="118.54013284211018">
        <ele>12.02205181028694</ele>
        <time>2024-10-02T14:08:32Z</time>
      </trkpt>
      <trkpt lat="24.916205761708696" lon="118.5404355698079">
        <ele>11.802303804084659</ele>
        <time>2024-10-02T14:08:41Z</time>
      </trkpt>
      <trkpt lat="24.916282443214964" lon="118.54062043828912">
        <ele>9.870873789303005</ele>
        <time>2024-10-02T14:08:47Z</time>
      </trkpt>
      <trkpt lat="24.916403790875936" lon="118.5407585892472">
        <ele>10.83149191737175</ele>
        <time>2024-10-02T14:08:53Z</time>
      </trkpt>
      <trkpt lat="24.91643914286996" lon="118.5408411294529">
        <ele>11.75797866936773</ele>
        <time>2024-10-02T14:08:56Z</time>
      </trkpt>
      <trkpt lat="24.91642555946222" lon="118.54095184674944">
        <ele>10.677670581266284</ele>
        <time>2024-10-02T14:08:59Z</time>
      </trkpt>
      <trkpt lat="24.91650483038834" lon="118.54126773771804">
        <ele>12.84154985845089</ele>
        <time>2024-10-02T14:09:08Z</time>
      </trkpt>
      <trkpt lat="24.916520837518103" lon="118.54146667017514">
        <ele>12.254535594955087</ele>
        <time>2024-10-02T14:09:14Z</time>
      </trkpt>
      <trkpt lat="24.916595020610142" lon="118.54175481642855">
        <ele>11.826285052113235</ele>
        <time>2024-10-02T14:09:23Z</time>
      </trkpt>
      <trkpt lat="24.91651303106992" lon="118.54193626375202">
        <ele>12.787854715250432</ele>
        <time>2024-10-02T14:09:29Z</time>
      </trkpt>
      <trkpt lat="24.916443396769925" lon="118.54198218266889">
        <ele>10.60104897711426</ele>
        <time>2024-10-02T14:09:32Z</time>
      </trkpt>
      <trkpt lat="24.91626510451252" lon="118.54203825817306">
        <ele>11.345342427492142</ele>
        <time>2024-10-02T14:09:38Z</time>
      </trkpt>
      <trkpt lat="24.915971811977553" lon="118.54222617380532">
        <ele>12.489930055104196</ele>
        <time>2024-10-02T14:09:47Z</time>
      </trkpt>
      <trkpt lat="24.915669382856176" lon="118.5424223797171">
        <ele>12.942728380672634</ele>
        <time>2024-10-02T14:09:56Z</time>
      </trkpt>
      <trkpt lat="24.915478196423855" lon="118.54252759632462">
        <ele>12.323021081276238</ele>
        <time>2024-10-02T14:10:02Z</time>
      </trkpt>
      <trkpt lat="24.9152719796976" lon="118.54261556122422">
        <ele>12.572729808278382</ele>
        <time>2024-10-02T14:10:08Z</time>
      </trkpt>
      <trkpt lat="24.91517930468224" lon="118.54267415016122">
        <ele>12.301572922617197</ele>
        <time>2024-10-02T14:10:11Z</time>
      </trkpt>
      <trkpt lat="24.914923404187494" lon="118.54269018065786">
        <ele>10.673068004660308</ele>
        <time>2024-10-02T14:10:20Z</time>
      </trkpt>
      <trkpt lat="24.914847190764707" lon="118.542668418901">
        <ele>10.656300586648285</ele>
        <time>2024-10-02T14:10:23Z</time>
      </trkpt>
      <trkpt lat="24.914533110721223" lon="118.54268329329342">
        <ele>9.688761301338673</ele>
        <time>2024-10-02T14:10:35Z</time>
      </trkpt>
      <trkpt lat="24.91444272935542" lon="118.54265623200092">
        <ele>10.03583202790469</ele>
        <time>2024-10-02T14:10:38Z</time>
      </trkpt>
      <trkpt lat="24.914095968553763" lon="118.54267746166923">
        <ele>9.224638173356652</ele>
        <time>2024-10-02T14:10:50Z</time>
      </trkpt>
      <trkpt lat="24.91400750732355" lon="118.54268909614369">
        <ele>9.168168354779482</ele>
        <time>2024-10-02T14:10:53Z</time>
      </trkpt>
      <trkpt lat="24.91391845566297" lon="118.54267619592783">
        <ele>9.978074120357633</ele>
        <time>2024-10-02T14:10:56Z</time>
      </trkpt>
      <trkpt lat="24.913666671391486" lon="118.54275121932358">
        <ele>9.127644968219101</ele>
        <time>2024-10-02T14:11:05Z</time>
      </trkpt>
      <trkpt lat="24.913576781273317" lon="118.5428041264229">
        <ele>7.729226323775947</ele>
        <time>2024-10-02T14:11:08Z</time>
      </trkpt>
      <trkpt lat="24.913467814731455" lon="118.5428138445858">
        <ele>7.468994315713644</ele>
        <time>2024-10-02T14:11:11Z</time>
      </trkpt>
      <trkpt lat="24.913373174816414" lon="118.54284229851547">
        <ele>7.462507150135934</ele>
        <time>2024-10-02T14:11:14Z</time>
      </trkpt>
      <trkpt lat="24.913269576720733" lon="118.54283832883488">
        <ele>7.348754499107599</ele>
        <time>2024-10-02T14:11:17Z</time>
      </trkpt>
      <trkpt lat="24.912993392308255" lon="118.54290738109216">
        <ele>7.605181034654379</ele>
        <time>2024-10-02T14:11:26Z</time>
      </trkpt>
      <trkpt lat="24.9127380899023" lon="118.5429540659597">
        <ele>8.188903784379363</ele>
        <time>2024-10-02T14:11:35Z</time>
      </trkpt>
      <trkpt lat="24.91247988081501" lon="118.54303644406782">
        <ele>7.527031518518925</ele>
        <time>2024-10-02T14:11:44Z</time>
      </trkpt>
      <trkpt lat="24.91229305617043" lon="118.54306681783949">
        <ele>7.418394680134952</ele>
        <time>2024-10-02T14:11:50Z</time>
      </trkpt>
      <trkpt lat="24.912048369184472" lon="118.54316186888562">
        <ele>7.606870581395924</ele>
        <time>2024-10-02T14:11:59Z</time>
      </trkpt>
      <trkpt lat="24.911960074331546" lon="118.54317536480238">
        <ele>7.267149687744677</ele>
        <time>2024-10-02T14:12:02Z</time>
      </trkpt>
      <trkpt lat="24.911891429627886" lon="118.54321606131074">
        <ele>7.6255920846015215</ele>
        <time>2024-10-02T14:12:05Z</time>
      </trkpt>
      <trkpt lat="24.911615707152226" lon="118.54325440470708">
        <ele>8.919700846076012</ele>
        <time>2024-10-02T14:12:14Z</time>
      </trkpt>
      <trkpt lat="24.91126605898925" lon="118.54333475119418">
        <ele>8.163605833426118</ele>
        <time>2024-10-02T14:12:26Z</time>
      </trkpt>
      <trkpt lat="24.91099118544653" lon="118.54336458547974">
        <ele>7.198626419529319</ele>
        <time>2024-10-02T14:12:35Z</time>
      </trkpt>
      <trkpt lat="24.910693066944866" lon="118.5433773818861">
        <ele>7.3946346789598465</ele>
        <time>2024-10-02T14:12:44Z</time>
      </trkpt>
      <trkpt lat="24.91051179417094" lon="118.54335594582899">
        <ele>7.165219648741186</ele>
        <time>2024-10-02T14:12:50Z</time>
      </trkpt>
      <trkpt lat="24.91043010536181" lon="118.5433152202267">
        <ele>7.275176806375384</ele>
        <time>2024-10-02T14:12:53Z</time>
      </trkpt>
      <trkpt lat="24.91032429111823" lon="118.54332529239204">
        <ele>7.008732562884688</ele>
        <time>2024-10-02T14:12:56Z</time>
      </trkpt>
      <trkpt lat="24.910208194788922" lon="118.54338242363245">
        <ele>7.264140690676868</ele>
        <time>2024-10-02T14:12:59Z</time>
      </trkpt>
      <trkpt lat="24.910120361451792" lon="118.5433973125412">
        <ele>7.419585498981178</ele>
        <time>2024-10-02T14:13:02Z</time>
      </trkpt>
      <trkpt lat="24.90992490464145" lon="118.54335293271487">
        <ele>7.522506944835186</ele>
        <time>2024-10-02T14:13:08Z</time>
      </trkpt>
      <trkpt lat="24.909624287885723" lon="118.54336401784299">
        <ele>7.051946209743619</ele>
        <time>2024-10-02T14:13:17Z</time>
      </trkpt>
      <trkpt lat="24.9094227731041" lon="118.54337955449982">
        <ele>6.951983759179711</ele>
        <time>2024-10-02T14:13:23Z</time>
      </trkpt>
      <trkpt lat="24.909138783811734" lon="118.54332291521658">
        <ele>7.427996559999883</ele>
        <time>2024-10-02T14:13:32Z</time>
      </trkpt>
      <trkpt lat="24.908926421167415" lon="118.54328830209938">
        <ele>7.900434502400458</ele>
        <time>2024-10-02T14:13:38Z</time>
      </trkpt>
      <trkpt lat="24.908701088879127" lon="118.54329639330994">
        <ele>7.606612781062722</ele>
        <time>2024-10-02T14:13:44Z</time>
      </trkpt>
      <trkpt lat="24.908597334179397" lon="118.5433189705332">
        <ele>7.22315826267004</ele>
        <time>2024-10-02T14:13:47Z</time>
      </trkpt>
      <trkpt lat="24.908517430620456" lon="118.5433607103579">
        <ele>6.564099047333002</ele>
        <time>2024-10-02T14:13:50Z</time>
      </trkpt>
      <trkpt lat="24.908232857110537" lon="118.54338681370926">
        <ele>7.386880409903824</ele>
        <time>2024-10-02T14:13:59Z</time>
      </trkpt>
      <trkpt lat="24.907891690757364" lon="118.54344605422986">
        <ele>8.32972460705787</ele>
        <time>2024-10-02T14:14:11Z</time>
      </trkpt>
      <trkpt lat="24.907719880120613" lon="118.54343233188831">
        <ele>7.295667846687138</ele>
        <time>2024-10-02T14:14:17Z</time>
      </trkpt>
      <trkpt lat="24.907523441854618" lon="118.54336479250698">
        <ele>7.583382938057184</ele>
        <time>2024-10-02T14:14:23Z</time>
      </trkpt>
      <trkpt lat="24.9074390574392" lon="118.54330102230458">
        <ele>7.4476079903542995</ele>
        <time>2024-10-02T14:14:26Z</time>
      </trkpt>
      <trkpt lat="24.90743544961494" lon="118.54321096532034">
        <ele>7.447436980903149</ele>
        <time>2024-10-02T14:14:29Z</time>
      </trkpt>
      <trkpt lat="24.907562389361672" lon="118.54294522024291">
        <ele>8.86473866738379</ele>
        <time>2024-10-02T14:14:38Z</time>
      </trkpt>
      <trkpt lat="24.90765343377194" lon="118.54276255396157">
        <ele>7.60396652854979</ele>
        <time>2024-10-02T14:14:44Z</time>
      </trkpt>
      <trkpt lat="24.907756414096742" lon="118.54241193402426">
        <ele>7.633209043182433</ele>
        <time>2024-10-02T14:14:56Z</time>
      </trkpt>
      <trkpt lat="24.90785923915962" lon="118.54218058603435">
        <ele>8.024335037916899</ele>
        <time>2024-10-02T14:15:05Z</time>
      </trkpt>
      <trkpt lat="24.90793126766853" lon="118.54196487301336">
        <ele>8.740409772843122</ele>
        <time>2024-10-02T14:15:11Z</time>
      </trkpt>
      <trkpt lat="24.90804034276614" lon="118.54172690354163">
        <ele>9.504487609490752</ele>
        <time>2024-10-02T14:15:20Z</time>
      </trkpt>
      <trkpt lat="24.90803762277345" lon="118.5416483162099">
        <ele>9.735842705704272</ele>
        <time>2024-10-02T14:15:23Z</time>
      </trkpt>
      <trkpt lat="24.908071443601198" lon="118.5415531579835">
        <ele>9.790621755644679</ele>
        <time>2024-10-02T14:15:26Z</time>
      </trkpt>
      <trkpt lat="24.908203261854286" lon="118.54136947010268">
        <ele>9.389066291972995</ele>
        <time>2024-10-02T14:15:32Z</time>
      </trkpt>
      <trkpt lat="24.908250039827237" lon="118.54126565174549">
        <ele>9.286776433698833</ele>
        <time>2024-10-02T14:15:35Z</time>
      </trkpt>
      <trkpt lat="24.90835077911663" lon="118.54114848125383">
        <ele>8.552828882820904</ele>
        <time>2024-10-02T14:15:38Z</time>
      </trkpt>
      <trkpt lat="24.908435252421885" lon="118.5409159630527">
        <ele>8.045535144396126</ele>
        <time>2024-10-02T14:15:44Z</time>
      </trkpt>
      <trkpt lat="24.90855674705726" lon="118.54066838782613">
        <ele>7.481880231760442</ele>
        <time>2024-10-02T14:15:51Z</time>
      </trkpt>
      <trkpt lat="24.90859404961225" lon="118.54045842650652">
        <ele>8.621270864270627</ele>
        <time>2024-10-02T14:15:57Z</time>
      </trkpt>
      <trkpt lat="24.908711394003408" lon="118.5401400531325">
        <ele>8.286266192793846</ele>
        <time>2024-10-02T14:16:06Z</time>
      </trkpt>
      <trkpt lat="24.908766999894027" lon="118.53996687100008">
        <ele>7.834352849982679</ele>
        <time>2024-10-02T14:16:12Z</time>
      </trkpt>
      <trkpt lat="24.90881860946707" lon="118.5398586027395">
        <ele>7.556322094984353</ele>
        <time>2024-10-02T14:16:15Z</time>
      </trkpt>
      <trkpt lat="24.908879222976356" lon="118.53954913642018">
        <ele>8.141159375198185</ele>
        <time>2024-10-02T14:16:24Z</time>
      </trkpt>
      <trkpt lat="24.90888499690224" lon="118.53946181656335">
        <ele>8.078532030805945</ele>
        <time>2024-10-02T14:16:27Z</time>
      </trkpt>
      <trkpt lat="24.908952084308392" lon="118.53918804570658">
        <ele>7.380007492378354</ele>
        <time>2024-10-02T14:16:36Z</time>
      </trkpt>
      <trkpt lat="24.90904267474908" lon="118.53897861581386">
        <ele>7.9105979753658175</ele>
        <time>2024-10-02T14:16:42Z</time>
      </trkpt>
      <trkpt lat="24.909051117818525" lon="118.53888460549638">
        <ele>8.33795188833028</ele>
        <time>2024-10-02T14:16:45Z</time>
      </trkpt>
      <trkpt lat="24.909128434966718" lon="118.53858563710354">
        <ele>7.448171623982489</ele>
        <time>2024-10-02T14:16:54Z</time>
      </trkpt>
      <trkpt lat="24.909154772957372" lon="118.53827205603355">
        <ele>8.990629930049181</ele>
        <time>2024-10-02T14:17:03Z</time>
      </trkpt>
      <trkpt lat="24.90919210796833" lon="118.5380886638544">
        <ele>7.699924279935658</ele>
        <time>2024-10-02T14:17:09Z</time>
      </trkpt>
      <trkpt lat="24.909281022712516" lon="118.5377995236133">
        <ele>8.390074960887432</ele>
        <time>2024-10-02T14:17:18Z</time>
      </trkpt>
      <trkpt lat="24.9093462497095" lon="118.53761507352382">
        <ele>8.90864952839911</ele>
        <time>2024-10-02T14:17:24Z</time>
      </trkpt>
      <trkpt lat="24.909354418741465" lon="118.53742224826236">
        <ele>10.039015260525048</ele>
        <time>2024-10-02T14:17:30Z</time>
      </trkpt>
      <trkpt lat="24.909335216666776" lon="118.53721320048206">
        <ele>10.977693671360612</ele>
        <time>2024-10-02T14:17:36Z</time>
      </trkpt>
      <trkpt lat="24.909416929855038" lon="118.53691282975413">
        <ele>11.090425648726523</ele>
        <time>2024-10-02T14:17:45Z</time>
      </trkpt>
      <trkpt lat="24.90943393833527" lon="118.53681606963204">
        <ele>12.004077053628862</ele>
        <time>2024-10-02T14:17:48Z</time>
      </trkpt>
      <trkpt lat="24.909489880304527" lon="118.53671405527133">
        <ele>10.155320203863084</ele>
        <time>2024-10-02T14:17:51Z</time>
      </trkpt>
      <trkpt lat="24.909529990026115" lon="118.53652268825141">
        <ele>10.352961116470397</ele>
        <time>2024-10-02T14:17:57Z</time>
      </trkpt>
      <trkpt lat="24.909569140479373" lon="118.53642124580234">
        <ele>10.202936311252415</ele>
        <time>2024-10-02T14:18:00Z</time>
      </trkpt>
      <trkpt lat="24.90958422397112" lon="118.53603022329531">
        <ele>10.247840467840433</ele>
        <time>2024-10-02T14:18:12Z</time>
      </trkpt>
      <trkpt lat="24.90964026469543" lon="118.53571345170684">
        <ele>9.670980419963598</ele>
        <time>2024-10-02T14:18:21Z</time>
      </trkpt>
      <trkpt lat="24.909708797949218" lon="118.53538783359636">
        <ele>10.555476595647633</ele>
        <time>2024-10-02T14:18:30Z</time>
      </trkpt>
      <trkpt lat="24.90976294413255" lon="118.53499766420644">
        <ele>8.99437733180821</ele>
        <time>2024-10-02T14:18:42Z</time>
      </trkpt>
      <trkpt lat="24.909790692012642" lon="118.53492269926696">
        <ele>10.320665840059519</ele>
        <time>2024-10-02T14:18:45Z</time>
      </trkpt>
      <trkpt lat="24.909953704590997" lon="118.53496268312526">
        <ele>8.29236697498709</ele>
        <time>2024-10-02T14:18:51Z</time>
      </trkpt>
      <trkpt lat="24.910170832944264" lon="118.53509115673687">
        <ele>8.869207703508437</ele>
        <time>2024-10-02T14:19:00Z</time>
      </trkpt>
      <trkpt lat="24.91033126067478" lon="118.53516827086045">
        <ele>9.742242482490838</ele>
        <time>2024-10-02T14:19:06Z</time>
      </trkpt>
      <trkpt lat="24.910504370920666" lon="118.53520275287322">
        <ele>9.68926839902997</ele>
        <time>2024-10-02T14:19:12Z</time>
      </trkpt>
      <trkpt lat="24.910765068436245" lon="118.5353126496948">
        <ele>9.292747747153044</ele>
        <time>2024-10-02T14:19:21Z</time>
      </trkpt>
      <trkpt lat="24.911023873789777" lon="118.53543660445845">
        <ele>10.600859015248716</ele>
        <time>2024-10-02T14:19:30Z</time>
      </trkpt>
      <trkpt lat="24.91119414567501" lon="118.5355086347604">
        <ele>10.120890360325575</ele>
        <time>2024-10-02T14:19:39Z</time>
      </trkpt>
      <trkpt lat="24.911263342991557" lon="118.53552016977011">
        <ele>10.22585685737431</ele>
        <time>2024-10-02T14:19:42Z</time>
      </trkpt>
      <trkpt lat="24.911514151586506" lon="118.53565968268128">
        <ele>9.641384737566113</ele>
        <time>2024-10-02T14:19:51Z</time>
      </trkpt>
      <trkpt lat="24.911687917798293" lon="118.53581075439541">
        <ele>9.747767698019743</ele>
        <time>2024-10-02T14:19:57Z</time>
      </trkpt>
      <trkpt lat="24.911897534153045" lon="118.53587184320178">
        <ele>9.732041631825268</ele>
        <time>2024-10-02T14:20:03Z</time>
      </trkpt>
      <trkpt lat="24.912100226848466" lon="118.53590383723859">
        <ele>11.440142286010087</ele>
        <time>2024-10-02T14:20:09Z</time>
      </trkpt>
      <trkpt lat="24.912429910481812" lon="118.53605387019077">
        <ele>9.79004392772913</ele>
        <time>2024-10-02T14:20:21Z</time>
      </trkpt>
      <trkpt lat="24.912492393253036" lon="118.53609342945954">
        <ele>9.610244466923177</ele>
        <time>2024-10-02T14:20:24Z</time>
      </trkpt>
      <trkpt lat="24.91279519480166" lon="118.53619599827962">
        <ele>9.18981769029051</ele>
        <time>2024-10-02T14:20:36Z</time>
      </trkpt>
      <trkpt lat="24.91295473708848" lon="118.53627178074778">
        <ele>10.66442237328738</ele>
        <time>2024-10-02T14:20:42Z</time>
      </trkpt>
      <trkpt lat="24.91313442027337" lon="118.5362973176551">
        <ele>12.305292308330536</ele>
        <time>2024-10-02T14:20:48Z</time>
      </trkpt>
      <trkpt lat="24.913311158755054" lon="118.5363522805146">
        <ele>12.245114447548985</ele>
        <time>2024-10-02T14:20:54Z</time>
      </trkpt>
      <trkpt lat="24.91357857387231" lon="118.5364752773852">
        <ele>12.152849005535245</ele>
        <time>2024-10-02T14:21:03Z</time>
      </trkpt>
      <trkpt lat="24.913657481078985" lon="118.53655531455053">
        <ele>12.659277146682143</ele>
        <time>2024-10-02T14:21:06Z</time>
      </trkpt>
      <trkpt lat="24.91376024396328" lon="118.53659943659225">
        <ele>12.759460309520364</ele>
        <time>2024-10-02T14:21:09Z</time>
      </trkpt>
      <trkpt lat="24.913852086829465" lon="118.5366035253508">
        <ele>12.971232091076672</ele>
        <time>2024-10-02T14:21:12Z</time>
      </trkpt>
      <trkpt lat="24.914030171882082" lon="118.53671545691556">
        <ele>12.81455416418612</ele>
        <time>2024-10-02T14:21:18Z</time>
      </trkpt>
      <trkpt lat="24.914205998068994" lon="118.5367941862201">
        <ele>12.640372483059764</ele>
        <time>2024-10-02T14:21:24Z</time>
      </trkpt>
      <trkpt lat="24.91438855329909" lon="118.53683573637589">
        <ele>13.190995288081467</ele>
        <time>2024-10-02T14:21:30Z</time>
      </trkpt>
      <trkpt lat="24.914655436968445" lon="118.53696449060583">
        <ele>13.066523203626275</ele>
        <time>2024-10-02T14:21:39Z</time>
      </trkpt>
      <trkpt lat="24.914972407949236" lon="118.5370894395697">
        <ele>15.17487115599215</ele>
        <time>2024-10-02T14:21:51Z</time>
      </trkpt>
      <trkpt lat="24.915032448840698" lon="118.53716028117555">
        <ele>14.824803814291954</ele>
        <time>2024-10-02T14:21:54Z</time>
      </trkpt>
      <trkpt lat="24.91517952203784" lon="118.53744250065834">
        <ele>14.72756300587207</ele>
        <time>2024-10-02T14:22:03Z</time>
      </trkpt>
      <trkpt lat="24.915309615755593" lon="118.53771950451124">
        <ele>13.761991435661912</ele>
        <time>2024-10-02T14:22:12Z</time>
      </trkpt>
      <trkpt lat="24.915331668222898" lon="118.53781616761235">
        <ele>15.079612576402724</ele>
        <time>2024-10-02T14:22:15Z</time>
      </trkpt>
      <trkpt lat="24.915379825813925" lon="118.53789988015153">
        <ele>14.562370970845222</ele>
        <time>2024-10-02T14:22:18Z</time>
      </trkpt>
      <trkpt lat="24.91546893811223" lon="118.53818296554616">
        <ele>14.696437811478972</ele>
        <time>2024-10-02T14:22:27Z</time>
      </trkpt>
      <trkpt lat="24.915593388698323" lon="118.53846438077449">
        <ele>16.485852720215917</ele>
        <time>2024-10-02T14:22:36Z</time>
      </trkpt>
      <trkpt lat="24.91564189757858" lon="118.53865370251897">
        <ele>15.925983123481274</ele>
        <time>2024-10-02T14:22:42Z</time>
      </trkpt>
      <trkpt lat="24.91568898812947" lon="118.53875632515661">
        <ele>15.46249285992235</ele>
        <time>2024-10-02T14:22:45Z</time>
      </trkpt>
      <trkpt lat="24.91572120319851" lon="118.5389539064674">
        <ele>15.214941593818367</ele>
        <time>2024-10-02T14:22:51Z</time>
      </trkpt>
      <trkpt lat="24.915764417125473" lon="118.53905993344368">
        <ele>14.798069883137941</ele>
        <time>2024-10-02T14:22:54Z</time>
      </trkpt>
      <trkpt lat="24.915780662588784" lon="118.5391645537339">
        <ele>14.703981411643326</ele>
        <time>2024-10-02T14:22:57Z</time>
      </trkpt>
      <trkpt lat="24.915846245083152" lon="118.53928960348148">
        <ele>13.940854927524924</ele>
        <time>2024-10-02T14:23:01Z</time>
      </trkpt>
      <trkpt lat="24.915961517053223" lon="118.53961085865221">
        <ele>14.127796158194542</ele>
        <time>2024-10-02T14:23:10Z</time>
      </trkpt>
      <trkpt lat="24.916009387631483" lon="118.53990680332474">
        <ele>12.923046635463834</ele>
        <time>2024-10-02T14:23:19Z</time>
      </trkpt>
      <trkpt lat="24.91611499941447" lon="118.54023419437435">
        <ele>11.853420258499682</ele>
        <time>2024-10-02T14:23:28Z</time>
      </trkpt>
      <trkpt lat="24.916209870218584" lon="118.54054441201689">
        <ele>11.846644580364227</ele>
        <time>2024-10-02T14:23:37Z</time>
      </trkpt>
      <trkpt lat="24.916242816041887" lon="118.54063376050033">
        <ele>11.02159699704498</ele>
        <time>2024-10-02T14:23:40Z</time>
      </trkpt>
      <trkpt lat="24.916394433954956" lon="118.54076838001338">
        <ele>11.379748866893351</ele>
        <time>2024-10-02T14:23:46Z</time>
      </trkpt>
      <trkpt lat="24.916429314785233" lon="118.5410194457932">
        <ele>12.16255091316998</ele>
        <time>2024-10-02T14:23:53Z</time>
      </trkpt>
      <trkpt lat="24.916475448400064" lon="118.54116239635042">
        <ele>12.387853887863457</ele>
        <time>2024-10-02T14:23:57Z</time>
      </trkpt>
      <trkpt lat="24.916506603224683" lon="118.54139448271485">
        <ele>12.736028247512877</ele>
        <time>2024-10-02T14:24:04Z</time>
      </trkpt>
      <trkpt lat="24.91660127509463" lon="118.54173942691413">
        <ele>12.992665940895677</ele>
        <time>2024-10-02T14:24:13Z</time>
      </trkpt>
      <trkpt lat="24.91656638828436" lon="118.54186128644763">
        <ele>14.564240525476635</ele>
        <time>2024-10-02T14:24:16Z</time>
      </trkpt>
      <trkpt lat="24.916512339953414" lon="118.54194205845407">
        <ele>13.508230475708842</ele>
        <time>2024-10-02T14:24:19Z</time>
      </trkpt>
      <trkpt lat="24.91643247884944" lon="118.54198782362205">
        <ele>10.481241447851062</ele>
        <time>2024-10-02T14:24:22Z</time>
      </trkpt>
      <trkpt lat="24.916327142588315" lon="118.54199146524513">
        <ele>10.962607021443546</ele>
        <time>2024-10-02T14:24:25Z</time>
      </trkpt>
      <trkpt lat="24.91603448112922" lon="118.54215610561309">
        <ele>12.001544310711324</ele>
        <time>2024-10-02T14:24:34Z</time>
      </trkpt>
      <trkpt lat="24.91570022857556" lon="118.54237636485782">
        <ele>12.747552049346268</ele>
        <time>2024-10-02T14:24:43Z</time>
      </trkpt>
      <trkpt lat="24.915520675947047" lon="118.54247534351657">
        <ele>12.992628926411271</ele>
        <time>2024-10-02T14:24:49Z</time>
      </trkpt>
      <trkpt lat="24.915200213372188" lon="118.5425864172366">
        <ele>12.404602274298668</ele>
        <time>2024-10-02T14:24:58Z</time>
      </trkpt>
      <trkpt lat="24.915036689491934" lon="118.54261894046229">
        <ele>11.292597034014761</ele>
        <time>2024-10-02T14:25:04Z</time>
      </trkpt>
      <trkpt lat="24.914783050993396" lon="118.54258827672541">
        <ele>10.314089280553162</ele>
        <time>2024-10-02T14:25:13Z</time>
      </trkpt>
      <trkpt lat="24.91470572252002" lon="118.54261594832714">
        <ele>9.885527814738452</ele>
        <time>2024-10-02T14:25:16Z</time>
      </trkpt>
      <trkpt lat="24.914616245781417" lon="118.54258664437393">
        <ele>9.913928464055061</ele>
        <time>2024-10-02T14:25:19Z</time>
      </trkpt>
      <trkpt lat="24.914328623181554" lon="118.54257066714065">
        <ele>9.602155542001128</ele>
        <time>2024-10-02T14:25:28Z</time>
      </trkpt>
      <trkpt lat="24.914051045352583" lon="118.54265452276314">
        <ele>9.097741787321866</ele>
        <time>2024-10-02T14:25:37Z</time>
      </trkpt>
      <trkpt lat="24.913870046140204" lon="118.54264429304887">
        <ele>9.565182209014893</ele>
        <time>2024-10-02T14:25:43Z</time>
      </trkpt>
      <trkpt lat="24.913638381987607" lon="118.54276183700843">
        <ele>9.04769026208669</ele>
        <time>2024-10-02T14:25:52Z</time>
      </trkpt>
      <trkpt lat="24.913484073315207" lon="118.5427468678134">
        <ele>8.04463930055499</ele>
        <time>2024-10-02T14:25:56Z</time>
      </trkpt>
      <trkpt lat="24.913226941093274" lon="118.54280548315973">
        <ele>8.012186696752906</ele>
        <time>2024-10-02T14:26:04Z</time>
      </trkpt>
      <trkpt lat="24.91294970960529" lon="118.54289638145055">
        <ele>7.339034494943917</ele>
        <time>2024-10-02T14:26:13Z</time>
      </trkpt>
      <trkpt lat="24.912664413600666" lon="118.5429701771232">
        <ele>8.207535346969962</ele>
        <time>2024-10-02T14:26:22Z</time>
      </trkpt>
      <trkpt lat="24.91232478050986" lon="118.54306980250203">
        <ele>7.973442787304521</ele>
        <time>2024-10-02T14:26:34Z</time>
      </trkpt>
      <trkpt lat="24.912057667382147" lon="118.54316988730658">
        <ele>7.64083946403116</ele>
        <time>2024-10-02T14:26:43Z</time>
      </trkpt>
      <trkpt lat="24.911789427646575" lon="118.54324332247306">
        <ele>7.860010672360659</ele>
        <time>2024-10-02T14:26:52Z</time>
      </trkpt>
      <trkpt lat="24.91151257826472" lon="118.54328694329647">
        <ele>8.183554660528898</ele>
        <time>2024-10-02T14:27:01Z</time>
      </trkpt>
      <trkpt lat="24.911212535766992" lon="118.54334906961749">
        <ele>7.4882138799875975</ele>
        <time>2024-10-02T14:27:10Z</time>
      </trkpt>
      <trkpt lat="24.910903414976627" lon="118.5433906143204">
        <ele>7.393960922956467</ele>
        <time>2024-10-02T14:27:19Z</time>
      </trkpt>
      <trkpt lat="24.91068743262191" lon="118.54338560326772">
        <ele>7.728699178434908</ele>
        <time>2024-10-02T14:27:25Z</time>
      </trkpt>
      <trkpt lat="24.91048486964706" lon="118.54332303145766">
        <ele>7.580725004896522</ele>
        <time>2024-10-02T14:27:31Z</time>
      </trkpt>
      <trkpt lat="24.910400570070177" lon="118.54331360464312">
        <ele>7.631252043880522</ele>
        <time>2024-10-02T14:27:34Z</time>
      </trkpt>
      <trkpt lat="24.91017160202818" lon="118.54340685122719">
        <ele>7.750753130763769</ele>
        <time>2024-10-02T14:27:40Z</time>
      </trkpt>
      <trkpt lat="24.91007492662632" lon="118.54340677916491">
        <ele>7.108077219687402</ele>
        <time>2024-10-02T14:27:43Z</time>
      </trkpt>
      <trkpt lat="24.90986164517129" lon="118.5433494268559">
        <ele>7.369569309055805</ele>
        <time>2024-10-02T14:27:49Z</time>
      </trkpt>
      <trkpt lat="24.909553776188265" lon="118.5433805226141">
        <ele>7.026276608929038</ele>
        <time>2024-10-02T14:27:58Z</time>
      </trkpt>
      <trkpt lat="24.909180982625703" lon="118.54335699317112">
        <ele>8.856055615469813</ele>
        <time>2024-10-02T14:28:09Z</time>
      </trkpt>
      <trkpt lat="24.909090294436705" lon="118.54331293829956">
        <ele>8.46245630364865</ele>
        <time>2024-10-02T14:28:12Z</time>
      </trkpt>
      <trkpt lat="24.90899339723408" lon="118.54329881752219">
        <ele>7.890211217105389</ele>
        <time>2024-10-02T14:28:15Z</time>
      </trkpt>
    </trkseg>
  </trk>
</gpx>