<?xml version="1.0" encoding="UTF-8"?>
<gpx xmlns="http://www.topografix.com/GPX/1/1" xmlns:gpxtpx="http://www.garmin.com/xmlschemas/TrackPointExtension/v1" xmlns:xsi="http://www.w3.org/2001/XMLSchema-instance" xsi:schemaLocation="http://www.topografix.com/GPX/1/1 http://www.topografix.com/GPX/1/1/gpx.xsd" version="1.1" creator="gpx.py -- https://github.com/tkrajina/gpxpy">
  <trk>
    <name>gpx from keep</name>
    <type>Run</type>
    <trkseg>
      <trkpt lat="24.910778256401144" lon="118.53854404145814">
        <ele>10.121665651910007</ele>
        <time>2024-10-15T14:02:19Z</time>
      </trkpt>
      <trkpt lat="24.910439007675908" lon="118.53848156743926">
        <ele>9.865333178080618</ele>
        <time>2024-10-15T14:02:32Z</time>
      </trkpt>
      <trkpt lat="24.91031118951631" lon="118.53849002257739">
        <ele>9.08394620474428</ele>
        <time>2024-10-15T14:02:35Z</time>
      </trkpt>
      <trkpt lat="24.91000299365948" lon="118.53842231775796">
        <ele>8.450821250677109</ele>
        <time>2024-10-15T14:02:44Z</time>
      </trkpt>
      <trkpt lat="24.909813104808492" lon="118.53836730451417">
        <ele>8.26587884966284</ele>
        <time>2024-10-15T14:02:50Z</time>
      </trkpt>
      <trkpt lat="24.909607980568833" lon="118.53840995525235">
        <ele>7.488507472909987</ele>
        <time>2024-10-15T14:02:56Z</time>
      </trkpt>
      <trkpt lat="24.909297364473836" lon="118.53843943812645">
        <ele>7.483720610849559</ele>
        <time>2024-10-15T14:03:05Z</time>
      </trkpt>
      <trkpt lat="24.909093588832764" lon="118.53842766013317">
        <ele>7.270179712213576</ele>
        <time>2024-10-15T14:03:11Z</time>
      </trkpt>
      <trkpt lat="24.90906626496118" lon="118.53831685036391">
        <ele>8.098161306232214</ele>
        <time>2024-10-15T14:03:14Z</time>
      </trkpt>
      <trkpt lat="24.909138008559204" lon="118.53808231320083">
        <ele>8.376640759408474</ele>
        <time>2024-10-15T14:03:20Z</time>
      </trkpt>
      <trkpt lat="24.90918749765859" lon="118.53799676812969">
        <ele>8.532172970473766</ele>
        <time>2024-10-15T14:03:23Z</time>
      </trkpt>
      <trkpt lat="24.909272718772133" lon="118.53765552970039">
        <ele>8.473326737992465</ele>
        <time>2024-10-15T14:03:32Z</time>
      </trkpt>
      <trkpt lat="24.909341744549234" lon="118.53736196752165">
        <ele>10.109863349236548</ele>
        <time>2024-10-15T14:03:41Z</time>
      </trkpt>
      <trkpt lat="24.909369416320416" lon="118.53716269764351">
        <ele>10.54019716847688</ele>
        <time>2024-10-15T14:03:47Z</time>
      </trkpt>
      <trkpt lat="24.909415518082252" lon="118.53705448519008">
        <ele>10.546944950707257</ele>
        <time>2024-10-15T14:03:50Z</time>
      </trkpt>
      <trkpt lat="24.909431672235506" lon="118.536952578599">
        <ele>10.347937849350274</ele>
        <time>2024-10-15T14:03:53Z</time>
      </trkpt>
      <trkpt lat="24.90948487640286" lon="118.53686665153543">
        <ele>10.23341753706336</ele>
        <time>2024-10-15T14:03:56Z</time>
      </trkpt>
      <trkpt lat="24.90955078978422" lon="118.53653984096614">
        <ele>10.7039381749928</ele>
        <time>2024-10-15T14:04:05Z</time>
      </trkpt>
      <trkpt lat="24.909582244124866" lon="118.5364266907886">
        <ele>10.107347802259028</ele>
        <time>2024-10-15T14:04:08Z</time>
      </trkpt>
      <trkpt lat="24.909590170282257" lon="118.53619775680708">
        <ele>10.21383910626173</ele>
        <time>2024-10-15T14:04:15Z</time>
      </trkpt>
      <trkpt lat="24.909642687106615" lon="118.5357901450832">
        <ele>9.91073454823345</ele>
        <time>2024-10-15T14:04:27Z</time>
      </trkpt>
      <trkpt lat="24.9096574168531" lon="118.53565194479401">
        <ele>10.359543011523783</ele>
        <time>2024-10-15T14:04:31Z</time>
      </trkpt>
      <trkpt lat="24.909741550039428" lon="118.53522640324763">
        <ele>9.848847980611026</ele>
        <time>2024-10-15T14:04:43Z</time>
      </trkpt>
      <trkpt lat="24.90975735243407" lon="118.53491465828314">
        <ele>8.779177956283092</ele>
        <time>2024-10-15T14:04:52Z</time>
      </trkpt>
      <trkpt lat="24.9097674615573" lon="118.53461652296303">
        <ele>8.155438303016126</ele>
        <time>2024-10-15T14:05:01Z</time>
      </trkpt>
      <trkpt lat="24.909827773338602" lon="118.53432383820922">
        <ele>8.192748020403087</ele>
        <time>2024-10-15T14:05:10Z</time>
      </trkpt>
      <trkpt lat="24.9098541450745" lon="118.53401345621002">
        <ele>7.962514617480338</ele>
        <time>2024-10-15T14:05:19Z</time>
      </trkpt>
      <trkpt lat="24.909900928317338" lon="118.53392936518983">
        <ele>7.934425575658679</ele>
        <time>2024-10-15T14:05:22Z</time>
      </trkpt>
      <trkpt lat="24.909966965124962" lon="118.53386428080228">
        <ele>7.807879785075784</ele>
        <time>2024-10-15T14:05:25Z</time>
      </trkpt>
      <trkpt lat="24.910043718508412" lon="118.53382123000696">
        <ele>8.344320223666728</ele>
        <time>2024-10-15T14:05:28Z</time>
      </trkpt>
      <trkpt lat="24.91012925943489" lon="118.53382126271529">
        <ele>8.65803999826312</ele>
        <time>2024-10-15T14:05:31Z</time>
      </trkpt>
      <trkpt lat="24.910399567983838" lon="118.53376249085711">
        <ele>10.402808774262667</ele>
        <time>2024-10-15T14:05:40Z</time>
      </trkpt>
      <trkpt lat="24.91066587756481" lon="118.53370844638228">
        <ele>11.101681262254715</ele>
        <time>2024-10-15T14:05:49Z</time>
      </trkpt>
      <trkpt lat="24.91075419796549" lon="118.53370357175883">
        <ele>10.383796287700534</ele>
        <time>2024-10-15T14:05:52Z</time>
      </trkpt>
      <trkpt lat="24.9108487103452" lon="118.53373704865398">
        <ele>10.498431947082281</ele>
        <time>2024-10-15T14:05:55Z</time>
      </trkpt>
      <trkpt lat="24.911215828012025" lon="118.53376094102316">
        <ele>10.527191650122404</ele>
        <time>2024-10-15T14:06:07Z</time>
      </trkpt>
      <trkpt lat="24.911491514336742" lon="118.53375938424685">
        <ele>10.606498473323882</ele>
        <time>2024-10-15T14:06:16Z</time>
      </trkpt>
      <trkpt lat="24.911888888773785" lon="118.53378062434629">
        <ele>10.645887488499284</ele>
        <time>2024-10-15T14:06:28Z</time>
      </trkpt>
      <trkpt lat="24.912154320311732" lon="118.53380648170041">
        <ele>10.619916569441557</ele>
        <time>2024-10-15T14:06:36Z</time>
      </trkpt>
      <trkpt lat="24.91250770005356" lon="118.53376334705283">
        <ele>10.41300240997225</ele>
        <time>2024-10-15T14:06:48Z</time>
      </trkpt>
      <trkpt lat="24.9128107656936" lon="118.53377614494168">
        <ele>11.146655013784766</ele>
        <time>2024-10-15T14:06:58Z</time>
      </trkpt>
      <trkpt lat="24.912893956830008" lon="118.53377717663534">
        <ele>10.674646058119833</ele>
        <time>2024-10-15T14:07:01Z</time>
      </trkpt>
      <trkpt lat="24.913145203332714" lon="118.53385217651389">
        <ele>10.281553560867906</ele>
        <time>2024-10-15T14:07:10Z</time>
      </trkpt>
      <trkpt lat="24.913414818660744" lon="118.53388317399508">
        <ele>10.268713007681072</ele>
        <time>2024-10-15T14:07:19Z</time>
      </trkpt>
      <trkpt lat="24.913731689528127" lon="118.53393696808135">
        <ele>10.277953670360148</ele>
        <time>2024-10-15T14:07:31Z</time>
      </trkpt>
      <trkpt lat="24.91391274116102" lon="118.53393410264138">
        <ele>11.045713109895587</ele>
        <time>2024-10-15T14:07:37Z</time>
      </trkpt>
      <trkpt lat="24.914100966216473" lon="118.53395299676053">
        <ele>10.587868440896273</ele>
        <time>2024-10-15T14:07:43Z</time>
      </trkpt>
      <trkpt lat="24.91428237860431" lon="118.53400275806247">
        <ele>11.148646291345358</ele>
        <time>2024-10-15T14:07:49Z</time>
      </trkpt>
      <trkpt lat="24.9145533678989" lon="118.53404726870403">
        <ele>12.48680077213794</ele>
        <time>2024-10-15T14:07:58Z</time>
      </trkpt>
      <trkpt lat="24.914897748614127" lon="118.53411183314053">
        <ele>13.038396741263568</ele>
        <time>2024-10-15T14:08:10Z</time>
      </trkpt>
      <trkpt lat="24.915190988849595" lon="118.53415845333751">
        <ele>13.075588894076645</ele>
        <time>2024-10-15T14:08:19Z</time>
      </trkpt>
      <trkpt lat="24.915284531346202" lon="118.53416206739357">
        <ele>13.091106568463147</ele>
        <time>2024-10-15T14:08:22Z</time>
      </trkpt>
      <trkpt lat="24.915641347142746" lon="118.53420891056484">
        <ele>12.889092992059886</ele>
        <time>2024-10-15T14:08:34Z</time>
      </trkpt>
      <trkpt lat="24.915989965313024" lon="118.53428285552617">
        <ele>12.741604199633002</ele>
        <time>2024-10-15T14:08:46Z</time>
      </trkpt>
      <trkpt lat="24.91629698536901" lon="118.53435005365326">
        <ele>12.528278243727982</ele>
        <time>2024-10-15T14:08:57Z</time>
      </trkpt>
      <trkpt lat="24.91659561307969" lon="118.5343966576342">
        <ele>13.339929076842964</ele>
        <time>2024-10-15T14:09:07Z</time>
      </trkpt>
      <trkpt lat="24.916931432837995" lon="118.53449059602212">
        <ele>15.149310979060829</ele>
        <time>2024-10-15T14:09:19Z</time>
      </trkpt>
      <trkpt lat="24.91702556648241" lon="118.53449849900967">
        <ele>14.913992071524262</ele>
        <time>2024-10-15T14:09:22Z</time>
      </trkpt>
      <trkpt lat="24.91719576763886" lon="118.53454737921273">
        <ele>14.416752733290195</ele>
        <time>2024-10-15T14:09:28Z</time>
      </trkpt>
      <trkpt lat="24.917470192569237" lon="118.53459193729239">
        <ele>14.37369911186397</ele>
        <time>2024-10-15T14:09:37Z</time>
      </trkpt>
      <trkpt lat="24.9176638066219" lon="118.53463137147716">
        <ele>14.615539636462927</ele>
        <time>2024-10-15T14:09:43Z</time>
      </trkpt>
      <trkpt lat="24.917946618344363" lon="118.53471186588068">
        <ele>13.976526928134263</ele>
        <time>2024-10-15T14:09:52Z</time>
      </trkpt>
      <trkpt lat="24.918034760977466" lon="118.53472957392749">
        <ele>14.160043705254793</ele>
        <time>2024-10-15T14:09:55Z</time>
      </trkpt>
      <trkpt lat="24.918113602040783" lon="118.5347250552276">
        <ele>14.173890754580498</ele>
        <time>2024-10-15T14:09:58Z</time>
      </trkpt>
      <trkpt lat="24.918314189939053" lon="118.53479898400352">
        <ele>13.807404838502407</ele>
        <time>2024-10-15T14:10:04Z</time>
      </trkpt>
      <trkpt lat="24.918396424487078" lon="118.53485866518223">
        <ele>13.741015850566328</ele>
        <time>2024-10-15T14:10:07Z</time>
      </trkpt>
      <trkpt lat="24.91853178074975" lon="118.53499724615708">
        <ele>13.814193670637906</ele>
        <time>2024-10-15T14:10:13Z</time>
      </trkpt>
      <trkpt lat="24.918585331870815" lon="118.53511845570611">
        <ele>13.184329215437174</ele>
        <time>2024-10-15T14:10:17Z</time>
      </trkpt>
      <trkpt lat="24.918601509864313" lon="118.53521541498502">
        <ele>12.329611107707024</ele>
        <time>2024-10-15T14:10:20Z</time>
      </trkpt>
      <trkpt lat="24.91858872744695" lon="118.53531304969728">
        <ele>11.73529489710927</ele>
        <time>2024-10-15T14:10:23Z</time>
      </trkpt>
      <trkpt lat="24.91849054900751" lon="118.53561356334217">
        <ele>11.398727834224701</ele>
        <time>2024-10-15T14:10:33Z</time>
      </trkpt>
      <trkpt lat="24.91836055911512" lon="118.5359847223232">
        <ele>10.297443312592804</ele>
        <time>2024-10-15T14:10:45Z</time>
      </trkpt>
      <trkpt lat="24.918235180847436" lon="118.53619356756539">
        <ele>10.347846678458154</ele>
        <time>2024-10-15T14:10:53Z</time>
      </trkpt>
      <trkpt lat="24.918122368576988" lon="118.5364145061986">
        <ele>10.519005979411304</ele>
        <time>2024-10-15T14:11:00Z</time>
      </trkpt>
      <trkpt lat="24.917999459319624" lon="118.53677348393971">
        <ele>9.873498358763754</ele>
        <time>2024-10-15T14:11:12Z</time>
      </trkpt>
      <trkpt lat="24.917944148056222" lon="118.53699860656872">
        <ele>10.299305422231555</ele>
        <time>2024-10-15T14:11:21Z</time>
      </trkpt>
      <trkpt lat="24.917839535829938" lon="118.53718771154419">
        <ele>10.33136609941721</ele>
        <time>2024-10-15T14:11:27Z</time>
      </trkpt>
      <trkpt lat="24.917769915308547" lon="118.5372803837767">
        <ele>9.93686227221042</ele>
        <time>2024-10-15T14:11:30Z</time>
      </trkpt>
      <trkpt lat="24.917634426714397" lon="118.53757839414715">
        <ele>9.802726916968822</ele>
        <time>2024-10-15T14:11:39Z</time>
      </trkpt>
      <trkpt lat="24.917588534139043" lon="118.53767068062588">
        <ele>9.703481678850949</ele>
        <time>2024-10-15T14:11:42Z</time>
      </trkpt>
      <trkpt lat="24.917565482072405" lon="118.53776624450717">
        <ele>9.775078282691538</ele>
        <time>2024-10-15T14:11:45Z</time>
      </trkpt>
      <trkpt lat="24.917447138788546" lon="118.53791846840313">
        <ele>10.44719893950969</ele>
        <time>2024-10-15T14:11:51Z</time>
      </trkpt>
      <trkpt lat="24.917357412751304" lon="118.53823071007268">
        <ele>10.573867459781468</ele>
        <time>2024-10-15T14:12:00Z</time>
      </trkpt>
      <trkpt lat="24.917325132039192" lon="118.53832214668833">
        <ele>10.110385674983263</ele>
        <time>2024-10-15T14:12:03Z</time>
      </trkpt>
      <trkpt lat="24.91731458103269" lon="118.53841990495397">
        <ele>10.1223259633407</ele>
        <time>2024-10-15T14:12:06Z</time>
      </trkpt>
      <trkpt lat="24.91723146538227" lon="118.53868929623104">
        <ele>9.99982109759003</ele>
        <time>2024-10-15T14:12:15Z</time>
      </trkpt>
      <trkpt lat="24.91719967296885" lon="118.53900195017474">
        <ele>10.017104306258261</ele>
        <time>2024-10-15T14:12:24Z</time>
      </trkpt>
      <trkpt lat="24.917151110918205" lon="118.53921181681815">
        <ele>10.322534260340035</ele>
        <time>2024-10-15T14:12:30Z</time>
      </trkpt>
      <trkpt lat="24.91717357257149" lon="118.53945090662764">
        <ele>10.045622424222529</ele>
        <time>2024-10-15T14:12:37Z</time>
      </trkpt>
      <trkpt lat="24.917140301107334" lon="118.53954576403424">
        <ele>10.382978311739862</ele>
        <time>2024-10-15T14:12:41Z</time>
      </trkpt>
      <trkpt lat="24.91707431931817" lon="118.53962057138621">
        <ele>10.327752276323736</ele>
        <time>2024-10-15T14:12:45Z</time>
      </trkpt>
      <trkpt lat="24.916957454670097" lon="118.53968413677008">
        <ele>10.417863879352808</ele>
        <time>2024-10-15T14:12:49Z</time>
      </trkpt>
      <trkpt lat="24.916880147076768" lon="118.53981094430547">
        <ele>10.533875518478453</ele>
        <time>2024-10-15T14:12:53Z</time>
      </trkpt>
      <trkpt lat="24.91665067659854" lon="118.54003740018663">
        <ele>9.70590145047754</ele>
        <time>2024-10-15T14:13:00Z</time>
      </trkpt>
      <trkpt lat="24.91658105973614" lon="118.54014070176856">
        <ele>10.222401490435004</ele>
        <time>2024-10-15T14:13:03Z</time>
      </trkpt>
      <trkpt lat="24.916501523734325" lon="118.54046738626937">
        <ele>11.48159659653902</ele>
        <time>2024-10-15T14:13:12Z</time>
      </trkpt>
      <trkpt lat="24.916470489832268" lon="118.54083172295226">
        <ele>13.45383909996599</ele>
        <time>2024-10-15T14:13:24Z</time>
      </trkpt>
      <trkpt lat="24.91649295150191" lon="118.54095520868482">
        <ele>13.447663157247007</ele>
        <time>2024-10-15T14:13:27Z</time>
      </trkpt>
      <trkpt lat="24.91654049086621" lon="118.54107290474657">
        <ele>13.777572708204389</ele>
        <time>2024-10-15T14:13:30Z</time>
      </trkpt>
      <trkpt lat="24.916569988799196" lon="118.54128733915267">
        <ele>13.835224390029907</ele>
        <time>2024-10-15T14:13:36Z</time>
      </trkpt>
      <trkpt lat="24.916626656423393" lon="118.54151580655244">
        <ele>13.743944908492267</ele>
        <time>2024-10-15T14:13:42Z</time>
      </trkpt>
      <trkpt lat="24.916663064997483" lon="118.54160513560143">
        <ele>13.808692839927971</ele>
        <time>2024-10-15T14:13:45Z</time>
      </trkpt>
      <trkpt lat="24.91666134774722" lon="118.54171585904213">
        <ele>13.436827932484448</ele>
        <time>2024-10-15T14:13:48Z</time>
      </trkpt>
      <trkpt lat="24.916619147043665" lon="118.54182919912722">
        <ele>12.948679708875716</ele>
        <time>2024-10-15T14:13:51Z</time>
      </trkpt>
      <trkpt lat="24.916547617564746" lon="118.54192332480686">
        <ele>12.352351204492152</ele>
        <time>2024-10-15T14:13:54Z</time>
      </trkpt>
      <trkpt lat="24.916484321699603" lon="118.54197980222087">
        <ele>11.614422167651355</ele>
        <time>2024-10-15T14:13:57Z</time>
      </trkpt>
      <trkpt lat="24.916376897130554" lon="118.54198135702647">
        <ele>11.342193685472012</ele>
        <time>2024-10-15T14:14:00Z</time>
      </trkpt>
      <trkpt lat="24.91616971810963" lon="118.5420592622081">
        <ele>12.297140089794993</ele>
        <time>2024-10-15T14:14:06Z</time>
      </trkpt>
      <trkpt lat="24.916059848980414" lon="118.54208073960471">
        <ele>11.917247992008924</ele>
        <time>2024-10-15T14:14:09Z</time>
      </trkpt>
      <trkpt lat="24.915754628637618" lon="118.54221952766434">
        <ele>12.116743683815002</ele>
        <time>2024-10-15T14:14:18Z</time>
      </trkpt>
      <trkpt lat="24.91546736949253" lon="118.54234741408527">
        <ele>12.77523266710341</ele>
        <time>2024-10-15T14:14:27Z</time>
      </trkpt>
      <trkpt lat="24.915191855963865" lon="118.54247134816221">
        <ele>12.010188312269747</ele>
        <time>2024-10-15T14:14:36Z</time>
      </trkpt>
      <trkpt lat="24.91503180783787" lon="118.5424854001226">
        <ele>11.145273833535612</ele>
        <time>2024-10-15T14:14:45Z</time>
      </trkpt>
      <trkpt lat="24.91485032751299" lon="118.5425477798686">
        <ele>10.250786515884101</ele>
        <time>2024-10-15T14:14:54Z</time>
      </trkpt>
      <trkpt lat="24.914561290542682" lon="118.54261192419364">
        <ele>9.286885293200612</ele>
        <time>2024-10-15T14:15:03Z</time>
      </trkpt>
      <trkpt lat="24.91435253252622" lon="118.54269732540915">
        <ele>9.955521530471742</ele>
        <time>2024-10-15T14:15:09Z</time>
      </trkpt>
      <trkpt lat="24.9142363551852" lon="118.54272000188156">
        <ele>10.019349195063114</ele>
        <time>2024-10-15T14:15:12Z</time>
      </trkpt>
      <trkpt lat="24.914132702298176" lon="118.54278985373318">
        <ele>9.871618698351085</ele>
        <time>2024-10-15T14:15:15Z</time>
      </trkpt>
      <trkpt lat="24.914014878435857" lon="118.54282320512063">
        <ele>9.426034113392234</ele>
        <time>2024-10-15T14:15:18Z</time>
      </trkpt>
      <trkpt lat="24.913906602778194" lon="118.5427694969912">
        <ele>8.178329903632402</ele>
        <time>2024-10-15T14:15:21Z</time>
      </trkpt>
      <trkpt lat="24.91356426257945" lon="118.54279453800454">
        <ele>8.411957202479243</ele>
        <time>2024-10-15T14:15:33Z</time>
      </trkpt>
      <trkpt lat="24.913465082874808" lon="118.54279731733288">
        <ele>8.021968519315124</ele>
        <time>2024-10-15T14:15:36Z</time>
      </trkpt>
      <trkpt lat="24.913193616172393" lon="118.54284876267131">
        <ele>7.765146119520068</ele>
        <time>2024-10-15T14:15:45Z</time>
      </trkpt>
      <trkpt lat="24.913008444312517" lon="118.54289682787459">
        <ele>7.83350023906678</ele>
        <time>2024-10-15T14:15:51Z</time>
      </trkpt>
      <trkpt lat="24.91273469221034" lon="118.54294417269003">
        <ele>8.264237796887755</ele>
        <time>2024-10-15T14:16:00Z</time>
      </trkpt>
      <trkpt lat="24.91240090079524" lon="118.54304797428331">
        <ele>8.53230650536716</ele>
        <time>2024-10-15T14:16:12Z</time>
      </trkpt>
      <trkpt lat="24.912235876568406" lon="118.54307457882845">
        <ele>8.24586768168956</ele>
        <time>2024-10-15T14:16:18Z</time>
      </trkpt>
      <trkpt lat="24.911889328163287" lon="118.54315851804004">
        <ele>7.402567492797971</ele>
        <time>2024-10-15T14:16:30Z</time>
      </trkpt>
      <trkpt lat="24.911563981016347" lon="118.54323577125899">
        <ele>8.720821995288134</ele>
        <time>2024-10-15T14:16:42Z</time>
      </trkpt>
      <trkpt lat="24.91125306685205" lon="118.54328476034252">
        <ele>8.156568535603583</ele>
        <time>2024-10-15T14:16:54Z</time>
      </trkpt>
      <trkpt lat="24.9110840077433" lon="118.54330275177834">
        <ele>8.103149123489857</ele>
        <time>2024-10-15T14:17:00Z</time>
      </trkpt>
      <trkpt lat="24.910977737485407" lon="118.54334726578281">
        <ele>7.804702288471162</ele>
        <time>2024-10-15T14:17:03Z</time>
      </trkpt>
      <trkpt lat="24.91074806330281" lon="118.54337635595546">
        <ele>8.5545739158988</ele>
        <time>2024-10-15T14:17:09Z</time>
      </trkpt>
      <trkpt lat="24.910463124379508" lon="118.54335841668687">
        <ele>7.699583433568478</ele>
        <time>2024-10-15T14:17:18Z</time>
      </trkpt>
      <trkpt lat="24.910374427048023" lon="118.54337150696234">
        <ele>7.542114345356822</ele>
        <time>2024-10-15T14:17:21Z</time>
      </trkpt>
      <trkpt lat="24.910265035371015" lon="118.54336481389971">
        <ele>7.5643444852903485</ele>
        <time>2024-10-15T14:17:24Z</time>
      </trkpt>
      <trkpt lat="24.91004894065062" lon="118.54341695276601">
        <ele>7.203829667530954</ele>
        <time>2024-10-15T14:17:30Z</time>
      </trkpt>
      <trkpt lat="24.909842092501403" lon="118.5434025260314">
        <ele>7.286709741689265</ele>
        <time>2024-10-15T14:17:36Z</time>
      </trkpt>
      <trkpt lat="24.909651705835177" lon="118.54343555718702">
        <ele>7.073366713710129</ele>
        <time>2024-10-15T14:17:42Z</time>
      </trkpt>
      <trkpt lat="24.909471797707695" lon="118.54339694952677">
        <ele>7.149120061658323</ele>
        <time>2024-10-15T14:17:48Z</time>
      </trkpt>
      <trkpt lat="24.909283839393293" lon="118.54337985131286">
        <ele>7.6915255058556795</ele>
        <time>2024-10-15T14:17:54Z</time>
      </trkpt>
      <trkpt lat="24.909200878821824" lon="118.54334840129961">
        <ele>8.20815260708332</ele>
        <time>2024-10-15T14:17:57Z</time>
      </trkpt>
      <trkpt lat="24.908898169454165" lon="118.54336101253374">
        <ele>7.487969595938921</ele>
        <time>2024-10-15T14:18:06Z</time>
      </trkpt>
      <trkpt lat="24.90869837017728" lon="118.54335809394283">
        <ele>7.71829030290246</ele>
        <time>2024-10-15T14:18:12Z</time>
      </trkpt>
      <trkpt lat="24.908425905719177" lon="118.5433926352817">
        <ele>7.719782133586705</ele>
        <time>2024-10-15T14:18:21Z</time>
      </trkpt>
      <trkpt lat="24.90814409131672" lon="118.54339359449006">
        <ele>8.29194947425276</ele>
        <time>2024-10-15T14:18:30Z</time>
      </trkpt>
      <trkpt lat="24.907782068300843" lon="118.54337326877442">
        <ele>7.521040145307779</ele>
        <time>2024-10-15T14:18:42Z</time>
      </trkpt>
      <trkpt lat="24.907664081885496" lon="118.54338542520796">
        <ele>7.518920048139989</ele>
        <time>2024-10-15T14:18:45Z</time>
      </trkpt>
      <trkpt lat="24.90755709246548" lon="118.54336487721139">
        <ele>7.790489329025149</ele>
        <time>2024-10-15T14:18:48Z</time>
      </trkpt>
      <trkpt lat="24.907477651811444" lon="118.54329602114049">
        <ele>7.661844944581389</ele>
        <time>2024-10-15T14:18:51Z</time>
      </trkpt>
      <trkpt lat="24.90743368995999" lon="118.54321602182146">
        <ele>7.725177000276744</ele>
        <time>2024-10-15T14:18:54Z</time>
      </trkpt>
      <trkpt lat="24.907495890220574" lon="118.54300584341777">
        <ele>7.737760837189853</ele>
        <time>2024-10-15T14:19:00Z</time>
      </trkpt>
      <trkpt lat="24.907593106588998" lon="118.54279703029994">
        <ele>7.975763202644885</ele>
        <time>2024-10-15T14:19:06Z</time>
      </trkpt>
      <trkpt lat="24.907648207641717" lon="118.54261529479206">
        <ele>7.627972750924528</ele>
        <time>2024-10-15T14:19:12Z</time>
      </trkpt>
      <trkpt lat="24.907677413241387" lon="118.5424466927776">
        <ele>8.447536122053862</ele>
        <time>2024-10-15T14:19:18Z</time>
      </trkpt>
      <trkpt lat="24.907781216852243" lon="118.54220128545431">
        <ele>8.451702294871211</ele>
        <time>2024-10-15T14:19:27Z</time>
      </trkpt>
      <trkpt lat="24.90782944631106" lon="118.54213594897938">
        <ele>8.842847410589457</ele>
        <time>2024-10-15T14:19:30Z</time>
      </trkpt>
      <trkpt lat="24.907937924974174" lon="118.54180100745104">
        <ele>8.927319726906717</ele>
        <time>2024-10-15T14:19:39Z</time>
      </trkpt>
      <trkpt lat="24.907944220621754" lon="118.54172568457986">
        <ele>9.344228429719806</ele>
        <time>2024-10-15T14:19:42Z</time>
      </trkpt>
      <trkpt lat="24.90797724767373" lon="118.54164349757058">
        <ele>9.917041314765811</ele>
        <time>2024-10-15T14:19:45Z</time>
      </trkpt>
      <trkpt lat="24.908014078295952" lon="118.54135849795333">
        <ele>10.34577932395041</ele>
        <time>2024-10-15T14:19:54Z</time>
      </trkpt>
      <trkpt lat="24.90808378702912" lon="118.54113555479215">
        <ele>10.676973855122924</ele>
        <time>2024-10-15T14:20:00Z</time>
      </trkpt>
      <trkpt lat="24.908145838983224" lon="118.54102696275817">
        <ele>10.260602285154164</ele>
        <time>2024-10-15T14:20:03Z</time>
      </trkpt>
      <trkpt lat="24.908245356702324" lon="118.54091073512508">
        <ele>9.670182421803474</ele>
        <time>2024-10-15T14:20:06Z</time>
      </trkpt>
      <trkpt lat="24.908357800662117" lon="118.540816602643">
        <ele>9.196080323308706</ele>
        <time>2024-10-15T14:20:09Z</time>
      </trkpt>
      <trkpt lat="24.908432482171758" lon="118.54070893979939">
        <ele>8.809792762622237</ele>
        <time>2024-10-15T14:20:12Z</time>
      </trkpt>
      <trkpt lat="24.90855861475603" lon="118.54037088759979">
        <ele>8.970493431203067</ele>
        <time>2024-10-15T14:20:21Z</time>
      </trkpt>
      <trkpt lat="24.90863273918409" lon="118.54015644230367">
        <ele>7.9640039056539536</ele>
        <time>2024-10-15T14:20:27Z</time>
      </trkpt>
      <trkpt lat="24.90878790665831" lon="118.53986565217511">
        <ele>7.957395886071026</ele>
        <time>2024-10-15T14:20:36Z</time>
      </trkpt>
      <trkpt lat="24.908867459647766" lon="118.53965099119611">
        <ele>7.876191245391965</ele>
        <time>2024-10-15T14:20:42Z</time>
      </trkpt>
      <trkpt lat="24.90887249775914" lon="118.5393349787402">
        <ele>7.576613930054009</ele>
        <time>2024-10-15T14:20:51Z</time>
      </trkpt>
      <trkpt lat="24.908874147391725" lon="118.53923201067327">
        <ele>8.006427162326872</ele>
        <time>2024-10-15T14:20:54Z</time>
      </trkpt>
      <trkpt lat="24.90897755727549" lon="118.53893444321653">
        <ele>7.905089553445578</ele>
        <time>2024-10-15T14:21:03Z</time>
      </trkpt>
      <trkpt lat="24.90905248666904" lon="118.53862547160472">
        <ele>7.7374737886711955</ele>
        <time>2024-10-15T14:21:12Z</time>
      </trkpt>
      <trkpt lat="24.909121574821413" lon="118.53823119584258">
        <ele>8.032390714623034</ele>
        <time>2024-10-15T14:21:24Z</time>
      </trkpt>
      <trkpt lat="24.90914921697922" lon="118.5381276016484">
        <ele>7.702211758121848</ele>
        <time>2024-10-15T14:21:27Z</time>
      </trkpt>
      <trkpt lat="24.909151447057003" lon="118.53803117498306">
        <ele>8.380135398358107</ele>
        <time>2024-10-15T14:21:30Z</time>
      </trkpt>
      <trkpt lat="24.909172811959703" lon="118.53794103683906">
        <ele>7.9150050627067685</ele>
        <time>2024-10-15T14:21:33Z</time>
      </trkpt>
      <trkpt lat="24.90920087467523" lon="118.53772813267811">
        <ele>8.49284537602216</ele>
        <time>2024-10-15T14:21:39Z</time>
      </trkpt>
      <trkpt lat="24.909267672711383" lon="118.5374272878412">
        <ele>9.789435058832169</ele>
        <time>2024-10-15T14:21:48Z</time>
      </trkpt>
      <trkpt lat="24.909335068922584" lon="118.53703501948706">
        <ele>10.209477368742228</ele>
        <time>2024-10-15T14:22:00Z</time>
      </trkpt>
      <trkpt lat="24.909370835274455" lon="118.53681559674914">
        <ele>10.941368677653372</ele>
        <time>2024-10-15T14:22:06Z</time>
      </trkpt>
      <trkpt lat="24.909479084510615" lon="118.5366282191605">
        <ele>10.642303727567196</ele>
        <time>2024-10-15T14:22:12Z</time>
      </trkpt>
      <trkpt lat="24.909554052742948" lon="118.53632799402104">
        <ele>10.433921319432557</ele>
        <time>2024-10-15T14:22:21Z</time>
      </trkpt>
      <trkpt lat="24.909585598967137" lon="118.53595502676475">
        <ele>9.937449597753584</ele>
        <time>2024-10-15T14:22:33Z</time>
      </trkpt>
      <trkpt lat="24.909606128022347" lon="118.5357459716121">
        <ele>9.841605513356626</ele>
        <time>2024-10-15T14:22:39Z</time>
      </trkpt>
      <trkpt lat="24.90964669605603" lon="118.53553397298296">
        <ele>10.201151967048645</ele>
        <time>2024-10-15T14:22:45Z</time>
      </trkpt>
      <trkpt lat="24.90970499317942" lon="118.53532295616544">
        <ele>10.209732009097934</ele>
        <time>2024-10-15T14:22:51Z</time>
      </trkpt>
      <trkpt lat="24.90972499854101" lon="118.53501471314742">
        <ele>8.968850984238088</ele>
        <time>2024-10-15T14:23:00Z</time>
      </trkpt>
      <trkpt lat="24.909747904041627" lon="118.53481054555398">
        <ele>8.382673897780478</ele>
        <time>2024-10-15T14:23:06Z</time>
      </trkpt>
      <trkpt lat="24.909756883645045" lon="118.53461730914242">
        <ele>7.877767597325146</ele>
        <time>2024-10-15T14:23:12Z</time>
      </trkpt>
      <trkpt lat="24.909789688330665" lon="118.53452050855674">
        <ele>7.764812787994742</ele>
        <time>2024-10-15T14:23:15Z</time>
      </trkpt>
      <trkpt lat="24.909775670888354" lon="118.53429757430868">
        <ele>7.755039244890213</ele>
        <time>2024-10-15T14:23:21Z</time>
      </trkpt>
      <trkpt lat="24.90984980662459" lon="118.53391991101032">
        <ele>8.004547043703496</ele>
        <time>2024-10-15T14:23:33Z</time>
      </trkpt>
      <trkpt lat="24.90991606857983" lon="118.53384345843281">
        <ele>7.931628392077982</ele>
        <time>2024-10-15T14:23:36Z</time>
      </trkpt>
      <trkpt lat="24.91005106342016" lon="118.5337536240459">
        <ele>8.504716202616692</ele>
        <time>2024-10-15T14:23:42Z</time>
      </trkpt>
      <trkpt lat="24.910325766405734" lon="118.53370445089503">
        <ele>9.673161895014346</ele>
        <time>2024-10-15T14:23:51Z</time>
      </trkpt>
      <trkpt lat="24.91062232325456" lon="118.53370986581554">
        <ele>10.691386468708515</ele>
        <time>2024-10-15T14:24:00Z</time>
      </trkpt>
      <trkpt lat="24.910707014135255" lon="118.53370253024374">
        <ele>10.502422639168799</ele>
        <time>2024-10-15T14:24:03Z</time>
      </trkpt>
      <trkpt lat="24.91090738761805" lon="118.53374050799444">
        <ele>9.91320923063904</ele>
        <time>2024-10-15T14:24:09Z</time>
      </trkpt>
      <trkpt lat="24.91120263897889" lon="118.53373546439936">
        <ele>10.205183405429125</ele>
        <time>2024-10-15T14:24:18Z</time>
      </trkpt>
      <trkpt lat="24.911476731396096" lon="118.53375010038162">
        <ele>10.245349901728332</ele>
        <time>2024-10-15T14:24:27Z</time>
      </trkpt>
      <trkpt lat="24.911756112490046" lon="118.53375590257502">
        <ele>10.60667881835252</ele>
        <time>2024-10-15T14:24:36Z</time>
      </trkpt>
      <trkpt lat="24.912075222509387" lon="118.53378031285982">
        <ele>10.706897474825382</ele>
        <time>2024-10-15T14:24:45Z</time>
      </trkpt>
      <trkpt lat="24.912177695074917" lon="118.53378192342613">
        <ele>10.316287597641349</ele>
        <time>2024-10-15T14:24:48Z</time>
      </trkpt>
      <trkpt lat="24.91236932514117" lon="118.53380936294592">
        <ele>10.312264893203974</ele>
        <time>2024-10-15T14:24:54Z</time>
      </trkpt>
      <trkpt lat="24.9126666490476" lon="118.53379569555213">
        <ele>10.334717155434191</ele>
        <time>2024-10-15T14:25:03Z</time>
      </trkpt>
      <trkpt lat="24.912844979623753" lon="118.53378752833346">
        <ele>9.993566785939038</ele>
        <time>2024-10-15T14:25:09Z</time>
      </trkpt>
      <trkpt lat="24.91312553056361" lon="118.53385286955489">
        <ele>10.724633439444005</ele>
        <time>2024-10-15T14:25:18Z</time>
      </trkpt>
      <trkpt lat="24.91339090037153" lon="118.53387061109348">
        <ele>10.494221691973507</ele>
        <time>2024-10-15T14:25:27Z</time>
      </trkpt>
      <trkpt lat="24.91373374691012" lon="118.53392715786073">
        <ele>10.187097813002765</ele>
        <time>2024-10-15T14:25:39Z</time>
      </trkpt>
      <trkpt lat="24.91402174442393" lon="118.53394641354448">
        <ele>10.798155069351196</ele>
        <time>2024-10-15T14:25:48Z</time>
      </trkpt>
      <trkpt lat="24.91429903325663" lon="118.53398548654755">
        <ele>10.951162826269865</ele>
        <time>2024-10-15T14:25:57Z</time>
      </trkpt>
      <trkpt lat="24.914571317820098" lon="118.53405712511201">
        <ele>12.03136594966054</ele>
        <time>2024-10-15T14:26:06Z</time>
      </trkpt>
      <trkpt lat="24.914632663246795" lon="118.5340593803729">
        <ele>12.448016506619751</ele>
        <time>2024-10-15T14:26:09Z</time>
      </trkpt>
      <trkpt lat="24.914774623392184" lon="118.53411290435407">
        <ele>12.278171186335385</ele>
        <time>2024-10-15T14:26:15Z</time>
      </trkpt>
      <trkpt lat="24.915080159311238" lon="118.53413937055772">
        <ele>12.953300181776285</ele>
        <time>2024-10-15T14:26:24Z</time>
      </trkpt>
      <trkpt lat="24.91537075281255" lon="118.53418426844743">
        <ele>13.127505675889552</ele>
        <time>2024-10-15T14:26:33Z</time>
      </trkpt>
      <trkpt lat="24.915668380259824" lon="118.53422219829896">
        <ele>13.078218971379101</ele>
        <time>2024-10-15T14:26:45Z</time>
      </trkpt>
      <trkpt lat="24.916015026108344" lon="118.53430214860153">
        <ele>12.892312468029559</ele>
        <time>2024-10-15T14:26:57Z</time>
      </trkpt>
      <trkpt lat="24.916323461335352" lon="118.53436629616041">
        <ele>12.908862121403217</ele>
        <time>2024-10-15T14:27:06Z</time>
      </trkpt>
      <trkpt lat="24.91642795133445" lon="118.53439216883716">
        <ele>13.633881817571819</ele>
        <time>2024-10-15T14:27:09Z</time>
      </trkpt>
      <trkpt lat="24.91674074621034" lon="118.53443622141519">
        <ele>14.146746314130723</ele>
        <time>2024-10-15T14:27:18Z</time>
      </trkpt>
      <trkpt lat="24.91701563642478" lon="118.53450706930921">
        <ele>14.307447338476777</ele>
        <time>2024-10-15T14:27:27Z</time>
      </trkpt>
      <trkpt lat="24.917303846881165" lon="118.53455545239804">
        <ele>14.470658245496452</ele>
        <time>2024-10-15T14:27:36Z</time>
      </trkpt>
      <trkpt lat="24.917591363399158" lon="118.53461504405178">
        <ele>14.279706451110542</ele>
        <time>2024-10-15T14:27:45Z</time>
      </trkpt>
      <trkpt lat="24.917772369100295" lon="118.53467803738093">
        <ele>14.648768042214215</ele>
        <time>2024-10-15T14:27:51Z</time>
      </trkpt>
      <trkpt lat="24.91804753945787" lon="118.53473589046293">
        <ele>14.200152080506086</ele>
        <time>2024-10-15T14:28:00Z</time>
      </trkpt>
      <trkpt lat="24.918320676436707" lon="118.53479632134375">
        <ele>13.400072880089283</ele>
        <time>2024-10-15T14:28:09Z</time>
      </trkpt>
      <trkpt lat="24.918497986859503" lon="118.5348909561963">
        <ele>12.951575016602874</ele>
        <time>2024-10-15T14:28:15Z</time>
      </trkpt>
      <trkpt lat="24.918558851953282" lon="118.53497229778438">
        <ele>12.857720870524645</ele>
        <time>2024-10-15T14:28:18Z</time>
      </trkpt>
      <trkpt lat="24.918593705855493" lon="118.53506918726636">
        <ele>13.394729693420231</ele>
        <time>2024-10-15T14:28:21Z</time>
      </trkpt>
      <trkpt lat="24.918609189587837" lon="118.53518179064977">
        <ele>12.389742221683264</ele>
        <time>2024-10-15T14:28:24Z</time>
      </trkpt>
      <trkpt lat="24.91856083983776" lon="118.5353716611354">
        <ele>11.239985921420157</ele>
        <time>2024-10-15T14:28:30Z</time>
      </trkpt>
      <trkpt lat="24.918516364330404" lon="118.53546849045875">
        <ele>10.950857136398554</ele>
        <time>2024-10-15T14:28:33Z</time>
      </trkpt>
      <trkpt lat="24.918498573382497" lon="118.53557259214166">
        <ele>11.071475145407021</ele>
        <time>2024-10-15T14:28:36Z</time>
      </trkpt>
      <trkpt lat="24.91845678534619" lon="118.53567652290756">
        <ele>10.986747079528868</ele>
        <time>2024-10-15T14:28:39Z</time>
      </trkpt>
      <trkpt lat="24.91844158489888" lon="118.53578401869042">
        <ele>10.648379003629088</ele>
        <time>2024-10-15T14:28:42Z</time>
      </trkpt>
      <trkpt lat="24.918321932829983" lon="118.53606535938503">
        <ele>10.260549890808761</ele>
        <time>2024-10-15T14:28:51Z</time>
      </trkpt>
      <trkpt lat="24.918272789071644" lon="118.53614371847165">
        <ele>10.397679111920297</ele>
        <time>2024-10-15T14:28:54Z</time>
      </trkpt>
      <trkpt lat="24.91824114758652" lon="118.53624643011891">
        <ele>11.249527153559029</ele>
        <time>2024-10-15T14:28:57Z</time>
      </trkpt>
      <trkpt lat="24.918142996679045" lon="118.5364250589582">
        <ele>9.937802694737911</ele>
        <time>2024-10-15T14:29:03Z</time>
      </trkpt>
      <trkpt lat="24.91803909075283" lon="118.53670857156968">
        <ele>10.306838667020202</ele>
        <time>2024-10-15T14:29:12Z</time>
      </trkpt>
      <trkpt lat="24.91795003344474" lon="118.53692677847495">
        <ele>9.959486379288137</ele>
        <time>2024-10-15T14:29:21Z</time>
      </trkpt>
      <trkpt lat="24.91793118688792" lon="118.5370112660411">
        <ele>10.259317857213318</ele>
        <time>2024-10-15T14:29:24Z</time>
      </trkpt>
      <trkpt lat="24.91789544704637" lon="118.53708092088121">
        <ele>9.87889158539474</ele>
        <time>2024-10-15T14:29:27Z</time>
      </trkpt>
      <trkpt lat="24.917825553727617" lon="118.53715724382758">
        <ele>9.711916604079306</ele>
        <time>2024-10-15T14:29:30Z</time>
      </trkpt>
      <trkpt lat="24.917706016195606" lon="118.53735655952379">
        <ele>10.07087931316346</ele>
        <time>2024-10-15T14:29:36Z</time>
      </trkpt>
      <trkpt lat="24.917660052955473" lon="118.53746308466708">
        <ele>10.31799371726811</ele>
        <time>2024-10-15T14:29:39Z</time>
      </trkpt>
      <trkpt lat="24.91759145099476" lon="118.53754653053991">
        <ele>10.21587971970439</ele>
        <time>2024-10-15T14:29:42Z</time>
      </trkpt>
      <trkpt lat="24.91747534973548" lon="118.53785021700817">
        <ele>10.316280914470553</ele>
        <time>2024-10-15T14:29:51Z</time>
      </trkpt>
      <trkpt lat="24.917429101779916" lon="118.53805797848905">
        <ele>10.219041869975626</ele>
        <time>2024-10-15T14:29:57Z</time>
      </trkpt>
      <trkpt lat="24.91734682410419" lon="118.53825409456658">
        <ele>10.094320823438466</ele>
        <time>2024-10-15T14:30:03Z</time>
      </trkpt>
      <trkpt lat="24.917335340263207" lon="118.53835089756706">
        <ele>9.988270265050232</ele>
        <time>2024-10-15T14:30:06Z</time>
      </trkpt>
      <trkpt lat="24.9173461182184" lon="118.538463966601">
        <ele>9.815654243342578</ele>
        <time>2024-10-15T14:30:09Z</time>
      </trkpt>
      <trkpt lat="24.917323217587963" lon="118.5385607090464">
        <ele>9.883002147078514</ele>
        <time>2024-10-15T14:30:12Z</time>
      </trkpt>
      <trkpt lat="24.917270249290993" lon="118.5386414582859">
        <ele>9.601076686754823</ele>
        <time>2024-10-15T14:30:15Z</time>
      </trkpt>
      <trkpt lat="24.917221771740568" lon="118.53883242951441">
        <ele>10.040200873278081</ele>
        <time>2024-10-15T14:30:21Z</time>
      </trkpt>
      <trkpt lat="24.917225403757296" lon="118.5389475308073">
        <ele>9.689139157533646</ele>
        <time>2024-10-15T14:30:24Z</time>
      </trkpt>
      <trkpt lat="24.917201198893707" lon="118.5391538536509">
        <ele>9.777056316845119</ele>
        <time>2024-10-15T14:30:30Z</time>
      </trkpt>
      <trkpt lat="24.917140381115583" lon="118.53936405825738">
        <ele>10.040456801652908</ele>
        <time>2024-10-15T14:30:36Z</time>
      </trkpt>
      <trkpt lat="24.917156231115115" lon="118.53960604409298">
        <ele>10.212951974011958</ele>
        <time>2024-10-15T14:30:42Z</time>
      </trkpt>
      <trkpt lat="24.917121191490534" lon="118.53970951630771">
        <ele>10.42969778738916</ele>
        <time>2024-10-15T14:30:45Z</time>
      </trkpt>
      <trkpt lat="24.91703379976855" lon="118.5397825333516">
        <ele>9.89941134955734</ele>
        <time>2024-10-15T14:30:48Z</time>
      </trkpt>
      <trkpt lat="24.916983816490482" lon="118.53986120319254">
        <ele>10.113298022188246</ele>
        <time>2024-10-15T14:30:51Z</time>
      </trkpt>
      <trkpt lat="24.9168679654748" lon="118.53991788924449">
        <ele>10.184376518242061</ele>
        <time>2024-10-15T14:30:54Z</time>
      </trkpt>
      <trkpt lat="24.916739447255136" lon="118.53994816690219">
        <ele>9.724516043439507</ele>
        <time>2024-10-15T14:30:57Z</time>
      </trkpt>
      <trkpt lat="24.916576018877688" lon="118.54013164251391">
        <ele>10.28327071107924</ele>
        <time>2024-10-15T14:31:03Z</time>
      </trkpt>
      <trkpt lat="24.916479703325017" lon="118.54045445116171">
        <ele>11.37907767482102</ele>
        <time>2024-10-15T14:31:12Z</time>
      </trkpt>
      <trkpt lat="24.916473948233502" lon="118.54079217611933">
        <ele>12.943716232664883</ele>
        <time>2024-10-15T14:31:21Z</time>
      </trkpt>
      <trkpt lat="24.916472230539565" lon="118.54089039383557">
        <ele>12.728356055915356</ele>
        <time>2024-10-15T14:31:24Z</time>
      </trkpt>
      <trkpt lat="24.916526463345452" lon="118.54110033498485">
        <ele>13.385111666284502</ele>
        <time>2024-10-15T14:31:30Z</time>
      </trkpt>
      <trkpt lat="24.916536902901814" lon="118.54120129340409">
        <ele>12.836590017192066</ele>
        <time>2024-10-15T14:31:33Z</time>
      </trkpt>
      <trkpt lat="24.916677067581325" lon="118.54147677209134">
        <ele>13.071633532643318</ele>
        <time>2024-10-15T14:31:42Z</time>
      </trkpt>
      <trkpt lat="24.916735796331427" lon="118.54155367579537">
        <ele>12.87112732231617</ele>
        <time>2024-10-15T14:31:45Z</time>
      </trkpt>
      <trkpt lat="24.916713451150446" lon="118.54167333835287">
        <ele>12.881661199964583</ele>
        <time>2024-10-15T14:31:48Z</time>
      </trkpt>
      <trkpt lat="24.916663542338576" lon="118.54179511716987">
        <ele>12.470194955356419</ele>
        <time>2024-10-15T14:31:51Z</time>
      </trkpt>
      <trkpt lat="24.91651104468587" lon="118.5419604318511">
        <ele>11.61602318007499</ele>
        <time>2024-10-15T14:31:57Z</time>
      </trkpt>
      <trkpt lat="24.916404292107195" lon="118.5419720795343">
        <ele>11.37374827824533</ele>
        <time>2024-10-15T14:32:00Z</time>
      </trkpt>
      <trkpt lat="24.91610504666871" lon="118.5421124442363">
        <ele>12.7938985330984</ele>
        <time>2024-10-15T14:32:09Z</time>
      </trkpt>
      <trkpt lat="24.91579361896408" lon="118.5422429579332">
        <ele>12.910462139174342</ele>
        <time>2024-10-15T14:32:18Z</time>
      </trkpt>
      <trkpt lat="24.915492093753816" lon="118.54236556923468">
        <ele>13.023761793971062</ele>
        <time>2024-10-15T14:32:27Z</time>
      </trkpt>
      <trkpt lat="24.915302713737685" lon="118.5424034531782">
        <ele>13.236455916427076</ele>
        <time>2024-10-15T14:32:33Z</time>
      </trkpt>
      <trkpt lat="24.915206904855797" lon="118.54244976885315">
        <ele>12.737395904958248</ele>
        <time>2024-10-15T14:32:36Z</time>
      </trkpt>
      <trkpt lat="24.914940212767995" lon="118.54246516646779">
        <ele>11.248578952625394</ele>
        <time>2024-10-15T14:32:45Z</time>
      </trkpt>
      <trkpt lat="24.91485483423162" lon="118.54249502967843">
        <ele>10.982874849811196</ele>
        <time>2024-10-15T14:32:48Z</time>
      </trkpt>
      <trkpt lat="24.914604040769373" lon="118.54262689189639">
        <ele>10.113114452920854</ele>
        <time>2024-10-15T14:32:58Z</time>
      </trkpt>
      <trkpt lat="24.914529203956636" lon="118.54257043283452">
        <ele>9.912174692377448</ele>
        <time>2024-10-15T14:33:01Z</time>
      </trkpt>
      <trkpt lat="24.914442776810695" lon="118.54254676334703">
        <ele>10.190124207176268</ele>
        <time>2024-10-15T14:33:04Z</time>
      </trkpt>
      <trkpt lat="24.914201145680153" lon="118.54261720598936">
        <ele>9.979378819465637</ele>
        <time>2024-10-15T14:33:13Z</time>
      </trkpt>
      <trkpt lat="24.91387055866133" lon="118.5426361346658">
        <ele>9.453440521843731</ele>
        <time>2024-10-15T14:33:22Z</time>
      </trkpt>
      <trkpt lat="24.913675144702758" lon="118.54267809584975">
        <ele>9.570387784391642</ele>
        <time>2024-10-15T14:33:28Z</time>
      </trkpt>
      <trkpt lat="24.91349079903691" lon="118.54276370174125">
        <ele>8.914613965898752</ele>
        <time>2024-10-15T14:33:34Z</time>
      </trkpt>
      <trkpt lat="24.91323598744257" lon="118.54281378777915">
        <ele>8.685861482284963</ele>
        <time>2024-10-15T14:33:42Z</time>
      </trkpt>
      <trkpt lat="24.913113459303457" lon="118.54285606375092">
        <ele>8.353198683820665</ele>
        <time>2024-10-15T14:33:46Z</time>
      </trkpt>
      <trkpt lat="24.912807219822348" lon="118.54290365984377">
        <ele>8.541405177675188</ele>
        <time>2024-10-15T14:33:56Z</time>
      </trkpt>
      <trkpt lat="24.91251838729776" lon="118.54298541563922">
        <ele>8.433868449181318</ele>
        <time>2024-10-15T14:34:05Z</time>
      </trkpt>
      <trkpt lat="24.91219185484935" lon="118.54309148181575">
        <ele>7.877176237292588</ele>
        <time>2024-10-15T14:34:17Z</time>
      </trkpt>
      <trkpt lat="24.91193411238437" lon="118.54316851265334">
        <ele>7.830845745280385</ele>
        <time>2024-10-15T14:34:26Z</time>
      </trkpt>
      <trkpt lat="24.91158457274658" lon="118.54322472543153">
        <ele>8.83057809714228</ele>
        <time>2024-10-15T14:34:38Z</time>
      </trkpt>
      <trkpt lat="24.911312733559754" lon="118.5432801906879">
        <ele>8.51408654358238</ele>
        <time>2024-10-15T14:34:47Z</time>
      </trkpt>
      <trkpt lat="24.911011799898894" lon="118.54330229041673">
        <ele>7.767010075040162</ele>
        <time>2024-10-15T14:34:56Z</time>
      </trkpt>
      <trkpt lat="24.91081479484051" lon="118.54333478787579">
        <ele>7.724669944494963</ele>
        <time>2024-10-15T14:35:02Z</time>
      </trkpt>
      <trkpt lat="24.910623470858564" lon="118.54332996188649">
        <ele>7.650668120011687</ele>
        <time>2024-10-15T14:35:08Z</time>
      </trkpt>
      <trkpt lat="24.910259135188596" lon="118.54334812619523">
        <ele>7.358158460818231</ele>
        <time>2024-10-15T14:35:20Z</time>
      </trkpt>
      <trkpt lat="24.909970599513144" lon="118.54339103625821">
        <ele>7.3273218078538775</ele>
        <time>2024-10-15T14:35:29Z</time>
      </trkpt>
      <trkpt lat="24.90965868982057" lon="118.54338654044672">
        <ele>7.69219371303916</ele>
        <time>2024-10-15T14:35:38Z</time>
      </trkpt>
      <trkpt lat="24.90931379421953" lon="118.54338543220717">
        <ele>7.1657340014353395</ele>
        <time>2024-10-15T14:35:49Z</time>
      </trkpt>
      <trkpt lat="24.909025209556606" lon="118.54337609287792">
        <ele>7.923251092433929</ele>
        <time>2024-10-15T14:35:58Z</time>
      </trkpt>
      <trkpt lat="24.90881733615058" lon="118.54336047052632">
        <ele>7.5457009533420205</ele>
        <time>2024-10-15T14:36:04Z</time>
      </trkpt>
      <trkpt lat="24.908540604053577" lon="118.5433772613131">
        <ele>7.879789826460183</ele>
        <time>2024-10-15T14:36:13Z</time>
      </trkpt>
      <trkpt lat="24.908352483522243" lon="118.54338812776062">
        <ele>7.344877710565925</ele>
        <time>2024-10-15T14:36:19Z</time>
      </trkpt>
      <trkpt lat="24.908124674272266" lon="118.54336050078224">
        <ele>7.68201725371182</ele>
        <time>2024-10-15T14:36:28Z</time>
      </trkpt>
      <trkpt lat="24.90784198509734" lon="118.54339325848726">
        <ele>7.669089595787227</ele>
        <time>2024-10-15T14:36:37Z</time>
      </trkpt>
      <trkpt lat="24.907613870508452" lon="118.54339001469988">
        <ele>7.578136369585991</ele>
        <time>2024-10-15T14:36:43Z</time>
      </trkpt>
      <trkpt lat="24.90752445081323" lon="118.54333620397121">
        <ele>7.921205905266106</ele>
        <time>2024-10-15T14:36:46Z</time>
      </trkpt>
      <trkpt lat="24.907475932595702" lon="118.5432497628526">
        <ele>7.665372246876359</ele>
        <time>2024-10-15T14:36:49Z</time>
      </trkpt>
      <trkpt lat="24.9075452295534" lon="118.54293332558073">
        <ele>7.374710236676037</ele>
        <time>2024-10-15T14:36:58Z</time>
      </trkpt>
      <trkpt lat="24.907623826080755" lon="118.54263737302136">
        <ele>7.695391988381743</ele>
        <time>2024-10-15T14:37:07Z</time>
      </trkpt>
      <trkpt lat="24.907721808879703" lon="118.54234881956306">
        <ele>8.471936747431755</ele>
        <time>2024-10-15T14:37:16Z</time>
      </trkpt>
      <trkpt lat="24.90783908674072" lon="118.5420274543705">
        <ele>8.607793027535081</ele>
        <time>2024-10-15T14:37:25Z</time>
      </trkpt>
      <trkpt lat="24.90789809282177" lon="118.54183321997077">
        <ele>9.014327478595078</ele>
        <time>2024-10-15T14:37:31Z</time>
      </trkpt>
      <trkpt lat="24.907923672587582" lon="118.54166994142533">
        <ele>9.730959001928568</ele>
        <time>2024-10-15T14:37:37Z</time>
      </trkpt>
      <trkpt lat="24.907968550228148" lon="118.5415863368928">
        <ele>9.688500754535198</ele>
        <time>2024-10-15T14:37:40Z</time>
      </trkpt>
      <trkpt lat="24.908034888601158" lon="118.541279835296">
        <ele>10.136111455969512</ele>
        <time>2024-10-15T14:37:50Z</time>
      </trkpt>
      <trkpt lat="24.90811867398885" lon="118.54101375976752">
        <ele>10.099884836003184</ele>
        <time>2024-10-15T14:37:57Z</time>
      </trkpt>
      <trkpt lat="24.90826366751399" lon="118.54079928738825">
        <ele>8.731723312288523</ele>
        <time>2024-10-15T14:38:04Z</time>
      </trkpt>
      <trkpt lat="24.908445419807656" lon="118.54066501123772">
        <ele>8.418818485923111</ele>
        <time>2024-10-15T14:38:10Z</time>
      </trkpt>
      <trkpt lat="24.908519859905976" lon="118.54056435703914">
        <ele>8.08544166572392</ele>
        <time>2024-10-15T14:38:13Z</time>
      </trkpt>
      <trkpt lat="24.908572987320582" lon="118.54044294914738">
        <ele>8.418695501051843</ele>
        <time>2024-10-15T14:38:16Z</time>
      </trkpt>
      <trkpt lat="24.908640699339788" lon="118.54017997272989">
        <ele>7.99565252289176</ele>
        <time>2024-10-15T14:38:22Z</time>
      </trkpt>
      <trkpt lat="24.90868801976999" lon="118.54006282285071">
        <ele>8.025146822445095</ele>
        <time>2024-10-15T14:38:25Z</time>
      </trkpt>
      <trkpt lat="24.9088046204955" lon="118.53986000113359">
        <ele>7.613557638600469</ele>
        <time>2024-10-15T14:38:31Z</time>
      </trkpt>
      <trkpt lat="24.90882219993368" lon="118.5396495975342">
        <ele>8.214159479364753</ele>
        <time>2024-10-15T14:38:37Z</time>
      </trkpt>
      <trkpt lat="24.9088591082165" lon="118.53954440415302">
        <ele>8.086657618172467</ele>
        <time>2024-10-15T14:38:40Z</time>
      </trkpt>
      <trkpt lat="24.90885515822722" lon="118.53944500462649">
        <ele>8.422124749980867</ele>
        <time>2024-10-15T14:38:43Z</time>
      </trkpt>
      <trkpt lat="24.908819458824556" lon="118.53935869716503">
        <ele>7.836208302527666</ele>
        <time>2024-10-15T14:38:46Z</time>
      </trkpt>
      <trkpt lat="24.908822864008677" lon="118.53919383402291">
        <ele>7.659725900739431</ele>
        <time>2024-10-15T14:38:52Z</time>
      </trkpt>
      <trkpt lat="24.90893356417565" lon="118.53894639201138">
        <ele>7.200148801319301</ele>
        <time>2024-10-15T14:39:04Z</time>
      </trkpt>
      <trkpt lat="24.909022673429547" lon="118.53859085098453">
        <ele>7.748251531273127</ele>
        <time>2024-10-15T14:39:13Z</time>
      </trkpt>
      <trkpt lat="24.9090932002994" lon="118.53823819470105">
        <ele>7.793830819427967</ele>
        <time>2024-10-15T14:39:22Z</time>
      </trkpt>
      <trkpt lat="24.90912485775833" lon="118.53801116552455">
        <ele>8.362518092617393</ele>
        <time>2024-10-15T14:39:28Z</time>
      </trkpt>
      <trkpt lat="24.909196793693376" lon="118.53779963077197">
        <ele>8.494328116998076</ele>
        <time>2024-10-15T14:39:34Z</time>
      </trkpt>
      <trkpt lat="24.909249843824398" lon="118.53756949015269">
        <ele>8.75086887460202</ele>
        <time>2024-10-15T14:39:40Z</time>
      </trkpt>
      <trkpt lat="24.90935309440066" lon="118.53739362414082">
        <ele>10.095485148020089</ele>
        <time>2024-10-15T14:39:46Z</time>
      </trkpt>
      <trkpt lat="24.909315039415358" lon="118.5372271737513">
        <ele>10.453607235103846</ele>
        <time>2024-10-15T14:39:52Z</time>
      </trkpt>
      <trkpt lat="24.90938518879396" lon="118.53696973745234">
        <ele>9.936803803779185</ele>
        <time>2024-10-15T14:39:59Z</time>
      </trkpt>
      <trkpt lat="24.90943173316158" lon="118.53687798302575">
        <ele>10.38895590417087</ele>
        <time>2024-10-15T14:40:02Z</time>
      </trkpt>
      <trkpt lat="24.909523133508653" lon="118.53648256506132">
        <ele>10.505416515283287</ele>
        <time>2024-10-15T14:40:13Z</time>
      </trkpt>
      <trkpt lat="24.90958829642484" lon="118.53625962160037">
        <ele>10.480848192237318</ele>
        <time>2024-10-15T14:40:19Z</time>
      </trkpt>
      <trkpt lat="24.909580432357306" lon="118.5361572228659">
        <ele>10.277508683502674</ele>
        <time>2024-10-15T14:40:22Z</time>
      </trkpt>
      <trkpt lat="24.909599524264888" lon="118.53606009895337">
        <ele>10.11020088661462</ele>
        <time>2024-10-15T14:40:25Z</time>
      </trkpt>
      <trkpt lat="24.909593230247953" lon="118.53594513217895">
        <ele>10.275750862434506</ele>
        <time>2024-10-15T14:40:28Z</time>
      </trkpt>
      <trkpt lat="24.9096529828795" lon="118.53562987295123">
        <ele>10.10267770010978</ele>
        <time>2024-10-15T14:40:37Z</time>
      </trkpt>
      <trkpt lat="24.909727523277727" lon="118.535302291611">
        <ele>10.100384454242885</ele>
        <time>2024-10-15T14:40:46Z</time>
      </trkpt>
      <trkpt lat="24.909744913425282" lon="118.53498698188406">
        <ele>8.685580344870687</ele>
        <time>2024-10-15T14:40:55Z</time>
      </trkpt>
      <trkpt lat="24.90975717942997" lon="118.53467067614497">
        <ele>7.9334938414394855</ele>
        <time>2024-10-15T14:41:04Z</time>
      </trkpt>
      <trkpt lat="24.909820869992902" lon="118.53447811781695">
        <ele>7.942397728562355</ele>
        <time>2024-10-15T14:41:10Z</time>
      </trkpt>
      <trkpt lat="24.909832411076696" lon="118.53437760345491">
        <ele>7.4625456323847175</ele>
        <time>2024-10-15T14:41:13Z</time>
      </trkpt>
      <trkpt lat="24.909819112927167" lon="118.53427646275027">
        <ele>7.529299898073077</ele>
        <time>2024-10-15T14:41:16Z</time>
      </trkpt>
      <trkpt lat="24.909841031787675" lon="118.53396340776973">
        <ele>8.164153380319476</ele>
        <time>2024-10-15T14:41:25Z</time>
      </trkpt>
      <trkpt lat="24.909870706594646" lon="118.53386321277513">
        <ele>8.757598572410643</ele>
        <time>2024-10-15T14:41:28Z</time>
      </trkpt>
      <trkpt lat="24.90993351620368" lon="118.53379892364968">
        <ele>8.762330876663327</ele>
        <time>2024-10-15T14:41:31Z</time>
      </trkpt>
      <trkpt lat="24.91020246408671" lon="118.53373565679206">
        <ele>9.74739454407245</ele>
        <time>2024-10-15T14:41:40Z</time>
      </trkpt>
      <trkpt lat="24.91038772592947" lon="118.5337111814015">
        <ele>10.294124444946647</ele>
        <time>2024-10-15T14:41:46Z</time>
      </trkpt>
      <trkpt lat="24.910481796876127" lon="118.53373057973175">
        <ele>10.521153786219656</ele>
        <time>2024-10-15T14:41:49Z</time>
      </trkpt>
      <trkpt lat="24.910776104608583" lon="118.53371738242684">
        <ele>10.683743691071868</ele>
        <time>2024-10-15T14:41:58Z</time>
      </trkpt>
      <trkpt lat="24.910906481168283" lon="118.53374011473842">
        <ele>10.14928207360208</ele>
        <time>2024-10-15T14:42:02Z</time>
      </trkpt>
      <trkpt lat="24.911218120074665" lon="118.53374035600582">
        <ele>10.986588874831796</ele>
        <time>2024-10-15T14:42:12Z</time>
      </trkpt>
      <trkpt lat="24.911512355436006" lon="118.53375183291445">
        <ele>10.263111302629113</ele>
        <time>2024-10-15T14:42:22Z</time>
      </trkpt>
      <trkpt lat="24.91181141875448" lon="118.53375051878454">
        <ele>10.707234575413167</ele>
        <time>2024-10-15T14:42:31Z</time>
      </trkpt>
      <trkpt lat="24.912023618143103" lon="118.53376389676606">
        <ele>10.77183301281184</ele>
        <time>2024-10-15T14:42:37Z</time>
      </trkpt>
      <trkpt lat="24.9123297328836" lon="118.53375827916453">
        <ele>10.701026503928006</ele>
        <time>2024-10-15T14:42:46Z</time>
      </trkpt>
      <trkpt lat="24.912657074758975" lon="118.53377864094155">
        <ele>10.550477323122323</ele>
        <time>2024-10-15T14:42:58Z</time>
      </trkpt>
      <trkpt lat="24.912851958686137" lon="118.53378539420889">
        <ele>10.521797656081617</ele>
        <time>2024-10-15T14:43:04Z</time>
      </trkpt>
      <trkpt lat="24.913144507010472" lon="118.5338669030218">
        <ele>10.347332848235965</ele>
        <time>2024-10-15T14:43:13Z</time>
      </trkpt>
      <trkpt lat="24.913422461997097" lon="118.53389365452114">
        <ele>9.814792515709996</ele>
        <time>2024-10-15T14:43:22Z</time>
      </trkpt>
      <trkpt lat="24.913690277025943" lon="118.53394035499382">
        <ele>10.305533537641168</ele>
        <time>2024-10-15T14:43:31Z</time>
      </trkpt>
      <trkpt lat="24.913974115079895" lon="118.53397022775152">
        <ele>10.535753153264523</ele>
        <time>2024-10-15T14:43:40Z</time>
      </trkpt>
      <trkpt lat="24.914145624331404" lon="118.53397656073186">
        <ele>10.291847351007164</ele>
        <time>2024-10-15T14:43:46Z</time>
      </trkpt>
      <trkpt lat="24.914436850054532" lon="118.53403814879836">
        <ele>11.905762386508286</ele>
        <time>2024-10-15T14:43:55Z</time>
      </trkpt>
      <trkpt lat="24.91462286711823" lon="118.5340730579577">
        <ele>12.051093257963657</ele>
        <time>2024-10-15T14:44:01Z</time>
      </trkpt>
      <trkpt lat="24.914708553801056" lon="118.5340721229808">
        <ele>12.460865030065179</ele>
        <time>2024-10-15T14:44:04Z</time>
      </trkpt>
      <trkpt lat="24.914809269768188" lon="118.53411485567288">
        <ele>12.269092408940196</ele>
        <time>2024-10-15T14:44:08Z</time>
      </trkpt>
      <trkpt lat="24.91508317016119" lon="118.53415108275553">
        <ele>12.847252294421196</ele>
        <time>2024-10-15T14:44:16Z</time>
      </trkpt>
      <trkpt lat="24.915389951489725" lon="118.53418635383807">
        <ele>12.800506570376456</ele>
        <time>2024-10-15T14:44:26Z</time>
      </trkpt>
      <trkpt lat="24.91554555336859" lon="118.53419425172119">
        <ele>13.005206370726228</ele>
        <time>2024-10-15T14:44:32Z</time>
      </trkpt>
      <trkpt lat="24.91562534970994" lon="118.53421905999653">
        <ele>12.877721501514316</ele>
        <time>2024-10-15T14:44:35Z</time>
      </trkpt>
      <trkpt lat="24.915920614141665" lon="118.5342611453388">
        <ele>12.544354155659676</ele>
        <time>2024-10-15T14:44:44Z</time>
      </trkpt>
      <trkpt lat="24.916218485913827" lon="118.53432016162007">
        <ele>12.37582557182759</ele>
        <time>2024-10-15T14:44:53Z</time>
      </trkpt>
      <trkpt lat="24.916514151845963" lon="118.53436605061204">
        <ele>13.2347427373752</ele>
        <time>2024-10-15T14:45:02Z</time>
      </trkpt>
      <trkpt lat="24.916840728520416" lon="118.53444623046506">
        <ele>14.642411887645721</ele>
        <time>2024-10-15T14:45:14Z</time>
      </trkpt>
      <trkpt lat="24.917164601728746" lon="118.53452153338111">
        <ele>14.418809090740979</ele>
        <time>2024-10-15T14:45:26Z</time>
      </trkpt>
      <trkpt lat="24.917511625052672" lon="118.53458605953017">
        <ele>14.604430021718144</ele>
        <time>2024-10-15T14:45:35Z</time>
      </trkpt>
      <trkpt lat="24.91772475370032" lon="118.53463855765331">
        <ele>14.837257348932326</ele>
        <time>2024-10-15T14:45:41Z</time>
      </trkpt>
      <trkpt lat="24.91804575905517" lon="118.53470012660337">
        <ele>13.828994126990438</ele>
        <time>2024-10-15T14:45:50Z</time>
      </trkpt>
      <trkpt lat="24.91833293771009" lon="118.53478876298458">
        <ele>13.195498261600733</ele>
        <time>2024-10-15T14:45:59Z</time>
      </trkpt>
      <trkpt lat="24.918507912240603" lon="118.5349083680143">
        <ele>12.723189619369805</ele>
        <time>2024-10-15T14:46:05Z</time>
      </trkpt>
      <trkpt lat="24.918577195897438" lon="118.53499268384782">
        <ele>12.840001895092428</ele>
        <time>2024-10-15T14:46:08Z</time>
      </trkpt>
      <trkpt lat="24.918618838059945" lon="118.53509392865548">
        <ele>12.000697617419064</ele>
        <time>2024-10-15T14:46:11Z</time>
      </trkpt>
      <trkpt lat="24.918631883434013" lon="118.53524065855436">
        <ele>11.47085539251566</ele>
        <time>2024-10-15T14:46:15Z</time>
      </trkpt>
      <trkpt lat="24.918515927903485" lon="118.53556763431727">
        <ele>10.363906621932983</ele>
        <time>2024-10-15T14:46:25Z</time>
      </trkpt>
      <trkpt lat="24.918411055863455" lon="118.53584789219619">
        <ele>10.053408864885569</ele>
        <time>2024-10-15T14:46:34Z</time>
      </trkpt>
      <trkpt lat="24.91823913246229" lon="118.5362020583263">
        <ele>9.97509594541043</ele>
        <time>2024-10-15T14:46:46Z</time>
      </trkpt>
      <trkpt lat="24.918189180422566" lon="118.53628610815043">
        <ele>10.227938737720251</ele>
        <time>2024-10-15T14:46:49Z</time>
      </trkpt>
      <trkpt lat="24.918077886761527" lon="118.53658817244389">
        <ele>9.713436919264495</ele>
        <time>2024-10-15T14:46:58Z</time>
      </trkpt>
      <trkpt lat="24.918058353151896" lon="118.53667124381106">
        <ele>10.002164195291698</ele>
        <time>2024-10-15T14:47:01Z</time>
      </trkpt>
      <trkpt lat="24.917954718232547" lon="118.53693534469102">
        <ele>10.441679243929684</ele>
        <time>2024-10-15T14:47:10Z</time>
      </trkpt>
      <trkpt lat="24.91781405683663" lon="118.53720382348175">
        <ele>9.521459626033902</ele>
        <time>2024-10-15T14:47:19Z</time>
      </trkpt>
      <trkpt lat="24.91762875080539" lon="118.53751076656184">
        <ele>9.58430256601423</ele>
        <time>2024-10-15T14:47:31Z</time>
      </trkpt>
      <trkpt lat="24.917480194337827" lon="118.5378331432617">
        <ele>9.638056081719697</ele>
        <time>2024-10-15T14:47:40Z</time>
      </trkpt>
      <trkpt lat="24.917438452087378" lon="118.53793251673781">
        <ele>9.80016156565398</ele>
        <time>2024-10-15T14:47:43Z</time>
      </trkpt>
      <trkpt lat="24.917406289261578" lon="118.53817432239111">
        <ele>9.92514537088573</ele>
        <time>2024-10-15T14:47:49Z</time>
      </trkpt>
      <trkpt lat="24.917373891689678" lon="118.53827030733203">
        <ele>9.959646889939904</ele>
        <time>2024-10-15T14:47:52Z</time>
      </trkpt>
      <trkpt lat="24.917379474678764" lon="118.53838701853343">
        <ele>9.88851192779839</ele>
        <time>2024-10-15T14:47:55Z</time>
      </trkpt>
      <trkpt lat="24.91736175211111" lon="118.53850199190008">
        <ele>10.060193246230483</ele>
        <time>2024-10-15T14:47:58Z</time>
      </trkpt>
      <trkpt lat="24.91725110488695" lon="118.53879017456254">
        <ele>9.695917898789048</ele>
        <time>2024-10-15T14:48:07Z</time>
      </trkpt>
      <trkpt lat="24.917199189748644" lon="118.53911454379752">
        <ele>10.03687132615596</ele>
        <time>2024-10-15T14:48:16Z</time>
      </trkpt>
      <trkpt lat="24.917158372408778" lon="118.5392530227262">
        <ele>9.568024152889848</ele>
        <time>2024-10-15T14:48:20Z</time>
      </trkpt>
      <trkpt lat="24.916992966467472" lon="118.539635385672">
        <ele>10.320512099191546</ele>
        <time>2024-10-15T14:48:31Z</time>
      </trkpt>
      <trkpt lat="24.916958146306722" lon="118.53970169128648">
        <ele>10.309036627411842</ele>
        <time>2024-10-15T14:48:34Z</time>
      </trkpt>
      <trkpt lat="24.91684437400321" lon="118.53979724799468">
        <ele>10.044160649180412</ele>
        <time>2024-10-15T14:48:40Z</time>
      </trkpt>
      <trkpt lat="24.916653222060365" lon="118.53989226202665">
        <ele>9.576360134407878</ele>
        <time>2024-10-15T14:48:46Z</time>
      </trkpt>
      <trkpt lat="24.916591091222564" lon="118.5399985560951">
        <ele>9.971608961001039</ele>
        <time>2024-10-15T14:48:49Z</time>
      </trkpt>
      <trkpt lat="24.91654778238576" lon="118.54024352293379">
        <ele>10.583942593075335</ele>
        <time>2024-10-15T14:48:55Z</time>
      </trkpt>
      <trkpt lat="24.916509368768008" lon="118.54037192047133">
        <ele>10.515947533771396</ele>
        <time>2024-10-15T14:48:58Z</time>
      </trkpt>
      <trkpt lat="24.916459752730713" lon="118.54073428876656">
        <ele>12.458031388930976</ele>
        <time>2024-10-15T14:49:07Z</time>
      </trkpt>
      <trkpt lat="24.91650879188033" lon="118.54107715496617">
        <ele>13.024475009180605</ele>
        <time>2024-10-15T14:49:16Z</time>
      </trkpt>
      <trkpt lat="24.91664518928856" lon="118.5413714467584">
        <ele>13.338827113620937</ele>
        <time>2024-10-15T14:49:25Z</time>
      </trkpt>
      <trkpt lat="24.916708032744484" lon="118.54145729475741">
        <ele>12.205144197680056</ele>
        <time>2024-10-15T14:49:28Z</time>
      </trkpt>
      <trkpt lat="24.916780852995366" lon="118.54152593042829">
        <ele>12.257904458791018</ele>
        <time>2024-10-15T14:49:31Z</time>
      </trkpt>
      <trkpt lat="24.91669958328174" lon="118.5416468825698">
        <ele>11.629967582412064</ele>
        <time>2024-10-15T14:49:34Z</time>
      </trkpt>
      <trkpt lat="24.916647356985322" lon="118.54176802202086">
        <ele>11.458423771895468</ele>
        <time>2024-10-15T14:49:37Z</time>
      </trkpt>
      <trkpt lat="24.91657050321571" lon="118.54186370321005">
        <ele>11.612627297639847</ele>
        <time>2024-10-15T14:49:40Z</time>
      </trkpt>
      <trkpt lat="24.91648095959724" lon="118.54194218760846">
        <ele>10.948161919601262</ele>
        <time>2024-10-15T14:49:43Z</time>
      </trkpt>
      <trkpt lat="24.916168457822412" lon="118.54204340711246">
        <ele>12.251679521985352</ele>
        <time>2024-10-15T14:49:52Z</time>
      </trkpt>
      <trkpt lat="24.915982729711228" lon="118.54213471848601">
        <ele>12.874605274759233</ele>
        <time>2024-10-15T14:49:58Z</time>
      </trkpt>
      <trkpt lat="24.915881217565815" lon="118.5421614547015">
        <ele>12.969785054214299</ele>
        <time>2024-10-15T14:50:01Z</time>
      </trkpt>
    </trkseg>
  </trk>
</gpx>