<?xml version="1.0" encoding="UTF-8"?>
<gpx xmlns="http://www.topografix.com/GPX/1/1" xmlns:gpxtpx="http://www.garmin.com/xmlschemas/TrackPointExtension/v1" xmlns:xsi="http://www.w3.org/2001/XMLSchema-instance" xsi:schemaLocation="http://www.topografix.com/GPX/1/1 http://www.topografix.com/GPX/1/1/gpx.xsd" version="1.1" creator="gpx.py -- https://github.com/tkrajina/gpxpy">
  <trk>
    <name>gpx from keep</name>
    <type>Run</type>
    <trkseg>
      <trkpt lat="24.91076249814478" lon="118.53855981907357">
        <ele>35.33155512935106</ele>
        <time>2024-03-03T14:29:19Z</time>
      </trkpt>
      <trkpt lat="24.91049639596599" lon="118.53849867606635">
        <ele>31.731346275647375</ele>
        <time>2024-03-03T14:29:28Z</time>
      </trkpt>
      <trkpt lat="24.91030728523668" lon="118.53843853021183">
        <ele>33.893741659918184</ele>
        <time>2024-03-03T14:29:34Z</time>
      </trkpt>
      <trkpt lat="24.910205274285296" lon="118.53842750814927">
        <ele>35.27861141853789</ele>
        <time>2024-03-03T14:29:37Z</time>
      </trkpt>
      <trkpt lat="24.910018135689505" lon="118.53835533015045">
        <ele>35.442736589081996</ele>
        <time>2024-03-03T14:29:43Z</time>
      </trkpt>
      <trkpt lat="24.909671142731277" lon="118.53833730653702">
        <ele>34.203369496384035</ele>
        <time>2024-03-03T14:29:55Z</time>
      </trkpt>
      <trkpt lat="24.909580121053736" lon="118.53832227304582">
        <ele>34.6192252556542</ele>
        <time>2024-03-03T14:29:58Z</time>
      </trkpt>
      <trkpt lat="24.909393151602533" lon="118.53832429138343">
        <ele>35.56368250204744</ele>
        <time>2024-03-03T14:30:04Z</time>
      </trkpt>
      <trkpt lat="24.909317095788733" lon="118.5382952196515">
        <ele>35.90823031256491</ele>
        <time>2024-03-03T14:30:07Z</time>
      </trkpt>
      <trkpt lat="24.909296956585248" lon="118.53823305626604">
        <ele>34.801813300802834</ele>
        <time>2024-03-03T14:30:10Z</time>
      </trkpt>
      <trkpt lat="24.90930757660471" lon="118.53806761629787">
        <ele>36.367957196247104</ele>
        <time>2024-03-03T14:30:16Z</time>
      </trkpt>
      <trkpt lat="24.909383960879534" lon="118.53780390884042">
        <ele>35.12836058403803</ele>
        <time>2024-03-03T14:30:25Z</time>
      </trkpt>
      <trkpt lat="24.90941826780594" lon="118.5375051078698">
        <ele>37.983332363933094</ele>
        <time>2024-03-03T14:30:34Z</time>
      </trkpt>
      <trkpt lat="24.90945857805543" lon="118.53720931139219">
        <ele>40.449798218005135</ele>
        <time>2024-03-03T14:30:43Z</time>
      </trkpt>
      <trkpt lat="24.9095451099629" lon="118.53701277633013">
        <ele>39.453014154797344</ele>
        <time>2024-03-03T14:30:49Z</time>
      </trkpt>
      <trkpt lat="24.909513937124157" lon="118.53693657300167">
        <ele>40.34162375759575</ele>
        <time>2024-03-03T14:30:52Z</time>
      </trkpt>
      <trkpt lat="24.90947081945426" lon="118.53688343257596">
        <ele>39.49553572189146</ele>
        <time>2024-03-03T14:30:55Z</time>
      </trkpt>
      <trkpt lat="24.90953231305507" lon="118.53666985085925">
        <ele>38.3396801539142</ele>
        <time>2024-03-03T14:31:01Z</time>
      </trkpt>
      <trkpt lat="24.90956059846946" lon="118.53636602472113">
        <ele>40.96037109701618</ele>
        <time>2024-03-03T14:31:10Z</time>
      </trkpt>
      <trkpt lat="24.909601654973336" lon="118.53596693440943">
        <ele>40.831991459466394</ele>
        <time>2024-03-03T14:31:22Z</time>
      </trkpt>
      <trkpt lat="24.909666992703446" lon="118.53569017250895">
        <ele>38.92104393396087</ele>
        <time>2024-03-03T14:31:31Z</time>
      </trkpt>
      <trkpt lat="24.90972012268485" lon="118.53532616872478">
        <ele>38.16358565211517</ele>
        <time>2024-03-03T14:31:43Z</time>
      </trkpt>
      <trkpt lat="24.909753244264703" lon="118.53495915349264">
        <ele>37.10590988555135</ele>
        <time>2024-03-03T14:31:55Z</time>
      </trkpt>
      <trkpt lat="24.909767014879204" lon="118.53486388886793">
        <ele>37.016073720969345</ele>
        <time>2024-03-03T14:31:58Z</time>
      </trkpt>
      <trkpt lat="24.909890045694212" lon="118.53488393582128">
        <ele>35.58131521669592</ele>
        <time>2024-03-03T14:32:04Z</time>
      </trkpt>
      <trkpt lat="24.91004822002171" lon="118.53496615233655">
        <ele>35.03343837223785</ele>
        <time>2024-03-03T14:32:10Z</time>
      </trkpt>
      <trkpt lat="24.91032039024518" lon="118.5350533745266">
        <ele>34.847625603245476</ele>
        <time>2024-03-03T14:32:19Z</time>
      </trkpt>
      <trkpt lat="24.910537713440267" lon="118.53520176904632">
        <ele>33.76771190275705</ele>
        <time>2024-03-03T14:32:28Z</time>
      </trkpt>
      <trkpt lat="24.910583823890278" lon="118.5352509013016">
        <ele>33.87278115873019</ele>
        <time>2024-03-03T14:32:31Z</time>
      </trkpt>
      <trkpt lat="24.910642851440368" lon="118.53526593863948">
        <ele>34.29940568777131</ele>
        <time>2024-03-03T14:32:34Z</time>
      </trkpt>
      <trkpt lat="24.910774052367902" lon="118.53535818357426">
        <ele>33.82764038593428</ele>
        <time>2024-03-03T14:32:40Z</time>
      </trkpt>
      <trkpt lat="24.91085711936742" lon="118.5353912688498">
        <ele>34.32139253187753</ele>
        <time>2024-03-03T14:32:43Z</time>
      </trkpt>
      <trkpt lat="24.910924112426986" lon="118.53539226693715">
        <ele>33.60119249602321</ele>
        <time>2024-03-03T14:32:46Z</time>
      </trkpt>
      <trkpt lat="24.91122538438964" lon="118.53552460982293">
        <ele>30.721218487860522</ele>
        <time>2024-03-03T14:32:58Z</time>
      </trkpt>
      <trkpt lat="24.911513645758713" lon="118.53565193926694">
        <ele>28.761159128370007</ele>
        <time>2024-03-03T14:33:10Z</time>
      </trkpt>
      <trkpt lat="24.911586725699276" lon="118.53569003865125">
        <ele>29.352048045797858</ele>
        <time>2024-03-03T14:33:13Z</time>
      </trkpt>
      <trkpt lat="24.91167172571815" lon="118.53569504646792">
        <ele>27.882556099551714</ele>
        <time>2024-03-03T14:33:16Z</time>
      </trkpt>
      <trkpt lat="24.911893962464895" lon="118.53580834134867">
        <ele>27.31737468322029</ele>
        <time>2024-03-03T14:33:25Z</time>
      </trkpt>
      <trkpt lat="24.91197698404002" lon="118.53582237398281">
        <ele>27.626716305178295</ele>
        <time>2024-03-03T14:33:28Z</time>
      </trkpt>
      <trkpt lat="24.91225722170858" lon="118.53593967528452">
        <ele>27.105141336042152</ele>
        <time>2024-03-03T14:33:40Z</time>
      </trkpt>
      <trkpt lat="24.91238441655139" lon="118.53602991289421">
        <ele>26.865682930463418</ele>
        <time>2024-03-03T14:33:46Z</time>
      </trkpt>
      <trkpt lat="24.91238159153465" lon="118.53610411554021">
        <ele>26.71614330626816</ele>
        <time>2024-03-03T14:33:49Z</time>
      </trkpt>
      <trkpt lat="24.91227722050961" lon="118.53636583533518">
        <ele>27.553366530696255</ele>
        <time>2024-03-03T14:33:58Z</time>
      </trkpt>
      <trkpt lat="24.912098927914478" lon="118.53665763936827">
        <ele>28.25389294352899</ele>
        <time>2024-03-03T14:34:10Z</time>
      </trkpt>
      <trkpt lat="24.911955681419194" lon="118.53697250017859">
        <ele>27.91242479941965</ele>
        <time>2024-03-03T14:34:22Z</time>
      </trkpt>
      <trkpt lat="24.91189306971369" lon="118.53713594483743">
        <ele>28.524887525690467</ele>
        <time>2024-03-03T14:34:28Z</time>
      </trkpt>
      <trkpt lat="24.911877269519998" lon="118.53722117516598">
        <ele>29.01376680728316</ele>
        <time>2024-03-03T14:34:31Z</time>
      </trkpt>
      <trkpt lat="24.911733957317544" lon="118.5375099599166">
        <ele>27.5537549416133</ele>
        <time>2024-03-03T14:34:43Z</time>
      </trkpt>
      <trkpt lat="24.911598669025775" lon="118.53781077323374">
        <ele>27.35319496782066</ele>
        <time>2024-03-03T14:34:55Z</time>
      </trkpt>
      <trkpt lat="24.911542082054112" lon="118.53798724728651">
        <ele>27.514110850056344</ele>
        <time>2024-03-03T14:35:01Z</time>
      </trkpt>
      <trkpt lat="24.911353858374543" lon="118.53831513087395">
        <ele>28.836744895019677</ele>
        <time>2024-03-03T14:35:13Z</time>
      </trkpt>
      <trkpt lat="24.911220632707884" lon="118.53864701732425">
        <ele>29.165031266693745</ele>
        <time>2024-03-03T14:35:25Z</time>
      </trkpt>
      <trkpt lat="24.911173814534386" lon="118.53872422406765">
        <ele>29.978747854331658</ele>
        <time>2024-03-03T14:35:28Z</time>
      </trkpt>
      <trkpt lat="24.91110583764691" lon="118.53873024464994">
        <ele>30.107929438280653</ele>
        <time>2024-03-03T14:35:31Z</time>
      </trkpt>
      <trkpt lat="24.910866727507685" lon="118.53866709485287">
        <ele>29.904947704181353</ele>
        <time>2024-03-03T14:35:40Z</time>
      </trkpt>
      <trkpt lat="24.910793730830616" lon="118.53866409200825">
        <ele>29.178529436982625</ele>
        <time>2024-03-03T14:35:43Z</time>
      </trkpt>
      <trkpt lat="24.910490449288655" lon="118.53852173740735">
        <ele>27.84111615783316</ele>
        <time>2024-03-03T14:35:55Z</time>
      </trkpt>
      <trkpt lat="24.910159328652217" lon="118.53844856703387">
        <ele>28.09094927307133</ele>
        <time>2024-03-03T14:36:08Z</time>
      </trkpt>
      <trkpt lat="24.910018243146904" lon="118.53840245486876">
        <ele>26.37653899325076</ele>
        <time>2024-03-03T14:36:14Z</time>
      </trkpt>
      <trkpt lat="24.909699257756476" lon="118.53838944260167">
        <ele>24.52890286542477</ele>
        <time>2024-03-03T14:36:26Z</time>
      </trkpt>
      <trkpt lat="24.909360220239062" lon="118.53835236802328">
        <ele>28.015398296879244</ele>
        <time>2024-03-03T14:36:38Z</time>
      </trkpt>
      <trkpt lat="24.909285182616024" lon="118.53833131749461">
        <ele>28.065909673691007</ele>
        <time>2024-03-03T14:36:41Z</time>
      </trkpt>
      <trkpt lat="24.90923905854324" lon="118.5382741692885">
        <ele>29.112027137368752</ele>
        <time>2024-03-03T14:36:44Z</time>
      </trkpt>
      <trkpt lat="24.90924472307303" lon="118.53812778051038">
        <ele>29.194019005694642</ele>
        <time>2024-03-03T14:36:50Z</time>
      </trkpt>
      <trkpt lat="24.909293401638845" lon="118.53799041197561">
        <ele>27.984192274975175</ele>
        <time>2024-03-03T14:36:56Z</time>
      </trkpt>
      <trkpt lat="24.909355537853745" lon="118.53761841543304">
        <ele>32.16189879628781</ele>
        <time>2024-03-03T14:37:08Z</time>
      </trkpt>
      <trkpt lat="24.909392735860436" lon="118.53727348842999">
        <ele>34.679738396040136</ele>
        <time>2024-03-03T14:37:20Z</time>
      </trkpt>
      <trkpt lat="24.90946626065828" lon="118.53707294391877">
        <ele>32.62426211849811</ele>
        <time>2024-03-03T14:37:26Z</time>
      </trkpt>
      <trkpt lat="24.90947707513851" lon="118.53699372971586">
        <ele>33.98637244765747</ele>
        <time>2024-03-03T14:37:29Z</time>
      </trkpt>
      <trkpt lat="24.90941397666331" lon="118.53694760972495">
        <ele>32.54735854637423</ele>
        <time>2024-03-03T14:37:32Z</time>
      </trkpt>
      <trkpt lat="24.909411722600044" lon="118.5368383148361">
        <ele>32.258555767332105</ele>
        <time>2024-03-03T14:37:35Z</time>
      </trkpt>
      <trkpt lat="24.909459306810824" lon="118.53666283694434">
        <ele>31.39881684755939</ele>
        <time>2024-03-03T14:37:41Z</time>
      </trkpt>
      <trkpt lat="24.909504446390883" lon="118.53629784323185">
        <ele>29.92913130614521</ele>
        <time>2024-03-03T14:37:53Z</time>
      </trkpt>
      <trkpt lat="24.90951902282404" lon="118.53611835339548">
        <ele>30.12561424893722</ele>
        <time>2024-03-03T14:37:59Z</time>
      </trkpt>
      <trkpt lat="24.909548820525" lon="118.53603412154244">
        <ele>30.363511302443136</ele>
        <time>2024-03-03T14:38:02Z</time>
      </trkpt>
      <trkpt lat="24.909594952916954" lon="118.53566911979989">
        <ele>29.073288150100588</ele>
        <time>2024-03-03T14:38:14Z</time>
      </trkpt>
      <trkpt lat="24.9096360962444" lon="118.53531013039927">
        <ele>28.42741803246883</ele>
        <time>2024-03-03T14:38:26Z</time>
      </trkpt>
      <trkpt lat="24.909693202347285" lon="118.53493809942279">
        <ele>27.43576133651705</ele>
        <time>2024-03-03T14:38:38Z</time>
      </trkpt>
      <trkpt lat="24.909709049286104" lon="118.53487492345586">
        <ele>26.432841645691163</ele>
        <time>2024-03-03T14:38:41Z</time>
      </trkpt>
      <trkpt lat="24.91001632731709" lon="118.53500927379251">
        <ele>27.25204899541428</ele>
        <time>2024-03-03T14:38:53Z</time>
      </trkpt>
      <trkpt lat="24.910222542428208" lon="118.53511154198796">
        <ele>28.106448655535555</ele>
        <time>2024-03-03T14:39:02Z</time>
      </trkpt>
    </trkseg>
  </trk>
</gpx>