<?xml version="1.0" encoding="UTF-8"?>
<gpx xmlns="http://www.topografix.com/GPX/1/1" xmlns:gpxtpx="http://www.garmin.com/xmlschemas/TrackPointExtension/v1" xmlns:xsi="http://www.w3.org/2001/XMLSchema-instance" xsi:schemaLocation="http://www.topografix.com/GPX/1/1 http://www.topografix.com/GPX/1/1/gpx.xsd" version="1.1" creator="gpx.py -- https://github.com/tkrajina/gpxpy">
  <trk>
    <name>gpx from keep</name>
    <type>Run</type>
    <trkseg>
      <trkpt lat="24.910788601676455" lon="118.53860694163266">
        <ele>12.236515934679966</ele>
        <time>2024-01-16T14:20:02Z</time>
      </trkpt>
      <trkpt lat="24.910497450597042" lon="118.53852273956812">
        <ele>13.426386567099595</ele>
        <time>2024-01-16T14:20:11Z</time>
      </trkpt>
      <trkpt lat="24.91020936509409" lon="118.53846761391446">
        <ele>14.385661102553359</ele>
        <time>2024-01-16T14:20:20Z</time>
      </trkpt>
      <trkpt lat="24.909928216794555" lon="118.53838541603655">
        <ele>15.145897123358884</ele>
        <time>2024-01-16T14:20:29Z</time>
      </trkpt>
      <trkpt lat="24.90956915003713" lon="118.53833430567695">
        <ele>14.488644131176084</ele>
        <time>2024-01-16T14:20:41Z</time>
      </trkpt>
      <trkpt lat="24.909314146555882" lon="118.53831727829684">
        <ele>15.433504245736003</ele>
        <time>2024-01-16T14:20:50Z</time>
      </trkpt>
      <trkpt lat="24.909268038487852" lon="118.53826714866594">
        <ele>16.299236617201547</ele>
        <time>2024-01-16T14:20:53Z</time>
      </trkpt>
      <trkpt lat="24.909370381750843" lon="118.53798639594065">
        <ele>16.831434239584276</ele>
        <time>2024-01-16T14:21:02Z</time>
      </trkpt>
      <trkpt lat="24.90944793585758" lon="118.53779688566058">
        <ele>18.008996066646503</ele>
        <time>2024-01-16T14:21:08Z</time>
      </trkpt>
      <trkpt lat="24.909459465635916" lon="118.53759334115244">
        <ele>22.959989179823125</ele>
        <time>2024-01-16T14:21:14Z</time>
      </trkpt>
      <trkpt lat="24.909520061454266" lon="118.53742187778658">
        <ele>23.0020674893808</ele>
        <time>2024-01-16T14:21:20Z</time>
      </trkpt>
      <trkpt lat="24.90949166174205" lon="118.53724741149581">
        <ele>25.31403271937657</ele>
        <time>2024-01-16T14:21:26Z</time>
      </trkpt>
      <trkpt lat="24.909519160161064" lon="118.53703283218398">
        <ele>29.108128070949395</ele>
        <time>2024-01-16T14:21:32Z</time>
      </trkpt>
      <trkpt lat="24.909402842899862" lon="118.53688945355633">
        <ele>29.054696179665388</ele>
        <time>2024-01-16T14:21:38Z</time>
      </trkpt>
      <trkpt lat="24.909500947195227" lon="118.53651142368453">
        <ele>24.841456961149447</ele>
        <time>2024-01-16T14:21:50Z</time>
      </trkpt>
      <trkpt lat="24.909550035019446" lon="118.53612537037033">
        <ele>25.115945346018258</ele>
        <time>2024-01-16T14:22:02Z</time>
      </trkpt>
      <trkpt lat="24.90957157408591" lon="118.53593083787233">
        <ele>24.261295137558655</ele>
        <time>2024-01-16T14:22:08Z</time>
      </trkpt>
      <trkpt lat="24.909598357524857" lon="118.53584058922242">
        <ele>23.89767396047822</ele>
        <time>2024-01-16T14:22:11Z</time>
      </trkpt>
      <trkpt lat="24.909632691372487" lon="118.53556082002054">
        <ele>22.99322854585545</ele>
        <time>2024-01-16T14:22:20Z</time>
      </trkpt>
      <trkpt lat="24.90967879943018" lon="118.535187790223">
        <ele>21.298290980449774</ele>
        <time>2024-01-16T14:22:32Z</time>
      </trkpt>
      <trkpt lat="24.909726111584074" lon="118.53490199722319">
        <ele>18.922032021745824</ele>
        <time>2024-01-16T14:22:41Z</time>
      </trkpt>
      <trkpt lat="24.910023307213958" lon="118.53500125112787">
        <ele>16.115653211329278</ele>
        <time>2024-01-16T14:22:53Z</time>
      </trkpt>
      <trkpt lat="24.91034559457161" lon="118.53514061368219">
        <ele>16.6434984539916</ele>
        <time>2024-01-16T14:23:05Z</time>
      </trkpt>
      <trkpt lat="24.910643858451436" lon="118.53526894685918">
        <ele>16.960589265252207</ele>
        <time>2024-01-16T14:23:17Z</time>
      </trkpt>
      <trkpt lat="24.910961116797953" lon="118.53539627539257">
        <ele>15.72428337534687</ele>
        <time>2024-01-16T14:23:29Z</time>
      </trkpt>
      <trkpt lat="24.911119235151883" lon="118.53545542708208">
        <ele>15.938507931623494</ele>
        <time>2024-01-16T14:23:35Z</time>
      </trkpt>
      <trkpt lat="24.91119734314446" lon="118.53550555943644">
        <ele>16.161001944428126</ele>
        <time>2024-01-16T14:23:38Z</time>
      </trkpt>
      <trkpt lat="24.911503523780972" lon="118.53559979691914">
        <ele>16.53716860000457</ele>
        <time>2024-01-16T14:23:50Z</time>
      </trkpt>
      <trkpt lat="24.91183087416813" lon="118.53576723318403">
        <ele>17.593689068599865</ele>
        <time>2024-01-16T14:24:02Z</time>
      </trkpt>
      <trkpt lat="24.912116097155756" lon="118.53587851790729">
        <ele>17.99410884626864</ele>
        <time>2024-01-16T14:24:11Z</time>
      </trkpt>
      <trkpt lat="24.91233730741634" lon="118.53598078201998">
        <ele>15.909311466281506</ele>
        <time>2024-01-16T14:24:20Z</time>
      </trkpt>
      <trkpt lat="24.91239745013859" lon="118.53604495303783">
        <ele>14.314078556188566</ele>
        <time>2024-01-16T14:24:23Z</time>
      </trkpt>
      <trkpt lat="24.912399631463" lon="118.53612216349795">
        <ele>14.166011932611394</ele>
        <time>2024-01-16T14:24:26Z</time>
      </trkpt>
      <trkpt lat="24.91226146225454" lon="118.53646811424156">
        <ele>15.667158873793486</ele>
        <time>2024-01-16T14:24:38Z</time>
      </trkpt>
      <trkpt lat="24.912103002244706" lon="118.53668972595176">
        <ele>15.54151063643686</ele>
        <time>2024-01-16T14:24:47Z</time>
      </trkpt>
      <trkpt lat="24.912010400828407" lon="118.53685517974432">
        <ele>15.674305121827617</ele>
        <time>2024-01-16T14:24:53Z</time>
      </trkpt>
      <trkpt lat="24.911902214922513" lon="118.53719911412254">
        <ele>14.057456843597892</ele>
        <time>2024-01-16T14:25:05Z</time>
      </trkpt>
      <trkpt lat="24.911750045312004" lon="118.53754906348343">
        <ele>14.200017300126845</ele>
        <time>2024-01-16T14:25:17Z</time>
      </trkpt>
      <trkpt lat="24.91160379272484" lon="118.53786491723349">
        <ele>14.794371565388923</ele>
        <time>2024-01-16T14:25:29Z</time>
      </trkpt>
      <trkpt lat="24.911547966236107" lon="118.53793711343612">
        <ele>16.025334359899635</ele>
        <time>2024-01-16T14:25:32Z</time>
      </trkpt>
      <trkpt lat="24.911430600326014" lon="118.53820683845952">
        <ele>16.448815827194732</ele>
        <time>2024-01-16T14:25:41Z</time>
      </trkpt>
      <trkpt lat="24.911262366996212" lon="118.53853271276067">
        <ele>18.75960513301908</ele>
        <time>2024-01-16T14:25:53Z</time>
      </trkpt>
      <trkpt lat="24.911211768287732" lon="118.5387061738758">
        <ele>17.658788310223677</ele>
        <time>2024-01-16T14:25:59Z</time>
      </trkpt>
      <trkpt lat="24.911145879849084" lon="118.53875129731318">
        <ele>17.919562030677522</ele>
        <time>2024-01-16T14:26:02Z</time>
      </trkpt>
      <trkpt lat="24.910820683803518" lon="118.53864503989938">
        <ele>14.92497837219029</ele>
        <time>2024-01-16T14:26:14Z</time>
      </trkpt>
      <trkpt lat="24.910660583011126" lon="118.53859090821909">
        <ele>14.08110647682362</ele>
        <time>2024-01-16T14:26:20Z</time>
      </trkpt>
      <trkpt lat="24.91058457306338" lon="118.5385818896985">
        <ele>12.120021773895427</ele>
        <time>2024-01-16T14:26:23Z</time>
      </trkpt>
      <trkpt lat="24.910282407457828" lon="118.53849066977823">
        <ele>12.01059026009447</ele>
        <time>2024-01-16T14:26:35Z</time>
      </trkpt>
      <trkpt lat="24.909957249338426" lon="118.53840145646527">
        <ele>11.511574114865065</ele>
        <time>2024-01-16T14:26:47Z</time>
      </trkpt>
      <trkpt lat="24.909620181840122" lon="118.53835134725725">
        <ele>11.136674241674656</ele>
        <time>2024-01-16T14:26:59Z</time>
      </trkpt>
      <trkpt lat="24.90936318322342" lon="118.53833632533717">
        <ele>11.713678327701096</ele>
        <time>2024-01-16T14:27:08Z</time>
      </trkpt>
      <trkpt lat="24.9092811511383" lon="118.5383172805956">
        <ele>13.008917917405382</ele>
        <time>2024-01-16T14:27:11Z</time>
      </trkpt>
      <trkpt lat="24.909231045915323" lon="118.53826815390099">
        <ele>14.090298337921055</ele>
        <time>2024-01-16T14:27:14Z</time>
      </trkpt>
      <trkpt lat="24.909383228149085" lon="118.53792021888579">
        <ele>13.670035982663803</ele>
        <time>2024-01-16T14:27:26Z</time>
      </trkpt>
      <trkpt lat="24.909437798893702" lon="118.53773672582001">
        <ele>12.727508101831303</ele>
        <time>2024-01-16T14:27:32Z</time>
      </trkpt>
      <trkpt lat="24.909449339850944" lon="118.53753819429456">
        <ele>13.612931293497889</ele>
        <time>2024-01-16T14:27:38Z</time>
      </trkpt>
      <trkpt lat="24.909547484352498" lon="118.53717421082624">
        <ele>17.274194314494938</ele>
        <time>2024-01-16T14:27:50Z</time>
      </trkpt>
      <trkpt lat="24.909574280570666" lon="118.53708797689362">
        <ele>17.825279591076654</ele>
        <time>2024-01-16T14:27:53Z</time>
      </trkpt>
      <trkpt lat="24.90957406865624" lon="118.53699673106539">
        <ele>20.115526979212646</ele>
        <time>2024-01-16T14:27:56Z</time>
      </trkpt>
      <trkpt lat="24.909492954032576" lon="118.53694259069536">
        <ele>21.63812672253952</ele>
        <time>2024-01-16T14:27:59Z</time>
      </trkpt>
      <trkpt lat="24.90943379191808" lon="118.53686939725279">
        <ele>22.42462381828994</ele>
        <time>2024-01-16T14:28:02Z</time>
      </trkpt>
      <trkpt lat="24.90944735060277" lon="118.53668088664098">
        <ele>20.82025131688979</ele>
        <time>2024-01-16T14:28:08Z</time>
      </trkpt>
      <trkpt lat="24.909477138051344" lon="118.53659164285186">
        <ele>18.95403321620649</ele>
        <time>2024-01-16T14:28:11Z</time>
      </trkpt>
      <trkpt lat="24.90951244057591" lon="118.53629583721907">
        <ele>18.91561039483421</ele>
        <time>2024-01-16T14:28:20Z</time>
      </trkpt>
      <trkpt lat="24.909563579923418" lon="118.53593284391056">
        <ele>18.759806752205442</ele>
        <time>2024-01-16T14:28:32Z</time>
      </trkpt>
      <trkpt lat="24.909621683402328" lon="118.53555680977487">
        <ele>15.344115334187467</ele>
        <time>2024-01-16T14:28:44Z</time>
      </trkpt>
      <trkpt lat="24.909671798016795" lon="118.53518678794522">
        <ele>14.2408465742624</ele>
        <time>2024-01-16T14:28:56Z</time>
      </trkpt>
      <trkpt lat="24.90969910336264" lon="118.53489698522769">
        <ele>12.86189526404853</ele>
        <time>2024-01-16T14:29:05Z</time>
      </trkpt>
      <trkpt lat="24.90975702824584" lon="118.53486890344915">
        <ele>10.983924260721974</ele>
        <time>2024-01-16T14:29:08Z</time>
      </trkpt>
      <trkpt lat="24.91006134019166" lon="118.53501729282901">
        <ele>12.997855054758316</ele>
        <time>2024-01-16T14:29:20Z</time>
      </trkpt>
      <trkpt lat="24.910375614271505" lon="118.53515063926329">
        <ele>13.810888630790105</ele>
        <time>2024-01-16T14:29:32Z</time>
      </trkpt>
      <trkpt lat="24.91065087892674" lon="118.53527797123753">
        <ele>15.915313978011072</ele>
        <time>2024-01-16T14:29:44Z</time>
      </trkpt>
      <trkpt lat="24.910872105382378" lon="118.53538625400896">
        <ele>16.13170438815688</ele>
        <time>2024-01-16T14:29:53Z</time>
      </trkpt>
      <trkpt lat="24.911031147506165" lon="118.53541331740549">
        <ele>15.593640085692469</ele>
        <time>2024-01-16T14:29:59Z</time>
      </trkpt>
      <trkpt lat="24.911328429435688" lon="118.53554967148933">
        <ele>15.361485105988914</ele>
        <time>2024-01-16T14:30:11Z</time>
      </trkpt>
      <trkpt lat="24.91163367173934" lon="118.53566998039433">
        <ele>17.025851590504256</ele>
        <time>2024-01-16T14:30:23Z</time>
      </trkpt>
      <trkpt lat="24.91192094686992" lon="118.53580332574293">
        <ele>18.35801134712725</ele>
        <time>2024-01-16T14:30:32Z</time>
      </trkpt>
      <trkpt lat="24.91208203330013" lon="118.53584944074048">
        <ele>18.55536428478089</ele>
        <time>2024-01-16T14:30:38Z</time>
      </trkpt>
      <trkpt lat="24.91235330282551" lon="118.53597977816588">
        <ele>15.100981790377856</ele>
        <time>2024-01-16T14:30:50Z</time>
      </trkpt>
      <trkpt lat="24.912409448466608" lon="118.53604495220125">
        <ele>14.020911407535998</ele>
        <time>2024-01-16T14:30:53Z</time>
      </trkpt>
      <trkpt lat="24.91241763131229" lon="118.53612316497683">
        <ele>14.363530494920862</ele>
        <time>2024-01-16T14:30:56Z</time>
      </trkpt>
      <trkpt lat="24.912248433556996" lon="118.53645507976326">
        <ele>14.629541189250265</ele>
        <time>2024-01-16T14:31:08Z</time>
      </trkpt>
      <trkpt lat="24.91209994650003" lon="118.53666566101752">
        <ele>14.679768639928783</ele>
        <time>2024-01-16T14:31:17Z</time>
      </trkpt>
      <trkpt lat="24.912007347542723" lon="118.53683211765868">
        <ele>14.85362047124362</ele>
        <time>2024-01-16T14:31:23Z</time>
      </trkpt>
      <trkpt lat="24.911886182290033" lon="118.53718407479506">
        <ele>13.999457294090382</ele>
        <time>2024-01-16T14:31:35Z</time>
      </trkpt>
      <trkpt lat="24.911744971983243" lon="118.53751697794316">
        <ele>13.056487753908506</ele>
        <time>2024-01-16T14:31:47Z</time>
      </trkpt>
      <trkpt lat="24.911590683965755" lon="118.537816789835">
        <ele>13.865027477347466</ele>
        <time>2024-01-16T14:31:59Z</time>
      </trkpt>
      <trkpt lat="24.91150206233287" lon="118.53797622072601">
        <ele>15.314826071970439</ele>
        <time>2024-01-16T14:32:05Z</time>
      </trkpt>
      <trkpt lat="24.91135386981599" lon="118.53832014415308">
        <ele>15.530114331825951</ele>
        <time>2024-01-16T14:32:17Z</time>
      </trkpt>
      <trkpt lat="24.91126636872091" lon="118.53853371513003">
        <ele>16.261930683624684</ele>
        <time>2024-01-16T14:32:29Z</time>
      </trkpt>
      <trkpt lat="24.911242590920946" lon="118.53862997084074">
        <ele>15.918038874463894</ele>
        <time>2024-01-16T14:32:32Z</time>
      </trkpt>
    </trkseg>
  </trk>
</gpx>