<?xml version="1.0" encoding="UTF-8"?>
<gpx xmlns="http://www.topografix.com/GPX/1/1" xmlns:gpxtpx="http://www.garmin.com/xmlschemas/TrackPointExtension/v1" xmlns:xsi="http://www.w3.org/2001/XMLSchema-instance" xsi:schemaLocation="http://www.topografix.com/GPX/1/1 http://www.topografix.com/GPX/1/1/gpx.xsd" version="1.1" creator="gpx.py -- https://github.com/tkrajina/gpxpy">
  <trk>
    <name>gpx from keep</name>
    <type>Run</type>
    <trkseg>
      <trkpt lat="24.91127171822082" lon="118.53737864008968">
        <ele>19.6932373046875</ele>
        <time>2025-07-30T13:05:02Z</time>
      </trkpt>
      <trkpt lat="24.911143347061376" lon="118.53764335786458">
        <ele>26.51580810546875</ele>
        <time>2025-07-30T13:05:11Z</time>
      </trkpt>
      <trkpt lat="24.911037145437128" lon="118.5379842744672">
        <ele>29.1885986328125</ele>
        <time>2025-07-30T13:05:23Z</time>
      </trkpt>
      <trkpt lat="24.91092247838686" lon="118.53812265029772">
        <ele>29.4576416015625</ele>
        <time>2025-07-30T13:05:29Z</time>
      </trkpt>
      <trkpt lat="24.910772259406787" lon="118.5384555428889">
        <ele>29.92340087890625</ele>
        <time>2025-07-30T13:05:41Z</time>
      </trkpt>
      <trkpt lat="24.910784472278138" lon="118.53854979106897">
        <ele>29.91119384765625</ele>
        <time>2025-07-30T13:05:44Z</time>
      </trkpt>
      <trkpt lat="24.910844662242052" lon="118.53863701707499">
        <ele>28.98480224609375</ele>
        <time>2025-07-30T13:05:47Z</time>
      </trkpt>
      <trkpt lat="24.911120828734628" lon="118.53872723568243">
        <ele>28.16571044921875</ele>
        <time>2025-07-30T13:05:56Z</time>
      </trkpt>
      <trkpt lat="24.911193889089333" lon="118.53875831244929">
        <ele>27.296142578125</ele>
        <time>2025-07-30T13:05:59Z</time>
      </trkpt>
      <trkpt lat="24.91122005366554" lon="118.5388325058843">
        <ele>26.2828369140625</ele>
        <time>2025-07-30T13:06:02Z</time>
      </trkpt>
      <trkpt lat="24.911127687830263" lon="118.5391072335523">
        <ele>26.5701904296875</ele>
        <time>2025-07-30T13:06:11Z</time>
      </trkpt>
      <trkpt lat="24.911045505106856" lon="118.53946517484069">
        <ele>27.652099609375</ele>
        <time>2025-07-30T13:06:23Z</time>
      </trkpt>
      <trkpt lat="24.910936286120847" lon="118.53980707167683">
        <ele>29.06463623046875</ele>
        <time>2025-07-30T13:06:35Z</time>
      </trkpt>
      <trkpt lat="24.910888695438416" lon="118.53998754263502">
        <ele>27.82666015625</ele>
        <time>2025-07-30T13:06:41Z</time>
      </trkpt>
      <trkpt lat="24.910857477503427" lon="118.54033744806864">
        <ele>31.8936767578125</ele>
        <time>2025-07-30T13:06:53Z</time>
      </trkpt>
      <trkpt lat="24.91077927973097" lon="118.54069537274563">
        <ele>33.31597900390625</ele>
        <time>2025-07-30T13:07:05Z</time>
      </trkpt>
      <trkpt lat="24.910714029703406" lon="118.54103223805085">
        <ele>29.5008544921875</ele>
        <time>2025-07-30T13:07:17Z</time>
      </trkpt>
      <trkpt lat="24.910702742103847" lon="118.54135706479728">
        <ele>28.1099853515625</ele>
        <time>2025-07-30T13:07:29Z</time>
      </trkpt>
      <trkpt lat="24.91070853795574" lon="118.54142014004567">
        <ele>25.34454345703125</ele>
        <time>2025-07-30T13:07:32Z</time>
      </trkpt>
      <trkpt lat="24.9106798473491" lon="118.54153251041798">
        <ele>26.77850341796875</ele>
        <time>2025-07-30T13:07:35Z</time>
      </trkpt>
      <trkpt lat="24.910562869139277" lon="118.54175368145442">
        <ele>26.85009765625</ele>
        <time>2025-07-30T13:07:41Z</time>
      </trkpt>
      <trkpt lat="24.91042134593248" lon="118.54207790295825">
        <ele>20.8226318359375</ele>
        <time>2025-07-30T13:07:53Z</time>
      </trkpt>
      <trkpt lat="24.91035015843441" lon="118.54245084099537">
        <ele>24.1995849609375</ele>
        <time>2025-07-30T13:08:05Z</time>
      </trkpt>
      <trkpt lat="24.91025392045616" lon="118.54280071820007">
        <ele>23.58953857421875</ele>
        <time>2025-07-30T13:08:17Z</time>
      </trkpt>
      <trkpt lat="24.910199303986737" lon="118.54297715919392">
        <ele>23.63690185546875</ele>
        <time>2025-07-30T13:08:23Z</time>
      </trkpt>
      <trkpt lat="24.910230680864963" lon="118.54315660041313">
        <ele>25.37274169921875</ele>
        <time>2025-07-30T13:08:29Z</time>
      </trkpt>
      <trkpt lat="24.910211857755446" lon="118.54323880442597">
        <ele>26.01416015625</ele>
        <time>2025-07-30T13:08:32Z</time>
      </trkpt>
      <trkpt lat="24.91022402373968" lon="118.54331799861696">
        <ele>26.9752197265625</ele>
        <time>2025-07-30T13:08:35Z</time>
      </trkpt>
      <trkpt lat="24.910283085505252" lon="118.54335107590651">
        <ele>28.28302001953125</ele>
        <time>2025-07-30T13:08:38Z</time>
      </trkpt>
      <trkpt lat="24.910432079626396" lon="118.54335808280142">
        <ele>30.4927978515625</ele>
        <time>2025-07-30T13:08:44Z</time>
      </trkpt>
      <trkpt lat="24.910708979628524" lon="118.54332899201428">
        <ele>27.05975341796875</ele>
        <time>2025-07-30T13:08:53Z</time>
      </trkpt>
      <trkpt lat="24.91097987618138" lon="118.54329789667521">
        <ele>27.14794921875</ele>
        <time>2025-07-30T13:09:02Z</time>
      </trkpt>
      <trkpt lat="24.91130574168463" lon="118.54325577030856">
        <ele>29.73980712890625</ele>
        <time>2025-07-30T13:09:14Z</time>
      </trkpt>
      <trkpt lat="24.911610569663466" lon="118.54319459837214">
        <ele>26.4683837890625</ele>
        <time>2025-07-30T13:09:26Z</time>
      </trkpt>
      <trkpt lat="24.911950386242406" lon="118.54313041643034">
        <ele>24.71990966796875</ele>
        <time>2025-07-30T13:09:38Z</time>
      </trkpt>
      <trkpt lat="24.912276196093483" lon="118.54306222539245">
        <ele>25.11541748046875</ele>
        <time>2025-07-30T13:09:50Z</time>
      </trkpt>
      <trkpt lat="24.912615907838934" lon="118.54294892156555">
        <ele>24.7122802734375</ele>
        <time>2025-07-30T13:10:02Z</time>
      </trkpt>
      <trkpt lat="24.91297260179" lon="118.54282859865145">
        <ele>24.7158203125</ele>
        <time>2025-07-30T13:10:14Z</time>
      </trkpt>
      <trkpt lat="24.91329938933857" lon="118.54275038184787">
        <ele>24.76702880859375</ele>
        <time>2025-07-30T13:10:26Z</time>
      </trkpt>
      <trkpt lat="24.913618201350186" lon="118.54268319277647">
        <ele>23.71539306640625</ele>
        <time>2025-07-30T13:10:38Z</time>
      </trkpt>
      <trkpt lat="24.913926978115313" lon="118.54259896181142">
        <ele>24.77960205078125</ele>
        <time>2025-07-30T13:10:50Z</time>
      </trkpt>
      <trkpt lat="24.914230757469685" lon="118.54251573341705">
        <ele>25.0419921875</ele>
        <time>2025-07-30T13:11:02Z</time>
      </trkpt>
      <trkpt lat="24.914375601796802" lon="118.54245256584514">
        <ele>23.98345947265625</ele>
        <time>2025-07-30T13:11:08Z</time>
      </trkpt>
      <trkpt lat="24.914701371180357" lon="118.5423663279345">
        <ele>23.54144287109375</ele>
        <time>2025-07-30T13:11:20Z</time>
      </trkpt>
      <trkpt lat="24.91503713027036" lon="118.54227607900904">
        <ele>22.24896240234375</ele>
        <time>2025-07-30T13:11:32Z</time>
      </trkpt>
      <trkpt lat="24.91528695075391" lon="118.54220889350253">
        <ele>21.91064453125</ele>
        <time>2025-07-30T13:11:41Z</time>
      </trkpt>
      <trkpt lat="24.91559262700904" lon="118.54207854553094">
        <ele>22.650146484375</ele>
        <time>2025-07-30T13:11:53Z</time>
      </trkpt>
      <trkpt lat="24.91593239327831" lon="118.54199230539949">
        <ele>26.578857421875</ele>
        <time>2025-07-30T13:12:05Z</time>
      </trkpt>
      <trkpt lat="24.91624113323908" lon="118.541892031827">
        <ele>25.90850830078125</ele>
        <time>2025-07-30T13:12:17Z</time>
      </trkpt>
      <trkpt lat="24.916318111618104" lon="118.54188701385395">
        <ele>26.33203125</ele>
        <time>2025-07-30T13:12:20Z</time>
      </trkpt>
      <trkpt lat="24.916358231832145" lon="118.54194515732556">
        <ele>24.9605712890625</ele>
        <time>2025-07-30T13:12:23Z</time>
      </trkpt>
      <trkpt lat="24.916369453430036" lon="118.54204841597068">
        <ele>25.78179931640625</ele>
        <time>2025-07-30T13:12:26Z</time>
      </trkpt>
      <trkpt lat="24.916491957037074" lon="118.54229001284989">
        <ele>25.91192626953125</ele>
        <time>2025-07-30T13:12:35Z</time>
      </trkpt>
      <trkpt lat="24.916546059410216" lon="118.54234113691103">
        <ele>26.466552734375</ele>
        <time>2025-07-30T13:12:38Z</time>
      </trkpt>
      <trkpt lat="24.916611125704637" lon="118.54237622004813">
        <ele>26.56512451171875</ele>
        <time>2025-07-30T13:12:41Z</time>
      </trkpt>
      <trkpt lat="24.91666914127382" lon="118.54238724355226">
        <ele>27.5008544921875</ele>
        <time>2025-07-30T13:12:44Z</time>
      </trkpt>
      <trkpt lat="24.91682104893488" lon="118.54235415033682">
        <ele>29.26806640625</ele>
        <time>2025-07-30T13:12:50Z</time>
      </trkpt>
      <trkpt lat="24.916798078000884" lon="118.54236618199212">
        <ele>29.1002197265625</ele>
        <time>2025-07-30T13:13:08Z</time>
      </trkpt>
      <trkpt lat="24.917106773898084" lon="118.54224485717992">
        <ele>29.952392578125</ele>
        <time>2025-07-30T13:13:20Z</time>
      </trkpt>
      <trkpt lat="24.917435507551517" lon="118.5421425781605">
        <ele>30.3763427734375</ele>
        <time>2025-07-30T13:13:32Z</time>
      </trkpt>
      <trkpt lat="24.917772412794378" lon="118.54212049940918">
        <ele>29.714599609375</ele>
        <time>2025-07-30T13:13:44Z</time>
      </trkpt>
      <trkpt lat="24.91811528904482" lon="118.54208538752701">
        <ele>30.64813232421875</ele>
        <time>2025-07-30T13:13:56Z</time>
      </trkpt>
      <trkpt lat="24.918453243840403" lon="118.54208636651482">
        <ele>30.35003662109375</ele>
        <time>2025-07-30T13:14:08Z</time>
      </trkpt>
      <trkpt lat="24.91878120218686" lon="118.54208834871352">
        <ele>30.031494140625</ele>
        <time>2025-07-30T13:14:20Z</time>
      </trkpt>
      <trkpt lat="24.919127170973727" lon="118.54209634474812">
        <ele>30.04833984375</ele>
        <time>2025-07-30T13:14:32Z</time>
      </trkpt>
      <trkpt lat="24.91946213479855" lon="118.54210133400221">
        <ele>29.798828125</ele>
        <time>2025-07-30T13:14:44Z</time>
      </trkpt>
      <trkpt lat="24.919789101894" lon="118.54210732632637">
        <ele>29.50384521484375</ele>
        <time>2025-07-30T13:14:56Z</time>
      </trkpt>
      <trkpt lat="24.920112080348172" lon="118.54211833149756">
        <ele>28.84515380859375</ele>
        <time>2025-07-30T13:15:08Z</time>
      </trkpt>
      <trkpt lat="24.920456064484146" lon="118.54213334525586">
        <ele>29.906982421875</ele>
        <time>2025-07-30T13:15:20Z</time>
      </trkpt>
      <trkpt lat="24.92079302148325" lon="118.54213532682313">
        <ele>29.67474365234375</ele>
        <time>2025-07-30T13:15:32Z</time>
      </trkpt>
      <trkpt lat="24.92112601361125" lon="118.54215334887503">
        <ele>30.6600341796875</ele>
        <time>2025-07-30T13:15:44Z</time>
      </trkpt>
      <trkpt lat="24.921451928902698" lon="118.54213528094776">
        <ele>31.22296142578125</ele>
        <time>2025-07-30T13:15:56Z</time>
      </trkpt>
      <trkpt lat="24.92176891028756" lon="118.54214728903679">
        <ele>31.7222900390625</ele>
        <time>2025-07-30T13:16:08Z</time>
      </trkpt>
      <trkpt lat="24.922092983554347" lon="118.54220240462983">
        <ele>32.1812744140625</ele>
        <time>2025-07-30T13:16:20Z</time>
      </trkpt>
      <trkpt lat="24.92240906214514" lon="118.54225952568034">
        <ele>32.76214599609375</ele>
        <time>2025-07-30T13:16:32Z</time>
      </trkpt>
      <trkpt lat="24.922728166053293" lon="118.54232867646978">
        <ele>32.98846435546875</ele>
        <time>2025-07-30T13:16:44Z</time>
      </trkpt>
      <trkpt lat="24.923018368548107" lon="118.54244193919692">
        <ele>33.5682373046875</ele>
        <time>2025-07-30T13:16:56Z</time>
      </trkpt>
      <trkpt lat="24.92332153440421" lon="118.54253916056594">
        <ele>34.49810791015625</ele>
        <time>2025-07-30T13:17:08Z</time>
      </trkpt>
      <trkpt lat="24.923621773236984" lon="118.54267046655075">
        <ele>34.8270263671875</ele>
        <time>2025-07-30T13:17:20Z</time>
      </trkpt>
      <trkpt lat="24.923899078849217" lon="118.54283184807753">
        <ele>35.62841796875</ele>
        <time>2025-07-30T13:17:32Z</time>
      </trkpt>
      <trkpt lat="24.924178413117485" lon="118.54300726317149">
        <ele>34.9359130859375</ele>
        <time>2025-07-30T13:17:44Z</time>
      </trkpt>
      <trkpt lat="24.92445478923695" lon="118.5432027267223">
        <ele>34.244140625</ele>
        <time>2025-07-30T13:17:56Z</time>
      </trkpt>
      <trkpt lat="24.92473020439731" lon="118.54341723566449">
        <ele>32.68585205078125</ele>
        <time>2025-07-30T13:18:08Z</time>
      </trkpt>
      <trkpt lat="24.924857440326196" lon="118.54353752215796">
        <ele>31.85357666015625</ele>
        <time>2025-07-30T13:18:14Z</time>
      </trkpt>
      <trkpt lat="24.925096973797118" lon="118.54380716549652">
        <ele>30.92938232421875</ele>
        <time>2025-07-30T13:18:26Z</time>
      </trkpt>
      <trkpt lat="24.92521425566867" lon="118.54394950458614">
        <ele>31.07122802734375</ele>
        <time>2025-07-30T13:18:32Z</time>
      </trkpt>
      <trkpt lat="24.925435808660914" lon="118.5442291691125">
        <ele>30.57965087890625</ele>
        <time>2025-07-30T13:18:44Z</time>
      </trkpt>
      <trkpt lat="24.92563540564033" lon="118.54452988288602">
        <ele>29.14697265625</ele>
        <time>2025-07-30T13:18:56Z</time>
      </trkpt>
      <trkpt lat="24.92584001524663" lon="118.54483861196955">
        <ele>27.7769775390625</ele>
        <time>2025-07-30T13:19:08Z</time>
      </trkpt>
      <trkpt lat="24.926026628108932" lon="118.5451493432837">
        <ele>26.1729736328125</ele>
        <time>2025-07-30T13:19:20Z</time>
      </trkpt>
      <trkpt lat="24.926222226023995" lon="118.54545505818376">
        <ele>24.204833984375</ele>
        <time>2025-07-30T13:19:32Z</time>
      </trkpt>
      <trkpt lat="24.926415839168694" lon="118.54576979078116">
        <ele>22.72320556640625</ele>
        <time>2025-07-30T13:19:44Z</time>
      </trkpt>
      <trkpt lat="24.926596452596144" lon="118.54608552262782">
        <ele>21.1016845703125</ele>
        <time>2025-07-30T13:19:56Z</time>
      </trkpt>
      <trkpt lat="24.926788062870965" lon="118.54640225199879">
        <ele>21.546630859375</ele>
        <time>2025-07-30T13:20:08Z</time>
      </trkpt>
      <trkpt lat="24.926859384131575" lon="118.54656763321223">
        <ele>21.875</ele>
        <time>2025-07-30T13:20:14Z</time>
      </trkpt>
      <trkpt lat="24.926859566410606" lon="118.54665884570154">
        <ele>21.92376708984375</ele>
        <time>2025-07-30T13:20:17Z</time>
      </trkpt>
      <trkpt lat="24.92690859351494" lon="118.5466758819519">
        <ele>22.483154296875</ele>
        <time>2025-07-30T13:20:20Z</time>
      </trkpt>
      <trkpt lat="24.92695056957986" lon="118.5466668580371">
        <ele>22.509521484375</ele>
        <time>2025-07-30T13:20:23Z</time>
      </trkpt>
      <trkpt lat="24.926983554917125" lon="118.54666184407739">
        <ele>23.1085205078125</ele>
        <time>2025-07-30T13:20:29Z</time>
      </trkpt>
      <trkpt lat="24.927171368165446" lon="118.54658164422676">
        <ele>23.69097900390625</ele>
        <time>2025-07-30T13:20:35Z</time>
      </trkpt>
      <trkpt lat="24.92720117938838" lon="118.5464894270221">
        <ele>23.92938232421875</ele>
        <time>2025-07-30T13:20:38Z</time>
      </trkpt>
      <trkpt lat="24.92717500825966" lon="118.54640222508331">
        <ele>23.64794921875</ele>
        <time>2025-07-30T13:20:41Z</time>
      </trkpt>
      <trkpt lat="24.92706474393493" lon="118.5462629065625">
        <ele>23.8822021484375</ele>
        <time>2025-07-30T13:20:47Z</time>
      </trkpt>
      <trkpt lat="24.926906123354993" lon="118.54594416837273">
        <ele>23.30731201171875</ele>
        <time>2025-07-30T13:20:59Z</time>
      </trkpt>
      <trkpt lat="24.92674650536016" lon="118.54562843325391">
        <ele>23.6015625</ele>
        <time>2025-07-30T13:21:11Z</time>
      </trkpt>
      <trkpt lat="24.926571902293524" lon="118.54532071425139">
        <ele>23.37091064453125</ele>
        <time>2025-07-30T13:21:23Z</time>
      </trkpt>
      <trkpt lat="24.926402326036825" lon="118.54502802708576">
        <ele>23.42620849609375</ele>
        <time>2025-07-30T13:21:35Z</time>
      </trkpt>
      <trkpt lat="24.926235752511044" lon="118.54473834351037">
        <ele>23.99774169921875</ele>
        <time>2025-07-30T13:21:47Z</time>
      </trkpt>
      <trkpt lat="24.926062191555122" lon="118.54445567402892">
        <ele>24.0670166015625</ele>
        <time>2025-07-30T13:21:59Z</time>
      </trkpt>
      <trkpt lat="24.925871636438853" lon="118.54417600985346">
        <ele>24.96051025390625</ele>
        <time>2025-07-30T13:22:11Z</time>
      </trkpt>
      <trkpt lat="24.925669128557352" lon="118.54391939963021">
        <ele>25.28192138671875</ele>
        <time>2025-07-30T13:22:23Z</time>
      </trkpt>
      <trkpt lat="24.925451622583633" lon="118.54366379030627">
        <ele>26.63623046875</ele>
        <time>2025-07-30T13:22:35Z</time>
      </trkpt>
      <trkpt lat="24.925236139447435" lon="118.54342020783773">
        <ele>27.08050537109375</ele>
        <time>2025-07-30T13:22:47Z</time>
      </trkpt>
      <trkpt lat="24.92500769007767" lon="118.5431926635114">
        <ele>26.33612060546875</ele>
        <time>2025-07-30T13:22:59Z</time>
      </trkpt>
      <trkpt lat="24.924742333673937" lon="118.5430072239141">
        <ele>27.40887451171875</ele>
        <time>2025-07-30T13:23:11Z</time>
      </trkpt>
      <trkpt lat="24.924475961246387" lon="118.54281476563987">
        <ele>28.29705810546875</ele>
        <time>2025-07-30T13:23:23Z</time>
      </trkpt>
      <trkpt lat="24.92420658152046" lon="118.54261929865343">
        <ele>27.79095458984375</ele>
        <time>2025-07-30T13:23:35Z</time>
      </trkpt>
      <trkpt lat="24.923907277834246" lon="118.54245791732949">
        <ele>27.626220703125</ele>
        <time>2025-07-30T13:23:47Z</time>
      </trkpt>
      <trkpt lat="24.9236079710882" lon="118.54229553249351">
        <ele>26.02532958984375</ele>
        <time>2025-07-30T13:23:59Z</time>
      </trkpt>
      <trkpt lat="24.923360738230596" lon="118.54217123850445">
        <ele>25.2779541015625</ele>
        <time>2025-07-30T13:24:08Z</time>
      </trkpt>
      <trkpt lat="24.92303051435236" lon="118.54204594718371">
        <ele>22.9569091796875</ele>
        <time>2025-07-30T13:24:20Z</time>
      </trkpt>
      <trkpt lat="24.922694292939525" lon="118.54192165820068">
        <ele>22.82427978515625</ele>
        <time>2025-07-30T13:24:32Z</time>
      </trkpt>
      <trkpt lat="24.922426209120808" lon="118.54186553559262">
        <ele>21.746337890625</ele>
        <time>2025-07-30T13:24:41Z</time>
      </trkpt>
      <trkpt lat="24.92215014586501" lon="118.54181843615233">
        <ele>21.6773681640625</ele>
        <time>2025-07-30T13:24:50Z</time>
      </trkpt>
      <trkpt lat="24.921875114991376" lon="118.54178637446293">
        <ele>21.71014404296875</ele>
        <time>2025-07-30T13:24:59Z</time>
      </trkpt>
      <trkpt lat="24.921603085827126" lon="118.54175531505341">
        <ele>22.260009765625</ele>
        <time>2025-07-30T13:25:08Z</time>
      </trkpt>
      <trkpt lat="24.921248092213585" lon="118.5417352892034">
        <ele>22.67401123046875</ele>
        <time>2025-07-30T13:25:20Z</time>
      </trkpt>
      <trkpt lat="24.92088913611986" lon="118.54173230661127">
        <ele>22.79833984375</ele>
        <time>2025-07-30T13:25:32Z</time>
      </trkpt>
      <trkpt lat="24.920717121114766" lon="118.54171427306184">
        <ele>22.60931396484375</ele>
        <time>2025-07-30T13:25:38Z</time>
      </trkpt>
      <trkpt lat="24.920590971156958" lon="118.54163708695167">
        <ele>26.43414306640625</ele>
        <time>2025-07-30T13:25:44Z</time>
      </trkpt>
      <trkpt lat="24.920617847490366" lon="118.54158194573095">
        <ele>24.78814697265625</ele>
        <time>2025-07-30T13:27:09Z</time>
      </trkpt>
      <trkpt lat="24.920439937883625" lon="118.54161203414222">
        <ele>24.5347900390625</ele>
        <time>2025-07-30T13:27:14Z</time>
      </trkpt>
      <trkpt lat="24.920241170541054" lon="118.54170628596417">
        <ele>25.4652099609375</ele>
        <time>2025-07-30T13:27:20Z</time>
      </trkpt>
      <trkpt lat="24.92012820163644" lon="118.54171331153856">
        <ele>25.93829345703125</ele>
        <time>2025-07-30T13:27:23Z</time>
      </trkpt>
      <trkpt lat="24.919927195027313" lon="118.54169728505525">
        <ele>26.21319580078125</ele>
        <time>2025-07-30T13:27:29Z</time>
      </trkpt>
      <trkpt lat="24.91962833272083" lon="118.54174141715835">
        <ele>29.3529052734375</ele>
        <time>2025-07-30T13:27:38Z</time>
      </trkpt>
      <trkpt lat="24.919348428542524" lon="118.54176750237662">
        <ele>33.0545654296875</ele>
        <time>2025-07-30T13:27:48Z</time>
      </trkpt>
      <trkpt lat="24.91907251507713" lon="118.54178957718408">
        <ele>34.396240234375</ele>
        <time>2025-07-30T13:27:57Z</time>
      </trkpt>
      <trkpt lat="24.918779551815085" lon="118.54178759252804">
        <ele>36.277099609375</ele>
        <time>2025-07-30T13:28:06Z</time>
      </trkpt>
      <trkpt lat="24.918508548502892" lon="118.5417685633808">
        <ele>32.4547119140625</ele>
        <time>2025-07-30T13:28:15Z</time>
      </trkpt>
      <trkpt lat="24.918235530224983" lon="118.54174251666146">
        <ele>30.07293701171875</ele>
        <time>2025-07-30T13:28:24Z</time>
      </trkpt>
      <trkpt lat="24.917947583628138" lon="118.54174855187951">
        <ele>30.9957275390625</ele>
        <time>2025-07-30T13:28:33Z</time>
      </trkpt>
      <trkpt lat="24.917667625025416" lon="118.5417495738992">
        <ele>29.87567138671875</ele>
        <time>2025-07-30T13:28:42Z</time>
      </trkpt>
      <trkpt lat="24.91738965960808" lon="118.54174758819516">
        <ele>29.507080078125</ele>
        <time>2025-07-30T13:28:51Z</time>
      </trkpt>
      <trkpt lat="24.917113754785422" lon="118.54177367312627">
        <ele>27.8548583984375</ele>
        <time>2025-07-30T13:29:00Z</time>
      </trkpt>
      <trkpt lat="24.916925822400795" lon="118.54179273422147">
        <ele>25.76129150390625</ele>
        <time>2025-07-30T13:29:06Z</time>
      </trkpt>
      <trkpt lat="24.916830809614513" lon="118.5417807105149">
        <ele>23.75958251953125</ele>
        <time>2025-07-30T13:29:09Z</time>
      </trkpt>
      <trkpt lat="24.916553924436617" lon="118.5418158182129">
        <ele>21.8892822265625</ele>
        <time>2025-07-30T13:29:18Z</time>
      </trkpt>
      <trkpt lat="24.916343014774068" lon="118.54184390359914">
        <ele>22.61383056640625</ele>
        <time>2025-07-30T13:29:27Z</time>
      </trkpt>
      <trkpt lat="24.916181221896156" lon="118.54192912931222">
        <ele>23.35003662109375</ele>
        <time>2025-07-30T13:29:33Z</time>
      </trkpt>
      <trkpt lat="24.91600634175997" lon="118.54197325238623">
        <ele>22.39068603515625</ele>
        <time>2025-07-30T13:29:39Z</time>
      </trkpt>
      <trkpt lat="24.91573561567202" lon="118.54208254563926">
        <ele>21.66339111328125</ele>
        <time>2025-07-30T13:29:48Z</time>
      </trkpt>
      <trkpt lat="24.915465826381112" lon="118.54216276552674">
        <ele>20.43560791015625</ele>
        <time>2025-07-30T13:29:57Z</time>
      </trkpt>
      <trkpt lat="24.915191080711477" lon="118.54226303568701">
        <ele>20.0916748046875</ele>
        <time>2025-07-30T13:30:06Z</time>
      </trkpt>
      <trkpt lat="24.914918276242425" lon="118.542336237687">
        <ele>19.78515625</ele>
        <time>2025-07-30T13:30:15Z</time>
      </trkpt>
      <trkpt lat="24.9145695747078" lon="118.5424525523445">
        <ele>20.51202392578125</ele>
        <time>2025-07-30T13:30:27Z</time>
      </trkpt>
      <trkpt lat="24.9142848143731" lon="118.54254580459616">
        <ele>21.607421875</ele>
        <time>2025-07-30T13:30:36Z</time>
      </trkpt>
      <trkpt lat="24.914024011775027" lon="118.54262100994752">
        <ele>23.1717529296875</ele>
        <time>2025-07-30T13:30:45Z</time>
      </trkpt>
      <trkpt lat="24.913964013714008" lon="118.54261800663937">
        <ele>22.98663330078125</ele>
        <time>2025-07-30T13:30:48Z</time>
      </trkpt>
      <trkpt lat="24.913694188603912" lon="118.54268218499605">
        <ele>22.80767822265625</ele>
        <time>2025-07-30T13:30:57Z</time>
      </trkpt>
      <trkpt lat="24.91343840847441" lon="118.54276841697796">
        <ele>22.2186279296875</ele>
        <time>2025-07-30T13:31:06Z</time>
      </trkpt>
      <trkpt lat="24.913161558333446" lon="118.54282056560908">
        <ele>21.982421875</ele>
        <time>2025-07-30T13:31:15Z</time>
      </trkpt>
      <trkpt lat="24.91287173980424" lon="118.54288674981876">
        <ele>21.9298095703125</ele>
        <time>2025-07-30T13:31:24Z</time>
      </trkpt>
      <trkpt lat="24.912580970311943" lon="118.54297599098983">
        <ele>20.382568359375</ele>
        <time>2025-07-30T13:31:33Z</time>
      </trkpt>
      <trkpt lat="24.91230219673045" lon="118.5430642285378">
        <ele>21.088134765625</ele>
        <time>2025-07-30T13:31:42Z</time>
      </trkpt>
      <trkpt lat="24.91201839378912" lon="118.54313843149426">
        <ele>22.4427490234375</ele>
        <time>2025-07-30T13:31:51Z</time>
      </trkpt>
      <trkpt lat="24.911725574901322" lon="118.54320461508952">
        <ele>22.89483642578125</ele>
        <time>2025-07-30T13:32:00Z</time>
      </trkpt>
      <trkpt lat="24.911444766912464" lon="118.5432768124913">
        <ele>25.21087646484375</ele>
        <time>2025-07-30T13:32:09Z</time>
      </trkpt>
      <trkpt lat="24.91116489074274" lon="118.54331693068903">
        <ele>23.5189208984375</ele>
        <time>2025-07-30T13:32:18Z</time>
      </trkpt>
      <trkpt lat="24.91087302253275" lon="118.54336005705463">
        <ele>23.95758056640625</ele>
        <time>2025-07-30T13:32:27Z</time>
      </trkpt>
      <trkpt lat="24.91060004354814" lon="118.5433520563206">
        <ele>21.48248291015625</ele>
        <time>2025-07-30T13:32:36Z</time>
      </trkpt>
      <trkpt lat="24.910317125283413" lon="118.54337212531514">
        <ele>26.54888916015625</ele>
        <time>2025-07-30T13:32:45Z</time>
      </trkpt>
      <trkpt lat="24.910229141754705" lon="118.54337413636661">
        <ele>26.96002197265625</ele>
        <time>2025-07-30T13:32:48Z</time>
      </trkpt>
      <trkpt lat="24.91021600152082" lon="118.5433069720327">
        <ele>26.65008544921875</ele>
        <time>2025-07-30T13:32:51Z</time>
      </trkpt>
      <trkpt lat="24.910253820059634" lon="118.54322376444631">
        <ele>25.9862060546875</ele>
        <time>2025-07-30T13:32:54Z</time>
      </trkpt>
      <trkpt lat="24.91023941140818" lon="118.54303028782081">
        <ele>25.4102783203125</ele>
        <time>2025-07-30T13:33:00Z</time>
      </trkpt>
      <trkpt lat="24.91032473723216" lon="118.54271951165742">
        <ele>25.45062255859375</ele>
        <time>2025-07-30T13:33:09Z</time>
      </trkpt>
      <trkpt lat="24.910374081949428" lon="118.54241675427137">
        <ele>24.95526123046875</ele>
        <time>2025-07-30T13:33:18Z</time>
      </trkpt>
      <trkpt lat="24.91038784738548" lon="118.5423084828281">
        <ele>26.371337890625</ele>
        <time>2025-07-30T13:33:21Z</time>
      </trkpt>
      <trkpt lat="24.910421622595397" lon="118.54220622460421">
        <ele>26.73895263671875</ele>
        <time>2025-07-30T13:33:24Z</time>
      </trkpt>
    </trkseg>
  </trk>
</gpx>