<?xml version="1.0" encoding="UTF-8"?>
<gpx xmlns="http://www.topografix.com/GPX/1/1" xmlns:gpxtpx="http://www.garmin.com/xmlschemas/TrackPointExtension/v1" xmlns:xsi="http://www.w3.org/2001/XMLSchema-instance" xsi:schemaLocation="http://www.topografix.com/GPX/1/1 http://www.topografix.com/GPX/1/1/gpx.xsd" version="1.1" creator="gpx.py -- https://github.com/tkrajina/gpxpy">
  <trk>
    <name>gpx from keep</name>
    <type>Run</type>
    <trkseg>
      <trkpt lat="24.910783830460655" lon="118.53855171770999">
        <ele>9.732209040783346</ele>
        <time>2024-10-05T14:04:30Z</time>
      </trkpt>
      <trkpt lat="24.910560737987456" lon="118.53850624326316">
        <ele>10.430825861170888</ele>
        <time>2024-10-05T14:04:39Z</time>
      </trkpt>
      <trkpt lat="24.910459898258104" lon="118.53850109897513">
        <ele>9.78480968810618</ele>
        <time>2024-10-05T14:04:42Z</time>
      </trkpt>
      <trkpt lat="24.91037559478177" lon="118.53847445141989">
        <ele>9.649089368991554</ele>
        <time>2024-10-05T14:04:45Z</time>
      </trkpt>
      <trkpt lat="24.910088492632784" lon="118.53844344607431">
        <ele>8.48663878813386</ele>
        <time>2024-10-05T14:04:54Z</time>
      </trkpt>
      <trkpt lat="24.909895541337562" lon="118.5384106107233">
        <ele>8.14067748002708</ele>
        <time>2024-10-05T14:05:00Z</time>
      </trkpt>
      <trkpt lat="24.90978736568676" lon="118.53841493728937">
        <ele>8.398909621872008</ele>
        <time>2024-10-05T14:05:03Z</time>
      </trkpt>
      <trkpt lat="24.909481709288645" lon="118.53845152077226">
        <ele>7.44404698908329</ele>
        <time>2024-10-05T14:05:12Z</time>
      </trkpt>
      <trkpt lat="24.90926946026847" lon="118.5384718417651">
        <ele>7.698101186193526</ele>
        <time>2024-10-05T14:05:18Z</time>
      </trkpt>
      <trkpt lat="24.909092280997864" lon="118.53835624452732">
        <ele>7.201424186117947</ele>
        <time>2024-10-05T14:05:24Z</time>
      </trkpt>
      <trkpt lat="24.909066108465336" lon="118.53827023693276">
        <ele>7.570219000801444</ele>
        <time>2024-10-05T14:05:27Z</time>
      </trkpt>
      <trkpt lat="24.909130907373093" lon="118.53806611546638">
        <ele>7.361729050986469</ele>
        <time>2024-10-05T14:05:33Z</time>
      </trkpt>
      <trkpt lat="24.90918203007016" lon="118.53796742545552">
        <ele>7.3042732160538435</ele>
        <time>2024-10-05T14:05:36Z</time>
      </trkpt>
      <trkpt lat="24.909229135454197" lon="118.53776427167092">
        <ele>7.868914376012981</ele>
        <time>2024-10-05T14:05:42Z</time>
      </trkpt>
      <trkpt lat="24.909320622028833" lon="118.53745303647642">
        <ele>9.596136984415352</ele>
        <time>2024-10-05T14:05:51Z</time>
      </trkpt>
      <trkpt lat="24.909371286144967" lon="118.53717899958566">
        <ele>10.113293039612472</ele>
        <time>2024-10-05T14:06:00Z</time>
      </trkpt>
      <trkpt lat="24.909465287346453" lon="118.53687647235022">
        <ele>10.301995393820107</ele>
        <time>2024-10-05T14:06:09Z</time>
      </trkpt>
      <trkpt lat="24.909564525016677" lon="118.53657171947133">
        <ele>9.896113690920174</ele>
        <time>2024-10-05T14:06:18Z</time>
      </trkpt>
      <trkpt lat="24.909622961138922" lon="118.53638400370716">
        <ele>9.489971027709544</ele>
        <time>2024-10-05T14:06:24Z</time>
      </trkpt>
      <trkpt lat="24.909635761947897" lon="118.53599140588715">
        <ele>10.03033279441297</ele>
        <time>2024-10-05T14:06:36Z</time>
      </trkpt>
      <trkpt lat="24.909653927814542" lon="118.53588620467389">
        <ele>9.907343323342502</ele>
        <time>2024-10-05T14:06:39Z</time>
      </trkpt>
      <trkpt lat="24.909654796482354" lon="118.53567503942908">
        <ele>9.43285358324647</ele>
        <time>2024-10-05T14:06:45Z</time>
      </trkpt>
      <trkpt lat="24.90971855299102" lon="118.53546898873432">
        <ele>10.04526247177273</ele>
        <time>2024-10-05T14:06:51Z</time>
      </trkpt>
      <trkpt lat="24.90975039273709" lon="118.53508663435713">
        <ele>9.184285032562912</ele>
        <time>2024-10-05T14:07:03Z</time>
      </trkpt>
      <trkpt lat="24.909757563167176" lon="118.53489609083616">
        <ele>8.652626150287688</ele>
        <time>2024-10-05T14:07:09Z</time>
      </trkpt>
      <trkpt lat="24.909808169505677" lon="118.5348288955891">
        <ele>8.000288537703454</ele>
        <time>2024-10-05T14:07:12Z</time>
      </trkpt>
      <trkpt lat="24.909769893382926" lon="118.53473952796003">
        <ele>7.8073448948562145</ele>
        <time>2024-10-05T14:07:15Z</time>
      </trkpt>
      <trkpt lat="24.909792439714753" lon="118.53454925038942">
        <ele>7.419292761944234</ele>
        <time>2024-10-05T14:07:21Z</time>
      </trkpt>
      <trkpt lat="24.909791714309637" lon="118.53436935545936">
        <ele>7.186363488435745</ele>
        <time>2024-10-05T14:07:27Z</time>
      </trkpt>
      <trkpt lat="24.909830932389404" lon="118.5340747659277">
        <ele>7.283017029054463</ele>
        <time>2024-10-05T14:07:36Z</time>
      </trkpt>
      <trkpt lat="24.909842458530083" lon="118.53398311856681">
        <ele>7.581915549002588</ele>
        <time>2024-10-05T14:07:39Z</time>
      </trkpt>
      <trkpt lat="24.90987352023728" lon="118.53390325203367">
        <ele>7.863450560718775</ele>
        <time>2024-10-05T14:07:42Z</time>
      </trkpt>
      <trkpt lat="24.90994626612531" lon="118.53383739068279">
        <ele>7.766650426201522</ele>
        <time>2024-10-05T14:07:45Z</time>
      </trkpt>
      <trkpt lat="24.910114131868422" lon="118.533797361328">
        <ele>8.238977675326169</ele>
        <time>2024-10-05T14:07:51Z</time>
      </trkpt>
      <trkpt lat="24.910291229432282" lon="118.53380913675963">
        <ele>8.919258528389037</ele>
        <time>2024-10-05T14:07:57Z</time>
      </trkpt>
      <trkpt lat="24.91047879999036" lon="118.53377779914679">
        <ele>10.32484720274806</ele>
        <time>2024-10-05T14:08:03Z</time>
      </trkpt>
      <trkpt lat="24.91077045606696" lon="118.53379290859817">
        <ele>9.858424206264317</ele>
        <time>2024-10-05T14:08:12Z</time>
      </trkpt>
      <trkpt lat="24.9110638733252" lon="118.5337712866678">
        <ele>10.348528116941452</ele>
        <time>2024-10-05T14:08:21Z</time>
      </trkpt>
      <trkpt lat="24.91133498764665" lon="118.53377097509026">
        <ele>10.33726227749139</ele>
        <time>2024-10-05T14:08:30Z</time>
      </trkpt>
      <trkpt lat="24.911678265371584" lon="118.53375834056702">
        <ele>10.454751984216273</ele>
        <time>2024-10-05T14:08:42Z</time>
      </trkpt>
      <trkpt lat="24.91193990868914" lon="118.53376042785139">
        <ele>10.19424022641033</ele>
        <time>2024-10-05T14:08:51Z</time>
      </trkpt>
      <trkpt lat="24.91224685396366" lon="118.53378873940693">
        <ele>10.44736116938293</ele>
        <time>2024-10-05T14:09:00Z</time>
      </trkpt>
      <trkpt lat="24.91241910091563" lon="118.53378477338835">
        <ele>10.048489674925804</ele>
        <time>2024-10-05T14:09:06Z</time>
      </trkpt>
      <trkpt lat="24.912683877421372" lon="118.5337546187143">
        <ele>10.162162070162594</ele>
        <time>2024-10-05T14:09:15Z</time>
      </trkpt>
      <trkpt lat="24.912944906867615" lon="118.53377798788576">
        <ele>10.453346136957407</ele>
        <time>2024-10-05T14:09:24Z</time>
      </trkpt>
      <trkpt lat="24.913100557658602" lon="118.53382473076329">
        <ele>10.324903612025082</ele>
        <time>2024-10-05T14:09:30Z</time>
      </trkpt>
      <trkpt lat="24.91336196410033" lon="118.53386268504336">
        <ele>10.296664291992784</ele>
        <time>2024-10-05T14:09:40Z</time>
      </trkpt>
      <trkpt lat="24.913521539059364" lon="118.5338743503848">
        <ele>10.1413384238258</ele>
        <time>2024-10-05T14:09:46Z</time>
      </trkpt>
      <trkpt lat="24.913695251841077" lon="118.53393756812788">
        <ele>10.945073145441711</ele>
        <time>2024-10-05T14:09:52Z</time>
      </trkpt>
      <trkpt lat="24.91387464582887" lon="118.53396132837551">
        <ele>11.013686951249838</ele>
        <time>2024-10-05T14:09:58Z</time>
      </trkpt>
      <trkpt lat="24.91422800775279" lon="118.53396269892917">
        <ele>10.764250673353672</ele>
        <time>2024-10-05T14:10:10Z</time>
      </trkpt>
      <trkpt lat="24.914463630664535" lon="118.53402980450323">
        <ele>12.070286475121975</ele>
        <time>2024-10-05T14:10:19Z</time>
      </trkpt>
      <trkpt lat="24.91453486722398" lon="118.5340282475888">
        <ele>12.206533045507967</ele>
        <time>2024-10-05T14:10:22Z</time>
      </trkpt>
      <trkpt lat="24.91490036987359" lon="118.53410031458074">
        <ele>12.933696280233562</ele>
        <time>2024-10-05T14:10:34Z</time>
      </trkpt>
      <trkpt lat="24.91519261977228" lon="118.53413760021849">
        <ele>12.936247347854078</ele>
        <time>2024-10-05T14:10:43Z</time>
      </trkpt>
      <trkpt lat="24.91555309792878" lon="118.53419630645129">
        <ele>12.65339714102447</ele>
        <time>2024-10-05T14:10:55Z</time>
      </trkpt>
      <trkpt lat="24.915878405397727" lon="118.5342439915953">
        <ele>12.438508750870824</ele>
        <time>2024-10-05T14:11:07Z</time>
      </trkpt>
      <trkpt lat="24.916239138555998" lon="118.53432151121024">
        <ele>12.579720403067768</ele>
        <time>2024-10-05T14:11:19Z</time>
      </trkpt>
      <trkpt lat="24.91659435398852" lon="118.53439546793024">
        <ele>13.206659322604537</ele>
        <time>2024-10-05T14:11:31Z</time>
      </trkpt>
      <trkpt lat="24.916931950566994" lon="118.53446189692832">
        <ele>14.285475837998092</ele>
        <time>2024-10-05T14:11:43Z</time>
      </trkpt>
      <trkpt lat="24.917283097459244" lon="118.53453033769844">
        <ele>14.765907097607851</ele>
        <time>2024-10-05T14:11:55Z</time>
      </trkpt>
      <trkpt lat="24.917616464578693" lon="118.53461459714569">
        <ele>15.054728082381189</ele>
        <time>2024-10-05T14:12:07Z</time>
      </trkpt>
      <trkpt lat="24.917923105492246" lon="118.53470145780146">
        <ele>14.402660654857755</ele>
        <time>2024-10-05T14:12:19Z</time>
      </trkpt>
      <trkpt lat="24.918283022338844" lon="118.53476577988502">
        <ele>13.207926362752914</ele>
        <time>2024-10-05T14:12:31Z</time>
      </trkpt>
      <trkpt lat="24.918419545189543" lon="118.5348051656829">
        <ele>12.839900307357311</ele>
        <time>2024-10-05T14:12:35Z</time>
      </trkpt>
      <trkpt lat="24.91850248498168" lon="118.53485881866932">
        <ele>12.45807698275894</ele>
        <time>2024-10-05T14:12:38Z</time>
      </trkpt>
      <trkpt lat="24.91861592943392" lon="118.53503565491856">
        <ele>12.139775918796659</ele>
        <time>2024-10-05T14:12:44Z</time>
      </trkpt>
      <trkpt lat="24.91863877639827" lon="118.53513854412313">
        <ele>11.9395388122648</ele>
        <time>2024-10-05T14:12:47Z</time>
      </trkpt>
      <trkpt lat="24.918535906567513" lon="118.5354768375434">
        <ele>9.932394529692829</ele>
        <time>2024-10-05T14:12:59Z</time>
      </trkpt>
      <trkpt lat="24.918454295869097" lon="118.53576575059793">
        <ele>10.001898837275803</ele>
        <time>2024-10-05T14:13:08Z</time>
      </trkpt>
      <trkpt lat="24.918306239703668" lon="118.53611588100408">
        <ele>9.577723500318825</ele>
        <time>2024-10-05T14:13:20Z</time>
      </trkpt>
      <trkpt lat="24.918173560267448" lon="118.53638177619752">
        <ele>9.368350275792181</ele>
        <time>2024-10-05T14:13:29Z</time>
      </trkpt>
      <trkpt lat="24.918044640117586" lon="118.53671809272802">
        <ele>9.85516133531928</ele>
        <time>2024-10-05T14:13:41Z</time>
      </trkpt>
      <trkpt lat="24.917886212645033" lon="118.53704860803646">
        <ele>9.633647993206978</ele>
        <time>2024-10-05T14:13:53Z</time>
      </trkpt>
      <trkpt lat="24.91775376087183" lon="118.53733093099784">
        <ele>9.887010687962174</ele>
        <time>2024-10-05T14:14:02Z</time>
      </trkpt>
      <trkpt lat="24.917630886499843" lon="118.53760113416084">
        <ele>10.004598925821483</ele>
        <time>2024-10-05T14:14:11Z</time>
      </trkpt>
      <trkpt lat="24.917508985823243" lon="118.53785594102715">
        <ele>10.113722737878561</ele>
        <time>2024-10-05T14:14:20Z</time>
      </trkpt>
      <trkpt lat="24.917361502845317" lon="118.53821143595931">
        <ele>10.322518356144428</ele>
        <time>2024-10-05T14:14:32Z</time>
      </trkpt>
      <trkpt lat="24.917260095398667" lon="118.53856646168586">
        <ele>9.746911612339318</ele>
        <time>2024-10-05T14:14:44Z</time>
      </trkpt>
      <trkpt lat="24.917183697492977" lon="118.5387411340775">
        <ele>9.680535579100251</ele>
        <time>2024-10-05T14:14:50Z</time>
      </trkpt>
      <trkpt lat="24.917102866598007" lon="118.5391238711871">
        <ele>9.532212469726801</ele>
        <time>2024-10-05T14:15:02Z</time>
      </trkpt>
      <trkpt lat="24.917053337179535" lon="118.53930414716869">
        <ele>9.952822299674153</ele>
        <time>2024-10-05T14:15:08Z</time>
      </trkpt>
      <trkpt lat="24.917008029878897" lon="118.53939262271973">
        <ele>10.12654875498265</ele>
        <time>2024-10-05T14:15:11Z</time>
      </trkpt>
      <trkpt lat="24.916953487012844" lon="118.53958903176994">
        <ele>10.409304210916162</ele>
        <time>2024-10-05T14:15:17Z</time>
      </trkpt>
      <trkpt lat="24.916882672682885" lon="118.53966744551191">
        <ele>10.628717159852386</ele>
        <time>2024-10-05T14:15:20Z</time>
      </trkpt>
      <trkpt lat="24.916842505446937" lon="118.53975624050352">
        <ele>10.26990966219455</ele>
        <time>2024-10-05T14:15:23Z</time>
      </trkpt>
      <trkpt lat="24.916759990053563" lon="118.5398516376264">
        <ele>10.210048478096724</ele>
        <time>2024-10-05T14:15:26Z</time>
      </trkpt>
      <trkpt lat="24.916603520714684" lon="118.5401267867103">
        <ele>9.974642707034945</ele>
        <time>2024-10-05T14:15:35Z</time>
      </trkpt>
      <trkpt lat="24.916518843286223" lon="118.54030327806684">
        <ele>10.485983666963875</ele>
        <time>2024-10-05T14:15:41Z</time>
      </trkpt>
      <trkpt lat="24.916463822785992" lon="118.54071496952656">
        <ele>11.850535774603486</ele>
        <time>2024-10-05T14:15:53Z</time>
      </trkpt>
      <trkpt lat="24.916489069266177" lon="118.54102746197908">
        <ele>12.51667545363307</ele>
        <time>2024-10-05T14:16:02Z</time>
      </trkpt>
      <trkpt lat="24.91656609799984" lon="118.54123580273227">
        <ele>12.878616834059358</ele>
        <time>2024-10-05T14:16:08Z</time>
      </trkpt>
      <trkpt lat="24.916659424494767" lon="118.5416207034503">
        <ele>12.65040114056319</ele>
        <time>2024-10-05T14:16:20Z</time>
      </trkpt>
      <trkpt lat="24.916667480567735" lon="118.54171066885259">
        <ele>12.475750837475061</ele>
        <time>2024-10-05T14:16:23Z</time>
      </trkpt>
      <trkpt lat="24.916572521710783" lon="118.54185596952443">
        <ele>12.033380700275302</ele>
        <time>2024-10-05T14:16:29Z</time>
      </trkpt>
      <trkpt lat="24.916399161677685" lon="118.54192727232227">
        <ele>11.362235708162189</ele>
        <time>2024-10-05T14:16:35Z</time>
      </trkpt>
      <trkpt lat="24.916309303800794" lon="118.54198084948551">
        <ele>11.660439477302134</ele>
        <time>2024-10-05T14:16:38Z</time>
      </trkpt>
      <trkpt lat="24.916012289358314" lon="118.54221653837276">
        <ele>12.461600299924612</ele>
        <time>2024-10-05T14:16:47Z</time>
      </trkpt>
      <trkpt lat="24.915804846830838" lon="118.54241649499819">
        <ele>12.229258568026125</ele>
        <time>2024-10-05T14:16:53Z</time>
      </trkpt>
      <trkpt lat="24.915708332388373" lon="118.54244936446655">
        <ele>12.243396872654557</ele>
        <time>2024-10-05T14:16:56Z</time>
      </trkpt>
      <trkpt lat="24.915622171046447" lon="118.54251319519643">
        <ele>12.765947928652167</ele>
        <time>2024-10-05T14:16:59Z</time>
      </trkpt>
      <trkpt lat="24.91553144835354" lon="118.54254569708965">
        <ele>12.838790978305042</ele>
        <time>2024-10-05T14:17:02Z</time>
      </trkpt>
      <trkpt lat="24.915435449529234" lon="118.54261313306148">
        <ele>12.930145308375359</ele>
        <time>2024-10-05T14:17:05Z</time>
      </trkpt>
      <trkpt lat="24.915236355483383" lon="118.54268395797057">
        <ele>13.481404135003686</ele>
        <time>2024-10-05T14:17:11Z</time>
      </trkpt>
      <trkpt lat="24.91507553800689" lon="118.5426961526541">
        <ele>11.993936345912516</ele>
        <time>2024-10-05T14:17:17Z</time>
      </trkpt>
      <trkpt lat="24.914911700471247" lon="118.54273877673945">
        <ele>10.746071841567755</ele>
        <time>2024-10-05T14:17:23Z</time>
      </trkpt>
      <trkpt lat="24.914753516793425" lon="118.54273884439107">
        <ele>10.228165914304554</ele>
        <time>2024-10-05T14:17:29Z</time>
      </trkpt>
      <trkpt lat="24.914666616338273" lon="118.54271087936702">
        <ele>10.239259987138212</ele>
        <time>2024-10-05T14:17:32Z</time>
      </trkpt>
      <trkpt lat="24.914592888047185" lon="118.54264846143964">
        <ele>10.048582002520561</ele>
        <time>2024-10-05T14:17:35Z</time>
      </trkpt>
      <trkpt lat="24.914408771720016" lon="118.5426025485613">
        <ele>9.95303319580853</ele>
        <time>2024-10-05T14:17:41Z</time>
      </trkpt>
      <trkpt lat="24.9143217340989" lon="118.54259822880756">
        <ele>10.18012393079698</ele>
        <time>2024-10-05T14:17:44Z</time>
      </trkpt>
      <trkpt lat="24.91421972622836" lon="118.5425661393109">
        <ele>9.842166722752154</ele>
        <time>2024-10-05T14:17:47Z</time>
      </trkpt>
      <trkpt lat="24.9141314233452" lon="118.54256935998647">
        <ele>10.055268951691687</ele>
        <time>2024-10-05T14:17:50Z</time>
      </trkpt>
      <trkpt lat="24.914049161306142" lon="118.54260884686114">
        <ele>10.139232621528208</ele>
        <time>2024-10-05T14:17:53Z</time>
      </trkpt>
      <trkpt lat="24.913872733779733" lon="118.54262268799299">
        <ele>9.397566756233573</ele>
        <time>2024-10-05T14:17:59Z</time>
      </trkpt>
      <trkpt lat="24.9137096620081" lon="118.54267515710082">
        <ele>9.278391847386956</ele>
        <time>2024-10-05T14:18:05Z</time>
      </trkpt>
      <trkpt lat="24.913639562272053" lon="118.5427345125632">
        <ele>8.967489160597324</ele>
        <time>2024-10-05T14:18:08Z</time>
      </trkpt>
      <trkpt lat="24.913372612154085" lon="118.54282708642549">
        <ele>7.929859013296664</ele>
        <time>2024-10-05T14:18:17Z</time>
      </trkpt>
      <trkpt lat="24.913197109302917" lon="118.54281848084975">
        <ele>7.736347201280296</ele>
        <time>2024-10-05T14:18:23Z</time>
      </trkpt>
      <trkpt lat="24.91301532252049" lon="118.54287826207437">
        <ele>7.669421317055821</ele>
        <time>2024-10-05T14:18:29Z</time>
      </trkpt>
      <trkpt lat="24.91268818672108" lon="118.54292601250191">
        <ele>8.939570684917271</ele>
        <time>2024-10-05T14:18:41Z</time>
      </trkpt>
      <trkpt lat="24.912384095574122" lon="118.54300202809046">
        <ele>8.4688566243276</ele>
        <time>2024-10-05T14:18:53Z</time>
      </trkpt>
      <trkpt lat="24.912219003661622" lon="118.54304928838606">
        <ele>8.043635462410748</ele>
        <time>2024-10-05T14:18:59Z</time>
      </trkpt>
      <trkpt lat="24.911879894754133" lon="118.54313582296678">
        <ele>7.772823781706393</ele>
        <time>2024-10-05T14:19:11Z</time>
      </trkpt>
      <trkpt lat="24.91157522762823" lon="118.54320461537799">
        <ele>8.68343532178551</ele>
        <time>2024-10-05T14:19:23Z</time>
      </trkpt>
      <trkpt lat="24.911245113856314" lon="118.54329674481266">
        <ele>8.540519294328988</ele>
        <time>2024-10-05T14:19:35Z</time>
      </trkpt>
      <trkpt lat="24.91106924521957" lon="118.54330902818215">
        <ele>8.291217152960598</ele>
        <time>2024-10-05T14:19:41Z</time>
      </trkpt>
      <trkpt lat="24.91097380073605" lon="118.54333126803898">
        <ele>8.091016250662506</ele>
        <time>2024-10-05T14:19:44Z</time>
      </trkpt>
      <trkpt lat="24.910686229263433" lon="118.54334317756059">
        <ele>7.428048965521157</ele>
        <time>2024-10-05T14:19:53Z</time>
      </trkpt>
      <trkpt lat="24.91041783340642" lon="118.54332012900622">
        <ele>7.36353057436645</ele>
        <time>2024-10-05T14:20:02Z</time>
      </trkpt>
      <trkpt lat="24.9103279413084" lon="118.54333065298695">
        <ele>7.194816955365241</ele>
        <time>2024-10-05T14:20:05Z</time>
      </trkpt>
      <trkpt lat="24.91014031320654" lon="118.54338744011248">
        <ele>7.636356143280864</ele>
        <time>2024-10-05T14:20:11Z</time>
      </trkpt>
      <trkpt lat="24.90992901591257" lon="118.54335347552892">
        <ele>7.543534466996789</ele>
        <time>2024-10-05T14:20:17Z</time>
      </trkpt>
      <trkpt lat="24.909752263678886" lon="118.54338144821065">
        <ele>6.723596313036978</ele>
        <time>2024-10-05T14:20:23Z</time>
      </trkpt>
      <trkpt lat="24.90966043643477" lon="118.54336182139582">
        <ele>7.0445922538638115</ele>
        <time>2024-10-05T14:20:26Z</time>
      </trkpt>
      <trkpt lat="24.90939866794406" lon="118.54333776133674">
        <ele>6.9347332222387195</ele>
        <time>2024-10-05T14:20:35Z</time>
      </trkpt>
      <trkpt lat="24.909305881077096" lon="118.54330164475644">
        <ele>6.98747200705111</ele>
        <time>2024-10-05T14:20:38Z</time>
      </trkpt>
      <trkpt lat="24.909235747558245" lon="118.54329381924359">
        <ele>7.652779418043792</ele>
        <time>2024-10-05T14:20:41Z</time>
      </trkpt>
      <trkpt lat="24.90914842973519" lon="118.54325258218921">
        <ele>7.051163734868169</ele>
        <time>2024-10-05T14:20:44Z</time>
      </trkpt>
      <trkpt lat="24.908958505509144" lon="118.54322478150299">
        <ele>7.510864960961044</ele>
        <time>2024-10-05T14:20:50Z</time>
      </trkpt>
      <trkpt lat="24.908825545591803" lon="118.54322422030525">
        <ele>7.146372703835368</ele>
        <time>2024-10-05T14:20:54Z</time>
      </trkpt>
      <trkpt lat="24.908706158958466" lon="118.54326128340583">
        <ele>7.110035694204271</ele>
        <time>2024-10-05T14:20:57Z</time>
      </trkpt>
      <trkpt lat="24.90844329646126" lon="118.54326152682147">
        <ele>7.008454388938844</ele>
        <time>2024-10-05T14:21:06Z</time>
      </trkpt>
      <trkpt lat="24.908340724794535" lon="118.54329683899863">
        <ele>7.379896865226328</ele>
        <time>2024-10-05T14:21:09Z</time>
      </trkpt>
      <trkpt lat="24.908257079110935" lon="118.54328969911919">
        <ele>7.434414190240204</ele>
        <time>2024-10-05T14:21:12Z</time>
      </trkpt>
      <trkpt lat="24.908202064815093" lon="118.54326825639522">
        <ele>7.196020786650479</ele>
        <time>2024-10-05T14:21:15Z</time>
      </trkpt>
      <trkpt lat="24.908119471108115" lon="118.54326676713858">
        <ele>6.868210825137794</ele>
        <time>2024-10-05T14:21:18Z</time>
      </trkpt>
      <trkpt lat="24.907907279503576" lon="118.5433277534714">
        <ele>7.868109249509871</ele>
        <time>2024-10-05T14:21:25Z</time>
      </trkpt>
      <trkpt lat="24.907643284129332" lon="118.54334035791514">
        <ele>7.314544471912086</ele>
        <time>2024-10-05T14:21:34Z</time>
      </trkpt>
      <trkpt lat="24.907554332871225" lon="118.54331276778296">
        <ele>7.6176234018057585</ele>
        <time>2024-10-05T14:21:37Z</time>
      </trkpt>
      <trkpt lat="24.907412996630175" lon="118.54320685733207">
        <ele>7.502105268649757</ele>
        <time>2024-10-05T14:21:43Z</time>
      </trkpt>
      <trkpt lat="24.907491944267285" lon="118.54305423755261">
        <ele>7.705162768252194</ele>
        <time>2024-10-05T14:21:49Z</time>
      </trkpt>
      <trkpt lat="24.907676870391835" lon="118.54276082067743">
        <ele>7.363582009449601</ele>
        <time>2024-10-05T14:22:01Z</time>
      </trkpt>
      <trkpt lat="24.907730271734142" lon="118.54258627245189">
        <ele>7.971701173111796</ele>
        <time>2024-10-05T14:22:07Z</time>
      </trkpt>
      <trkpt lat="24.90778765247752" lon="118.54221403694865">
        <ele>8.100096505135298</ele>
        <time>2024-10-05T14:22:19Z</time>
      </trkpt>
      <trkpt lat="24.90790403047373" lon="118.54195637371443">
        <ele>8.449679569341242</ele>
        <time>2024-10-05T14:22:28Z</time>
      </trkpt>
      <trkpt lat="24.908017662515974" lon="118.54172307110109">
        <ele>9.044512897729874</ele>
        <time>2024-10-05T14:22:37Z</time>
      </trkpt>
      <trkpt lat="24.908043669907368" lon="118.54147417247232">
        <ele>10.65742704179138</ele>
        <time>2024-10-05T14:22:46Z</time>
      </trkpt>
      <trkpt lat="24.90804167696106" lon="118.54130818970022">
        <ele>11.854355558753014</ele>
        <time>2024-10-05T14:22:52Z</time>
      </trkpt>
      <trkpt lat="24.908099535256053" lon="118.54122128034467">
        <ele>11.26479185372591</ele>
        <time>2024-10-05T14:22:55Z</time>
      </trkpt>
      <trkpt lat="24.908206340411375" lon="118.54112696248414">
        <ele>10.428729930892587</ele>
        <time>2024-10-05T14:22:58Z</time>
      </trkpt>
      <trkpt lat="24.908403312555762" lon="118.54082589869658">
        <ele>8.867619146592915</ele>
        <time>2024-10-05T14:23:07Z</time>
      </trkpt>
      <trkpt lat="24.908484634637666" lon="118.5407316619854">
        <ele>8.24325880780816</ele>
        <time>2024-10-05T14:23:10Z</time>
      </trkpt>
      <trkpt lat="24.90858096750363" lon="118.54053147611732">
        <ele>8.23489806894213</ele>
        <time>2024-10-05T14:23:16Z</time>
      </trkpt>
      <trkpt lat="24.908649157739447" lon="118.5404300653678">
        <ele>8.00735676754266</ele>
        <time>2024-10-05T14:23:19Z</time>
      </trkpt>
      <trkpt lat="24.908743123453235" lon="118.54011130144218">
        <ele>7.7290846118703485</ele>
        <time>2024-10-05T14:23:28Z</time>
      </trkpt>
      <trkpt lat="24.90877923689564" lon="118.53981182574611">
        <ele>7.527001546695828</ele>
        <time>2024-10-05T14:23:37Z</time>
      </trkpt>
      <trkpt lat="24.908866529048037" lon="118.53955375236222">
        <ele>7.513638095930219</ele>
        <time>2024-10-05T14:23:46Z</time>
      </trkpt>
      <trkpt lat="24.908916598068434" lon="118.53928456425764">
        <ele>7.948691637255251</ele>
        <time>2024-10-05T14:23:55Z</time>
      </trkpt>
      <trkpt lat="24.908918863800523" lon="118.53919266289381">
        <ele>8.104149769060314</ele>
        <time>2024-10-05T14:23:58Z</time>
      </trkpt>
      <trkpt lat="24.908994045956224" lon="118.53888743240594">
        <ele>7.687928547151387</ele>
        <time>2024-10-05T14:24:07Z</time>
      </trkpt>
      <trkpt lat="24.909063677914915" lon="118.53859789213229">
        <ele>8.130950627848506</ele>
        <time>2024-10-05T14:24:17Z</time>
      </trkpt>
      <trkpt lat="24.909086269641207" lon="118.53830122957514">
        <ele>7.696005316451192</ele>
        <time>2024-10-05T14:24:26Z</time>
      </trkpt>
      <trkpt lat="24.909190413645803" lon="118.5379444363727">
        <ele>7.861981596797705</ele>
        <time>2024-10-05T14:24:38Z</time>
      </trkpt>
      <trkpt lat="24.90920841380838" lon="118.53784337440682">
        <ele>7.659267758950591</ele>
        <time>2024-10-05T14:24:41Z</time>
      </trkpt>
      <trkpt lat="24.909310519474015" lon="118.53761604841695">
        <ele>8.64302636217326</ele>
        <time>2024-10-05T14:24:47Z</time>
      </trkpt>
      <trkpt lat="24.909341822451875" lon="118.53740590284231">
        <ele>10.09397846646607</ele>
        <time>2024-10-05T14:24:53Z</time>
      </trkpt>
      <trkpt lat="24.90934687671277" lon="118.53707039129912">
        <ele>10.395107303746045</ele>
        <time>2024-10-05T14:25:03Z</time>
      </trkpt>
      <trkpt lat="24.9094270640993" lon="118.53685633525657">
        <ele>9.933877626433969</ele>
        <time>2024-10-05T14:25:10Z</time>
      </trkpt>
      <trkpt lat="24.9094414514426" lon="118.53676843569339">
        <ele>10.001323859207332</ele>
        <time>2024-10-05T14:25:13Z</time>
      </trkpt>
      <trkpt lat="24.90956341924658" lon="118.53642644325706">
        <ele>9.38528778590262</ele>
        <time>2024-10-05T14:25:25Z</time>
      </trkpt>
      <trkpt lat="24.90955793826757" lon="118.53612127609811">
        <ele>9.644786400720477</ele>
        <time>2024-10-05T14:25:34Z</time>
      </trkpt>
      <trkpt lat="24.909620933999843" lon="118.53574836842536">
        <ele>9.651795289479196</ele>
        <time>2024-10-05T14:25:46Z</time>
      </trkpt>
      <trkpt lat="24.90963037109811" lon="118.53565514926746">
        <ele>9.18446669448167</ele>
        <time>2024-10-05T14:25:49Z</time>
      </trkpt>
      <trkpt lat="24.909687682562147" lon="118.53544382779017">
        <ele>9.503914036788046</ele>
        <time>2024-10-05T14:25:55Z</time>
      </trkpt>
      <trkpt lat="24.909731985544003" lon="118.53514398022418">
        <ele>9.38979156780988</ele>
        <time>2024-10-05T14:26:04Z</time>
      </trkpt>
      <trkpt lat="24.909760142226872" lon="118.53478638171507">
        <ele>7.522794921882451</ele>
        <time>2024-10-05T14:26:16Z</time>
      </trkpt>
      <trkpt lat="24.90976693791458" lon="118.5344239885111">
        <ele>7.648972055874765</ele>
        <time>2024-10-05T14:26:28Z</time>
      </trkpt>
      <trkpt lat="24.90979432362869" lon="118.53422822330518">
        <ele>8.244544638320804</ele>
        <time>2024-10-05T14:26:34Z</time>
      </trkpt>
      <trkpt lat="24.909856029735774" lon="118.53396294622706">
        <ele>7.760728964582086</ele>
        <time>2024-10-05T14:26:43Z</time>
      </trkpt>
      <trkpt lat="24.90990985275345" lon="118.533887226086">
        <ele>7.934466087259352</ele>
        <time>2024-10-05T14:26:46Z</time>
      </trkpt>
      <trkpt lat="24.910062314946906" lon="118.5338278616234">
        <ele>8.28776041418314</ele>
        <time>2024-10-05T14:26:52Z</time>
      </trkpt>
      <trkpt lat="24.91023788450944" lon="118.53382471052774">
        <ele>9.084198688156903</ele>
        <time>2024-10-05T14:26:58Z</time>
      </trkpt>
      <trkpt lat="24.910308078748415" lon="118.53379751808367">
        <ele>9.764192070811987</ele>
        <time>2024-10-05T14:27:01Z</time>
      </trkpt>
      <trkpt lat="24.910522004867634" lon="118.53376290566538">
        <ele>9.873152836225927</ele>
        <time>2024-10-05T14:27:08Z</time>
      </trkpt>
      <trkpt lat="24.91081549857939" lon="118.53377931950978">
        <ele>9.842398787848651</ele>
        <time>2024-10-05T14:27:17Z</time>
      </trkpt>
      <trkpt lat="24.91116360242638" lon="118.53377773964222">
        <ele>9.523390782997012</ele>
        <time>2024-10-05T14:27:29Z</time>
      </trkpt>
      <trkpt lat="24.91144245019832" lon="118.53377963300154">
        <ele>9.935938495211303</ele>
        <time>2024-10-05T14:27:38Z</time>
      </trkpt>
      <trkpt lat="24.911786060096357" lon="118.53376316946819">
        <ele>9.773362122476101</ele>
        <time>2024-10-05T14:27:50Z</time>
      </trkpt>
      <trkpt lat="24.912078699941574" lon="118.53378151668342">
        <ele>10.130750875920057</ele>
        <time>2024-10-05T14:27:59Z</time>
      </trkpt>
      <trkpt lat="24.91217723612459" lon="118.53380276959778">
        <ele>10.18782922718674</ele>
        <time>2024-10-05T14:28:02Z</time>
      </trkpt>
      <trkpt lat="24.912465006856355" lon="118.53377809830788">
        <ele>10.008960701525211</ele>
        <time>2024-10-05T14:28:11Z</time>
      </trkpt>
      <trkpt lat="24.912634048630075" lon="118.53375209970969">
        <ele>10.477240196429193</ele>
        <time>2024-10-05T14:28:17Z</time>
      </trkpt>
      <trkpt lat="24.912898552313585" lon="118.53377389492525">
        <ele>9.89823797531426</ele>
        <time>2024-10-05T14:28:26Z</time>
      </trkpt>
      <trkpt lat="24.913068541337527" lon="118.53381911245438">
        <ele>10.089104648679495</ele>
        <time>2024-10-05T14:28:32Z</time>
      </trkpt>
      <trkpt lat="24.91324964571649" lon="118.53383233459866">
        <ele>10.082163425162435</ele>
        <time>2024-10-05T14:28:38Z</time>
      </trkpt>
      <trkpt lat="24.913578583900136" lon="118.53390548861795">
        <ele>9.852170166559517</ele>
        <time>2024-10-05T14:28:50Z</time>
      </trkpt>
      <trkpt lat="24.913742398427004" lon="118.53395545002986">
        <ele>10.767355511896312</ele>
        <time>2024-10-05T14:28:56Z</time>
      </trkpt>
      <trkpt lat="24.914015357558817" lon="118.53395901239988">
        <ele>10.271217848174274</ele>
        <time>2024-10-05T14:29:05Z</time>
      </trkpt>
      <trkpt lat="24.914320674634386" lon="118.53399686780376">
        <ele>10.463201044127345</ele>
        <time>2024-10-05T14:29:16Z</time>
      </trkpt>
      <trkpt lat="24.91459281309265" lon="118.5340556632997">
        <ele>12.331252788193524</ele>
        <time>2024-10-05T14:29:26Z</time>
      </trkpt>
      <trkpt lat="24.91494520638999" lon="118.53413358894367">
        <ele>13.010019486770034</ele>
        <time>2024-10-05T14:29:38Z</time>
      </trkpt>
      <trkpt lat="24.915221409250744" lon="118.53417342269162">
        <ele>12.725402358919382</ele>
        <time>2024-10-05T14:29:47Z</time>
      </trkpt>
      <trkpt lat="24.91550053223219" lon="118.53419307154599">
        <ele>12.652355464175344</ele>
        <time>2024-10-05T14:29:56Z</time>
      </trkpt>
      <trkpt lat="24.91583892878334" lon="118.53424777562675">
        <ele>12.56829633563757</ele>
        <time>2024-10-05T14:30:08Z</time>
      </trkpt>
      <trkpt lat="24.91618210324978" lon="118.53433166125104">
        <ele>12.662832650355995</ele>
        <time>2024-10-05T14:30:20Z</time>
      </trkpt>
      <trkpt lat="24.916420026819416" lon="118.53435934838744">
        <ele>12.382611572742462</ele>
        <time>2024-10-05T14:30:29Z</time>
      </trkpt>
      <trkpt lat="24.9166864788657" lon="118.53441520713844">
        <ele>13.388691676780581</ele>
        <time>2024-10-05T14:30:38Z</time>
      </trkpt>
      <trkpt lat="24.917008560203932" lon="118.53448452859833">
        <ele>14.547437843866646</ele>
        <time>2024-10-05T14:30:50Z</time>
      </trkpt>
      <trkpt lat="24.91736011208414" lon="118.53454696722577">
        <ele>14.83748736511916</ele>
        <time>2024-10-05T14:31:02Z</time>
      </trkpt>
      <trkpt lat="24.917618318820022" lon="118.53461098635881">
        <ele>14.47966013289988</ele>
        <time>2024-10-05T14:31:11Z</time>
      </trkpt>
      <trkpt lat="24.917696792410762" lon="118.5346563187308">
        <ele>14.229425949044526</ele>
        <time>2024-10-05T14:31:14Z</time>
      </trkpt>
      <trkpt lat="24.917907114312527" lon="118.53471587936363">
        <ele>13.834450973197818</ele>
        <time>2024-10-05T14:31:21Z</time>
      </trkpt>
      <trkpt lat="24.918103551095204" lon="118.5347240810767">
        <ele>13.890273472294211</ele>
        <time>2024-10-05T14:31:28Z</time>
      </trkpt>
      <trkpt lat="24.91837771956062" lon="118.53480017356728">
        <ele>12.762037192471325</ele>
        <time>2024-10-05T14:31:37Z</time>
      </trkpt>
      <trkpt lat="24.918526381717562" lon="118.53491159772013">
        <ele>12.76824165508151</ele>
        <time>2024-10-05T14:31:43Z</time>
      </trkpt>
      <trkpt lat="24.918632942278055" lon="118.53508165347289">
        <ele>12.142932269722223</ele>
        <time>2024-10-05T14:31:49Z</time>
      </trkpt>
      <trkpt lat="24.91863548513225" lon="118.53516041894767">
        <ele>11.4974578442052</ele>
        <time>2024-10-05T14:31:52Z</time>
      </trkpt>
      <trkpt lat="24.918534650014756" lon="118.53549906115413">
        <ele>10.583054717630148</ele>
        <time>2024-10-05T14:32:04Z</time>
      </trkpt>
      <trkpt lat="24.918441088395657" lon="118.5357858553527">
        <ele>10.24383357539773</ele>
        <time>2024-10-05T14:32:13Z</time>
      </trkpt>
      <trkpt lat="24.918288756783983" lon="118.53611426192107">
        <ele>9.926983489654958</ele>
        <time>2024-10-05T14:32:25Z</time>
      </trkpt>
      <trkpt lat="24.9181517004454" lon="118.53637325469015">
        <ele>9.69348427746445</ele>
        <time>2024-10-05T14:32:34Z</time>
      </trkpt>
      <trkpt lat="24.918082333696173" lon="118.53654171684067">
        <ele>9.949532655999064</ele>
        <time>2024-10-05T14:32:40Z</time>
      </trkpt>
      <trkpt lat="24.917964489763907" lon="118.53686910652398">
        <ele>10.076980028301477</ele>
        <time>2024-10-05T14:32:52Z</time>
      </trkpt>
      <trkpt lat="24.917786007536943" lon="118.53721589427208">
        <ele>9.886222231201828</ele>
        <time>2024-10-05T14:33:04Z</time>
      </trkpt>
      <trkpt lat="24.917690865118352" lon="118.53750425654835">
        <ele>9.662966917268932</ele>
        <time>2024-10-05T14:33:13Z</time>
      </trkpt>
      <trkpt lat="24.917624985495205" lon="118.53770903718238">
        <ele>10.01763052213937</ele>
        <time>2024-10-05T14:33:19Z</time>
      </trkpt>
      <trkpt lat="24.91748875737953" lon="118.53793683779551">
        <ele>9.80490593612194</ele>
        <time>2024-10-05T14:33:27Z</time>
      </trkpt>
      <trkpt lat="24.917376994405227" lon="118.53823089610376">
        <ele>9.664718583226204</ele>
        <time>2024-10-05T14:33:38Z</time>
      </trkpt>
      <trkpt lat="24.91724268977862" lon="118.53858262608826">
        <ele>10.100726853124797</ele>
        <time>2024-10-05T14:33:50Z</time>
      </trkpt>
      <trkpt lat="24.917113475922804" lon="118.53883363539659">
        <ele>9.668930485844612</ele>
        <time>2024-10-05T14:33:59Z</time>
      </trkpt>
      <trkpt lat="24.917082813407625" lon="118.5389273090025">
        <ele>9.511138167232275</ele>
        <time>2024-10-05T14:34:02Z</time>
      </trkpt>
      <trkpt lat="24.917071265240864" lon="118.53912230102188">
        <ele>9.498048154637218</ele>
        <time>2024-10-05T14:34:08Z</time>
      </trkpt>
      <trkpt lat="24.917106247555726" lon="118.53945790624212">
        <ele>9.860362487845123</ele>
        <time>2024-10-05T14:34:17Z</time>
      </trkpt>
      <trkpt lat="24.917122869818648" lon="118.53958693282038">
        <ele>9.962239648215473</ele>
        <time>2024-10-05T14:34:20Z</time>
      </trkpt>
      <trkpt lat="24.91708609017262" lon="118.53966725503864">
        <ele>10.152498410083354</ele>
        <time>2024-10-05T14:34:23Z</time>
      </trkpt>
      <trkpt lat="24.916998132175614" lon="118.53974001684281">
        <ele>10.197864279150963</ele>
        <time>2024-10-05T14:34:26Z</time>
      </trkpt>
      <trkpt lat="24.91694252509625" lon="118.53982110215904">
        <ele>10.12770470418036</ele>
        <time>2024-10-05T14:34:29Z</time>
      </trkpt>
      <trkpt lat="24.916755437438823" lon="118.53993052810047">
        <ele>10.056356901302934</ele>
        <time>2024-10-05T14:34:35Z</time>
      </trkpt>
      <trkpt lat="24.91667569206536" lon="118.5400188501253">
        <ele>10.172865251079202</ele>
        <time>2024-10-05T14:34:38Z</time>
      </trkpt>
      <trkpt lat="24.916570858805958" lon="118.54022621662459">
        <ele>10.20343778654933</ele>
        <time>2024-10-05T14:34:44Z</time>
      </trkpt>
      <trkpt lat="24.916533833784356" lon="118.5403335533272">
        <ele>10.663999876007438</ele>
        <time>2024-10-05T14:34:47Z</time>
      </trkpt>
      <trkpt lat="24.916481068275875" lon="118.54042223407995">
        <ele>11.183509727939963</ele>
        <time>2024-10-05T14:34:50Z</time>
      </trkpt>
      <trkpt lat="24.9164817502062" lon="118.54073228737441">
        <ele>11.997415313497186</ele>
        <time>2024-10-05T14:34:59Z</time>
      </trkpt>
      <trkpt lat="24.916510705943924" lon="118.54101941394784">
        <ele>12.532766950316727</ele>
        <time>2024-10-05T14:35:08Z</time>
      </trkpt>
      <trkpt lat="24.916606280746425" lon="118.54133459812347">
        <ele>13.155239419080317</ele>
        <time>2024-10-05T14:35:17Z</time>
      </trkpt>
      <trkpt lat="24.916632014869297" lon="118.54143398782836">
        <ele>12.964150377549231</ele>
        <time>2024-10-05T14:35:20Z</time>
      </trkpt>
      <trkpt lat="24.91661271456065" lon="118.5417277428876">
        <ele>12.577430703677237</ele>
        <time>2024-10-05T14:35:30Z</time>
      </trkpt>
      <trkpt lat="24.916573816841854" lon="118.54186674000572">
        <ele>12.393323407508433</ele>
        <time>2024-10-05T14:35:34Z</time>
      </trkpt>
      <trkpt lat="24.91650224723734" lon="118.54196346424047">
        <ele>11.632325431331992</ele>
        <time>2024-10-05T14:35:38Z</time>
      </trkpt>
      <trkpt lat="24.91621196875709" lon="118.54206946740254">
        <ele>12.297572330571711</ele>
        <time>2024-10-05T14:35:47Z</time>
      </trkpt>
      <trkpt lat="24.916016246146487" lon="118.54215235794078">
        <ele>12.528408536687493</ele>
        <time>2024-10-05T14:35:53Z</time>
      </trkpt>
      <trkpt lat="24.91581960705001" lon="118.5422779830603">
        <ele>12.583074133843184</ele>
        <time>2024-10-05T14:35:59Z</time>
      </trkpt>
      <trkpt lat="24.915529478828766" lon="118.54240273219888">
        <ele>12.201215700246394</ele>
        <time>2024-10-05T14:36:08Z</time>
      </trkpt>
      <trkpt lat="24.91524698623923" lon="118.54251493232017">
        <ele>12.32543858513236</ele>
        <time>2024-10-05T14:36:17Z</time>
      </trkpt>
      <trkpt lat="24.915156764161846" lon="118.54256189748412">
        <ele>12.470748483203351</ele>
        <time>2024-10-05T14:36:20Z</time>
      </trkpt>
      <trkpt lat="24.91507214153666" lon="118.54258489772002">
        <ele>11.716265010647476</ele>
        <time>2024-10-05T14:36:23Z</time>
      </trkpt>
      <trkpt lat="24.91498078475912" lon="118.54257646612068">
        <ele>11.221506606787443</ele>
        <time>2024-10-05T14:36:26Z</time>
      </trkpt>
      <trkpt lat="24.914674131323043" lon="118.54264388130811">
        <ele>10.832218865863979</ele>
        <time>2024-10-05T14:36:38Z</time>
      </trkpt>
      <trkpt lat="24.91443841542178" lon="118.54264740449548">
        <ele>9.80987792275846</ele>
        <time>2024-10-05T14:36:50Z</time>
      </trkpt>
      <trkpt lat="24.91430338083935" lon="118.54257741609872">
        <ele>10.070921594277024</ele>
        <time>2024-10-05T14:36:56Z</time>
      </trkpt>
      <trkpt lat="24.91422681758315" lon="118.54255917729519">
        <ele>9.913053235039115</ele>
        <time>2024-10-05T14:36:59Z</time>
      </trkpt>
      <trkpt lat="24.913925518260204" lon="118.5426123498228">
        <ele>9.699901601299644</ele>
        <time>2024-10-05T14:37:08Z</time>
      </trkpt>
      <trkpt lat="24.913841508901157" lon="118.54265096423805">
        <ele>9.330291404388845</ele>
        <time>2024-10-05T14:37:11Z</time>
      </trkpt>
      <trkpt lat="24.913568980165252" lon="118.54273671218375">
        <ele>8.760065604932606</ele>
        <time>2024-10-05T14:37:20Z</time>
      </trkpt>
      <trkpt lat="24.913277689623822" lon="118.54281023090026">
        <ele>8.412215660326183</ele>
        <time>2024-10-05T14:37:29Z</time>
      </trkpt>
      <trkpt lat="24.913192042188257" lon="118.54281069105825">
        <ele>8.098294509574771</ele>
        <time>2024-10-05T14:37:32Z</time>
      </trkpt>
      <trkpt lat="24.912848371805104" lon="118.5428833869588">
        <ele>8.332422013394535</ele>
        <time>2024-10-05T14:37:44Z</time>
      </trkpt>
      <trkpt lat="24.91267264066974" lon="118.5429215481089">
        <ele>8.88454173039645</ele>
        <time>2024-10-05T14:37:50Z</time>
      </trkpt>
      <trkpt lat="24.91258632210963" lon="118.54297115783284">
        <ele>8.634494812227786</ele>
        <time>2024-10-05T14:37:53Z</time>
      </trkpt>
      <trkpt lat="24.91225595607292" lon="118.54304313382765">
        <ele>8.126107210293412</ele>
        <time>2024-10-05T14:38:05Z</time>
      </trkpt>
      <trkpt lat="24.91193881853484" lon="118.54313797447594">
        <ele>8.069438878446817</ele>
        <time>2024-10-05T14:38:17Z</time>
      </trkpt>
      <trkpt lat="24.911871819649893" lon="118.54317463250082">
        <ele>7.913497941568494</ele>
        <time>2024-10-05T14:38:20Z</time>
      </trkpt>
      <trkpt lat="24.911542566424327" lon="118.54322523972611">
        <ele>8.485739550553262</ele>
        <time>2024-10-05T14:38:32Z</time>
      </trkpt>
      <trkpt lat="24.91119279549956" lon="118.54329683526097">
        <ele>8.272782003507018</ele>
        <time>2024-10-05T14:38:44Z</time>
      </trkpt>
      <trkpt lat="24.910833358427997" lon="118.54332991360143">
        <ele>7.923032235354185</ele>
        <time>2024-10-05T14:38:56Z</time>
      </trkpt>
      <trkpt lat="24.910485993301947" lon="118.54332164554322">
        <ele>7.437599358148873</ele>
        <time>2024-10-05T14:39:08Z</time>
      </trkpt>
      <trkpt lat="24.910390935097247" lon="118.54330197596138">
        <ele>7.320562777109444</ele>
        <time>2024-10-05T14:39:11Z</time>
      </trkpt>
      <trkpt lat="24.910283873440346" lon="118.5433161243417">
        <ele>7.450476563535631</ele>
        <time>2024-10-05T14:39:14Z</time>
      </trkpt>
      <trkpt lat="24.91016483213946" lon="118.54336469295673">
        <ele>7.6865488309413195</ele>
        <time>2024-10-05T14:39:17Z</time>
      </trkpt>
      <trkpt lat="24.909995230352898" lon="118.54337974134327">
        <ele>7.310107638128102</ele>
        <time>2024-10-05T14:39:23Z</time>
      </trkpt>
      <trkpt lat="24.90988293313089" lon="118.54334857522242">
        <ele>7.3843203373253345</ele>
        <time>2024-10-05T14:39:26Z</time>
      </trkpt>
      <trkpt lat="24.909604832863067" lon="118.54332987061134">
        <ele>7.0651362696662545</ele>
        <time>2024-10-05T14:39:35Z</time>
      </trkpt>
      <trkpt lat="24.909313884567823" lon="118.5433059249162">
        <ele>7.448171159252524</ele>
        <time>2024-10-05T14:39:45Z</time>
      </trkpt>
      <trkpt lat="24.909092341099058" lon="118.54324733041179">
        <ele>7.1062533631920815</ele>
        <time>2024-10-05T14:39:53Z</time>
      </trkpt>
      <trkpt lat="24.908820662820666" lon="118.54327340921881">
        <ele>6.965889332816005</ele>
        <time>2024-10-05T14:40:02Z</time>
      </trkpt>
      <trkpt lat="24.90849163726295" lon="118.54334248645611">
        <ele>7.5636826902627945</ele>
        <time>2024-10-05T14:40:11Z</time>
      </trkpt>
      <trkpt lat="24.90819891522154" lon="118.5433712698539">
        <ele>7.8068858021870255</ele>
        <time>2024-10-05T14:40:20Z</time>
      </trkpt>
      <trkpt lat="24.908046437848242" lon="118.54335565584178">
        <ele>7.620385306887329</ele>
        <time>2024-10-05T14:40:26Z</time>
      </trkpt>
      <trkpt lat="24.907811019389978" lon="118.54339624146724">
        <ele>7.595026748254895</ele>
        <time>2024-10-05T14:40:35Z</time>
      </trkpt>
      <trkpt lat="24.907645692069632" lon="118.54339832631113">
        <ele>7.483948058448732</ele>
        <time>2024-10-05T14:40:41Z</time>
      </trkpt>
      <trkpt lat="24.90740291238955" lon="118.54329420389584">
        <ele>8.03786230739206</ele>
        <time>2024-10-05T14:40:50Z</time>
      </trkpt>
      <trkpt lat="24.907396409413487" lon="118.54320602651744">
        <ele>8.109121556393802</ele>
        <time>2024-10-05T14:40:53Z</time>
      </trkpt>
      <trkpt lat="24.907534056094825" lon="118.54293588417279">
        <ele>7.632103648036718</ele>
        <time>2024-10-05T14:41:02Z</time>
      </trkpt>
      <trkpt lat="24.907661491790083" lon="118.54266725424301">
        <ele>8.411962946876884</ele>
        <time>2024-10-05T14:41:11Z</time>
      </trkpt>
      <trkpt lat="24.907746712998517" lon="118.54232770621059">
        <ele>8.474900763481855</ele>
        <time>2024-10-05T14:41:23Z</time>
      </trkpt>
      <trkpt lat="24.907842907395427" lon="118.54207192313437">
        <ele>8.5413470659405</ele>
        <time>2024-10-05T14:41:32Z</time>
      </trkpt>
      <trkpt lat="24.90799025449231" lon="118.54173808543547">
        <ele>9.471333894878626</ele>
        <time>2024-10-05T14:41:44Z</time>
      </trkpt>
      <trkpt lat="24.90798006076297" lon="118.54163131618462">
        <ele>10.252877408638597</ele>
        <time>2024-10-05T14:41:48Z</time>
      </trkpt>
      <trkpt lat="24.90800617031359" lon="118.5415460452793">
        <ele>10.111256961710751</ele>
        <time>2024-10-05T14:41:51Z</time>
      </trkpt>
      <trkpt lat="24.90808696438325" lon="118.54138446614594">
        <ele>10.84392517246306</ele>
        <time>2024-10-05T14:41:58Z</time>
      </trkpt>
      <trkpt lat="24.908219833436846" lon="118.54120353374401">
        <ele>10.058921586722136</ele>
        <time>2024-10-05T14:42:04Z</time>
      </trkpt>
      <trkpt lat="24.908314356600368" lon="118.54110361466658">
        <ele>9.142343548126519</ele>
        <time>2024-10-05T14:42:07Z</time>
      </trkpt>
      <trkpt lat="24.908366502344784" lon="118.5409872209307">
        <ele>8.37551184091717</ele>
        <time>2024-10-05T14:42:10Z</time>
      </trkpt>
      <trkpt lat="24.908396429449517" lon="118.54087352093198">
        <ele>8.278619286604226</ele>
        <time>2024-10-05T14:42:13Z</time>
      </trkpt>
      <trkpt lat="24.90847037720582" lon="118.54078504305024">
        <ele>7.922661277465522</ele>
        <time>2024-10-05T14:42:16Z</time>
      </trkpt>
      <trkpt lat="24.90856976592995" lon="118.5405964190279">
        <ele>7.810530247166753</ele>
        <time>2024-10-05T14:42:22Z</time>
      </trkpt>
      <trkpt lat="24.908586380419884" lon="118.54050233793183">
        <ele>7.625196359120309</ele>
        <time>2024-10-05T14:42:25Z</time>
      </trkpt>
      <trkpt lat="24.908631298760483" lon="118.54041611066936">
        <ele>7.997335554100573</ele>
        <time>2024-10-05T14:42:28Z</time>
      </trkpt>
      <trkpt lat="24.90870803463472" lon="118.54033694039958">
        <ele>7.43711007758975</ele>
        <time>2024-10-05T14:42:31Z</time>
      </trkpt>
      <trkpt lat="24.908726671897025" lon="118.54023025780008">
        <ele>7.233835272490978</ele>
        <time>2024-10-05T14:42:34Z</time>
      </trkpt>
      <trkpt lat="24.90873962406077" lon="118.53992820912313">
        <ele>6.991060460917652</ele>
        <time>2024-10-05T14:42:43Z</time>
      </trkpt>
      <trkpt lat="24.908794962826814" lon="118.53980057016292">
        <ele>7.376078428700566</ele>
        <time>2024-10-05T14:42:46Z</time>
      </trkpt>
      <trkpt lat="24.908838631565796" lon="118.53958223996818">
        <ele>7.4236899223178625</ele>
        <time>2024-10-05T14:42:52Z</time>
      </trkpt>
      <trkpt lat="24.90886036853099" lon="118.5393193564593">
        <ele>7.739514927379787</ele>
        <time>2024-10-05T14:43:01Z</time>
      </trkpt>
      <trkpt lat="24.908955593498405" lon="118.53895923210644">
        <ele>7.793184366077185</ele>
        <time>2024-10-05T14:43:13Z</time>
      </trkpt>
      <trkpt lat="24.909021552293908" lon="118.53878933482319">
        <ele>7.47051099780947</ele>
        <time>2024-10-05T14:43:19Z</time>
      </trkpt>
      <trkpt lat="24.909037883749793" lon="118.53861937893554">
        <ele>7.759358503855765</ele>
        <time>2024-10-05T14:43:25Z</time>
      </trkpt>
      <trkpt lat="24.909018854034407" lon="118.53853599182705">
        <ele>7.96700666192919</ele>
        <time>2024-10-05T14:43:28Z</time>
      </trkpt>
      <trkpt lat="24.90903440383675" lon="118.53836087095391">
        <ele>7.952414536848664</ele>
        <time>2024-10-05T14:43:34Z</time>
      </trkpt>
      <trkpt lat="24.909134645129107" lon="118.53802314280321">
        <ele>7.752625983208418</ele>
        <time>2024-10-05T14:43:46Z</time>
      </trkpt>
      <trkpt lat="24.909155271452956" lon="118.53792333024472">
        <ele>8.006680639460683</ele>
        <time>2024-10-05T14:43:49Z</time>
      </trkpt>
      <trkpt lat="24.90914746843207" lon="118.53778086906547">
        <ele>8.29837547801435</ele>
        <time>2024-10-05T14:43:53Z</time>
      </trkpt>
      <trkpt lat="24.909257670499308" lon="118.5375468480926">
        <ele>8.838095380924642</ele>
        <time>2024-10-05T14:44:00Z</time>
      </trkpt>
      <trkpt lat="24.909301733259547" lon="118.53713470791621">
        <ele>10.621638162992895</ele>
        <time>2024-10-05T14:44:13Z</time>
      </trkpt>
      <trkpt lat="24.909362253222106" lon="118.53702620983799">
        <ele>10.49733058270067</ele>
        <time>2024-10-05T14:44:16Z</time>
      </trkpt>
      <trkpt lat="24.90937444050179" lon="118.53691807503611">
        <ele>11.175039364024997</ele>
        <time>2024-10-05T14:44:19Z</time>
      </trkpt>
      <trkpt lat="24.909416509250658" lon="118.53683172439685">
        <ele>10.76697369851172</ele>
        <time>2024-10-05T14:44:22Z</time>
      </trkpt>
      <trkpt lat="24.90945771153884" lon="118.53663734659875">
        <ele>10.197739796712995</ele>
        <time>2024-10-05T14:44:28Z</time>
      </trkpt>
      <trkpt lat="24.90945991184108" lon="118.53655333349897">
        <ele>10.364782080054283</ele>
        <time>2024-10-05T14:44:31Z</time>
      </trkpt>
      <trkpt lat="24.909512087855752" lon="118.53633959572939">
        <ele>10.572049979120493</ele>
        <time>2024-10-05T14:44:37Z</time>
      </trkpt>
      <trkpt lat="24.909496642599184" lon="118.53614164153042">
        <ele>10.397364964708686</ele>
        <time>2024-10-05T14:44:43Z</time>
      </trkpt>
      <trkpt lat="24.90959029280182" lon="118.53578995703226">
        <ele>10.472357464954257</ele>
        <time>2024-10-05T14:44:55Z</time>
      </trkpt>
      <trkpt lat="24.909622062523223" lon="118.53569986185951">
        <ele>10.046021142043173</ele>
        <time>2024-10-05T14:44:58Z</time>
      </trkpt>
      <trkpt lat="24.90967560109638" lon="118.53530993065647">
        <ele>9.58583497442305</ele>
        <time>2024-10-05T14:45:10Z</time>
      </trkpt>
      <trkpt lat="24.909727865205138" lon="118.53508408163344">
        <ele>8.709071676246822</ele>
        <time>2024-10-05T14:45:17Z</time>
      </trkpt>
      <trkpt lat="24.909731160817206" lon="118.53495971502483">
        <ele>8.538109797053039</ele>
        <time>2024-10-05T14:45:21Z</time>
      </trkpt>
      <trkpt lat="24.909712722189028" lon="118.53483194354217">
        <ele>7.725940391421318</ele>
        <time>2024-10-05T14:45:25Z</time>
      </trkpt>
      <trkpt lat="24.909739647075114" lon="118.53461068742958">
        <ele>7.344043826684356</ele>
        <time>2024-10-05T14:45:33Z</time>
      </trkpt>
      <trkpt lat="24.90973604516304" lon="118.53449842247305">
        <ele>7.265464340336621</ele>
        <time>2024-10-05T14:45:37Z</time>
      </trkpt>
      <trkpt lat="24.90979176071727" lon="118.53415865372871">
        <ele>8.323542794212699</ele>
        <time>2024-10-05T14:45:47Z</time>
      </trkpt>
      <trkpt lat="24.909809600836187" lon="118.53396898474547">
        <ele>7.858864460140467</ele>
        <time>2024-10-05T14:45:53Z</time>
      </trkpt>
      <trkpt lat="24.909968762103418" lon="118.53380665018621">
        <ele>8.022456766106188</ele>
        <time>2024-10-05T14:46:00Z</time>
      </trkpt>
      <trkpt lat="24.9102529980165" lon="118.533786664924">
        <ele>9.035224607214332</ele>
        <time>2024-10-05T14:46:10Z</time>
      </trkpt>
      <trkpt lat="24.91052732939497" lon="118.53376729883693">
        <ele>9.854881540872157</ele>
        <time>2024-10-05T14:46:19Z</time>
      </trkpt>
      <trkpt lat="24.910815218067512" lon="118.53378809652796">
        <ele>9.900776233524084</ele>
        <time>2024-10-05T14:46:28Z</time>
      </trkpt>
      <trkpt lat="24.911148014378735" lon="118.53376461041535">
        <ele>10.088356490246952</ele>
        <time>2024-10-05T14:46:40Z</time>
      </trkpt>
      <trkpt lat="24.911485604606447" lon="118.5337894669474">
        <ele>9.774611944332719</ele>
        <time>2024-10-05T14:46:52Z</time>
      </trkpt>
      <trkpt lat="24.91177285540276" lon="118.53378316079477">
        <ele>10.222912513650954</ele>
        <time>2024-10-05T14:47:01Z</time>
      </trkpt>
      <trkpt lat="24.91212946878495" lon="118.53377258538924">
        <ele>10.457133324816823</ele>
        <time>2024-10-05T14:47:13Z</time>
      </trkpt>
      <trkpt lat="24.912503666000553" lon="118.53375368792204">
        <ele>10.118491399101913</ele>
        <time>2024-10-05T14:47:25Z</time>
      </trkpt>
      <trkpt lat="24.912839386538078" lon="118.53374087686608">
        <ele>10.383048015646636</ele>
        <time>2024-10-05T14:47:37Z</time>
      </trkpt>
      <trkpt lat="24.913016345770234" lon="118.5337773545204">
        <ele>10.378558076918125</ele>
        <time>2024-10-05T14:47:43Z</time>
      </trkpt>
      <trkpt lat="24.913106050251756" lon="118.53381191951175">
        <ele>10.233242261223495</ele>
        <time>2024-10-05T14:47:46Z</time>
      </trkpt>
      <trkpt lat="24.913414270635368" lon="118.53386109254771">
        <ele>9.619831054471433</ele>
        <time>2024-10-05T14:47:58Z</time>
      </trkpt>
      <trkpt lat="24.91372014808946" lon="118.53393947869091">
        <ele>10.841213242150843</ele>
        <time>2024-10-05T14:48:09Z</time>
      </trkpt>
      <trkpt lat="24.913992372870204" lon="118.53394426339004">
        <ele>10.296128556132317</ele>
        <time>2024-10-05T14:48:18Z</time>
      </trkpt>
      <trkpt lat="24.914342171362442" lon="118.53397663171624">
        <ele>10.543037022463977</ele>
        <time>2024-10-05T14:48:30Z</time>
      </trkpt>
      <trkpt lat="24.914417726742407" lon="118.53400642723952">
        <ele>10.960128257982433</ele>
        <time>2024-10-05T14:48:33Z</time>
      </trkpt>
      <trkpt lat="24.91468799931294" lon="118.53405964759168">
        <ele>11.838502902537584</ele>
        <time>2024-10-05T14:48:45Z</time>
      </trkpt>
      <trkpt lat="24.91497247400507" lon="118.53410469898822">
        <ele>12.597981228493154</ele>
        <time>2024-10-05T14:48:54Z</time>
      </trkpt>
      <trkpt lat="24.915064447894274" lon="118.53411908901474">
        <ele>12.687394650653005</ele>
        <time>2024-10-05T14:48:57Z</time>
      </trkpt>
      <trkpt lat="24.915284580834108" lon="118.53418384983114">
        <ele>11.674605027772486</ele>
        <time>2024-10-05T14:49:06Z</time>
      </trkpt>
      <trkpt lat="24.91562841515205" lon="118.53422506004347">
        <ele>12.698827639222145</ele>
        <time>2024-10-05T14:49:18Z</time>
      </trkpt>
      <trkpt lat="24.915976099092326" lon="118.53427716233928">
        <ele>12.684117265976965</ele>
        <time>2024-10-05T14:49:30Z</time>
      </trkpt>
      <trkpt lat="24.91630817294017" lon="118.53433286258405">
        <ele>12.706487398594618</ele>
        <time>2024-10-05T14:49:42Z</time>
      </trkpt>
      <trkpt lat="24.91648837692263" lon="118.5343794063671">
        <ele>12.472336479462683</ele>
        <time>2024-10-05T14:49:48Z</time>
      </trkpt>
      <trkpt lat="24.916808034205744" lon="118.53444632281507">
        <ele>13.76924713794142</ele>
        <time>2024-10-05T14:50:00Z</time>
      </trkpt>
      <trkpt lat="24.917051113986933" lon="118.53451040870884">
        <ele>14.394311850890517</ele>
        <time>2024-10-05T14:50:10Z</time>
      </trkpt>
      <trkpt lat="24.917146324395805" lon="118.53451380029983">
        <ele>14.53372944612056</ele>
        <time>2024-10-05T14:50:13Z</time>
      </trkpt>
      <trkpt lat="24.917243983842123" lon="118.5345471247826">
        <ele>14.60942683648318</ele>
        <time>2024-10-05T14:50:16Z</time>
      </trkpt>
      <trkpt lat="24.917541409160602" lon="118.53461063140215">
        <ele>14.26225106138736</ele>
        <time>2024-10-05T14:50:26Z</time>
      </trkpt>
      <trkpt lat="24.917809561411474" lon="118.53467725375383">
        <ele>13.78652648627758</ele>
        <time>2024-10-05T14:50:35Z</time>
      </trkpt>
      <trkpt lat="24.918140702153206" lon="118.53474969105135">
        <ele>13.823860421776772</ele>
        <time>2024-10-05T14:50:47Z</time>
      </trkpt>
      <trkpt lat="24.918319524810386" lon="118.53481085597184">
        <ele>13.75985470507294</ele>
        <time>2024-10-05T14:50:53Z</time>
      </trkpt>
      <trkpt lat="24.918544494477896" lon="118.53496063247604">
        <ele>12.847014661878347</ele>
        <time>2024-10-05T14:51:02Z</time>
      </trkpt>
      <trkpt lat="24.91859426583927" lon="118.53503173554826">
        <ele>12.56246330216527</ele>
        <time>2024-10-05T14:51:05Z</time>
      </trkpt>
      <trkpt lat="24.918618474752662" lon="118.53512054515751">
        <ele>12.043898596428335</ele>
        <time>2024-10-05T14:51:08Z</time>
      </trkpt>
      <trkpt lat="24.91859827307463" lon="118.53528921271231">
        <ele>10.830457754433155</ele>
        <time>2024-10-05T14:51:14Z</time>
      </trkpt>
      <trkpt lat="24.91851193980731" lon="118.53553691370463">
        <ele>10.63195266854018</ele>
        <time>2024-10-05T14:51:23Z</time>
      </trkpt>
      <trkpt lat="24.918476870477388" lon="118.53572594552273">
        <ele>11.066730028949678</ele>
        <time>2024-10-05T14:51:29Z</time>
      </trkpt>
      <trkpt lat="24.91841514583295" lon="118.53590527958988">
        <ele>10.517279368825257</ele>
        <time>2024-10-05T14:51:35Z</time>
      </trkpt>
      <trkpt lat="24.918249685557264" lon="118.53622358847682">
        <ele>10.049678349867463</ele>
        <time>2024-10-05T14:51:47Z</time>
      </trkpt>
      <trkpt lat="24.918118527598104" lon="118.5364898081883">
        <ele>9.803954617120326</ele>
        <time>2024-10-05T14:51:56Z</time>
      </trkpt>
      <trkpt lat="24.91802520121657" lon="118.53680877301866">
        <ele>9.926594464108348</ele>
        <time>2024-10-05T14:52:08Z</time>
      </trkpt>
      <trkpt lat="24.917978458761866" lon="118.53697431515653">
        <ele>9.876942798495293</ele>
        <time>2024-10-05T14:52:14Z</time>
      </trkpt>
      <trkpt lat="24.91782860408779" lon="118.53731164377801">
        <ele>9.857430640608072</ele>
        <time>2024-10-05T14:52:25Z</time>
      </trkpt>
      <trkpt lat="24.91770441473417" lon="118.53759462713732">
        <ele>10.382336536422372</ele>
        <time>2024-10-05T14:52:35Z</time>
      </trkpt>
      <trkpt lat="24.917614431177693" lon="118.53784281205157">
        <ele>9.550445298664272</ele>
        <time>2024-10-05T14:52:44Z</time>
      </trkpt>
      <trkpt lat="24.917555760901852" lon="118.5379063691288">
        <ele>10.10957392398268</ele>
        <time>2024-10-05T14:52:47Z</time>
      </trkpt>
      <trkpt lat="24.917460898549358" lon="118.53817221712846">
        <ele>10.704167573712766</ele>
        <time>2024-10-05T14:52:56Z</time>
      </trkpt>
      <trkpt lat="24.917495544544746" lon="118.53848129386553">
        <ele>9.860883304849267</ele>
        <time>2024-10-05T14:53:05Z</time>
      </trkpt>
      <trkpt lat="24.917507411429305" lon="118.53858296722937">
        <ele>10.081106936559081</ele>
        <time>2024-10-05T14:53:08Z</time>
      </trkpt>
      <trkpt lat="24.91745619760293" lon="118.538649093371">
        <ele>9.817582638002932</ele>
        <time>2024-10-05T14:53:11Z</time>
      </trkpt>
      <trkpt lat="24.91743062375671" lon="118.53873877532749">
        <ele>9.902377050369978</ele>
        <time>2024-10-05T14:53:14Z</time>
      </trkpt>
      <trkpt lat="24.917376442856753" lon="118.5388079416749">
        <ele>10.365933823399246</ele>
        <time>2024-10-05T14:53:17Z</time>
      </trkpt>
      <trkpt lat="24.917349547428554" lon="118.53889429972727">
        <ele>10.414913713932037</ele>
        <time>2024-10-05T14:53:20Z</time>
      </trkpt>
      <trkpt lat="24.9173523402286" lon="118.53924110428348">
        <ele>10.031301476992667</ele>
        <time>2024-10-05T14:53:29Z</time>
      </trkpt>
      <trkpt lat="24.917320139565728" lon="118.53942346472228">
        <ele>9.803643836639822</ele>
        <time>2024-10-05T14:53:35Z</time>
      </trkpt>
      <trkpt lat="24.917324068607098" lon="118.53952982976077">
        <ele>9.925004245713353</ele>
        <time>2024-10-05T14:53:38Z</time>
      </trkpt>
      <trkpt lat="24.91730616454528" lon="118.53962093204817">
        <ele>10.680189274251461</ele>
        <time>2024-10-05T14:53:41Z</time>
      </trkpt>
      <trkpt lat="24.917222331986473" lon="118.53970643267576">
        <ele>10.300471390597522</ele>
        <time>2024-10-05T14:53:44Z</time>
      </trkpt>
      <trkpt lat="24.917138039969753" lon="118.53988272554527">
        <ele>10.158666165545583</ele>
        <time>2024-10-05T14:53:50Z</time>
      </trkpt>
      <trkpt lat="24.917062720953428" lon="118.5399585447598">
        <ele>10.357238067314029</ele>
        <time>2024-10-05T14:53:53Z</time>
      </trkpt>
      <trkpt lat="24.916964978079076" lon="118.54002353668999">
        <ele>10.52249718643725</ele>
        <time>2024-10-05T14:53:56Z</time>
      </trkpt>
      <trkpt lat="24.916808192986014" lon="118.54006883201251">
        <ele>9.774368506856263</ele>
        <time>2024-10-05T14:53:59Z</time>
      </trkpt>
      <trkpt lat="24.916639280699048" lon="118.5402150592871">
        <ele>9.698051801882684</ele>
        <time>2024-10-05T14:54:05Z</time>
      </trkpt>
      <trkpt lat="24.916563769141593" lon="118.5404023200613">
        <ele>11.055028983391821</ele>
        <time>2024-10-05T14:54:11Z</time>
      </trkpt>
      <trkpt lat="24.91653244932262" lon="118.5405811988288">
        <ele>11.882511126808822</ele>
        <time>2024-10-05T14:54:17Z</time>
      </trkpt>
      <trkpt lat="24.916525658281408" lon="118.54080447853286">
        <ele>12.738262867555022</ele>
        <time>2024-10-05T14:54:24Z</time>
      </trkpt>
      <trkpt lat="24.916589145890825" lon="118.54114375267802">
        <ele>13.653074495494366</ele>
        <time>2024-10-05T14:54:34Z</time>
      </trkpt>
      <trkpt lat="24.916669640373854" lon="118.54133084779211">
        <ele>13.085394443012774</ele>
        <time>2024-10-05T14:54:40Z</time>
      </trkpt>
      <trkpt lat="24.91668397510582" lon="118.54141798529606">
        <ele>13.447768832556903</ele>
        <time>2024-10-05T14:54:43Z</time>
      </trkpt>
      <trkpt lat="24.916729545150936" lon="118.54149404028718">
        <ele>13.196820561774075</ele>
        <time>2024-10-05T14:54:46Z</time>
      </trkpt>
      <trkpt lat="24.916753062721504" lon="118.54157739302812">
        <ele>13.355151104740798</ele>
        <time>2024-10-05T14:54:49Z</time>
      </trkpt>
      <trkpt lat="24.91674440901469" lon="118.54167367796046">
        <ele>12.720943415537477</ele>
        <time>2024-10-05T14:54:52Z</time>
      </trkpt>
      <trkpt lat="24.91666210320642" lon="118.54185329539648">
        <ele>12.351349852979183</ele>
        <time>2024-10-05T14:54:58Z</time>
      </trkpt>
      <trkpt lat="24.91658997329945" lon="118.54193547953095">
        <ele>11.49910219758749</ele>
        <time>2024-10-05T14:55:01Z</time>
      </trkpt>
      <trkpt lat="24.916380543330742" lon="118.54203582914738">
        <ele>11.536463072523475</ele>
        <time>2024-10-05T14:55:07Z</time>
      </trkpt>
      <trkpt lat="24.916179173552216" lon="118.54207049158995">
        <ele>11.561434775590897</ele>
        <time>2024-10-05T14:55:13Z</time>
      </trkpt>
      <trkpt lat="24.915888380104548" lon="118.54220308680668">
        <ele>12.040819710120559</ele>
        <time>2024-10-05T14:55:22Z</time>
      </trkpt>
      <trkpt lat="24.915579367198422" lon="118.54236220101858">
        <ele>12.219581356272101</ele>
        <time>2024-10-05T14:55:31Z</time>
      </trkpt>
      <trkpt lat="24.91530775958645" lon="118.54249867408092">
        <ele>12.259152876213193</ele>
        <time>2024-10-05T14:55:40Z</time>
      </trkpt>
      <trkpt lat="24.91505101837581" lon="118.54255673597277">
        <ele>11.864127312786877</ele>
        <time>2024-10-05T14:55:49Z</time>
      </trkpt>
      <trkpt lat="24.91488550846662" lon="118.5425669171167">
        <ele>10.566157666966319</ele>
        <time>2024-10-05T14:55:55Z</time>
      </trkpt>
      <trkpt lat="24.914554646727627" lon="118.54267617481703">
        <ele>9.76456437073648</ele>
        <time>2024-10-05T14:56:07Z</time>
      </trkpt>
      <trkpt lat="24.914287378415764" lon="118.54270059945439">
        <ele>9.780155473388731</ele>
        <time>2024-10-05T14:56:16Z</time>
      </trkpt>
      <trkpt lat="24.914037284530547" lon="118.54277982578756">
        <ele>9.88192492350936</ele>
        <time>2024-10-05T14:56:25Z</time>
      </trkpt>
      <trkpt lat="24.9139171728604" lon="118.54277560710995">
        <ele>10.368008478544652</ele>
        <time>2024-10-05T14:56:29Z</time>
      </trkpt>
      <trkpt lat="24.913847530223514" lon="118.54275425773784">
        <ele>8.576543292030692</ele>
        <time>2024-10-05T14:56:32Z</time>
      </trkpt>
      <trkpt lat="24.91353890856731" lon="118.54278460309658">
        <ele>8.197770378552377</ele>
        <time>2024-10-05T14:56:45Z</time>
      </trkpt>
      <trkpt lat="24.91336212900568" lon="118.54282063833755">
        <ele>8.045183643698692</ele>
        <time>2024-10-05T14:56:51Z</time>
      </trkpt>
      <trkpt lat="24.913044016477137" lon="118.54285300885603">
        <ele>8.05858603771776</ele>
        <time>2024-10-05T14:57:03Z</time>
      </trkpt>
      <trkpt lat="24.91273340667639" lon="118.54291713482273">
        <ele>8.440486850216985</ele>
        <time>2024-10-05T14:57:15Z</time>
      </trkpt>
      <trkpt lat="24.912398380608998" lon="118.54301398802237">
        <ele>8.591756911017</ele>
        <time>2024-10-05T14:57:27Z</time>
      </trkpt>
      <trkpt lat="24.91208699379237" lon="118.543117593861">
        <ele>7.907825025729835</ele>
        <time>2024-10-05T14:57:39Z</time>
      </trkpt>
      <trkpt lat="24.911771252694262" lon="118.54319011650585">
        <ele>7.972358655184507</ele>
        <time>2024-10-05T14:57:51Z</time>
      </trkpt>
      <trkpt lat="24.9114492316663" lon="118.54324543804726">
        <ele>8.412513341754675</ele>
        <time>2024-10-05T14:58:03Z</time>
      </trkpt>
      <trkpt lat="24.911270979646975" lon="118.5432757943979">
        <ele>7.8762984005734324</ele>
        <time>2024-10-05T14:58:09Z</time>
      </trkpt>
      <trkpt lat="24.9111815073205" lon="118.54326903314919">
        <ele>8.117387720383704</ele>
        <time>2024-10-05T14:58:12Z</time>
      </trkpt>
      <trkpt lat="24.91083166956746" lon="118.54333572523582">
        <ele>7.64274404104799</ele>
        <time>2024-10-05T14:58:24Z</time>
      </trkpt>
      <trkpt lat="24.910735885089135" lon="118.54334966107949">
        <ele>7.565122186206281</ele>
        <time>2024-10-05T14:58:27Z</time>
      </trkpt>
      <trkpt lat="24.91045624433723" lon="118.54332796344355">
        <ele>7.5677198162302375</ele>
        <time>2024-10-05T14:58:37Z</time>
      </trkpt>
      <trkpt lat="24.910126410420684" lon="118.54339150040262">
        <ele>7.562127557583153</ele>
        <time>2024-10-05T14:58:47Z</time>
      </trkpt>
      <trkpt lat="24.909831045954647" lon="118.54337702197893">
        <ele>7.449318294413388</ele>
        <time>2024-10-05T14:58:56Z</time>
      </trkpt>
      <trkpt lat="24.909741639281528" lon="118.5433820598211">
        <ele>7.0922637935727835</ele>
        <time>2024-10-05T14:58:59Z</time>
      </trkpt>
      <trkpt lat="24.909648758701366" lon="118.54336187412157">
        <ele>6.994850478135049</ele>
        <time>2024-10-05T14:59:02Z</time>
      </trkpt>
      <trkpt lat="24.909584865318124" lon="118.54336962980385">
        <ele>7.170310592278838</ele>
        <time>2024-10-05T14:59:05Z</time>
      </trkpt>
      <trkpt lat="24.909372163366058" lon="118.54332264395889">
        <ele>7.210731160826981</ele>
        <time>2024-10-05T14:59:11Z</time>
      </trkpt>
      <trkpt lat="24.909270963605906" lon="118.54332319502038">
        <ele>6.85108732432127</ele>
        <time>2024-10-05T14:59:14Z</time>
      </trkpt>
      <trkpt lat="24.909086895983048" lon="118.54327469186813">
        <ele>7.447420283220708</ele>
        <time>2024-10-05T14:59:20Z</time>
      </trkpt>
      <trkpt lat="24.908786311594667" lon="118.54328523442184">
        <ele>6.978957433253527</ele>
        <time>2024-10-05T14:59:29Z</time>
      </trkpt>
      <trkpt lat="24.908472397756135" lon="118.54329378390247">
        <ele>7.275545287877321</ele>
        <time>2024-10-05T14:59:38Z</time>
      </trkpt>
      <trkpt lat="24.90828408676228" lon="118.54333673155345">
        <ele>7.502554378472269</ele>
        <time>2024-10-05T14:59:44Z</time>
      </trkpt>
      <trkpt lat="24.908127323958063" lon="118.54334344292258">
        <ele>8.002011751756072</ele>
        <time>2024-10-05T14:59:50Z</time>
      </trkpt>
    </trkseg>
  </trk>
</gpx>