<?xml version="1.0" encoding="UTF-8"?>
<gpx xmlns="http://www.topografix.com/GPX/1/1" xmlns:gpxtpx="http://www.garmin.com/xmlschemas/TrackPointExtension/v1" xmlns:xsi="http://www.w3.org/2001/XMLSchema-instance" xsi:schemaLocation="http://www.topografix.com/GPX/1/1 http://www.topografix.com/GPX/1/1/gpx.xsd" version="1.1" creator="gpx.py -- https://github.com/tkrajina/gpxpy">
  <trk>
    <name>gpx from keep</name>
    <type>Ride</type>
    <trkseg>
      <trkpt lat="24.909199475233056" lon="118.53822427560867">
        <ele>7.641223839484155</ele>
        <time>2024-12-03T12:12:48Z</time>
      </trkpt>
      <trkpt lat="24.909125904671853" lon="118.53824120911892">
        <ele>7.956044364720583</ele>
        <time>2024-12-03T12:13:01Z</time>
      </trkpt>
      <trkpt lat="24.909129402917237" lon="118.5383359886898">
        <ele>7.828998580574989</ele>
        <time>2024-12-03T12:13:05Z</time>
      </trkpt>
      <trkpt lat="24.90907762546918" lon="118.5384179374989">
        <ele>8.101995330303907</ele>
        <time>2024-12-03T12:13:41Z</time>
      </trkpt>
      <trkpt lat="24.90902875189253" lon="118.53861003956878">
        <ele>7.985908157192171</ele>
        <time>2024-12-03T12:13:50Z</time>
      </trkpt>
      <trkpt lat="24.90901451056875" lon="118.53878354953346">
        <ele>8.307677718810737</ele>
        <time>2024-12-03T12:13:57Z</time>
      </trkpt>
      <trkpt lat="24.9089735117965" lon="118.53896353398818">
        <ele>8.75706860050559</ele>
        <time>2024-12-03T12:14:02Z</time>
      </trkpt>
      <trkpt lat="24.90895629076811" lon="118.53916960117375">
        <ele>8.149121945723891</ele>
        <time>2024-12-03T12:14:09Z</time>
      </trkpt>
      <trkpt lat="24.908973286547997" lon="118.53925808425646">
        <ele>8.413279637694359</ele>
        <time>2024-12-03T12:14:12Z</time>
      </trkpt>
      <trkpt lat="24.908930740363402" lon="118.53934136918991">
        <ele>8.317010563798249</ele>
        <time>2024-12-03T12:14:15Z</time>
      </trkpt>
      <trkpt lat="24.908929173997883" lon="118.53945400047736">
        <ele>8.503689956851304</ele>
        <time>2024-12-03T12:14:19Z</time>
      </trkpt>
      <trkpt lat="24.90898370942198" lon="118.53963758206926">
        <ele>8.846610807813704</ele>
        <time>2024-12-03T12:14:26Z</time>
      </trkpt>
      <trkpt lat="24.908997625024163" lon="118.53974382694985">
        <ele>8.808244553394616</ele>
        <time>2024-12-03T12:14:31Z</time>
      </trkpt>
      <trkpt lat="24.908935564415515" lon="118.53985174727516">
        <ele>8.377803221344948</ele>
        <time>2024-12-03T12:14:36Z</time>
      </trkpt>
      <trkpt lat="24.908832340278316" lon="118.54012488480555">
        <ele>8.127412889152765</ele>
        <time>2024-12-03T12:14:46Z</time>
      </trkpt>
      <trkpt lat="24.90883492574511" lon="118.54031037594459">
        <ele>8.046051694080234</ele>
        <time>2024-12-03T12:14:52Z</time>
      </trkpt>
      <trkpt lat="24.908803478808117" lon="118.5403998395624">
        <ele>8.063363225199282</ele>
        <time>2024-12-03T12:14:54Z</time>
      </trkpt>
      <trkpt lat="24.908823838117428" lon="118.54056343164629">
        <ele>7.646281978115439</ele>
        <time>2024-12-03T12:14:59Z</time>
      </trkpt>
      <trkpt lat="24.909008745656877" lon="118.54075627425783">
        <ele>7.863472077995539</ele>
        <time>2024-12-03T12:15:03Z</time>
      </trkpt>
      <trkpt lat="24.909014011839865" lon="118.54084936589796">
        <ele>7.462210315279663</ele>
        <time>2024-12-03T12:15:05Z</time>
      </trkpt>
      <trkpt lat="24.908976973881664" lon="118.54093217408047">
        <ele>7.487624874338508</ele>
        <time>2024-12-03T12:15:07Z</time>
      </trkpt>
      <trkpt lat="24.908854401507686" lon="118.54107573461584">
        <ele>8.787539713084698</ele>
        <time>2024-12-03T12:15:12Z</time>
      </trkpt>
      <trkpt lat="24.90869786069874" lon="118.54154064437432">
        <ele>8.500687355175614</ele>
        <time>2024-12-03T12:15:23Z</time>
      </trkpt>
      <trkpt lat="24.908680893974655" lon="118.54163897806804">
        <ele>8.336636765860021</ele>
        <time>2024-12-03T12:15:25Z</time>
      </trkpt>
      <trkpt lat="24.90863137737722" lon="118.54172862918692">
        <ele>8.932239443063736</ele>
        <time>2024-12-03T12:15:27Z</time>
      </trkpt>
      <trkpt lat="24.908608118224652" lon="118.5418312331051">
        <ele>8.689713646657765</ele>
        <time>2024-12-03T12:15:29Z</time>
      </trkpt>
      <trkpt lat="24.908608412388826" lon="118.541930253264">
        <ele>7.610890252515674</ele>
        <time>2024-12-03T12:15:33Z</time>
      </trkpt>
      <trkpt lat="24.908531579549955" lon="118.54224112624087">
        <ele>7.885219870135188</ele>
        <time>2024-12-03T12:15:40Z</time>
      </trkpt>
      <trkpt lat="24.908518255577306" lon="118.54240777295327">
        <ele>8.77040827088058</ele>
        <time>2024-12-03T12:15:47Z</time>
      </trkpt>
      <trkpt lat="24.908557922228724" lon="118.54248984805642">
        <ele>8.608167015947402</ele>
        <time>2024-12-03T12:15:50Z</time>
      </trkpt>
      <trkpt lat="24.908574424170965" lon="118.54258937997348">
        <ele>8.276955555193126</ele>
        <time>2024-12-03T12:15:53Z</time>
      </trkpt>
      <trkpt lat="24.90861940836451" lon="118.5426814821727">
        <ele>8.235747301019728</ele>
        <time>2024-12-03T12:15:58Z</time>
      </trkpt>
      <trkpt lat="24.90861531553128" lon="118.54279071646134">
        <ele>7.285093944519758</ele>
        <time>2024-12-03T12:16:01Z</time>
      </trkpt>
      <trkpt lat="24.908798837894242" lon="118.54300742437722">
        <ele>8.338039451278746</ele>
        <time>2024-12-03T12:16:10Z</time>
      </trkpt>
      <trkpt lat="24.908861956289254" lon="118.54305213614973">
        <ele>7.974525306373835</ele>
        <time>2024-12-03T12:16:15Z</time>
      </trkpt>
      <trkpt lat="24.90891755371872" lon="118.54312129461863">
        <ele>8.059085899963975</ele>
        <time>2024-12-03T12:16:26Z</time>
      </trkpt>
      <trkpt lat="24.908939089076974" lon="118.54320016859899">
        <ele>8.891658900305629</ele>
        <time>2024-12-03T12:16:33Z</time>
      </trkpt>
      <trkpt lat="24.908844083955575" lon="118.54324562335455">
        <ele>8.5763471564278</ele>
        <time>2024-12-03T12:16:36Z</time>
      </trkpt>
      <trkpt lat="24.908594363293393" lon="118.54328343854255">
        <ele>8.28887448552996</ele>
        <time>2024-12-03T12:16:42Z</time>
      </trkpt>
      <trkpt lat="24.908350131677256" lon="118.54335520555175">
        <ele>8.54733113385737</ele>
        <time>2024-12-03T12:16:49Z</time>
      </trkpt>
      <trkpt lat="24.9082754807861" lon="118.54336079601605">
        <ele>8.424878585152328</ele>
        <time>2024-12-03T12:16:52Z</time>
      </trkpt>
      <trkpt lat="24.908191193383075" lon="118.54340145587351">
        <ele>8.132855187170208</ele>
        <time>2024-12-03T12:16:56Z</time>
      </trkpt>
      <trkpt lat="24.907953636656853" lon="118.54338227531912">
        <ele>7.945240288972855</ele>
        <time>2024-12-03T12:17:03Z</time>
      </trkpt>
      <trkpt lat="24.90776919984211" lon="118.54341257575898">
        <ele>8.132774360477924</ele>
        <time>2024-12-03T12:17:07Z</time>
      </trkpt>
      <trkpt lat="24.907595010566144" lon="118.54341064568847">
        <ele>8.331861975602806</ele>
        <time>2024-12-03T12:17:11Z</time>
      </trkpt>
      <trkpt lat="24.90743752678842" lon="118.54346469705231">
        <ele>7.881551061756909</ele>
        <time>2024-12-03T12:17:47Z</time>
      </trkpt>
      <trkpt lat="24.907481084834505" lon="118.54372778817881">
        <ele>7.9787937588989735</ele>
        <time>2024-12-03T12:18:28Z</time>
      </trkpt>
      <trkpt lat="24.9074801989787" lon="118.54382397835664">
        <ele>7.889555467292666</ele>
        <time>2024-12-03T12:18:31Z</time>
      </trkpt>
      <trkpt lat="24.90749847069689" lon="118.5439233819831">
        <ele>7.289737208746374</ele>
        <time>2024-12-03T12:18:34Z</time>
      </trkpt>
      <trkpt lat="24.90748667451506" lon="118.54409910775861">
        <ele>7.586371508426964</ele>
        <time>2024-12-03T12:18:38Z</time>
      </trkpt>
      <trkpt lat="24.907653164674446" lon="118.54462350727536">
        <ele>7.502387476153672</ele>
        <time>2024-12-03T12:18:51Z</time>
      </trkpt>
      <trkpt lat="24.907754158034756" lon="118.54481157216114">
        <ele>7.200309871695936</ele>
        <time>2024-12-03T12:18:56Z</time>
      </trkpt>
      <trkpt lat="24.90781267960301" lon="118.54500795715916">
        <ele>7.31256490200758</ele>
        <time>2024-12-03T12:19:00Z</time>
      </trkpt>
      <trkpt lat="24.90789779058602" lon="118.5451586349444">
        <ele>7.7057151813060045</ele>
        <time>2024-12-03T12:19:04Z</time>
      </trkpt>
      <trkpt lat="24.908076631737746" lon="118.54572223965259">
        <ele>7.760469347238541</ele>
        <time>2024-12-03T12:19:14Z</time>
      </trkpt>
      <trkpt lat="24.90829853825191" lon="118.54621822792389">
        <ele>8.825626398436725</ele>
        <time>2024-12-03T12:19:24Z</time>
      </trkpt>
      <trkpt lat="24.908428450277107" lon="118.54661306985561">
        <ele>8.268231640569866</ele>
        <time>2024-12-03T12:19:32Z</time>
      </trkpt>
      <trkpt lat="24.908582107666753" lon="118.54696007764548">
        <ele>7.94975833594799</ele>
        <time>2024-12-03T12:19:40Z</time>
      </trkpt>
      <trkpt lat="24.908745621414603" lon="118.54743073201129">
        <ele>8.458565819077194</ele>
        <time>2024-12-03T12:19:53Z</time>
      </trkpt>
      <trkpt lat="24.908855275121198" lon="118.54767451994736">
        <ele>7.68448516074568</ele>
        <time>2024-12-03T12:20:02Z</time>
      </trkpt>
      <trkpt lat="24.908903490597595" lon="118.54774261979512">
        <ele>8.154423574917018</ele>
        <time>2024-12-03T12:20:06Z</time>
      </trkpt>
      <trkpt lat="24.90897940274264" lon="118.54777502636229">
        <ele>7.422303237952292</ele>
        <time>2024-12-03T12:20:10Z</time>
      </trkpt>
      <trkpt lat="24.90902165661561" lon="118.54806843852283">
        <ele>7.732871068641543</ele>
        <time>2024-12-03T12:20:17Z</time>
      </trkpt>
      <trkpt lat="24.909200102906883" lon="118.54852354420048">
        <ele>8.092302093282342</ele>
        <time>2024-12-03T12:20:27Z</time>
      </trkpt>
      <trkpt lat="24.90939126507429" lon="118.54896419887027">
        <ele>8.24094056431204</ele>
        <time>2024-12-03T12:20:37Z</time>
      </trkpt>
      <trkpt lat="24.909603522645284" lon="118.54944477045643">
        <ele>7.684154651127756</ele>
        <time>2024-12-03T12:20:47Z</time>
      </trkpt>
      <trkpt lat="24.909772832787198" lon="118.54989441273725">
        <ele>7.9354117922484875</ele>
        <time>2024-12-03T12:20:57Z</time>
      </trkpt>
      <trkpt lat="24.90978943705507" lon="118.54997805138444">
        <ele>8.01289972383529</ele>
        <time>2024-12-03T12:20:59Z</time>
      </trkpt>
      <trkpt lat="24.90999481448856" lon="118.55036082036575">
        <ele>8.162222929298878</ele>
        <time>2024-12-03T12:21:11Z</time>
      </trkpt>
      <trkpt lat="24.910114117596155" lon="118.55069698937723">
        <ele>8.736566599458456</ele>
        <time>2024-12-03T12:21:24Z</time>
      </trkpt>
      <trkpt lat="24.91012809166399" lon="118.5508717276954">
        <ele>8.125162716954947</ele>
        <time>2024-12-03T12:21:28Z</time>
      </trkpt>
      <trkpt lat="24.91025371320304" lon="118.55114248691332">
        <ele>7.564765616320074</ele>
        <time>2024-12-03T12:21:36Z</time>
      </trkpt>
      <trkpt lat="24.910267666630123" lon="118.55122384353307">
        <ele>7.079333587549627</ele>
        <time>2024-12-03T12:21:38Z</time>
      </trkpt>
      <trkpt lat="24.910315031356312" lon="118.5513223335986">
        <ele>8.261296765878797</ele>
        <time>2024-12-03T12:21:41Z</time>
      </trkpt>
      <trkpt lat="24.91038661344221" lon="118.55135773981024">
        <ele>7.8199362475425005</ele>
        <time>2024-12-03T12:21:44Z</time>
      </trkpt>
      <trkpt lat="24.910536365596393" lon="118.55177282863337">
        <ele>7.507714033126831</ele>
        <time>2024-12-03T12:21:53Z</time>
      </trkpt>
      <trkpt lat="24.91063820914243" lon="118.55193323656559">
        <ele>7.394232124090195</ele>
        <time>2024-12-03T12:21:57Z</time>
      </trkpt>
      <trkpt lat="24.91075822686945" lon="118.55208442780184">
        <ele>7.751805403269827</ele>
        <time>2024-12-03T12:22:01Z</time>
      </trkpt>
      <trkpt lat="24.910767997795112" lon="118.55220237999944">
        <ele>7.228263589553535</ele>
        <time>2024-12-03T12:22:03Z</time>
      </trkpt>
      <trkpt lat="24.91082983482932" lon="118.55239312616301">
        <ele>7.63988587167114</ele>
        <time>2024-12-03T12:22:08Z</time>
      </trkpt>
      <trkpt lat="24.910934259155475" lon="118.55253446657998">
        <ele>7.9749256717041135</ele>
        <time>2024-12-03T12:22:20Z</time>
      </trkpt>
      <trkpt lat="24.911015522610985" lon="118.55269158851436">
        <ele>8.04021127615124</ele>
        <time>2024-12-03T12:22:26Z</time>
      </trkpt>
      <trkpt lat="24.911038741933027" lon="118.55277161724034">
        <ele>8.06160990614444</ele>
        <time>2024-12-03T12:22:29Z</time>
      </trkpt>
      <trkpt lat="24.91109233240317" lon="118.5528249360173">
        <ele>7.878912471234798</ele>
        <time>2024-12-03T12:22:34Z</time>
      </trkpt>
      <trkpt lat="24.911105221742073" lon="118.55291697835123">
        <ele>8.52165951859206</ele>
        <time>2024-12-03T12:22:41Z</time>
      </trkpt>
      <trkpt lat="24.91108117562986" lon="118.55300570814211">
        <ele>8.47949589509517</ele>
        <time>2024-12-03T12:22:43Z</time>
      </trkpt>
      <trkpt lat="24.91108170680917" lon="118.55308531834044">
        <ele>9.123562600463629</ele>
        <time>2024-12-03T12:22:45Z</time>
      </trkpt>
      <trkpt lat="24.911127754985863" lon="118.5531644543026">
        <ele>8.182681627571583</ele>
        <time>2024-12-03T12:22:47Z</time>
      </trkpt>
      <trkpt lat="24.911147952873556" lon="118.5532691579416">
        <ele>8.258294952102005</ele>
        <time>2024-12-03T12:22:49Z</time>
      </trkpt>
      <trkpt lat="24.911326251971683" lon="118.55371139875699">
        <ele>8.363215241581202</ele>
        <time>2024-12-03T12:22:59Z</time>
      </trkpt>
      <trkpt lat="24.911496253747348" lon="118.55415142752277">
        <ele>8.71993902232498</ele>
        <time>2024-12-03T12:23:10Z</time>
      </trkpt>
      <trkpt lat="24.91156429610444" lon="118.55433412651998">
        <ele>8.547812002710998</ele>
        <time>2024-12-03T12:23:17Z</time>
      </trkpt>
      <trkpt lat="24.911612044058018" lon="118.5544058858756">
        <ele>9.269079649820924</ele>
        <time>2024-12-03T12:23:20Z</time>
      </trkpt>
      <trkpt lat="24.911669540270225" lon="118.55445740889765">
        <ele>8.674334600567818</ele>
        <time>2024-12-03T12:23:23Z</time>
      </trkpt>
      <trkpt lat="24.911718316559195" lon="118.55462816626945">
        <ele>7.4887763522565365</ele>
        <time>2024-12-03T12:23:35Z</time>
      </trkpt>
      <trkpt lat="24.911776114912886" lon="118.55471854365899">
        <ele>7.884484274312854</ele>
        <time>2024-12-03T12:23:39Z</time>
      </trkpt>
      <trkpt lat="24.911749174011753" lon="118.5549020280761">
        <ele>7.76134723611176</ele>
        <time>2024-12-03T12:23:43Z</time>
      </trkpt>
      <trkpt lat="24.911992860589653" lon="118.55539431670351">
        <ele>8.139129301533103</ele>
        <time>2024-12-03T12:23:55Z</time>
      </trkpt>
      <trkpt lat="24.912086339225137" lon="118.5556765967445">
        <ele>7.99738691188395</ele>
        <time>2024-12-03T12:24:01Z</time>
      </trkpt>
      <trkpt lat="24.912103379450546" lon="118.5557689841394">
        <ele>7.980425803922117</ele>
        <time>2024-12-03T12:24:03Z</time>
      </trkpt>
      <trkpt lat="24.91230632544569" lon="118.55620446950059">
        <ele>6.100829768925905</ele>
        <time>2024-12-03T12:24:14Z</time>
      </trkpt>
      <trkpt lat="24.91238837350995" lon="118.55644905948738">
        <ele>7.172307380475104</ele>
        <time>2024-12-03T12:24:20Z</time>
      </trkpt>
      <trkpt lat="24.912487774282845" lon="118.55661888512698">
        <ele>6.98481647670269</ele>
        <time>2024-12-03T12:24:24Z</time>
      </trkpt>
      <trkpt lat="24.91263719212319" lon="118.556963655184">
        <ele>7.7467635264620185</ele>
        <time>2024-12-03T12:24:33Z</time>
      </trkpt>
      <trkpt lat="24.91268783133004" lon="118.55714686326954">
        <ele>7.343807394616306</ele>
        <time>2024-12-03T12:24:37Z</time>
      </trkpt>
      <trkpt lat="24.912875589521235" lon="118.55755579440319">
        <ele>7.2193588251248</ele>
        <time>2024-12-03T12:24:47Z</time>
      </trkpt>
      <trkpt lat="24.912941921937083" lon="118.55763111744403">
        <ele>8.136024528183043</ele>
        <time>2024-12-03T12:24:50Z</time>
      </trkpt>
      <trkpt lat="24.913029523664328" lon="118.55777950271445">
        <ele>9.823435041122139</ele>
        <time>2024-12-03T12:24:58Z</time>
      </trkpt>
      <trkpt lat="24.913096479484025" lon="118.55816175717521">
        <ele>11.072871807962656</ele>
        <time>2024-12-03T12:26:30Z</time>
      </trkpt>
      <trkpt lat="24.913146104964085" lon="118.55823176075619">
        <ele>11.194773634895682</ele>
        <time>2024-12-03T12:26:35Z</time>
      </trkpt>
      <trkpt lat="24.913185069943335" lon="118.55832059364063">
        <ele>11.655720428563654</ele>
        <time>2024-12-03T12:26:39Z</time>
      </trkpt>
      <trkpt lat="24.91328727523366" lon="118.55835547135264">
        <ele>11.601834300905466</ele>
        <time>2024-12-03T12:26:43Z</time>
      </trkpt>
      <trkpt lat="24.913321550963225" lon="118.55844328083663">
        <ele>11.665055255405605</ele>
        <time>2024-12-03T12:26:45Z</time>
      </trkpt>
      <trkpt lat="24.91332383991149" lon="118.55853208721503">
        <ele>11.653675907291472</ele>
        <time>2024-12-03T12:26:47Z</time>
      </trkpt>
      <trkpt lat="24.913344661837705" lon="118.55861535745849">
        <ele>11.434304079040885</ele>
        <time>2024-12-03T12:26:49Z</time>
      </trkpt>
      <trkpt lat="24.913381289060226" lon="118.55868754893612">
        <ele>11.709608832374215</ele>
        <time>2024-12-03T12:26:53Z</time>
      </trkpt>
      <trkpt lat="24.913445291764045" lon="118.55874438810456">
        <ele>12.478386402130127</ele>
        <time>2024-12-03T12:26:57Z</time>
      </trkpt>
      <trkpt lat="24.91348112036794" lon="118.55882400565137">
        <ele>12.756360083818436</ele>
        <time>2024-12-03T12:26:59Z</time>
      </trkpt>
      <trkpt lat="24.91365083618929" lon="118.55903085996462">
        <ele>14.563907451927662</ele>
        <time>2024-12-03T12:27:07Z</time>
      </trkpt>
      <trkpt lat="24.9137217111076" lon="118.55918290545554">
        <ele>14.53733847849071</ele>
        <time>2024-12-03T12:27:14Z</time>
      </trkpt>
      <trkpt lat="24.91393265675733" lon="118.55938410029125">
        <ele>15.41905128955841</ele>
        <time>2024-12-03T12:27:24Z</time>
      </trkpt>
      <trkpt lat="24.91397020961313" lon="118.55947520128994">
        <ele>16.54489598982036</ele>
        <time>2024-12-03T12:27:27Z</time>
      </trkpt>
      <trkpt lat="24.914139492771987" lon="118.55971433762716">
        <ele>14.516696905717254</ele>
        <time>2024-12-03T12:27:37Z</time>
      </trkpt>
      <trkpt lat="24.914173240817505" lon="118.55980184600715">
        <ele>13.78493409883231</ele>
        <time>2024-12-03T12:27:39Z</time>
      </trkpt>
      <trkpt lat="24.914375231804982" lon="118.56002278196117">
        <ele>13.811865410767496</ele>
        <time>2024-12-03T12:27:49Z</time>
      </trkpt>
      <trkpt lat="24.914408807594988" lon="118.56010423992643">
        <ele>14.080450053326786</ele>
        <time>2024-12-03T12:27:51Z</time>
      </trkpt>
      <trkpt lat="24.91469103219373" lon="118.56043728444386">
        <ele>12.641397202387452</ele>
        <time>2024-12-03T12:28:04Z</time>
      </trkpt>
      <trkpt lat="24.914673497492263" lon="118.56053700334317">
        <ele>12.649844379164279</ele>
        <time>2024-12-03T12:28:05Z</time>
      </trkpt>
      <trkpt lat="24.914762729303636" lon="118.56079949538261">
        <ele>12.591204542666674</ele>
        <time>2024-12-03T12:28:09Z</time>
      </trkpt>
      <trkpt lat="24.914826813693534" lon="118.560855051343">
        <ele>11.653912196867168</ele>
        <time>2024-12-03T12:28:11Z</time>
      </trkpt>
      <trkpt lat="24.91513401444194" lon="118.56129159648216">
        <ele>4.778762687928975</ele>
        <time>2024-12-03T12:28:24Z</time>
      </trkpt>
      <trkpt lat="24.915433284815375" lon="118.56172187635774">
        <ele>3.171996575780213</ele>
        <time>2024-12-03T12:28:37Z</time>
      </trkpt>
      <trkpt lat="24.915474669965015" lon="118.56181601981376">
        <ele>3.728977066464722</ele>
        <time>2024-12-03T12:28:41Z</time>
      </trkpt>
      <trkpt lat="24.91558241609736" lon="118.5619437376597">
        <ele>3.119383057579398</ele>
        <time>2024-12-03T12:28:47Z</time>
      </trkpt>
      <trkpt lat="24.9157989827425" lon="118.56231896336917">
        <ele>1.9845430040732026</ele>
        <time>2024-12-03T12:28:59Z</time>
      </trkpt>
      <trkpt lat="24.915945038745697" lon="118.56242708842736">
        <ele>2.344402722083032</ele>
        <time>2024-12-03T12:29:05Z</time>
      </trkpt>
      <trkpt lat="24.916013225894908" lon="118.56245558074062">
        <ele>1.9985575610771775</ele>
        <time>2024-12-03T12:29:08Z</time>
      </trkpt>
      <trkpt lat="24.916194170873865" lon="118.56265974275483">
        <ele>2.556229203939438</ele>
        <time>2024-12-03T12:29:18Z</time>
      </trkpt>
      <trkpt lat="24.91640588318482" lon="118.56287229659871">
        <ele>5.758403443731368</ele>
        <time>2024-12-03T12:29:24Z</time>
      </trkpt>
      <trkpt lat="24.916438440571024" lon="118.56298992318892">
        <ele>7.689707423560321</ele>
        <time>2024-12-03T12:29:26Z</time>
      </trkpt>
      <trkpt lat="24.916623755866922" lon="118.56329517387677">
        <ele>10.196458850987256</ele>
        <time>2024-12-03T12:29:31Z</time>
      </trkpt>
      <trkpt lat="24.91670972921239" lon="118.5633987750457">
        <ele>9.640463058836758</ele>
        <time>2024-12-03T12:29:33Z</time>
      </trkpt>
      <trkpt lat="24.916941192624783" lon="118.56371074204829">
        <ele>10.166054259985685</ele>
        <time>2024-12-03T12:29:38Z</time>
      </trkpt>
      <trkpt lat="24.917192662419918" lon="118.56410708007968">
        <ele>10.455380003899336</ele>
        <time>2024-12-03T12:29:48Z</time>
      </trkpt>
      <trkpt lat="24.91728475448297" lon="118.5643276461001">
        <ele>9.23367187473923</ele>
        <time>2024-12-03T12:30:04Z</time>
      </trkpt>
    </trkseg>
  </trk>
</gpx>