<?xml version="1.0" encoding="UTF-8"?>
<gpx xmlns="http://www.topografix.com/GPX/1/1" xmlns:gpxtpx="http://www.garmin.com/xmlschemas/TrackPointExtension/v1" xmlns:xsi="http://www.w3.org/2001/XMLSchema-instance" xsi:schemaLocation="http://www.topografix.com/GPX/1/1 http://www.topografix.com/GPX/1/1/gpx.xsd" version="1.1" creator="gpx.py -- https://github.com/tkrajina/gpxpy">
  <trk>
    <name>gpx from keep</name>
    <type>Run</type>
    <trkseg>
      <trkpt lat="24.911161816961123" lon="118.53741474455417">
        <ele>36.54949002738399</ele>
        <time>2023-10-20T14:03:59Z</time>
      </trkpt>
      <trkpt lat="24.911239891815082" lon="118.5374518385589">
        <ele>36.33098796872383</ele>
        <time>2023-10-20T14:04:02Z</time>
      </trkpt>
      <trkpt lat="24.911313844459254" lon="118.53743579040729">
        <ele>33.044564837416864</ele>
        <time>2023-10-20T14:04:05Z</time>
      </trkpt>
      <trkpt lat="24.911265140575075" lon="118.5375611294774">
        <ele>30.87853527170987</ele>
        <time>2023-10-20T14:04:11Z</time>
      </trkpt>
      <trkpt lat="24.911177554696394" lon="118.53773560191027">
        <ele>30.274903714137743</ele>
        <time>2023-10-20T14:04:17Z</time>
      </trkpt>
      <trkpt lat="24.911033355065904" lon="118.53807551737023">
        <ele>31.279545658678366</ele>
        <time>2023-10-20T14:04:29Z</time>
      </trkpt>
      <trkpt lat="24.910886015002276" lon="118.53835526968398">
        <ele>30.846101157347317</ele>
        <time>2023-10-20T14:04:41Z</time>
      </trkpt>
      <trkpt lat="24.91083345861983" lon="118.53854677971333">
        <ele>31.25777197187928</ele>
        <time>2023-10-20T14:04:47Z</time>
      </trkpt>
      <trkpt lat="24.910762523228374" lon="118.5385708481887">
        <ele>31.557009633882966</ele>
        <time>2023-10-20T14:04:50Z</time>
      </trkpt>
      <trkpt lat="24.91042346544949" lon="118.53852475001952">
        <ele>31.103025981492294</ele>
        <time>2023-10-20T14:05:02Z</time>
      </trkpt>
      <trkpt lat="24.910169327262253" lon="118.53844856633727">
        <ele>30.050717714868487</ele>
        <time>2023-10-20T14:05:11Z</time>
      </trkpt>
      <trkpt lat="24.910096255160575" lon="118.53841247596077">
        <ele>30.953306387414024</ele>
        <time>2023-10-20T14:05:14Z</time>
      </trkpt>
      <trkpt lat="24.909951220456648" lon="118.53838842239425">
        <ele>30.647311651076624</ele>
        <time>2023-10-20T14:05:20Z</time>
      </trkpt>
      <trkpt lat="24.909710297370903" lon="118.53840748958702">
        <ele>28.608293644528384</ele>
        <time>2023-10-20T14:05:26Z</time>
      </trkpt>
      <trkpt lat="24.909358279972647" lon="118.53837843716809">
        <ele>22.827596933596713</ele>
        <time>2023-10-20T14:05:38Z</time>
      </trkpt>
      <trkpt lat="24.909126339620208" lon="118.53839048516919">
        <ele>23.023498106024263</ele>
        <time>2023-10-20T14:05:47Z</time>
      </trkpt>
      <trkpt lat="24.909090241717394" lon="118.53834536824859">
        <ele>22.6674304031244</ele>
        <time>2023-10-20T14:05:50Z</time>
      </trkpt>
      <trkpt lat="24.90919359473028" lon="118.53806862690443">
        <ele>23.351974475664758</ele>
        <time>2023-10-20T14:05:59Z</time>
      </trkpt>
      <trkpt lat="24.909265802016385" lon="118.53772771371185">
        <ele>24.805392803220705</ele>
        <time>2023-10-20T14:06:11Z</time>
      </trkpt>
      <trkpt lat="24.909392477252275" lon="118.53759434850247">
        <ele>23.151648964139916</ele>
        <time>2023-10-20T14:06:17Z</time>
      </trkpt>
      <trkpt lat="24.909499031932764" lon="118.53740784161513">
        <ele>23.753264141100978</ele>
        <time>2023-10-20T14:06:26Z</time>
      </trkpt>
      <trkpt lat="24.9095183744376" lon="118.53712508066413">
        <ele>28.64451124004434</ele>
        <time>2023-10-20T14:06:35Z</time>
      </trkpt>
      <trkpt lat="24.909391061447625" lon="118.53698270597245">
        <ele>28.279530394574312</ele>
        <time>2023-10-20T14:06:41Z</time>
      </trkpt>
      <trkpt lat="24.909484219057678" lon="118.53662673744714">
        <ele>26.61246206872389</ele>
        <time>2023-10-20T14:06:53Z</time>
      </trkpt>
      <trkpt lat="24.90954365251843" lon="118.53638808585133">
        <ele>23.868007549604474</ele>
        <time>2023-10-20T14:06:59Z</time>
      </trkpt>
      <trkpt lat="24.90952232390426" lon="118.53624670282673">
        <ele>23.506560430464447</ele>
        <time>2023-10-20T14:07:05Z</time>
      </trkpt>
      <trkpt lat="24.90956607522173" lon="118.53614341845336">
        <ele>21.281114297453485</ele>
        <time>2023-10-20T14:07:08Z</time>
      </trkpt>
      <trkpt lat="24.909604176791074" lon="118.53576438020386">
        <ele>19.056775748551853</ele>
        <time>2023-10-20T14:07:20Z</time>
      </trkpt>
      <trkpt lat="24.90961770057945" lon="118.53556382932534">
        <ele>19.481177476860342</ele>
        <time>2023-10-20T14:07:26Z</time>
      </trkpt>
      <trkpt lat="24.909664044706922" lon="118.53529007320687">
        <ele>18.763193758770445</ele>
        <time>2023-10-20T14:07:35Z</time>
      </trkpt>
      <trkpt lat="24.909718619629963" lon="118.53511458543613">
        <ele>20.378262109745137</ele>
        <time>2023-10-20T14:07:41Z</time>
      </trkpt>
      <trkpt lat="24.90968830831845" lon="118.53498222180959">
        <ele>20.768053434367566</ele>
        <time>2023-10-20T14:07:47Z</time>
      </trkpt>
      <trkpt lat="24.90973620594658" lon="118.53494210752145">
        <ele>20.567446781499285</ele>
        <time>2023-10-20T14:07:50Z</time>
      </trkpt>
      <trkpt lat="24.909809281939864" lon="118.53497820228056">
        <ele>20.868937342689705</ele>
        <time>2023-10-20T14:07:53Z</time>
      </trkpt>
      <trkpt lat="24.90997335003014" lon="118.53501629619359">
        <ele>19.60691612901448</ele>
        <time>2023-10-20T14:07:59Z</time>
      </trkpt>
      <trkpt lat="24.910122565879814" lon="118.53511556003437">
        <ele>20.047538276474345</ele>
        <time>2023-10-20T14:08:05Z</time>
      </trkpt>
      <trkpt lat="24.91041081695205" lon="118.53523787743326">
        <ele>19.625771051876583</ele>
        <time>2023-10-20T14:08:17Z</time>
      </trkpt>
      <trkpt lat="24.910634978831823" lon="118.53531908559842">
        <ele>19.93452526107816</ele>
        <time>2023-10-20T14:08:26Z</time>
      </trkpt>
      <trkpt lat="24.91070909235391" lon="118.53537122398399">
        <ele>19.74455537242735</ele>
        <time>2023-10-20T14:08:29Z</time>
      </trkpt>
      <trkpt lat="24.910793142546737" lon="118.53539728986499">
        <ele>19.39991069773007</ele>
        <time>2023-10-20T14:08:32Z</time>
      </trkpt>
      <trkpt lat="24.910885120231754" lon="118.53539327241526">
        <ele>19.47960010166609</ele>
        <time>2023-10-20T14:08:35Z</time>
      </trkpt>
      <trkpt lat="24.911037232294216" lon="118.53544941625852">
        <ele>19.36248654661054</ele>
        <time>2023-10-20T14:08:41Z</time>
      </trkpt>
      <trkpt lat="24.911322527612498" lon="118.53559078477149">
        <ele>20.47960117545905</ele>
        <time>2023-10-20T14:08:53Z</time>
      </trkpt>
      <trkpt lat="24.911401585438053" lon="118.53561985905904">
        <ele>20.503044988352105</ele>
        <time>2023-10-20T14:08:56Z</time>
      </trkpt>
      <trkpt lat="24.911700977503607" lon="118.53580334108092">
        <ele>23.108593636746278</ele>
        <time>2023-10-20T14:09:08Z</time>
      </trkpt>
      <trkpt lat="24.91177706631204" lon="118.53584545103139">
        <ele>22.712408489776905</ele>
        <time>2023-10-20T14:09:11Z</time>
      </trkpt>
      <trkpt lat="24.912012170750828" lon="118.535903593701">
        <ele>22.811277123780062</ele>
        <time>2023-10-20T14:09:20Z</time>
      </trkpt>
      <trkpt lat="24.912186193788898" lon="118.53592363638921">
        <ele>22.852572126079878</ele>
        <time>2023-10-20T14:09:26Z</time>
      </trkpt>
      <trkpt lat="24.912258278270016" lon="118.53596374096591">
        <ele>22.52953622602837</ele>
        <time>2023-10-20T14:09:29Z</time>
      </trkpt>
      <trkpt lat="24.91233130825227" lon="118.53598078243826">
        <ele>22.377072796488026</ele>
        <time>2023-10-20T14:09:32Z</time>
      </trkpt>
      <trkpt lat="24.912403392661695" lon="118.53602088693592">
        <ele>21.663539382879378</ele>
        <time>2023-10-20T14:09:35Z</time>
      </trkpt>
      <trkpt lat="24.912417553505808" lon="118.53609007474628">
        <ele>20.686853028423226</ele>
        <time>2023-10-20T14:09:38Z</time>
      </trkpt>
      <trkpt lat="24.912274202128334" lon="118.53635781374133">
        <ele>20.669156063136985</ele>
        <time>2023-10-20T14:09:47Z</time>
      </trkpt>
      <trkpt lat="24.912128818371393" lon="118.53661251506614">
        <ele>21.640470137582973</ele>
        <time>2023-10-20T14:09:59Z</time>
      </trkpt>
      <trkpt lat="24.91202638926144" lon="118.53685116779666">
        <ele>22.38117234657961</ele>
        <time>2023-10-20T14:10:08Z</time>
      </trkpt>
      <trkpt lat="24.911909227889957" lon="118.53720512980948">
        <ele>20.781191383717747</ele>
        <time>2023-10-20T14:10:21Z</time>
      </trkpt>
      <trkpt lat="24.91176689486263" lon="118.5374848904848">
        <ele>20.872262269622386</ele>
        <time>2023-10-20T14:10:33Z</time>
      </trkpt>
      <trkpt lat="24.91163865423894" lon="118.53780675975008">
        <ele>21.756088135031444</ele>
        <time>2023-10-20T14:10:45Z</time>
      </trkpt>
      <trkpt lat="24.911486429729656" lon="118.53813564561895">
        <ele>22.46561718193344</ele>
        <time>2023-10-20T14:10:57Z</time>
      </trkpt>
      <trkpt lat="24.911350094462613" lon="118.53841840451912">
        <ele>24.74458380189148</ele>
        <time>2023-10-20T14:11:06Z</time>
      </trkpt>
      <trkpt lat="24.91119681588421" lon="118.53872622774762">
        <ele>24.609912997636044</ele>
        <time>2023-10-20T14:11:18Z</time>
      </trkpt>
      <trkpt lat="24.911146884258518" lon="118.5387533025236">
        <ele>23.630427124191776</ele>
        <time>2023-10-20T14:11:21Z</time>
      </trkpt>
      <trkpt lat="24.910827701050845" lon="118.53865306056208">
        <ele>21.54946160294031</ele>
        <time>2023-10-20T14:11:33Z</time>
      </trkpt>
      <trkpt lat="24.910743687680146" lon="118.538642037331">
        <ele>21.518682813625585</ele>
        <time>2023-10-20T14:11:36Z</time>
      </trkpt>
      <trkpt lat="24.910595582932267" lon="118.53858690216295">
        <ele>21.735425297506776</ele>
        <time>2023-10-20T14:11:42Z</time>
      </trkpt>
      <trkpt lat="24.910424542867396" lon="118.53855883997095">
        <ele>22.203686038485614</ele>
        <time>2023-10-20T14:11:48Z</time>
      </trkpt>
      <trkpt lat="24.910103334151625" lon="118.53844756828369">
        <ele>20.2222650619298</ele>
        <time>2023-10-20T14:12:00Z</time>
      </trkpt>
      <trkpt lat="24.909830241842055" lon="118.53839043612946">
        <ele>18.904962558869666</ele>
        <time>2023-10-20T14:12:09Z</time>
      </trkpt>
      <trkpt lat="24.909539229682753" lon="118.53836739536816">
        <ele>18.1767899087466</ele>
        <time>2023-10-20T14:12:21Z</time>
      </trkpt>
      <trkpt lat="24.90937319327278" lon="118.53834133791568">
        <ele>18.024662372105507</ele>
        <time>2023-10-20T14:12:27Z</time>
      </trkpt>
      <trkpt lat="24.909293218106747" lon="118.53834735941734">
        <ele>18.524014558576447</ele>
        <time>2023-10-20T14:12:30Z</time>
      </trkpt>
      <trkpt lat="24.909236168827906" lon="118.53832229700883">
        <ele>19.27867073047944</ele>
        <time>2023-10-20T14:12:33Z</time>
      </trkpt>
      <trkpt lat="24.909382324901777" lon="118.53796233106856">
        <ele>18.514862224223407</ele>
        <time>2023-10-20T14:12:45Z</time>
      </trkpt>
      <trkpt lat="24.909389202002906" lon="118.53790918909432">
        <ele>18.990986609077186</ele>
        <time>2023-10-20T14:12:48Z</time>
      </trkpt>
      <trkpt lat="24.909426012654226" lon="118.53782897276032">
        <ele>18.068356278620637</ele>
        <time>2023-10-20T14:12:51Z</time>
      </trkpt>
      <trkpt lat="24.909461321991678" lon="118.537531174671">
        <ele>20.919055397656855</ele>
        <time>2023-10-20T14:13:00Z</time>
      </trkpt>
      <trkpt lat="24.909549702447343" lon="118.53726846402344">
        <ele>24.168998090389426</ele>
        <time>2023-10-20T14:13:09Z</time>
      </trkpt>
      <trkpt lat="24.909535153280608" lon="118.53703082566543">
        <ele>25.98224669707916</ele>
        <time>2023-10-20T14:13:15Z</time>
      </trkpt>
      <trkpt lat="24.909454015404624" lon="118.53696665832136">
        <ele>26.837695109892465</ele>
        <time>2023-10-20T14:13:18Z</time>
      </trkpt>
      <trkpt lat="24.909428855622853" lon="118.53689647069118">
        <ele>27.798454734588443</ele>
        <time>2023-10-20T14:13:21Z</time>
      </trkpt>
      <trkpt lat="24.909498128106154" lon="118.53658863323625">
        <ele>28.58746191651256</ele>
        <time>2023-10-20T14:13:33Z</time>
      </trkpt>
      <trkpt lat="24.909554709708313" lon="118.53641315318372">
        <ele>26.56138465953532</ele>
        <time>2023-10-20T14:13:36Z</time>
      </trkpt>
      <trkpt lat="24.909560560868997" lon="118.5363499811139">
        <ele>24.143979361763968</ele>
        <time>2023-10-20T14:13:39Z</time>
      </trkpt>
      <trkpt lat="24.909543283328016" lon="118.53623065768919">
        <ele>25.135975027991318</ele>
        <time>2023-10-20T14:13:42Z</time>
      </trkpt>
      <trkpt lat="24.90959762009441" lon="118.53595189359858">
        <ele>27.877557023077895</ele>
        <time>2023-10-20T14:13:51Z</time>
      </trkpt>
      <trkpt lat="24.90965035976506" lon="118.53584459657083">
        <ele>28.26499068019266</ele>
        <time>2023-10-20T14:13:54Z</time>
      </trkpt>
      <trkpt lat="24.90962817345726" lon="118.53576437853074">
        <ele>24.85218730120918</ele>
        <time>2023-10-20T14:13:57Z</time>
      </trkpt>
      <trkpt lat="24.909636728804646" lon="118.53557686378633">
        <ele>23.957974799027618</ele>
        <time>2023-10-20T14:14:03Z</time>
      </trkpt>
      <trkpt lat="24.909701218183894" lon="118.53536527770696">
        <ele>22.167920170533847</ele>
        <time>2023-10-20T14:14:12Z</time>
      </trkpt>
      <trkpt lat="24.909727561058936" lon="118.53509051835856">
        <ele>20.757081452062263</ele>
        <time>2023-10-20T14:14:21Z</time>
      </trkpt>
      <trkpt lat="24.90971634030504" lon="118.53499726144598">
        <ele>20.537631556045902</ele>
        <time>2023-10-20T14:14:24Z</time>
      </trkpt>
      <trkpt lat="24.90972721198324" lon="118.53494411369738">
        <ele>20.32034463176927</ele>
        <time>2023-10-20T14:14:27Z</time>
      </trkpt>
      <trkpt lat="24.90980916947757" lon="118.53493107191268">
        <ele>19.111002149720285</ele>
        <time>2023-10-20T14:14:30Z</time>
      </trkpt>
      <trkpt lat="24.909878248430175" lon="118.53496816973758">
        <ele>19.49251592619604</ele>
        <time>2023-10-20T14:14:33Z</time>
      </trkpt>
      <trkpt lat="24.90997026196086" lon="118.53497919382686">
        <ele>19.31373342651759</ele>
        <time>2023-10-20T14:14:36Z</time>
      </trkpt>
      <trkpt lat="24.910167516636896" lon="118.53509750706135">
        <ele>19.50226243985815</ele>
        <time>2023-10-20T14:14:45Z</time>
      </trkpt>
      <trkpt lat="24.91025556649594" lon="118.5351235729059">
        <ele>19.292488845878296</ele>
        <time>2023-10-20T14:14:48Z</time>
      </trkpt>
      <trkpt lat="24.910370739045014" lon="118.53520278345617">
        <ele>18.9399850431456</ele>
        <time>2023-10-20T14:14:54Z</time>
      </trkpt>
      <trkpt lat="24.910547840815298" lon="118.53525591762985">
        <ele>17.891459631583327</ele>
        <time>2023-10-20T14:15:00Z</time>
      </trkpt>
      <trkpt lat="24.91076112320157" lon="118.53538726450743">
        <ele>18.782748850310583</ele>
        <time>2023-10-20T14:15:09Z</time>
      </trkpt>
      <trkpt lat="24.9109331302108" lon="118.53540028837953">
        <ele>18.01304964489603</ele>
        <time>2023-10-20T14:15:15Z</time>
      </trkpt>
      <trkpt lat="24.91125841067735" lon="118.53553764332563">
        <ele>18.725516550594616</ele>
        <time>2023-10-20T14:15:27Z</time>
      </trkpt>
      <trkpt lat="24.911539732242" lon="118.53569004192809">
        <ele>21.483677285501724</ele>
        <time>2023-10-20T14:15:39Z</time>
      </trkpt>
      <trkpt lat="24.911761016485077" lon="118.53582339178595">
        <ele>20.521273520161152</ele>
        <time>2023-10-20T14:15:48Z</time>
      </trkpt>
      <trkpt lat="24.9120351037081" lon="118.53587651807001">
        <ele>21.343801585553326</ele>
        <time>2023-10-20T14:15:57Z</time>
      </trkpt>
      <trkpt lat="24.912334307834307" lon="118.53598078222912">
        <ele>20.090485539827032</ele>
        <time>2023-10-20T14:16:09Z</time>
      </trkpt>
      <trkpt lat="24.912423415837647" lon="118.53603191564909">
        <ele>19.585577763450402</ele>
        <time>2023-10-20T14:16:12Z</time>
      </trkpt>
      <trkpt lat="24.912441526577396" lon="118.53608004572308">
        <ele>19.614082134774687</ele>
        <time>2023-10-20T14:16:15Z</time>
      </trkpt>
      <trkpt lat="24.91242170145896" lon="118.5361532466928">
        <ele>20.02806667643536</ele>
        <time>2023-10-20T14:16:18Z</time>
      </trkpt>
      <trkpt lat="24.912282356047978" lon="118.536423992991">
        <ele>20.34901468088778</ele>
        <time>2023-10-20T14:16:27Z</time>
      </trkpt>
      <trkpt lat="24.912184770750066" lon="118.53659546497563">
        <ele>20.819402052397553</ele>
        <time>2023-10-20T14:16:33Z</time>
      </trkpt>
      <trkpt lat="24.912128933098458" lon="118.536661648137">
        <ele>20.846431560552585</ele>
        <time>2023-10-20T14:16:36Z</time>
      </trkpt>
      <trkpt lat="24.912008590104815" lon="118.53693639912066">
        <ele>21.811140098055557</ele>
        <time>2023-10-20T14:16:45Z</time>
      </trkpt>
      <trkpt lat="24.911929971504392" lon="118.53709583430485">
        <ele>21.224120308838327</ele>
        <time>2023-10-20T14:16:51Z</time>
      </trkpt>
      <trkpt lat="24.911806727179354" lon="118.53741469960819">
        <ele>20.228697337970708</ele>
        <time>2023-10-20T14:17:03Z</time>
      </trkpt>
      <trkpt lat="24.911648528351787" lon="118.53775261459252">
        <ele>20.162965238430264</ele>
        <time>2023-10-20T14:17:15Z</time>
      </trkpt>
      <trkpt lat="24.911496063168066" lon="118.53797622114405">
        <ele>23.11241216797095</ele>
        <time>2023-10-20T14:17:24Z</time>
      </trkpt>
      <trkpt lat="24.911436214009164" lon="118.53803839067973">
        <ele>24.01503240019476</ele>
        <time>2023-10-20T14:17:27Z</time>
      </trkpt>
      <trkpt lat="24.91141957893708" lon="118.53819681262574">
        <ele>25.508643741952433</ele>
        <time>2023-10-20T14:17:33Z</time>
      </trkpt>
      <trkpt lat="24.9113450951585" lon="118.53841840486743">
        <ele>27.7494298468254</ele>
        <time>2023-10-20T14:17:39Z</time>
      </trkpt>
      <trkpt lat="24.91121665603981" lon="118.53865704403972">
        <ele>26.12753556756858</ele>
        <time>2023-10-20T14:17:48Z</time>
      </trkpt>
    </trkseg>
  </trk>
</gpx>