<?xml version="1.0" encoding="UTF-8"?>
<gpx xmlns="http://www.topografix.com/GPX/1/1" xmlns:gpxtpx="http://www.garmin.com/xmlschemas/TrackPointExtension/v1" xmlns:xsi="http://www.w3.org/2001/XMLSchema-instance" xsi:schemaLocation="http://www.topografix.com/GPX/1/1 http://www.topografix.com/GPX/1/1/gpx.xsd" version="1.1" creator="gpx.py -- https://github.com/tkrajina/gpxpy">
  <trk>
    <name>gpx from keep</name>
    <type>Run</type>
    <trkseg>
      <trkpt lat="24.91075837440167" lon="118.53855464832081">
        <ele>10.0552426148206</ele>
        <time>2024-05-18T14:05:01Z</time>
      </trkpt>
      <trkpt lat="24.91049071529711" lon="118.53849526578715">
        <ele>10.178666340187192</ele>
        <time>2024-05-18T14:05:13Z</time>
      </trkpt>
      <trkpt lat="24.910215861106433" lon="118.53842885516671">
        <ele>9.518855480477214</ele>
        <time>2024-05-18T14:05:21Z</time>
      </trkpt>
      <trkpt lat="24.909854703852012" lon="118.5383381875183">
        <ele>9.031461254693568</ele>
        <time>2024-05-18T14:05:33Z</time>
      </trkpt>
      <trkpt lat="24.90972278373771" lon="118.53832622074664">
        <ele>8.480782731436193</ele>
        <time>2024-05-18T14:05:37Z</time>
      </trkpt>
      <trkpt lat="24.90937538511883" lon="118.53825778395074">
        <ele>7.551111411303282</ele>
        <time>2024-05-18T14:05:49Z</time>
      </trkpt>
      <trkpt lat="24.909242916177092" lon="118.53826663590759">
        <ele>7.763624503277242</ele>
        <time>2024-05-18T14:05:53Z</time>
      </trkpt>
      <trkpt lat="24.909211634290287" lon="118.53822714817167">
        <ele>7.718377485871315</ele>
        <time>2024-05-18T14:05:56Z</time>
      </trkpt>
      <trkpt lat="24.909257660689114" lon="118.53797243019409">
        <ele>8.406271547079086</ele>
        <time>2024-05-18T14:06:06Z</time>
      </trkpt>
      <trkpt lat="24.909402403566382" lon="118.53762596031916">
        <ele>9.178035357035697</ele>
        <time>2024-05-18T14:06:18Z</time>
      </trkpt>
      <trkpt lat="24.90945409481261" lon="118.53753848211075">
        <ele>9.728760287165642</ele>
        <time>2024-05-18T14:06:21Z</time>
      </trkpt>
      <trkpt lat="24.90956622445227" lon="118.53718481252432">
        <ele>9.997709456831217</ele>
        <time>2024-05-18T14:06:33Z</time>
      </trkpt>
      <trkpt lat="24.909575556466436" lon="118.53708354801115">
        <ele>10.003596913069487</ele>
        <time>2024-05-18T14:06:36Z</time>
      </trkpt>
      <trkpt lat="24.909518368261587" lon="118.53696989740104">
        <ele>9.3020996786654</ele>
        <time>2024-05-18T14:06:39Z</time>
      </trkpt>
      <trkpt lat="24.90945687938893" lon="118.53693699876854">
        <ele>9.801024349406362</ele>
        <time>2024-05-18T14:06:42Z</time>
      </trkpt>
      <trkpt lat="24.909474706898937" lon="118.53682728772108">
        <ele>10.71243155747652</ele>
        <time>2024-05-18T14:06:45Z</time>
      </trkpt>
      <trkpt lat="24.90959139577845" lon="118.53655831177178">
        <ele>10.36977980285883</ele>
        <time>2024-05-18T14:06:55Z</time>
      </trkpt>
      <trkpt lat="24.909639219601804" lon="118.5363777953264">
        <ele>10.362281013280153</ele>
        <time>2024-05-18T14:07:01Z</time>
      </trkpt>
      <trkpt lat="24.909644314704174" lon="118.53607804172147">
        <ele>9.563418860547245</ele>
        <time>2024-05-18T14:07:10Z</time>
      </trkpt>
      <trkpt lat="24.909674990183778" lon="118.53575766198081">
        <ele>9.849221213720739</ele>
        <time>2024-05-18T14:07:19Z</time>
      </trkpt>
      <trkpt lat="24.90967891741173" lon="118.5356575448285">
        <ele>10.589799421839416</ele>
        <time>2024-05-18T14:07:22Z</time>
      </trkpt>
      <trkpt lat="24.909713999304667" lon="118.53545686669365">
        <ele>9.750985281541944</ele>
        <time>2024-05-18T14:07:28Z</time>
      </trkpt>
      <trkpt lat="24.909759194521286" lon="118.53508560281489">
        <ele>8.819308519363403</ele>
        <time>2024-05-18T14:07:40Z</time>
      </trkpt>
      <trkpt lat="24.909795599232748" lon="118.5349044874244">
        <ele>8.73811683896929</ele>
        <time>2024-05-18T14:07:46Z</time>
      </trkpt>
      <trkpt lat="24.909846190742254" lon="118.53487294151667">
        <ele>7.569283454678953</ele>
        <time>2024-05-18T14:07:49Z</time>
      </trkpt>
      <trkpt lat="24.910202461100486" lon="118.53503369136028">
        <ele>9.28206221666187</ele>
        <time>2024-05-18T14:08:02Z</time>
      </trkpt>
      <trkpt lat="24.91053720695179" lon="118.53517320808409">
        <ele>9.785411344841123</ele>
        <time>2024-05-18T14:08:14Z</time>
      </trkpt>
      <trkpt lat="24.91087362050999" lon="118.53530152426627">
        <ele>9.814647444523871</ele>
        <time>2024-05-18T14:08:26Z</time>
      </trkpt>
      <trkpt lat="24.911022246047224" lon="118.53539971443557">
        <ele>10.584409266710281</ele>
        <time>2024-05-18T14:08:32Z</time>
      </trkpt>
      <trkpt lat="24.911271369586853" lon="118.53550686716125">
        <ele>9.870672713965178</ele>
        <time>2024-05-18T14:08:41Z</time>
      </trkpt>
      <trkpt lat="24.911416153273237" lon="118.53558467891474">
        <ele>10.627477844245732</ele>
        <time>2024-05-18T14:08:47Z</time>
      </trkpt>
      <trkpt lat="24.91156915647774" lon="118.5356369414181">
        <ele>10.117033446207643</ele>
        <time>2024-05-18T14:08:53Z</time>
      </trkpt>
      <trkpt lat="24.911810827964572" lon="118.53579311663678">
        <ele>10.039614666253328</ele>
        <time>2024-05-18T14:09:03Z</time>
      </trkpt>
      <trkpt lat="24.911997111600353" lon="118.53585248018173">
        <ele>9.570551212877035</ele>
        <time>2024-05-18T14:09:09Z</time>
      </trkpt>
      <trkpt lat="24.912091357796694" lon="118.53586576070394">
        <ele>10.6984145892784</ele>
        <time>2024-05-18T14:09:12Z</time>
      </trkpt>
      <trkpt lat="24.912177174623917" lon="118.53591646258914">
        <ele>11.072036766447127</ele>
        <time>2024-05-18T14:09:15Z</time>
      </trkpt>
      <trkpt lat="24.91249157366333" lon="118.53605544031606">
        <ele>9.6170644601807</ele>
        <time>2024-05-18T14:09:27Z</time>
      </trkpt>
      <trkpt lat="24.91281811023275" lon="118.53614990674635">
        <ele>9.978673594072461</ele>
        <time>2024-05-18T14:09:39Z</time>
      </trkpt>
      <trkpt lat="24.913094840670613" lon="118.53626512804382">
        <ele>12.350508453324437</ele>
        <time>2024-05-18T14:09:51Z</time>
      </trkpt>
      <trkpt lat="24.913275967337135" lon="118.53636913670772">
        <ele>12.244867889210582</ele>
        <time>2024-05-18T14:09:57Z</time>
      </trkpt>
      <trkpt lat="24.913406777183294" lon="118.53638777603828">
        <ele>12.403940957970917</ele>
        <time>2024-05-18T14:10:01Z</time>
      </trkpt>
      <trkpt lat="24.913509449002373" lon="118.53642577552183">
        <ele>12.436584617942572</ele>
        <time>2024-05-18T14:10:04Z</time>
      </trkpt>
      <trkpt lat="24.913666956353904" lon="118.53652768539168">
        <ele>12.475588941015303</ele>
        <time>2024-05-18T14:10:10Z</time>
      </trkpt>
      <trkpt lat="24.913753058744973" lon="118.53655047128147">
        <ele>12.702718380838633</ele>
        <time>2024-05-18T14:10:13Z</time>
      </trkpt>
      <trkpt lat="24.913819717830208" lon="118.53659682591866">
        <ele>12.48485975433141</ele>
        <time>2024-05-18T14:10:16Z</time>
      </trkpt>
      <trkpt lat="24.91389624656187" lon="118.53656824920029">
        <ele>12.90102956071496</ele>
        <time>2024-05-18T14:10:19Z</time>
      </trkpt>
      <trkpt lat="24.913979747594073" lon="118.53661923572874">
        <ele>12.632377804256976</ele>
        <time>2024-05-18T14:10:22Z</time>
      </trkpt>
      <trkpt lat="24.914042964205983" lon="118.53669170218834">
        <ele>12.828805515542626</ele>
        <time>2024-05-18T14:10:25Z</time>
      </trkpt>
      <trkpt lat="24.914293161402675" lon="118.53683019626679">
        <ele>12.415805513970554</ele>
        <time>2024-05-18T14:10:34Z</time>
      </trkpt>
      <trkpt lat="24.914604442934294" lon="118.53695506853975">
        <ele>13.238114772364497</ele>
        <time>2024-05-18T14:10:46Z</time>
      </trkpt>
      <trkpt lat="24.914791047737907" lon="118.53698978405832">
        <ele>14.81254065874964</ele>
        <time>2024-05-18T14:10:52Z</time>
      </trkpt>
      <trkpt lat="24.915098511193502" lon="118.53716914678209">
        <ele>15.810622037388384</ele>
        <time>2024-05-18T14:11:05Z</time>
      </trkpt>
      <trkpt lat="24.915217831591793" lon="118.5373147696494">
        <ele>14.940510085783899</ele>
        <time>2024-05-18T14:11:11Z</time>
      </trkpt>
      <trkpt lat="24.915277144267133" lon="118.53750403455247">
        <ele>14.609445728361607</ele>
        <time>2024-05-18T14:11:17Z</time>
      </trkpt>
      <trkpt lat="24.91537615877788" lon="118.53764770417149">
        <ele>15.74030819348991</ele>
        <time>2024-05-18T14:11:23Z</time>
      </trkpt>
      <trkpt lat="24.915483731520567" lon="118.53797235340804">
        <ele>15.311760830692947</ele>
        <time>2024-05-18T14:11:35Z</time>
      </trkpt>
      <trkpt lat="24.915620082955563" lon="118.53829359711537">
        <ele>15.783504555001855</ele>
        <time>2024-05-18T14:11:47Z</time>
      </trkpt>
      <trkpt lat="24.91574293088684" lon="118.53864955919552">
        <ele>15.17665458470583</ele>
        <time>2024-05-18T14:11:59Z</time>
      </trkpt>
      <trkpt lat="24.915816844235053" lon="118.53893665906018">
        <ele>14.732884814962745</ele>
        <time>2024-05-18T14:12:08Z</time>
      </trkpt>
      <trkpt lat="24.91590190197224" lon="118.53923304848357">
        <ele>14.731653320603073</ele>
        <time>2024-05-18T14:12:17Z</time>
      </trkpt>
      <trkpt lat="24.915971930783122" lon="118.53942219588487">
        <ele>14.921143613755703</ele>
        <time>2024-05-18T14:12:23Z</time>
      </trkpt>
      <trkpt lat="24.916029966371656" lon="118.53965034371437">
        <ele>13.098028645850718</ele>
        <time>2024-05-18T14:12:29Z</time>
      </trkpt>
      <trkpt lat="24.91601593676111" lon="118.53984646615872">
        <ele>12.72620430868119</ele>
        <time>2024-05-18T14:12:35Z</time>
      </trkpt>
      <trkpt lat="24.916027995198608" lon="118.53994414876212">
        <ele>12.018836494535208</ele>
        <time>2024-05-18T14:12:38Z</time>
      </trkpt>
      <trkpt lat="24.916142115950063" lon="118.54023812068799">
        <ele>13.768552044406533</ele>
        <time>2024-05-18T14:12:47Z</time>
      </trkpt>
      <trkpt lat="24.916263005833958" lon="118.54051377990221">
        <ele>11.781068226322532</ele>
        <time>2024-05-18T14:12:56Z</time>
      </trkpt>
      <trkpt lat="24.916348076452543" lon="118.54072578423214">
        <ele>12.423865783028305</ele>
        <time>2024-05-18T14:13:02Z</time>
      </trkpt>
      <trkpt lat="24.916350402069785" lon="118.54089506717634">
        <ele>13.020196413621306</ele>
        <time>2024-05-18T14:13:08Z</time>
      </trkpt>
      <trkpt lat="24.916430472560528" lon="118.5412900510178">
        <ele>12.947954121045768</ele>
        <time>2024-05-18T14:13:20Z</time>
      </trkpt>
      <trkpt lat="24.916523971130847" lon="118.54154200706155">
        <ele>12.35313698835671</ele>
        <time>2024-05-18T14:13:28Z</time>
      </trkpt>
      <trkpt lat="24.916555399422563" lon="118.54175145427148">
        <ele>12.05457754433155</ele>
        <time>2024-05-18T14:13:34Z</time>
      </trkpt>
      <trkpt lat="24.916289437790233" lon="118.54192610635351">
        <ele>12.262544840574265</ele>
        <time>2024-05-18T14:13:43Z</time>
      </trkpt>
      <trkpt lat="24.91609471897525" lon="118.54201134016134">
        <ele>12.482008714228868</ele>
        <time>2024-05-18T14:13:49Z</time>
      </trkpt>
      <trkpt lat="24.91591140846485" lon="118.54205970627443">
        <ele>12.440539810806513</ele>
        <time>2024-05-18T14:13:55Z</time>
      </trkpt>
      <trkpt lat="24.915747827958405" lon="118.54215520156949">
        <ele>12.720344235189259</ele>
        <time>2024-05-18T14:14:01Z</time>
      </trkpt>
      <trkpt lat="24.915562415942436" lon="118.54222550915335">
        <ele>13.406064859591424</ele>
        <time>2024-05-18T14:14:07Z</time>
      </trkpt>
      <trkpt lat="24.91546213085321" lon="118.54223606494203">
        <ele>12.760606346651912</ele>
        <time>2024-05-18T14:14:10Z</time>
      </trkpt>
      <trkpt lat="24.915390964228802" lon="118.54219747827743">
        <ele>13.206095830537379</ele>
        <time>2024-05-18T14:14:13Z</time>
      </trkpt>
      <trkpt lat="24.915236176397574" lon="118.54225383542266">
        <ele>12.836690335534513</ele>
        <time>2024-05-18T14:14:19Z</time>
      </trkpt>
      <trkpt lat="24.91511433309268" lon="118.54234743009003">
        <ele>11.891652280464768</ele>
        <time>2024-05-18T14:14:25Z</time>
      </trkpt>
      <trkpt lat="24.91485006968063" lon="118.54244387855341">
        <ele>11.247701361775398</ele>
        <time>2024-05-18T14:14:34Z</time>
      </trkpt>
      <trkpt lat="24.914635913432175" lon="118.54247066384019">
        <ele>10.464986763894558</ele>
        <time>2024-05-18T14:14:43Z</time>
      </trkpt>
      <trkpt lat="24.914546908382118" lon="118.54246296377508">
        <ele>9.975893039256334</ele>
        <time>2024-05-18T14:14:46Z</time>
      </trkpt>
      <trkpt lat="24.914383351858216" lon="118.54249682005002">
        <ele>9.855816184543073</ele>
        <time>2024-05-18T14:14:52Z</time>
      </trkpt>
      <trkpt lat="24.91430196329444" lon="118.5425363728072">
        <ele>10.112660241313279</ele>
        <time>2024-05-18T14:14:55Z</time>
      </trkpt>
      <trkpt lat="24.91395860598863" lon="118.54263216578155">
        <ele>9.606031152419746</ele>
        <time>2024-05-18T14:15:07Z</time>
      </trkpt>
      <trkpt lat="24.913674339051163" lon="118.5426799229507">
        <ele>8.379925867542624</ele>
        <time>2024-05-18T14:15:17Z</time>
      </trkpt>
      <trkpt lat="24.913306155802132" lon="118.54276637212303">
        <ele>7.889897367917001</ele>
        <time>2024-05-18T14:15:29Z</time>
      </trkpt>
      <trkpt lat="24.91295930229847" lon="118.54283547633287">
        <ele>7.55289216991514</ele>
        <time>2024-05-18T14:15:41Z</time>
      </trkpt>
      <trkpt lat="24.912873568450937" lon="118.54284781443134">
        <ele>8.11151134967804</ele>
        <time>2024-05-18T14:15:44Z</time>
      </trkpt>
      <trkpt lat="24.912699909228618" lon="118.5429189556272">
        <ele>8.316461555659771</ele>
        <time>2024-05-18T14:15:50Z</time>
      </trkpt>
      <trkpt lat="24.912602753996246" lon="118.54293204065839">
        <ele>8.738754971884191</ele>
        <time>2024-05-18T14:15:53Z</time>
      </trkpt>
      <trkpt lat="24.912283592321334" lon="118.54304354410968">
        <ele>7.940982423722744</ele>
        <time>2024-05-18T14:16:05Z</time>
      </trkpt>
      <trkpt lat="24.912022163521957" lon="118.54313361102615">
        <ele>7.607099114917219</ele>
        <time>2024-05-18T14:16:14Z</time>
      </trkpt>
      <trkpt lat="24.91175210887631" lon="118.54318895131902">
        <ele>8.418673608452082</ele>
        <time>2024-05-18T14:16:23Z</time>
      </trkpt>
      <trkpt lat="24.911490069391906" lon="118.54323814905">
        <ele>8.934743850491941</ele>
        <time>2024-05-18T14:16:32Z</time>
      </trkpt>
      <trkpt lat="24.91142678170176" lon="118.54323237411175">
        <ele>8.726946440525353</ele>
        <time>2024-05-18T14:16:35Z</time>
      </trkpt>
      <trkpt lat="24.91142678170176" lon="118.54323237411175">
        <ele>8.726946440525353</ele>
        <time>2024-05-18T14:16:36Z</time>
      </trkpt>
    </trkseg>
  </trk>
</gpx>