<?xml version="1.0" encoding="UTF-8"?>
<gpx xmlns="http://www.topografix.com/GPX/1/1" xmlns:gpxtpx="http://www.garmin.com/xmlschemas/TrackPointExtension/v1" xmlns:xsi="http://www.w3.org/2001/XMLSchema-instance" xsi:schemaLocation="http://www.topografix.com/GPX/1/1 http://www.topografix.com/GPX/1/1/gpx.xsd" version="1.1" creator="gpx.py -- https://github.com/tkrajina/gpxpy">
  <trk>
    <name>gpx from keep</name>
    <type>Run</type>
    <trkseg>
      <trkpt lat="24.911333721182707" lon="118.53738364921641">
        <ele>25.4295654296875</ele>
        <time>2025-12-02T12:07:34Z</time>
      </trkpt>
      <trkpt lat="24.9111645495846" lon="118.5377325947856">
        <ele>25.91021728515625</ele>
        <time>2025-12-02T12:07:43Z</time>
      </trkpt>
      <trkpt lat="24.91103231846428" lon="118.53805947480235">
        <ele>23.446533203125</ele>
        <time>2025-12-02T12:07:52Z</time>
      </trkpt>
      <trkpt lat="24.91090410624168" lon="118.53839637723208">
        <ele>25.23870849609375</ele>
        <time>2025-12-02T12:08:01Z</time>
      </trkpt>
      <trkpt lat="24.91085152908907" lon="118.538578863161">
        <ele>24.4990234375</ele>
        <time>2025-12-02T12:08:07Z</time>
      </trkpt>
      <trkpt lat="24.91085477698772" lon="118.53868815118643">
        <ele>25.59808349609375</ele>
        <time>2025-12-02T12:08:10Z</time>
      </trkpt>
      <trkpt lat="24.910931868679963" lon="118.53873326469235">
        <ele>24.96160888671875</ele>
        <time>2025-12-02T12:08:13Z</time>
      </trkpt>
      <trkpt lat="24.91112687112083" lon="118.53874628543583">
        <ele>24.4456787109375</ele>
        <time>2025-12-02T12:08:19Z</time>
      </trkpt>
      <trkpt lat="24.911206935029174" lon="118.53877936697178">
        <ele>24.37347412109375</ele>
        <time>2025-12-02T12:08:22Z</time>
      </trkpt>
      <trkpt lat="24.911255055609853" lon="118.53883551135755">
        <ele>24.8931884765625</ele>
        <time>2025-12-02T12:08:25Z</time>
      </trkpt>
      <trkpt lat="24.911196752882823" lon="118.53914031541923">
        <ele>26.02520751953125</ele>
        <time>2025-12-02T12:08:34Z</time>
      </trkpt>
      <trkpt lat="24.911128426010787" lon="118.53943509062745">
        <ele>25.9208984375</ele>
        <time>2025-12-02T12:08:43Z</time>
      </trkpt>
      <trkpt lat="24.91104909334743" lon="118.53972785819559">
        <ele>24.55078125</ele>
        <time>2025-12-02T12:08:52Z</time>
      </trkpt>
      <trkpt lat="24.91097450912868" lon="118.53990933416148">
        <ele>24.263427734375</ele>
        <time>2025-12-02T12:08:58Z</time>
      </trkpt>
      <trkpt lat="24.910932206831326" lon="118.54022014056123">
        <ele>25.16064453125</ele>
        <time>2025-12-02T12:09:07Z</time>
      </trkpt>
      <trkpt lat="24.910929407472857" lon="118.54031037334312">
        <ele>26.0906982421875</ele>
        <time>2025-12-02T12:09:10Z</time>
      </trkpt>
      <trkpt lat="24.910811228854495" lon="118.54067431658166">
        <ele>31.42156982421875</ele>
        <time>2025-12-02T12:09:22Z</time>
      </trkpt>
      <trkpt lat="24.910756823466283" lon="118.5409410023708">
        <ele>27.52838134765625</ele>
        <time>2025-12-02T12:09:31Z</time>
      </trkpt>
      <trkpt lat="24.910645485019" lon="118.54123576079031">
        <ele>29.275634765625</ele>
        <time>2025-12-02T12:09:40Z</time>
      </trkpt>
      <trkpt lat="24.910596888072714" lon="118.54141722468243">
        <ele>27.4552001953125</ele>
        <time>2025-12-02T12:09:46Z</time>
      </trkpt>
      <trkpt lat="24.910543771647234" lon="118.5418202466851">
        <ele>20.16033935546875</ele>
        <time>2025-12-02T12:09:58Z</time>
      </trkpt>
      <trkpt lat="24.910456647954806" lon="118.54222025731035">
        <ele>21.2589111328125</ele>
        <time>2025-12-02T12:10:10Z</time>
      </trkpt>
      <trkpt lat="24.910402381146326" lon="118.54255810475438">
        <ele>28.3602294921875</ele>
        <time>2025-12-02T12:10:19Z</time>
      </trkpt>
      <trkpt lat="24.910302071956906" lon="118.54287489881712">
        <ele>28.8203125</ele>
        <time>2025-12-02T12:10:28Z</time>
      </trkpt>
      <trkpt lat="24.91026952650854" lon="118.54308642446222">
        <ele>28.97418212890625</ele>
        <time>2025-12-02T12:10:34Z</time>
      </trkpt>
      <trkpt lat="24.910276884815097" lon="118.54325584189252">
        <ele>28.3924560546875</ele>
        <time>2025-12-02T12:10:40Z</time>
      </trkpt>
      <trkpt lat="24.910265064689323" lon="118.54334005003214">
        <ele>27.5416259765625</ele>
        <time>2025-12-02T12:10:43Z</time>
      </trkpt>
      <trkpt lat="24.91029919769092" lon="118.54340520789101">
        <ele>27.9237060546875</ele>
        <time>2025-12-02T12:10:46Z</time>
      </trkpt>
      <trkpt lat="24.910386200418923" lon="118.54341221908405">
        <ele>27.29473876953125</ele>
        <time>2025-12-02T12:10:49Z</time>
      </trkpt>
      <trkpt lat="24.910744038357244" lon="118.54335906356296">
        <ele>22.7628173828125</ele>
        <time>2025-12-02T12:11:01Z</time>
      </trkpt>
      <trkpt lat="24.91104991310675" lon="118.5433199460905">
        <ele>21.67010498046875</ele>
        <time>2025-12-02T12:11:10Z</time>
      </trkpt>
      <trkpt lat="24.91132182222693" lon="118.54329486547944">
        <ele>22.3594970703125</ele>
        <time>2025-12-02T12:11:19Z</time>
      </trkpt>
      <trkpt lat="24.911670637790763" lon="118.54323068316407">
        <ele>22.2750244140625</ele>
        <time>2025-12-02T12:11:31Z</time>
      </trkpt>
      <trkpt lat="24.91194648249386" lon="118.5431755280216">
        <ele>22.76776123046875</ele>
        <time>2025-12-02T12:11:40Z</time>
      </trkpt>
      <trkpt lat="24.912297271942585" lon="118.54309931556011">
        <ele>22.755859375</ele>
        <time>2025-12-02T12:11:52Z</time>
      </trkpt>
      <trkpt lat="24.91257104845972" lon="118.54301208096">
        <ele>23.18865966796875</ele>
        <time>2025-12-02T12:12:01Z</time>
      </trkpt>
      <trkpt lat="24.912847817880888" lon="118.5429218384059">
        <ele>21.10662841796875</ele>
        <time>2025-12-02T12:12:10Z</time>
      </trkpt>
      <trkpt lat="24.9131805514077" lon="118.54281855931374">
        <ele>20.23431396484375</ele>
        <time>2025-12-02T12:12:22Z</time>
      </trkpt>
      <trkpt lat="24.913458403544734" lon="118.54276741309764">
        <ele>19.84765625</ele>
        <time>2025-12-02T12:12:31Z</time>
      </trkpt>
      <trkpt lat="24.91375321251055" lon="118.54269721826635">
        <ele>20.291015625</ele>
        <time>2025-12-02T12:12:40Z</time>
      </trkpt>
      <trkpt lat="24.914040009541868" lon="118.54262100883415">
        <ele>20.9168701171875</ele>
        <time>2025-12-02T12:12:49Z</time>
      </trkpt>
      <trkpt lat="24.914352714651905" lon="118.54250369494258">
        <ele>19.751220703125</ele>
        <time>2025-12-02T12:13:01Z</time>
      </trkpt>
      <trkpt lat="24.914615518807288" lon="118.54242949161156">
        <ele>20.3748779296875</ele>
        <time>2025-12-02T12:13:10Z</time>
      </trkpt>
      <trkpt lat="24.914957236313686" lon="118.54232019488082">
        <ele>19.161865234375</ele>
        <time>2025-12-02T12:13:22Z</time>
      </trkpt>
      <trkpt lat="24.91523805041184" lon="118.54225200482263">
        <ele>17.3294677734375</ele>
        <time>2025-12-02T12:13:31Z</time>
      </trkpt>
      <trkpt lat="24.91556872769049" lon="118.5421236603549">
        <ele>15.24169921875</ele>
        <time>2025-12-02T12:13:43Z</time>
      </trkpt>
      <trkpt lat="24.915852475941463" lon="118.54202539406434">
        <ele>16.69134521484375</ele>
        <time>2025-12-02T12:13:52Z</time>
      </trkpt>
      <trkpt lat="24.91615523420713" lon="118.54193314120624">
        <ele>18.24371337890625</ele>
        <time>2025-12-02T12:14:01Z</time>
      </trkpt>
      <trkpt lat="24.916348050986745" lon="118.54186094616075">
        <ele>20.91278076171875</ele>
        <time>2025-12-02T12:14:07Z</time>
      </trkpt>
      <trkpt lat="24.91639889397116" lon="118.54179176837907">
        <ele>21.25567626953125</ele>
        <time>2025-12-02T12:14:10Z</time>
      </trkpt>
      <trkpt lat="24.916416689182352" lon="118.54169853200256">
        <ele>22.40435791015625</ele>
        <time>2025-12-02T12:14:13Z</time>
      </trkpt>
      <trkpt lat="24.916351072207448" lon="118.54141080884065">
        <ele>18.93206787109375</ele>
        <time>2025-12-02T12:14:22Z</time>
      </trkpt>
      <trkpt lat="24.916323420767732" lon="118.54111104926129">
        <ele>19.94598388671875</ele>
        <time>2025-12-02T12:14:31Z</time>
      </trkpt>
      <trkpt lat="24.916344933662998" lon="118.54089048528711">
        <ele>22.4234619140625</ele>
        <time>2025-12-02T12:14:37Z</time>
      </trkpt>
      <trkpt lat="24.916430250116886" lon="118.5405856990891">
        <ele>24.79669189453125</ele>
        <time>2025-12-02T12:14:46Z</time>
      </trkpt>
      <trkpt lat="24.916539631275853" lon="118.54031299039225">
        <ele>27.79534912109375</ele>
        <time>2025-12-02T12:14:55Z</time>
      </trkpt>
      <trkpt lat="24.916631947601296" lon="118.54001120489878">
        <ele>27.2647705078125</ele>
        <time>2025-12-02T12:15:04Z</time>
      </trkpt>
      <trkpt lat="24.916756328205977" lon="118.53974149713072">
        <ele>25.34197998046875</ele>
        <time>2025-12-02T12:15:13Z</time>
      </trkpt>
      <trkpt lat="24.916858853488215" lon="118.53953595540648">
        <ele>22.118408203125</ele>
        <time>2025-12-02T12:15:19Z</time>
      </trkpt>
      <trkpt lat="24.91700402363691" lon="118.53917600537314">
        <ele>20.45318603515625</ele>
        <time>2025-12-02T12:15:31Z</time>
      </trkpt>
      <trkpt lat="24.917125247456468" lon="118.53884011556038">
        <ele>24.8096923828125</ele>
        <time>2025-12-02T12:15:40Z</time>
      </trkpt>
      <trkpt lat="24.917252599107613" lon="118.53856237480922">
        <ele>25.96160888671875</ele>
        <time>2025-12-02T12:15:49Z</time>
      </trkpt>
      <trkpt lat="24.917384745992287" lon="118.53819639694505">
        <ele>23.79669189453125</ele>
        <time>2025-12-02T12:16:01Z</time>
      </trkpt>
      <trkpt lat="24.91753404740802" lon="118.53790060012687">
        <ele>26.4814453125</ele>
        <time>2025-12-02T12:16:10Z</time>
      </trkpt>
      <trkpt lat="24.917683195761654" lon="118.53753962579529">
        <ele>23.9281005859375</ele>
        <time>2025-12-02T12:16:22Z</time>
      </trkpt>
      <trkpt lat="24.91782350157417" lon="118.5372478334418">
        <ele>25.18878173828125</ele>
        <time>2025-12-02T12:16:31Z</time>
      </trkpt>
      <trkpt lat="24.91796683459907" lon="118.53696907302066">
        <ele>25.52996826171875</ele>
        <time>2025-12-02T12:16:40Z</time>
      </trkpt>
      <trkpt lat="24.918104175396298" lon="118.5366943211353">
        <ele>26.070068359375</ele>
        <time>2025-12-02T12:16:49Z</time>
      </trkpt>
      <trkpt lat="24.918222476588877" lon="118.53640252162445">
        <ele>26.11328125</ele>
        <time>2025-12-02T12:16:58Z</time>
      </trkpt>
      <trkpt lat="24.91835683655461" lon="118.53613779184124">
        <ele>25.8209228515625</ele>
        <time>2025-12-02T12:17:07Z</time>
      </trkpt>
      <trkpt lat="24.91845543811279" lon="118.53597433894966">
        <ele>25.47772216796875</ele>
        <time>2025-12-02T12:17:13Z</time>
      </trkpt>
      <trkpt lat="24.918489218294788" lon="118.53588308718948">
        <ele>25.2950439453125</ele>
        <time>2025-12-02T12:17:16Z</time>
      </trkpt>
      <trkpt lat="24.918607293720957" lon="118.53549902612">
        <ele>25.3292236328125</ele>
        <time>2025-12-02T12:17:28Z</time>
      </trkpt>
      <trkpt lat="24.918694831714788" lon="118.53530949860522">
        <ele>24.580322265625</ele>
        <time>2025-12-02T12:17:34Z</time>
      </trkpt>
      <trkpt lat="24.918720613559795" lon="118.53521924808582">
        <ele>23.2318115234375</ele>
        <time>2025-12-02T12:17:37Z</time>
      </trkpt>
      <trkpt lat="24.91874015948631" lon="118.535029723506">
        <ele>23.158203125</ele>
        <time>2025-12-02T12:17:43Z</time>
      </trkpt>
      <trkpt lat="24.91880398071033" lon="118.53495852218633">
        <ele>24.290771484375</ele>
        <time>2025-12-02T12:17:46Z</time>
      </trkpt>
      <trkpt lat="24.918885921354118" lon="118.53493846098323">
        <ele>24.31085205078125</ele>
        <time>2025-12-02T12:17:49Z</time>
      </trkpt>
      <trkpt lat="24.918920961913393" lon="118.5349575112513">
        <ele>24.67138671875</ele>
        <time>2025-12-02T12:17:58Z</time>
      </trkpt>
      <trkpt lat="24.91892002903734" lon="118.53498558897579">
        <ele>24.3531494140625</ele>
        <time>2025-12-02T12:18:16Z</time>
      </trkpt>
      <trkpt lat="24.91912510072202" lon="118.53502769110848">
        <ele>23.634765625</ele>
        <time>2025-12-02T12:18:22Z</time>
      </trkpt>
      <trkpt lat="24.919223182577216" lon="118.5350677951046">
        <ele>23.44036865234375</ele>
        <time>2025-12-02T12:18:25Z</time>
      </trkpt>
      <trkpt lat="24.919321197502285" lon="118.53507982150781">
        <ele>22.62188720703125</ele>
        <time>2025-12-02T12:18:28Z</time>
      </trkpt>
      <trkpt lat="24.919517091154198" lon="118.53504671641724">
        <ele>23.3133544921875</ele>
        <time>2025-12-02T12:18:34Z</time>
      </trkpt>
      <trkpt lat="24.9198671758392" lon="118.53510284711723">
        <ele>21.95184326171875</ele>
        <time>2025-12-02T12:18:46Z</time>
      </trkpt>
      <trkpt lat="24.92014425395431" lon="118.53515196343254">
        <ele>21.7552490234375</ele>
        <time>2025-12-02T12:18:55Z</time>
      </trkpt>
      <trkpt lat="24.92042737407658" lon="118.53521912902275">
        <ele>21.27899169921875</ele>
        <time>2025-12-02T12:19:04Z</time>
      </trkpt>
      <trkpt lat="24.92071350554544" lon="118.53529130806363">
        <ele>22.846435546875</ele>
        <time>2025-12-02T12:19:13Z</time>
      </trkpt>
      <trkpt lat="24.920978623133216" lon="118.53535646907099">
        <ele>22.7059326171875</ele>
        <time>2025-12-02T12:19:22Z</time>
      </trkpt>
      <trkpt lat="24.921326790758105" lon="118.53544769584269">
        <ele>24.3253173828125</ele>
        <time>2025-12-02T12:19:34Z</time>
      </trkpt>
      <trkpt lat="24.92160494420197" lon="118.53552889967081">
        <ele>24.27911376953125</ele>
        <time>2025-12-02T12:19:43Z</time>
      </trkpt>
      <trkpt lat="24.921869092285796" lon="118.53560709599516">
        <ele>23.87567138671875</ele>
        <time>2025-12-02T12:19:52Z</time>
      </trkpt>
      <trkpt lat="24.92213225216925" lon="118.5356903059247">
        <ele>24.48968505859375</ele>
        <time>2025-12-02T12:20:01Z</time>
      </trkpt>
      <trkpt lat="24.922400453749116" lon="118.53579156469023">
        <ele>25.861083984375</ele>
        <time>2025-12-02T12:20:10Z</time>
      </trkpt>
      <trkpt lat="24.92266565306578" lon="118.53589182057084">
        <ele>25.71295166015625</ele>
        <time>2025-12-02T12:20:19Z</time>
      </trkpt>
      <trkpt lat="24.923003914981187" lon="118.53602315588893">
        <ele>25.24591064453125</ele>
        <time>2025-12-02T12:20:31Z</time>
      </trkpt>
      <trkpt lat="24.92326213105435" lon="118.53613043059372">
        <ele>26.27532958984375</ele>
        <time>2025-12-02T12:20:40Z</time>
      </trkpt>
      <trkpt lat="24.923519351614914" lon="118.53623971042991">
        <ele>27.1661376953125</ele>
        <time>2025-12-02T12:20:49Z</time>
      </trkpt>
      <trkpt lat="24.92385863544903" lon="118.53638107134884">
        <ele>26.6488037109375</ele>
        <time>2025-12-02T12:21:01Z</time>
      </trkpt>
      <trkpt lat="24.924098937284825" lon="118.53652444391678">
        <ele>27.9315185546875</ele>
        <time>2025-12-02T12:21:10Z</time>
      </trkpt>
      <trkpt lat="24.924383225260154" lon="118.53666480455495">
        <ele>31.24365234375</ele>
        <time>2025-12-02T12:21:19Z</time>
      </trkpt>
      <trkpt lat="24.92463847931943" lon="118.53678912316121">
        <ele>29.73822021484375</ele>
        <time>2025-12-02T12:21:28Z</time>
      </trkpt>
      <trkpt lat="24.924890770633233" lon="118.53692948473058">
        <ele>31.17266845703125</ele>
        <time>2025-12-02T12:21:37Z</time>
      </trkpt>
      <trkpt lat="24.925114165479723" lon="118.53711296372796">
        <ele>30.466064453125</ele>
        <time>2025-12-02T12:21:46Z</time>
      </trkpt>
      <trkpt lat="24.925282348734385" lon="118.53720219210234">
        <ele>30.170654296875</ele>
        <time>2025-12-02T12:21:52Z</time>
      </trkpt>
      <trkpt lat="24.925563343978457" lon="118.53721721294684">
        <ele>30.16143798828125</ele>
        <time>2025-12-02T12:22:01Z</time>
      </trkpt>
      <trkpt lat="24.925804681309128" lon="118.53737762697001">
        <ele>29.88592529296875</ele>
        <time>2025-12-02T12:22:10Z</time>
      </trkpt>
      <trkpt lat="24.92604399728767" lon="118.53752901606238">
        <ele>29.18890380859375</ele>
        <time>2025-12-02T12:22:19Z</time>
      </trkpt>
      <trkpt lat="24.926292313576788" lon="118.53768140639194">
        <ele>29.1842041015625</ele>
        <time>2025-12-02T12:22:28Z</time>
      </trkpt>
      <trkpt lat="24.926534597716763" lon="118.53781975887941">
        <ele>28.91485595703125</ele>
        <time>2025-12-02T12:22:37Z</time>
      </trkpt>
      <trkpt lat="24.926768912266414" lon="118.53797114593571">
        <ele>28.68621826171875</ele>
        <time>2025-12-02T12:22:46Z</time>
      </trkpt>
      <trkpt lat="24.92701826526073" lon="118.53814057905635">
        <ele>28.39794921875</ele>
        <time>2025-12-02T12:22:55Z</time>
      </trkpt>
      <trkpt lat="24.92726360874357" lon="118.53830600079847">
        <ele>28.5322265625</ele>
        <time>2025-12-02T12:23:04Z</time>
      </trkpt>
      <trkpt lat="24.92748895873466" lon="118.53847342824949">
        <ele>28.04620361328125</ele>
        <time>2025-12-02T12:23:13Z</time>
      </trkpt>
      <trkpt lat="24.927720311529757" lon="118.53864285955768">
        <ele>28.10809326171875</ele>
        <time>2025-12-02T12:23:22Z</time>
      </trkpt>
      <trkpt lat="24.927954719769158" lon="118.53883735555807">
        <ele>25.5816650390625</ele>
        <time>2025-12-02T12:23:31Z</time>
      </trkpt>
      <trkpt lat="24.9281641348421" lon="118.53903385718455">
        <ele>25.57574462890625</ele>
        <time>2025-12-02T12:23:40Z</time>
      </trkpt>
      <trkpt lat="24.928384515480474" lon="118.5392163199113">
        <ele>26.191162109375</ele>
        <time>2025-12-02T12:23:49Z</time>
      </trkpt>
      <trkpt lat="24.928663042231424" lon="118.53946795783675">
        <ele>24.8646240234375</ele>
        <time>2025-12-02T12:24:01Z</time>
      </trkpt>
      <trkpt lat="24.928883467414696" lon="118.53967147240226">
        <ele>26.3392333984375</ele>
        <time>2025-12-02T12:24:10Z</time>
      </trkpt>
      <trkpt lat="24.929168958108793" lon="118.53990906925475">
        <ele>25.33026123046875</ele>
        <time>2025-12-02T12:24:22Z</time>
      </trkpt>
      <trkpt lat="24.92938435874079" lon="118.54010255494472">
        <ele>23.830078125</ele>
        <time>2025-12-02T12:24:31Z</time>
      </trkpt>
      <trkpt lat="24.9296017356116" lon="118.5402860132684">
        <ele>23.48651123046875</ele>
        <time>2025-12-02T12:24:40Z</time>
      </trkpt>
      <trkpt lat="24.929823124104203" lon="118.54047548551851">
        <ele>22.4649658203125</ele>
        <time>2025-12-02T12:24:49Z</time>
      </trkpt>
      <trkpt lat="24.930030526646096" lon="118.5406709728171">
        <ele>22.887451171875</ele>
        <time>2025-12-02T12:24:58Z</time>
      </trkpt>
      <trkpt lat="24.930257936104322" lon="118.54087147009704">
        <ele>22.96649169921875</ele>
        <time>2025-12-02T12:25:07Z</time>
      </trkpt>
      <trkpt lat="24.930476349881225" lon="118.54107397159845">
        <ele>23.28753662109375</ele>
        <time>2025-12-02T12:25:16Z</time>
      </trkpt>
      <trkpt lat="24.930696733511475" lon="118.54126343830576">
        <ele>22.47991943359375</ele>
        <time>2025-12-02T12:25:25Z</time>
      </trkpt>
      <trkpt lat="24.93091910909122" lon="118.54144989589459">
        <ele>22.389892578125</ele>
        <time>2025-12-02T12:25:34Z</time>
      </trkpt>
      <trkpt lat="24.931133521655585" lon="118.54165339576842">
        <ele>22.58074951171875</ele>
        <time>2025-12-02T12:25:43Z</time>
      </trkpt>
      <trkpt lat="24.931356948906917" lon="118.54186491362867">
        <ele>21.81976318359375</ele>
        <time>2025-12-02T12:25:52Z</time>
      </trkpt>
      <trkpt lat="24.93159336846581" lon="118.54207442384053">
        <ele>22.99755859375</ele>
        <time>2025-12-02T12:26:01Z</time>
      </trkpt>
      <trkpt lat="24.93182078563986" lon="118.54228293048682">
        <ele>24.18817138671875</ele>
        <time>2025-12-02T12:26:10Z</time>
      </trkpt>
      <trkpt lat="24.932043161185273" lon="118.54247238830581">
        <ele>24.1273193359375</ele>
        <time>2025-12-02T12:26:19Z</time>
      </trkpt>
      <trkpt lat="24.932247550902908" lon="118.54266786095013">
        <ele>22.47723388671875</ele>
        <time>2025-12-02T12:26:28Z</time>
      </trkpt>
      <trkpt lat="24.932475955130574" lon="118.54287235280934">
        <ele>22.618408203125</ele>
        <time>2025-12-02T12:26:37Z</time>
      </trkpt>
      <trkpt lat="24.93269937564931" lon="118.54308486320637">
        <ele>23.25030517578125</ele>
        <time>2025-12-02T12:26:46Z</time>
      </trkpt>
      <trkpt lat="24.932749536638152" lon="118.5431640552561">
        <ele>23.0711669921875</ele>
        <time>2025-12-02T12:26:49Z</time>
      </trkpt>
      <trkpt lat="24.932781716943666" lon="118.54325126807638">
        <ele>22.87664794921875</ele>
        <time>2025-12-02T12:26:52Z</time>
      </trkpt>
      <trkpt lat="24.932794937829915" lon="118.54335652631613">
        <ele>23.15374755859375</ele>
        <time>2025-12-02T12:26:55Z</time>
      </trkpt>
      <trkpt lat="24.932768155531985" lon="118.54345777705903">
        <ele>24.7315673828125</ele>
        <time>2025-12-02T12:26:58Z</time>
      </trkpt>
      <trkpt lat="24.93259670775246" lon="118.54370840329975">
        <ele>27.82427978515625</ele>
        <time>2025-12-02T12:27:07Z</time>
      </trkpt>
      <trkpt lat="24.932412226037457" lon="118.54394298889072">
        <ele>29.423828125</ele>
        <time>2025-12-02T12:27:16Z</time>
      </trkpt>
      <trkpt lat="24.932167849099567" lon="118.54422469081523">
        <ele>29.69097900390625</ele>
        <time>2025-12-02T12:27:28Z</time>
      </trkpt>
      <trkpt lat="24.93189742521568" lon="118.54448333571892">
        <ele>31.63568115234375</ele>
        <time>2025-12-02T12:27:40Z</time>
      </trkpt>
      <trkpt lat="24.931658865987963" lon="118.54467982617">
        <ele>32.550537109375</ele>
        <time>2025-12-02T12:27:49Z</time>
      </trkpt>
      <trkpt lat="24.93141829947157" lon="118.54487330800046">
        <ele>31.5301513671875</ele>
        <time>2025-12-02T12:27:58Z</time>
      </trkpt>
      <trkpt lat="24.931169695683536" lon="118.5450487457176">
        <ele>32.1016845703125</ele>
        <time>2025-12-02T12:28:07Z</time>
      </trkpt>
      <trkpt lat="24.930925049153245" lon="118.54520413407926">
        <ele>32.677734375</ele>
        <time>2025-12-02T12:28:16Z</time>
      </trkpt>
      <trkpt lat="24.9306693787267" lon="118.54534749359716">
        <ele>34.49774169921875</ele>
        <time>2025-12-02T12:28:25Z</time>
      </trkpt>
      <trkpt lat="24.930416680562644" lon="118.54547782112253">
        <ele>36.41729736328125</ele>
        <time>2025-12-02T12:28:34Z</time>
      </trkpt>
      <trkpt lat="24.93014200936642" lon="118.54562017800211">
        <ele>36.56878662109375</ele>
        <time>2025-12-02T12:28:43Z</time>
      </trkpt>
      <trkpt lat="24.92987632599264" lon="118.54575752158505">
        <ele>36.7520751953125</ele>
        <time>2025-12-02T12:28:52Z</time>
      </trkpt>
      <trkpt lat="24.92959255515893" lon="118.54585076157932">
        <ele>37.67529296875</ele>
        <time>2025-12-02T12:29:01Z</time>
      </trkpt>
      <trkpt lat="24.9292498592274" lon="118.5459770832627">
        <ele>39.3966064453125</ele>
        <time>2025-12-02T12:29:13Z</time>
      </trkpt>
      <trkpt lat="24.928967105701975" lon="118.54607934356805">
        <ele>40.0322265625</ele>
        <time>2025-12-02T12:29:22Z</time>
      </trkpt>
      <trkpt lat="24.92870531651921" lon="118.5461655643369">
        <ele>36.87554931640625</ele>
        <time>2025-12-02T12:29:31Z</time>
      </trkpt>
      <trkpt lat="24.928402563091726" lon="118.54626682289745">
        <ele>31.59002685546875</ele>
        <time>2025-12-02T12:29:40Z</time>
      </trkpt>
      <trkpt lat="24.92810472605514" lon="118.54632698450655">
        <ele>26.48291015625</ele>
        <time>2025-12-02T12:29:49Z</time>
      </trkpt>
      <trkpt lat="24.92775899014749" lon="118.54643425944388">
        <ele>25.26800537109375</ele>
        <time>2025-12-02T12:30:01Z</time>
      </trkpt>
      <trkpt lat="24.92746315445242" lon="118.54649542284052">
        <ele>24.89666748046875</ele>
        <time>2025-12-02T12:30:10Z</time>
      </trkpt>
      <trkpt lat="24.92738527581244" lon="118.54655055689707">
        <ele>26.1046142578125</ele>
        <time>2025-12-02T12:30:13Z</time>
      </trkpt>
      <trkpt lat="24.92734440586123" lon="118.54661270460237">
        <ele>26.0423583984375</ele>
        <time>2025-12-02T12:30:16Z</time>
      </trkpt>
      <trkpt lat="24.927183502674104" lon="118.54664980216882">
        <ele>26.7318115234375</ele>
        <time>2025-12-02T12:30:22Z</time>
      </trkpt>
      <trkpt lat="24.927183502674104" lon="118.54664980216882">
        <ele>26.7318115234375</ele>
        <time>2025-12-02T12:30:25Z</time>
      </trkpt>
      <trkpt lat="24.927160479894592" lon="118.54663677342873">
        <ele>25.6346435546875</ele>
        <time>2025-12-02T12:30:43Z</time>
      </trkpt>
      <trkpt lat="24.926983730888665" lon="118.54675004922649">
        <ele>26.63897705078125</ele>
        <time>2025-12-02T12:30:49Z</time>
      </trkpt>
      <trkpt lat="24.926983730888665" lon="118.54675004922649">
        <ele>26.63897705078125</ele>
        <time>2025-12-02T12:30:52Z</time>
      </trkpt>
      <trkpt lat="24.926942802590403" lon="118.54678312892631">
        <ele>26.7921142578125</ele>
        <time>2025-12-02T12:31:35Z</time>
      </trkpt>
      <trkpt lat="24.927148426650753" lon="118.54711187605405">
        <ele>26.59912109375</ele>
        <time>2025-12-02T12:31:47Z</time>
      </trkpt>
      <trkpt lat="24.927259767648557" lon="118.54729228427551">
        <ele>27.3111572265625</ele>
        <time>2025-12-02T12:31:53Z</time>
      </trkpt>
      <trkpt lat="24.927353131672813" lon="118.54748371769655">
        <ele>27.4111328125</ele>
        <time>2025-12-02T12:31:59Z</time>
      </trkpt>
      <trkpt lat="24.927428272749324" lon="118.5475608893895">
        <ele>27.04168701171875</ele>
        <time>2025-12-02T12:32:02Z</time>
      </trkpt>
      <trkpt lat="24.927486686872342" lon="118.54777637801165">
        <ele>27.2291259765625</ele>
        <time>2025-12-02T12:32:08Z</time>
      </trkpt>
      <trkpt lat="24.927538861673252" lon="118.54786958690023">
        <ele>27.1861572265625</ele>
        <time>2025-12-02T12:32:11Z</time>
      </trkpt>
      <trkpt lat="24.927759289428465" lon="118.54810510696521">
        <ele>27.5142822265625</ele>
        <time>2025-12-02T12:32:20Z</time>
      </trkpt>
      <trkpt lat="24.92793279735568" lon="118.54837971622092">
        <ele>29.35296630859375</ele>
        <time>2025-12-02T12:32:29Z</time>
      </trkpt>
      <trkpt lat="24.928098305524742" lon="118.54865532512481">
        <ele>32.359375</ele>
        <time>2025-12-02T12:32:38Z</time>
      </trkpt>
      <trkpt lat="24.92827977791022" lon="118.5489148939037">
        <ele>33.77410888671875</ele>
        <time>2025-12-02T12:32:47Z</time>
      </trkpt>
      <trkpt lat="24.92844626514398" lon="118.5491824787094">
        <ele>34.62847900390625</ele>
        <time>2025-12-02T12:32:56Z</time>
      </trkpt>
      <trkpt lat="24.928603730074794" lon="118.54943903672923">
        <ele>32.40399169921875</ele>
        <time>2025-12-02T12:33:05Z</time>
      </trkpt>
      <trkpt lat="24.928748196241184" lon="118.5496965950668">
        <ele>29.9478759765625</ele>
        <time>2025-12-02T12:33:14Z</time>
      </trkpt>
      <trkpt lat="24.928899651388786" lon="118.5499501413157">
        <ele>27.26690673828125</ele>
        <time>2025-12-02T12:33:23Z</time>
      </trkpt>
      <trkpt lat="24.929057163025735" lon="118.55023575428017">
        <ele>25.840087890625</ele>
        <time>2025-12-02T12:33:32Z</time>
      </trkpt>
      <trkpt lat="24.929211647833213" lon="118.55050833573932">
        <ele>28.09210205078125</ele>
        <time>2025-12-02T12:33:41Z</time>
      </trkpt>
      <trkpt lat="24.929384121711426" lon="118.55077790627914">
        <ele>27.5648193359375</ele>
        <time>2025-12-02T12:33:50Z</time>
      </trkpt>
      <trkpt lat="24.92952558432409" lon="118.55104046080677">
        <ele>27.10198974609375</ele>
        <time>2025-12-02T12:33:59Z</time>
      </trkpt>
      <trkpt lat="24.929666073643006" lon="118.55131904661053">
        <ele>27.24371337890625</ele>
        <time>2025-12-02T12:34:08Z</time>
      </trkpt>
      <trkpt lat="24.929845499977837" lon="118.55156756260196">
        <ele>27.66552734375</ele>
        <time>2025-12-02T12:34:17Z</time>
      </trkpt>
      <trkpt lat="24.930054028147435" lon="118.55187620068847">
        <ele>25.82928466796875</ele>
        <time>2025-12-02T12:34:29Z</time>
      </trkpt>
      <trkpt lat="24.930221468747522" lon="118.55213473249749">
        <ele>25.27117919921875</ele>
        <time>2025-12-02T12:34:38Z</time>
      </trkpt>
      <trkpt lat="24.930398990920356" lon="118.55244136092412">
        <ele>29.9542236328125</ele>
        <time>2025-12-02T12:34:47Z</time>
      </trkpt>
      <trkpt lat="24.930592501841808" lon="118.55274497789658">
        <ele>29.0947265625</ele>
        <time>2025-12-02T12:34:59Z</time>
      </trkpt>
      <trkpt lat="24.93077607559381" lon="118.55308566771293">
        <ele>27.22247314453125</ele>
        <time>2025-12-02T12:35:11Z</time>
      </trkpt>
      <trkpt lat="24.930942540755186" lon="118.55336522884338">
        <ele>28.14990234375</ele>
        <time>2025-12-02T12:35:20Z</time>
      </trkpt>
      <trkpt lat="24.931113995183157" lon="118.55364077803203">
        <ele>27.06524658203125</ele>
        <time>2025-12-02T12:35:29Z</time>
      </trkpt>
      <trkpt lat="24.931314478696645" lon="118.55393736428674">
        <ele>27.93475341796875</ele>
        <time>2025-12-02T12:35:41Z</time>
      </trkpt>
      <trkpt lat="24.93137358915402" lon="118.5540064995258">
        <ele>28.22528076171875</ele>
        <time>2025-12-02T12:35:44Z</time>
      </trkpt>
      <trkpt lat="24.931524193233837" lon="118.55437222263149">
        <ele>28.41845703125</ele>
        <time>2025-12-02T12:35:56Z</time>
      </trkpt>
      <trkpt lat="24.93163261842769" lon="118.55463173200637">
        <ele>27.84649658203125</ele>
        <time>2025-12-02T12:36:05Z</time>
      </trkpt>
      <trkpt lat="24.931787005766196" lon="118.55487420153538">
        <ele>27.52520751953125</ele>
        <time>2025-12-02T12:36:14Z</time>
      </trkpt>
      <trkpt lat="24.931909442191213" lon="118.55514472573262">
        <ele>28.85198974609375</ele>
        <time>2025-12-02T12:36:23Z</time>
      </trkpt>
      <trkpt lat="24.93206785560234" lon="118.555406226544">
        <ele>32.92181396484375</ele>
        <time>2025-12-02T12:36:32Z</time>
      </trkpt>
      <trkpt lat="24.93222828581867" lon="118.555679747445">
        <ele>33.7032470703125</ele>
        <time>2025-12-02T12:36:41Z</time>
      </trkpt>
      <trkpt lat="24.932373697070513" lon="118.55594224476889">
        <ele>34.80810546875</ele>
        <time>2025-12-02T12:36:50Z</time>
      </trkpt>
      <trkpt lat="24.93253707523374" lon="118.55618770509497">
        <ele>35.6591796875</ele>
        <time>2025-12-02T12:36:59Z</time>
      </trkpt>
      <trkpt lat="24.93269446316036" lon="118.55644017645687">
        <ele>34.04547119140625</ele>
        <time>2025-12-02T12:37:08Z</time>
      </trkpt>
      <trkpt lat="24.932719613571646" lon="118.55653535577235">
        <ele>32.84619140625</ele>
        <time>2025-12-02T12:37:11Z</time>
      </trkpt>
      <trkpt lat="24.932724766446928" lon="118.55663053606288">
        <ele>32.520751953125</ele>
        <time>2025-12-02T12:37:14Z</time>
      </trkpt>
      <trkpt lat="24.932643068048307" lon="118.55681088288013">
        <ele>32.80548095703125</ele>
        <time>2025-12-02T12:37:20Z</time>
      </trkpt>
      <trkpt lat="24.932351468419792" lon="118.55703532558005">
        <ele>34.4066162109375</ele>
        <time>2025-12-02T12:37:32Z</time>
      </trkpt>
      <trkpt lat="24.93211874863618" lon="118.5571906327092">
        <ele>35.910888671875</ele>
        <time>2025-12-02T12:37:41Z</time>
      </trkpt>
      <trkpt lat="24.931965976887916" lon="118.55732088650484">
        <ele>36.598388671875</ele>
        <time>2025-12-02T12:37:47Z</time>
      </trkpt>
      <trkpt lat="24.93172823702636" lon="118.55746416961628">
        <ele>37.72271728515625</ele>
        <time>2025-12-02T12:37:56Z</time>
      </trkpt>
      <trkpt lat="24.931478597143705" lon="118.55767056935302">
        <ele>41.372802734375</ele>
        <time>2025-12-02T12:38:05Z</time>
      </trkpt>
      <trkpt lat="24.93122589961397" lon="118.55784090099468">
        <ele>40.63189697265625</ele>
        <time>2025-12-02T12:38:14Z</time>
      </trkpt>
      <trkpt lat="24.930975199045317" lon="118.55801022932363">
        <ele>40.8193359375</ele>
        <time>2025-12-02T12:38:23Z</time>
      </trkpt>
      <trkpt lat="24.930720462169496" lon="118.5581565145499">
        <ele>38.516357421875</ele>
        <time>2025-12-02T12:38:32Z</time>
      </trkpt>
      <trkpt lat="24.93046173115606" lon="118.55830680635275">
        <ele>37.97314453125</ele>
        <time>2025-12-02T12:38:41Z</time>
      </trkpt>
      <trkpt lat="24.930209961250732" lon="118.55843305304796">
        <ele>38.8121337890625</ele>
        <time>2025-12-02T12:38:50Z</time>
      </trkpt>
      <trkpt lat="24.92993520161058" lon="118.55856430965103">
        <ele>40.0140380859375</ele>
        <time>2025-12-02T12:38:59Z</time>
      </trkpt>
      <trkpt lat="24.929727318460408" lon="118.55862142718098">
        <ele>39.18560791015625</ele>
        <time>2025-12-02T12:39:05Z</time>
      </trkpt>
      <trkpt lat="24.929530477983896" lon="118.55870759611675">
        <ele>39.0655517578125</ele>
        <time>2025-12-02T12:39:11Z</time>
      </trkpt>
      <trkpt lat="24.929262657910915" lon="118.55880078222722">
        <ele>39.48431396484375</ele>
        <time>2025-12-02T12:39:20Z</time>
      </trkpt>
      <trkpt lat="24.929033778680253" lon="118.55885890238214">
        <ele>40.77862548828125</ele>
        <time>2025-12-02T12:39:29Z</time>
      </trkpt>
      <trkpt lat="24.928853924305006" lon="118.55893805663924">
        <ele>43.12255859375</ele>
        <time>2025-12-02T12:39:35Z</time>
      </trkpt>
      <trkpt lat="24.928573064219016" lon="118.55900419434789">
        <ele>41.9119873046875</ele>
        <time>2025-12-02T12:39:44Z</time>
      </trkpt>
      <trkpt lat="24.928293212887894" lon="118.55907634250181">
        <ele>43.787109375</ele>
        <time>2025-12-02T12:39:53Z</time>
      </trkpt>
      <trkpt lat="24.927953372828764" lon="118.5591504981398">
        <ele>44.7412109375</ele>
        <time>2025-12-02T12:40:05Z</time>
      </trkpt>
      <trkpt lat="24.927644478373" lon="118.55919159262625">
        <ele>43.32403564453125</ele>
        <time>2025-12-02T12:40:14Z</time>
      </trkpt>
      <trkpt lat="24.927472520763633" lon="118.5592036259221">
        <ele>40.237060546875</ele>
        <time>2025-12-02T12:40:20Z</time>
      </trkpt>
      <trkpt lat="24.927382571173233" lon="118.55922867665778">
        <ele>41.25958251953125</ele>
        <time>2025-12-02T12:40:23Z</time>
      </trkpt>
      <trkpt lat="24.927055621851952" lon="118.55923170467217">
        <ele>38.0391845703125</ele>
        <time>2025-12-02T12:40:32Z</time>
      </trkpt>
      <trkpt lat="24.92672869211273" lon="118.55924775580753">
        <ele>39.7808837890625</ele>
        <time>2025-12-02T12:40:41Z</time>
      </trkpt>
      <trkpt lat="24.926414751480607" lon="118.55925779536297">
        <ele>36.40069580078125</ele>
        <time>2025-12-02T12:40:50Z</time>
      </trkpt>
      <trkpt lat="24.926225773621894" lon="118.55925480313573">
        <ele>35.808837890625</ele>
        <time>2025-12-02T12:40:56Z</time>
      </trkpt>
      <trkpt lat="24.92603373588123" lon="118.55921173995499">
        <ele>34.4189453125</ele>
        <time>2025-12-02T12:41:02Z</time>
      </trkpt>
      <trkpt lat="24.925852623972997" lon="118.55912059033679">
        <ele>32.280517578125</ele>
        <time>2025-12-02T12:41:08Z</time>
      </trkpt>
      <trkpt lat="24.925552669297442" lon="118.55912261470905">
        <ele>35.641357421875</ele>
        <time>2025-12-02T12:41:17Z</time>
      </trkpt>
      <trkpt lat="24.925471729082005" lon="118.55915467739376">
        <ele>36.38653564453125</ele>
        <time>2025-12-02T12:41:20Z</time>
      </trkpt>
      <trkpt lat="24.925398828434222" lon="118.55921378754906">
        <ele>36.549560546875</ele>
        <time>2025-12-02T12:41:23Z</time>
      </trkpt>
      <trkpt lat="24.92530788347756" lon="118.5592418436771">
        <ele>37.3291015625</ele>
        <time>2025-12-02T12:41:26Z</time>
      </trkpt>
      <trkpt lat="24.925019919548486" lon="118.55923885831217">
        <ele>35.78668212890625</ele>
        <time>2025-12-02T12:41:35Z</time>
      </trkpt>
      <trkpt lat="24.92470993911103" lon="118.55922285134355">
        <ele>34.32073974609375</ele>
        <time>2025-12-02T12:41:44Z</time>
      </trkpt>
      <trkpt lat="24.924412959838644" lon="118.55920884702167">
        <ele>34.9288330078125</ele>
        <time>2025-12-02T12:41:53Z</time>
      </trkpt>
      <trkpt lat="24.924043998233586" lon="118.55919985658615">
        <ele>32.38653564453125</ele>
        <time>2025-12-02T12:42:05Z</time>
      </trkpt>
      <trkpt lat="24.92375105005286" lon="118.55920688936536">
        <ele>31.87896728515625</ele>
        <time>2025-12-02T12:42:14Z</time>
      </trkpt>
      <trkpt lat="24.923446058282792" lon="118.559183869558">
        <ele>32.50250244140625</ele>
        <time>2025-12-02T12:42:23Z</time>
      </trkpt>
      <trkpt lat="24.923148104754144" lon="118.55918689556471">
        <ele>33.435546875</ele>
        <time>2025-12-02T12:42:32Z</time>
      </trkpt>
      <trkpt lat="24.922830155538602" lon="118.55919092473845">
        <ele>35.40777587890625</ele>
        <time>2025-12-02T12:42:41Z</time>
      </trkpt>
      <trkpt lat="24.92252421820324" lon="118.55920396910358">
        <ele>35.74920654296875</ele>
        <time>2025-12-02T12:42:50Z</time>
      </trkpt>
      <trkpt lat="24.92222426190568" lon="118.55920499168496">
        <ele>36.05438232421875</ele>
        <time>2025-12-02T12:42:59Z</time>
      </trkpt>
      <trkpt lat="24.922038185375435" lon="118.5591368834175">
        <ele>33.594482421875</ele>
        <time>2025-12-02T12:43:05Z</time>
      </trkpt>
      <trkpt lat="24.921763252749173" lon="118.55915593636145">
        <ele>33.6361083984375</ele>
        <time>2025-12-02T12:43:14Z</time>
      </trkpt>
      <trkpt lat="24.921755276529645" lon="118.55917096364871">
        <ele>34.2476806640625</ele>
        <time>2025-12-02T12:43:23Z</time>
      </trkpt>
      <trkpt lat="24.9214932272143" lon="118.55911388017518">
        <ele>33.8397216796875</ele>
        <time>2025-12-02T12:43:32Z</time>
      </trkpt>
      <trkpt lat="24.921406254563777" lon="118.55912390404987">
        <ele>34.11566162109375</ele>
        <time>2025-12-02T12:43:35Z</time>
      </trkpt>
      <trkpt lat="24.92132034672885" lon="118.55917700449969">
        <ele>34.7127685546875</ele>
        <time>2025-12-02T12:43:38Z</time>
      </trkpt>
      <trkpt lat="24.92121839728571" lon="118.55920105431515">
        <ele>34.363037109375</ele>
        <time>2025-12-02T12:43:41Z</time>
      </trkpt>
      <trkpt lat="24.92094740668535" lon="118.55918203926848">
        <ele>35.86700439453125</ele>
        <time>2025-12-02T12:43:50Z</time>
      </trkpt>
      <trkpt lat="24.920635426350703" lon="118.55916603239386">
        <ele>35.08807373046875</ele>
        <time>2025-12-02T12:43:59Z</time>
      </trkpt>
      <trkpt lat="24.92034146461576" lon="118.55916404921358">
        <ele>34.66986083984375</ele>
        <time>2025-12-02T12:44:08Z</time>
      </trkpt>
      <trkpt lat="24.920043497389663" lon="118.559158059181">
        <ele>35.01922607421875</ele>
        <time>2025-12-02T12:44:17Z</time>
      </trkpt>
      <trkpt lat="24.919733557514217" lon="118.55916910027736">
        <ele>35.251953125</ele>
        <time>2025-12-02T12:44:26Z</time>
      </trkpt>
      <trkpt lat="24.91939258119401" lon="118.55915309540299">
        <ele>33.52789306640625</ele>
        <time>2025-12-02T12:44:38Z</time>
      </trkpt>
      <trkpt lat="24.919102630938653" lon="118.55915912620361">
        <ele>35.72918701171875</ele>
        <time>2025-12-02T12:44:47Z</time>
      </trkpt>
      <trkpt lat="24.91880967958171" lon="118.55916415542819">
        <ele>36.32470703125</ele>
        <time>2025-12-02T12:44:56Z</time>
      </trkpt>
      <trkpt lat="24.918448689398744" lon="118.5591371323219">
        <ele>33.97308349609375</ele>
        <time>2025-12-02T12:45:08Z</time>
      </trkpt>
      <trkpt lat="24.91816172508983" lon="118.55913414686871">
        <ele>36.26318359375</ele>
        <time>2025-12-02T12:45:17Z</time>
      </trkpt>
      <trkpt lat="24.91786776628587" lon="118.55913416725092">
        <ele>36.78167724609375</ele>
        <time>2025-12-02T12:45:26Z</time>
      </trkpt>
      <trkpt lat="24.917507819738084" lon="118.55913619577531">
        <ele>38.04254150390625</ele>
        <time>2025-12-02T12:45:38Z</time>
      </trkpt>
      <trkpt lat="24.91721389717439" lon="118.55916025894506">
        <ele>37.8150634765625</ele>
        <time>2025-12-02T12:45:47Z</time>
      </trkpt>
      <trkpt lat="24.91694902634038" lon="118.55922138594761">
        <ele>38.80694580078125</ele>
        <time>2025-12-02T12:45:56Z</time>
      </trkpt>
      <trkpt lat="24.916601213606285" lon="118.5593135735803">
        <ele>41.1416015625</ele>
        <time>2025-12-02T12:46:08Z</time>
      </trkpt>
      <trkpt lat="24.916332402952033" lon="118.55941477127502">
        <ele>41.19732666015625</ele>
        <time>2025-12-02T12:46:17Z</time>
      </trkpt>
      <trkpt lat="24.916059607376503" lon="118.55952598642273">
        <ele>41.9219970703125</ele>
        <time>2025-12-02T12:46:26Z</time>
      </trkpt>
      <trkpt lat="24.91588070264343" lon="118.55957308174209">
        <ele>41.3763427734375</ele>
        <time>2025-12-02T12:46:32Z</time>
      </trkpt>
      <trkpt lat="24.915627882675928" lon="118.55967027006682">
        <ele>38.2890625</ele>
        <time>2025-12-02T12:46:41Z</time>
      </trkpt>
      <trkpt lat="24.915372199187473" lon="118.5598596193148">
        <ele>39.740478515625</ele>
        <time>2025-12-02T12:46:50Z</time>
      </trkpt>
      <trkpt lat="24.91521838045311" lon="118.55996781866605">
        <ele>38.54205322265625</ele>
        <time>2025-12-02T12:46:56Z</time>
      </trkpt>
      <trkpt lat="24.915047537093443" lon="118.56005798733008">
        <ele>39.11181640625</ele>
        <time>2025-12-02T12:47:02Z</time>
      </trkpt>
      <trkpt lat="24.9147838487034" lon="118.5602453302291">
        <ele>37.7830810546875</ele>
        <time>2025-12-02T12:47:11Z</time>
      </trkpt>
      <trkpt lat="24.914621058671997" lon="118.5603735627635">
        <ele>39.3890380859375</ele>
        <time>2025-12-02T12:47:17Z</time>
      </trkpt>
      <trkpt lat="24.91455304042527" lon="118.5603545346849">
        <ele>37.34869384765625</ele>
        <time>2025-12-02T12:47:20Z</time>
      </trkpt>
      <trkpt lat="24.914438810369614" lon="118.56018625190251">
        <ele>38.77838134765625</ele>
        <time>2025-12-02T12:47:26Z</time>
      </trkpt>
      <trkpt lat="24.914375719267923" lon="118.56011813823359">
        <ele>38.857666015625</ele>
        <time>2025-12-02T12:47:29Z</time>
      </trkpt>
      <trkpt lat="24.914168268030092" lon="118.55979258543925">
        <ele>34.9483642578125</ele>
        <time>2025-12-02T12:47:41Z</time>
      </trkpt>
      <trkpt lat="24.913930831522972" lon="118.55947704744463">
        <ele>32.29998779296875</ele>
        <time>2025-12-02T12:47:53Z</time>
      </trkpt>
      <trkpt lat="24.913728487085915" lon="118.55922862167995">
        <ele>32.17059326171875</ele>
        <time>2025-12-02T12:48:02Z</time>
      </trkpt>
      <trkpt lat="24.91355509806648" lon="118.55895514625084">
        <ele>32.1690673828125</ele>
        <time>2025-12-02T12:48:11Z</time>
      </trkpt>
      <trkpt lat="24.913458803754736" lon="118.55875279001161">
        <ele>31.55914306640625</ele>
        <time>2025-12-02T12:48:17Z</time>
      </trkpt>
      <trkpt lat="24.913378464029453" lon="118.5585233818596">
        <ele>31.39898681640625</ele>
        <time>2025-12-02T12:48:23Z</time>
      </trkpt>
      <trkpt lat="24.913252241327054" lon="118.55836710737783">
        <ele>30.80462646484375</ele>
        <time>2025-12-02T12:48:29Z</time>
      </trkpt>
      <trkpt lat="24.913235285356798" lon="118.55839415765554">
        <ele>28.829833984375</ele>
        <time>2025-12-02T12:49:41Z</time>
      </trkpt>
      <trkpt lat="24.913128978434006" lon="118.55818578588507">
        <ele>27.74395751953125</ele>
        <time>2025-12-02T12:49:47Z</time>
      </trkpt>
      <trkpt lat="24.913111624548073" lon="118.55795636734801">
        <ele>26.9150390625</ele>
        <time>2025-12-02T12:49:53Z</time>
      </trkpt>
      <trkpt lat="24.91304748660914" lon="118.55786219879725">
        <ele>27.37127685546875</ele>
        <time>2025-12-02T12:49:56Z</time>
      </trkpt>
      <trkpt lat="24.91296838331948" lon="118.55778906965091">
        <ele>28.24737548828125</ele>
        <time>2025-12-02T12:49:59Z</time>
      </trkpt>
      <trkpt lat="24.912829881514913" lon="118.55745746571408">
        <ele>29.649169921875</ele>
        <time>2025-12-02T12:50:08Z</time>
      </trkpt>
      <trkpt lat="24.91267641236165" lon="118.55714789903615">
        <ele>28.99658203125</ele>
        <time>2025-12-02T12:50:17Z</time>
      </trkpt>
      <trkpt lat="24.912538935450822" lon="118.5568373249694">
        <ele>30.10699462890625</ele>
        <time>2025-12-02T12:50:26Z</time>
      </trkpt>
      <trkpt lat="24.912412444975846" lon="118.5565217362134">
        <ele>30.3011474609375</ele>
        <time>2025-12-02T12:50:35Z</time>
      </trkpt>
      <trkpt lat="24.912289961315132" lon="118.55621315606956">
        <ele>31.7581787109375</ele>
        <time>2025-12-02T12:50:44Z</time>
      </trkpt>
      <trkpt lat="24.91217447774863" lon="118.55590757690916">
        <ele>31.4132080078125</ele>
        <time>2025-12-02T12:50:53Z</time>
      </trkpt>
      <trkpt lat="24.9120849702148" lon="118.55559197225263">
        <ele>33.00933837890625</ele>
        <time>2025-12-02T12:51:02Z</time>
      </trkpt>
      <trkpt lat="24.911947490390162" lon="118.5552913958273">
        <ele>32.21051025390625</ele>
        <time>2025-12-02T12:51:11Z</time>
      </trkpt>
      <trkpt lat="24.911818007497057" lon="118.5549918167486">
        <ele>28.86846923828125</ele>
        <time>2025-12-02T12:51:20Z</time>
      </trkpt>
      <trkpt lat="24.911761466802286" lon="118.55466617689784">
        <ele>25.13922119140625</ele>
        <time>2025-12-02T12:51:29Z</time>
      </trkpt>
      <trkpt lat="24.911732313106608" lon="118.55457299382715">
        <ele>24.746337890625</ele>
        <time>2025-12-02T12:51:32Z</time>
      </trkpt>
      <trkpt lat="24.911627057249664" lon="118.5544136837799">
        <ele>25.2552490234375</ele>
        <time>2025-12-02T12:51:38Z</time>
      </trkpt>
      <trkpt lat="24.91151058090304" lon="118.55412511415034">
        <ele>25.92376708984375</ele>
        <time>2025-12-02T12:51:47Z</time>
      </trkpt>
      <trkpt lat="24.911392042770828" lon="118.55380247206632">
        <ele>26.3892822265625</ele>
        <time>2025-12-02T12:51:56Z</time>
      </trkpt>
      <trkpt lat="24.911260476193956" lon="118.55346479563788">
        <ele>24.80694580078125</ele>
        <time>2025-12-02T12:52:05Z</time>
      </trkpt>
      <trkpt lat="24.91112892090724" lon="118.55313613266681">
        <ele>24.27166748046875</ele>
        <time>2025-12-02T12:52:14Z</time>
      </trkpt>
      <trkpt lat="24.911133751547574" lon="118.55303993471581">
        <ele>25.74566650390625</ele>
        <time>2025-12-02T12:52:17Z</time>
      </trkpt>
      <trkpt lat="24.911147666891612" lon="118.5529928368517">
        <ele>30.252685546875</ele>
        <time>2025-12-02T12:53:23Z</time>
      </trkpt>
      <trkpt lat="24.91104531401316" lon="118.5527844139562">
        <ele>27.822021484375</ele>
        <time>2025-12-02T12:53:29Z</time>
      </trkpt>
      <trkpt lat="24.91101209541498" lon="118.55265815485143">
        <ele>28.19757080078125</ele>
        <time>2025-12-02T12:53:32Z</time>
      </trkpt>
      <trkpt lat="24.910949919350635" lon="118.55255394287214">
        <ele>28.759765625</ele>
        <time>2025-12-02T12:53:35Z</time>
      </trkpt>
      <trkpt lat="24.91086678675781" lon="118.55247277985191">
        <ele>28.51800537109375</ele>
        <time>2025-12-02T12:53:38Z</time>
      </trkpt>
      <trkpt lat="24.910708229602776" lon="118.55214811280817">
        <ele>29.9432373046875</ele>
        <time>2025-12-02T12:53:47Z</time>
      </trkpt>
      <trkpt lat="24.9105636898705" lon="118.55183646766355">
        <ele>29.36749267578125</ele>
        <time>2025-12-02T12:53:56Z</time>
      </trkpt>
      <trkpt lat="24.910436149453755" lon="118.5515278234889">
        <ele>28.1015625</ele>
        <time>2025-12-02T12:54:05Z</time>
      </trkpt>
      <trkpt lat="24.910364867959817" lon="118.55136748756843">
        <ele>27.88226318359375</ele>
        <time>2025-12-02T12:54:11Z</time>
      </trkpt>
      <trkpt lat="24.910195265332188" lon="118.55102476700156">
        <ele>27.8431396484375</ele>
        <time>2025-12-02T12:54:20Z</time>
      </trkpt>
      <trkpt lat="24.910060625552173" lon="118.55066700647617">
        <ele>27.61370849609375</ele>
        <time>2025-12-02T12:54:29Z</time>
      </trkpt>
      <trkpt lat="24.909942924403722" lon="118.55028017604172">
        <ele>28.23004150390625</ele>
        <time>2025-12-02T12:54:38Z</time>
      </trkpt>
      <trkpt lat="24.90978029335721" lon="118.54993042359514">
        <ele>26.486328125</ele>
        <time>2025-12-02T12:54:47Z</time>
      </trkpt>
      <trkpt lat="24.90963467232802" lon="118.54958968464452">
        <ele>25.98382568359375</ele>
        <time>2025-12-02T12:54:56Z</time>
      </trkpt>
      <trkpt lat="24.909502052715595" lon="118.54925294875693">
        <ele>27.30157470703125</ele>
        <time>2025-12-02T12:55:05Z</time>
      </trkpt>
      <trkpt lat="24.90935546144883" lon="118.54893224485912">
        <ele>28.814453125</ele>
        <time>2025-12-02T12:55:14Z</time>
      </trkpt>
      <trkpt lat="24.909215840262075" lon="118.54859850686371">
        <ele>31.53863525390625</ele>
        <time>2025-12-02T12:55:23Z</time>
      </trkpt>
      <trkpt lat="24.909089246112885" lon="118.54828180180854">
        <ele>31.694091796875</ele>
        <time>2025-12-02T12:55:32Z</time>
      </trkpt>
      <trkpt lat="24.90905705038253" lon="118.54817857045876">
        <ele>31.6724853515625</ele>
        <time>2025-12-02T12:55:35Z</time>
      </trkpt>
      <trkpt lat="24.909092813623047" lon="118.54805929754718">
        <ele>30.2791748046875</ele>
        <time>2025-12-02T12:55:38Z</time>
      </trkpt>
      <trkpt lat="24.909186621032575" lon="118.54796708155259">
        <ele>29.6868896484375</ele>
        <time>2025-12-02T12:55:41Z</time>
      </trkpt>
      <trkpt lat="24.90949023838917" lon="118.54779266330195">
        <ele>28.1552734375</ele>
        <time>2025-12-02T12:55:50Z</time>
      </trkpt>
      <trkpt lat="24.909793889990517" lon="118.54763628505626">
        <ele>26.73980712890625</ele>
        <time>2025-12-02T12:55:59Z</time>
      </trkpt>
      <trkpt lat="24.910060482717043" lon="118.54744783477538">
        <ele>28.260009765625</ele>
        <time>2025-12-02T12:56:08Z</time>
      </trkpt>
      <trkpt lat="24.910337122207732" lon="118.54728444001837">
        <ele>28.5823974609375</ele>
        <time>2025-12-02T12:56:17Z</time>
      </trkpt>
      <trkpt lat="24.91062874274173" lon="118.54711302460179">
        <ele>29.473388671875</ele>
        <time>2025-12-02T12:56:26Z</time>
      </trkpt>
      <trkpt lat="24.91079247353214" lon="118.54698872592306">
        <ele>29.12078857421875</ele>
        <time>2025-12-02T12:56:32Z</time>
      </trkpt>
      <trkpt lat="24.910847272739137" lon="118.54689149692902">
        <ele>29.09625244140625</ele>
        <time>2025-12-02T12:56:35Z</time>
      </trkpt>
      <trkpt lat="24.91092611816212" lon="118.54681932404937">
        <ele>28.80255126953125</ele>
        <time>2025-12-02T12:56:38Z</time>
      </trkpt>
      <trkpt lat="24.911227762381664" lon="118.54666193731602">
        <ele>26.82281494140625</ele>
        <time>2025-12-02T12:56:47Z</time>
      </trkpt>
      <trkpt lat="24.911437520805194" lon="118.54655567521003">
        <ele>26.99420166015625</ele>
        <time>2025-12-02T12:56:53Z</time>
      </trkpt>
      <trkpt lat="24.9117171243146" lon="118.54637723907797">
        <ele>26.343017578125</ele>
        <time>2025-12-02T12:57:02Z</time>
      </trkpt>
      <trkpt lat="24.911795024901974" lon="118.54633313045845">
        <ele>25.378173828125</ele>
        <time>2025-12-02T12:57:05Z</time>
      </trkpt>
      <trkpt lat="24.911828848901955" lon="118.54624792851115">
        <ele>26.5269775390625</ele>
        <time>2025-12-02T12:57:08Z</time>
      </trkpt>
      <trkpt lat="24.9118476383699" lon="118.54614468494508">
        <ele>27.007080078125</ele>
        <time>2025-12-02T12:57:11Z</time>
      </trkpt>
      <trkpt lat="24.91184341851043" lon="118.54603542839384">
        <ele>26.6783447265625</ele>
        <time>2025-12-02T12:57:14Z</time>
      </trkpt>
      <trkpt lat="24.911708814045213" lon="118.54572771174064">
        <ele>25.67144775390625</ele>
        <time>2025-12-02T12:57:23Z</time>
      </trkpt>
      <trkpt lat="24.91157917272426" lon="118.54540395276703">
        <ele>24.3387451171875</ele>
        <time>2025-12-02T12:57:32Z</time>
      </trkpt>
      <trkpt lat="24.9114615630203" lon="118.54509823187672">
        <ele>23.15570068359375</ele>
        <time>2025-12-02T12:57:41Z</time>
      </trkpt>
      <trkpt lat="24.911341873684925" lon="118.54475541822603">
        <ele>24.04132080078125</ele>
        <time>2025-12-02T12:57:50Z</time>
      </trkpt>
      <trkpt lat="24.911202297429675" lon="118.5444677345242">
        <ele>27.0267333984375</ele>
        <time>2025-12-02T12:57:59Z</time>
      </trkpt>
      <trkpt lat="24.911079648962314" lon="118.54414796846828">
        <ele>26.24920654296875</ele>
        <time>2025-12-02T12:58:08Z</time>
      </trkpt>
      <trkpt lat="24.910939062468714" lon="118.54385827300918">
        <ele>22.3765869140625</ele>
        <time>2025-12-02T12:58:17Z</time>
      </trkpt>
      <trkpt lat="24.9109347958016" lon="118.54373096234367">
        <ele>26.68121337890625</ele>
        <time>2025-12-02T12:58:20Z</time>
      </trkpt>
      <trkpt lat="24.9109347958016" lon="118.54373096234367">
        <ele>26.68121337890625</ele>
        <time>2025-12-02T12:58:23Z</time>
      </trkpt>
    </trkseg>
  </trk>
</gpx>