<?xml version="1.0" encoding="UTF-8"?>
<gpx xmlns="http://www.topografix.com/GPX/1/1" xmlns:gpxtpx="http://www.garmin.com/xmlschemas/TrackPointExtension/v1" xmlns:xsi="http://www.w3.org/2001/XMLSchema-instance" xsi:schemaLocation="http://www.topografix.com/GPX/1/1 http://www.topografix.com/GPX/1/1/gpx.xsd" version="1.1" creator="gpx.py -- https://github.com/tkrajina/gpxpy">
  <trk>
    <name>gpx from keep</name>
    <type>Run</type>
    <trkseg>
      <trkpt lat="24.911053556039356" lon="118.53729543192867">
        <ele>34.69770580148324</ele>
        <time>2023-10-29T14:06:11Z</time>
      </trkpt>
      <trkpt lat="24.911127578231" lon="118.53730946446305">
        <ele>35.39531752057746</ele>
        <time>2023-10-29T14:06:14Z</time>
      </trkpt>
      <trkpt lat="24.911290782789877" lon="118.53740771674659">
        <ele>35.411038671040544</ele>
        <time>2023-10-29T14:06:20Z</time>
      </trkpt>
      <trkpt lat="24.911270973165685" lon="118.53748893578987">
        <ele>33.992538523789314</ele>
        <time>2023-10-29T14:06:23Z</time>
      </trkpt>
      <trkpt lat="24.911094796772513" lon="118.53783587519067">
        <ele>33.86182590163249</ele>
        <time>2023-10-29T14:06:35Z</time>
      </trkpt>
      <trkpt lat="24.910960424908172" lon="118.53810159172234">
        <ele>31.152016406196783</ele>
        <time>2023-10-29T14:06:44Z</time>
      </trkpt>
      <trkpt lat="24.91083296976331" lon="118.53833221231413">
        <ele>29.29109254489976</ele>
        <time>2023-10-29T14:06:53Z</time>
      </trkpt>
      <trkpt lat="24.910803353271156" lon="118.53849865468091">
        <ele>31.144604532171474</ele>
        <time>2023-10-29T14:06:59Z</time>
      </trkpt>
      <trkpt lat="24.910754460484235" lon="118.53854277462607">
        <ele>31.635044973613454</ele>
        <time>2023-10-29T14:07:02Z</time>
      </trkpt>
      <trkpt lat="24.910435351942155" lon="118.53847561937329">
        <ele>31.784314092221088</ele>
        <time>2023-10-29T14:07:14Z</time>
      </trkpt>
      <trkpt lat="24.910098252597336" lon="118.53841147316906">
        <ele>29.787752071435165</ele>
        <time>2023-10-29T14:07:26Z</time>
      </trkpt>
      <trkpt lat="24.90978516577906" lon="118.53835434372691">
        <ele>26.59328638392031</ele>
        <time>2023-10-29T14:07:38Z</time>
      </trkpt>
      <trkpt lat="24.909500152757683" lon="118.53833130251778">
        <ele>27.107826809897514</ele>
        <time>2023-10-29T14:07:53Z</time>
      </trkpt>
      <trkpt lat="24.90935215500822" lon="118.53832329158391">
        <ele>29.107986423973855</ele>
        <time>2023-10-29T14:07:59Z</time>
      </trkpt>
      <trkpt lat="24.909303042787187" lon="118.53827115685799">
        <ele>29.863997229627394</ele>
        <time>2023-10-29T14:08:02Z</time>
      </trkpt>
      <trkpt lat="24.909299846163297" lon="118.53818492839083">
        <ele>30.539497028753512</ele>
        <time>2023-10-29T14:08:05Z</time>
      </trkpt>
      <trkpt lat="24.90942102947517" lon="118.53783599182154">
        <ele>30.841151561784386</ele>
        <time>2023-10-29T14:08:17Z</time>
      </trkpt>
      <trkpt lat="24.909480171233803" lon="118.53746700149495">
        <ele>32.53399121026531</ele>
        <time>2023-10-29T14:08:29Z</time>
      </trkpt>
      <trkpt lat="24.909549321275982" lon="118.53710402182794">
        <ele>33.45800615666889</ele>
        <time>2023-10-29T14:08:41Z</time>
      </trkpt>
      <trkpt lat="24.909572136495456" lon="118.53702580957749">
        <ele>34.21511252231676</ele>
        <time>2023-10-29T14:08:44Z</time>
      </trkpt>
      <trkpt lat="24.909565985861413" lon="118.53696063429116">
        <ele>34.84139934614545</ele>
        <time>2023-10-29T14:08:47Z</time>
      </trkpt>
      <trkpt lat="24.90950893781862" lon="118.53693657335012">
        <ele>34.37114433498842</ele>
        <time>2023-10-29T14:08:50Z</time>
      </trkpt>
      <trkpt lat="24.909503695811402" lon="118.53683229217229">
        <ele>35.26344021977621</ele>
        <time>2023-10-29T14:08:53Z</time>
      </trkpt>
      <trkpt lat="24.909561828460117" lon="118.53646429155005">
        <ele>35.173180496918086</ele>
        <time>2023-10-29T14:09:05Z</time>
      </trkpt>
      <trkpt lat="24.909589008386174" lon="118.53611634304839">
        <ele>34.40914591701687</ele>
        <time>2023-10-29T14:09:17Z</time>
      </trkpt>
      <trkpt lat="24.909641155072734" lon="118.53575735840123">
        <ele>35.29394400499527</ele>
        <time>2023-10-29T14:09:29Z</time>
      </trkpt>
      <trkpt lat="24.90967538835074" lon="118.53543547262">
        <ele>36.50881968008362</ele>
        <time>2023-10-29T14:09:41Z</time>
      </trkpt>
      <trkpt lat="24.909767865780434" lon="118.53522087527169">
        <ele>37.392884701256996</ele>
        <time>2023-10-29T14:09:50Z</time>
      </trkpt>
      <trkpt lat="24.909824006959845" lon="118.53486388489316">
        <ele>35.30237069958157</ele>
        <time>2023-10-29T14:09:59Z</time>
      </trkpt>
      <trkpt lat="24.909806882315948" lon="118.53481073885712">
        <ele>31.396727839108348</ele>
        <time>2023-10-29T14:10:02Z</time>
      </trkpt>
      <trkpt lat="24.909883092165256" lon="118.53490298905079">
        <ele>25.58595566121494</ele>
        <time>2023-10-29T14:10:11Z</time>
      </trkpt>
      <trkpt lat="24.910018281601452" lon="118.5349902209802">
        <ele>24.29704459289007</ele>
        <time>2023-10-29T14:10:17Z</time>
      </trkpt>
      <trkpt lat="24.91007429295183" lon="118.53499823925482">
        <ele>23.822712653976666</ele>
        <time>2023-10-29T14:10:20Z</time>
      </trkpt>
      <trkpt lat="24.910398627781486" lon="118.53515765702858">
        <ele>20.402444707497967</ele>
        <time>2023-10-29T14:10:29Z</time>
      </trkpt>
      <trkpt lat="24.910596726703044" lon="118.53521078981947">
        <ele>20.060815632689074</ele>
        <time>2023-10-29T14:10:35Z</time>
      </trkpt>
      <trkpt lat="24.910641822976146" lon="118.53525390554842">
        <ele>20.443926313101084</ele>
        <time>2023-10-29T14:10:38Z</time>
      </trkpt>
      <trkpt lat="24.91062393510154" lon="118.53530003389305">
        <ele>14.714858654713199</ele>
        <time>2023-10-29T14:10:41Z</time>
      </trkpt>
      <trkpt lat="24.910721128764862" lon="118.5353872672964">
        <ele>11.691732098080688</ele>
        <time>2023-10-29T14:10:47Z</time>
      </trkpt>
      <trkpt lat="24.910966192230035" lon="118.53542836330602">
        <ele>11.002994982418407</ele>
        <time>2023-10-29T14:10:56Z</time>
      </trkpt>
      <trkpt lat="24.911282461958546" lon="118.53556070498277">
        <ele>7.2576635438534</ele>
        <time>2023-10-29T14:11:08Z</time>
      </trkpt>
      <trkpt lat="24.911573803350546" lon="118.53572212749695">
        <ele>6.0573148536403245</ele>
        <time>2023-10-29T14:11:20Z</time>
      </trkpt>
      <trkpt lat="24.911902999078425" lon="118.53582438463009">
        <ele>4.0670092483495806</ele>
        <time>2023-10-29T14:11:32Z</time>
      </trkpt>
      <trkpt lat="24.911985039712878" lon="118.53584643927347">
        <ele>3.7000621426974427</ele>
        <time>2023-10-29T14:11:35Z</time>
      </trkpt>
      <trkpt lat="24.91212521173923" lon="118.53592765160404">
        <ele>2.830220103482198</ele>
        <time>2023-10-29T14:11:41Z</time>
      </trkpt>
      <trkpt lat="24.912275308968972" lon="118.53597777812632">
        <ele>2.7283632155440776</ele>
        <time>2023-10-29T14:11:47Z</time>
      </trkpt>
      <trkpt lat="24.912317428246226" lon="118.536030920302">
        <ele>2.605691521626079</ele>
        <time>2023-10-29T14:11:50Z</time>
      </trkpt>
      <trkpt lat="24.912245926156643" lon="118.53623849111004">
        <ele>2.27019730072017</ele>
        <time>2023-10-29T14:11:59Z</time>
      </trkpt>
      <trkpt lat="24.912080668064476" lon="118.53654533632121">
        <ele>2.6024183949741584</ele>
        <time>2023-10-29T14:12:11Z</time>
      </trkpt>
      <trkpt lat="24.91192439646268" lon="118.53684816678094">
        <ele>3.48279872388192</ele>
        <time>2023-10-29T14:12:23Z</time>
      </trkpt>
      <trkpt lat="24.91178717283135" lon="118.5371740547282">
        <ele>4.8833707903855235</ele>
        <time>2023-10-29T14:12:35Z</time>
      </trkpt>
      <trkpt lat="24.911683665508498" lon="118.53738061675867">
        <ele>4.930306244996863</ele>
        <time>2023-10-29T14:12:44Z</time>
      </trkpt>
      <trkpt lat="24.91154246006021" lon="118.53771652561299">
        <ele>6.078311199389505</ele>
        <time>2023-10-29T14:12:56Z</time>
      </trkpt>
      <trkpt lat="24.911382143401056" lon="118.53800430378041">
        <ele>8.421959134176086</ele>
        <time>2023-10-29T14:13:08Z</time>
      </trkpt>
      <trkpt lat="24.911246900723825" lon="118.53832717019641">
        <ele>9.000148281612564</ele>
        <time>2023-10-29T14:13:20Z</time>
      </trkpt>
      <trkpt lat="24.911122425256448" lon="118.53854976752417">
        <ele>9.753489154503646</ele>
        <time>2023-10-29T14:13:29Z</time>
      </trkpt>
      <trkpt lat="24.911058816883983" lon="118.53871821623113">
        <ele>9.588260107201501</ele>
        <time>2023-10-29T14:13:35Z</time>
      </trkpt>
      <trkpt lat="24.91099084682193" lon="118.53872724473769">
        <ele>9.702157993496423</ele>
        <time>2023-10-29T14:13:38Z</time>
      </trkpt>
      <trkpt lat="24.910693701467647" lon="118.53864504874578">
        <ele>7.937657198872418</ele>
        <time>2023-10-29T14:13:50Z</time>
      </trkpt>
      <trkpt lat="24.91040649975282" lon="118.53853878827631">
        <ele>6.88644171453028</ele>
        <time>2023-10-29T14:14:02Z</time>
      </trkpt>
      <trkpt lat="24.910221438763156" lon="118.5385007005209">
        <ele>6.53509666986408</ele>
        <time>2023-10-29T14:14:11Z</time>
      </trkpt>
      <trkpt lat="24.91004629181518" lon="118.53842551392142">
        <ele>6.469291811967451</ele>
        <time>2023-10-29T14:14:20Z</time>
      </trkpt>
      <trkpt lat="24.909771291181528" lon="118.53840848799034">
        <ele>0.5511223989195382</ele>
        <time>2023-10-29T14:14:29Z</time>
      </trkpt>
      <trkpt lat="24.9096042960975" lon="118.5384004784022">
        <ele>-1.24052780985382</ele>
        <time>2023-10-29T14:14:35Z</time>
      </trkpt>
      <trkpt lat="24.90929020251114" lon="118.53834034104244">
        <ele>-2.360750449026868</ele>
        <time>2023-10-29T14:14:47Z</time>
      </trkpt>
      <trkpt lat="24.909153143737548" lon="118.53830626029608">
        <ele>-2.9031335676610825</ele>
        <time>2023-10-29T14:14:53Z</time>
      </trkpt>
      <trkpt lat="24.90915787046504" lon="118.53818694360395">
        <ele>-1.9755762514273136</ele>
        <time>2023-10-29T14:14:59Z</time>
      </trkpt>
      <trkpt lat="24.909176760044854" lon="118.53813981719658">
        <ele>-3.139556569726101</ele>
        <time>2023-10-29T14:15:02Z</time>
      </trkpt>
      <trkpt lat="24.90918641649597" lon="118.5379904194299">
        <ele>-2.4502035404532014</ele>
        <time>2023-10-29T14:15:08Z</time>
      </trkpt>
      <trkpt lat="24.909174211143952" lon="118.5379001800369">
        <ele>-1.6368046092775195</ele>
        <time>2023-10-29T14:15:11Z</time>
      </trkpt>
      <trkpt lat="24.909265441718794" lon="118.53757129566056">
        <ele>-1.848204856167265</ele>
        <time>2023-10-29T14:15:23Z</time>
      </trkpt>
      <trkpt lat="24.909284839051253" lon="118.537311598272">
        <ele>-1.1748904118456227</ele>
        <time>2023-10-29T14:15:32Z</time>
      </trkpt>
      <trkpt lat="24.90926359584087" lon="118.53720531419805">
        <ele>-0.09572098917123455</ele>
        <time>2023-10-29T14:15:35Z</time>
      </trkpt>
      <trkpt lat="24.90938415095982" lon="118.53702080916821">
        <ele>0.0012886888130488518</ele>
        <time>2023-10-29T14:15:41Z</time>
      </trkpt>
      <trkpt lat="24.909344764592976" lon="118.53685235742239">
        <ele>-1.8678407317678982</ele>
        <time>2023-10-29T14:15:50Z</time>
      </trkpt>
      <trkpt lat="24.90938149543713" lon="118.53673904860183">
        <ele>-2.726104516468263</ele>
        <time>2023-10-29T14:15:53Z</time>
      </trkpt>
      <trkpt lat="24.909380010899305" lon="118.53653148651259">
        <ele>-3.852014147271956</ele>
        <time>2023-10-29T14:16:02Z</time>
      </trkpt>
      <trkpt lat="24.90935976496844" lon="118.53642519945484">
        <ele>-2.662660769095593</ele>
        <time>2023-10-29T14:16:05Z</time>
      </trkpt>
      <trkpt lat="24.90936154384626" lon="118.5363309431892">
        <ele>-1.7552596764628796</ele>
        <time>2023-10-29T14:16:09Z</time>
      </trkpt>
      <trkpt lat="24.909438090643153" lon="118.53614242464269">
        <ele>-1.6308503988219156</ele>
        <time>2023-10-29T14:16:15Z</time>
      </trkpt>
      <trkpt lat="24.909481959584827" lon="118.53608927667985">
        <ele>-0.4678492579068732</ele>
        <time>2023-10-29T14:16:18Z</time>
      </trkpt>
      <trkpt lat="24.90949775443349" lon="118.53600304024245">
        <ele>-0.2653757867288525</ele>
        <time>2023-10-29T14:16:21Z</time>
      </trkpt>
      <trkpt lat="24.909476537647336" lon="118.5359097869408">
        <ele>-0.7242665907476643</ele>
        <time>2023-10-29T14:16:24Z</time>
      </trkpt>
      <trkpt lat="24.909532797844417" lon="118.53559993433565">
        <ele>-1.616037144085038</ele>
        <time>2023-10-29T14:16:36Z</time>
      </trkpt>
      <trkpt lat="24.909569076963844" lon="118.53529810192829">
        <ele>-2.48646316080392</ele>
        <time>2023-10-29T14:16:48Z</time>
      </trkpt>
      <trkpt lat="24.90958869976658" lon="118.53514066646594">
        <ele>-2.7268787488728923</ele>
        <time>2023-10-29T14:16:54Z</time>
      </trkpt>
      <trkpt lat="24.909581485767237" lon="118.53505041774517">
        <ele>-3.1002504398161896</ele>
        <time>2023-10-29T14:16:57Z</time>
      </trkpt>
      <trkpt lat="24.909620095179577" lon="118.53488896852953">
        <ele>-3.878673051351765</ele>
        <time>2023-10-29T14:17:03Z</time>
      </trkpt>
      <trkpt lat="24.909838261165103" lon="118.53497118084663">
        <ele>-4.405108003342321</ele>
        <time>2023-10-29T14:17:12Z</time>
      </trkpt>
      <trkpt lat="24.910025553091344" lon="118.53510453634449">
        <ele>-5.127457449271284</ele>
        <time>2023-10-29T14:17:21Z</time>
      </trkpt>
      <trkpt lat="24.910292816666054" lon="118.53523086631111">
        <ele>-6.539064968938604</ele>
        <time>2023-10-29T14:17:33Z</time>
      </trkpt>
      <trkpt lat="24.910513924189534" lon="118.53528901117852">
        <ele>-7.299899504328615</ele>
        <time>2023-10-29T14:17:42Z</time>
      </trkpt>
      <trkpt lat="24.9106431324732" lon="118.5353842644576">
        <ele>-7.247002519982502</ele>
        <time>2023-10-29T14:17:48Z</time>
      </trkpt>
      <trkpt lat="24.910782224960307" lon="118.53543138440796">
        <ele>-6.0203008645123735</ele>
        <time>2023-10-29T14:17:54Z</time>
      </trkpt>
      <trkpt lat="24.911094340842443" lon="118.5354985473321">
        <ele>-6.732088491837956</ele>
        <time>2023-10-29T14:18:06Z</time>
      </trkpt>
      <trkpt lat="24.911375615154366" lon="118.53563089113146">
        <ele>-6.466783344438406</ele>
        <time>2023-10-29T14:18:18Z</time>
      </trkpt>
      <trkpt lat="24.911657893519205" lon="118.5357652397533">
        <ele>-6.280369448937142</ele>
        <time>2023-10-29T14:18:30Z</time>
      </trkpt>
      <trkpt lat="24.91172599532532" lon="118.53581236403933">
        <ele>-6.373713695272245</ele>
        <time>2023-10-29T14:18:33Z</time>
      </trkpt>
      <trkpt lat="24.911892021906905" lon="118.53583341009181">
        <ele>-6.333326501573001</ele>
        <time>2023-10-29T14:18:39Z</time>
      </trkpt>
      <trkpt lat="24.91204014557379" lon="118.5358945670759">
        <ele>-5.625155491281629</ele>
        <time>2023-10-29T14:18:45Z</time>
      </trkpt>
      <trkpt lat="24.912283473100235" lon="118.53604796919429">
        <ele>-5.103442966024119</ele>
        <time>2023-10-29T14:18:57Z</time>
      </trkpt>
      <trkpt lat="24.912268715706286" lon="118.53615024916068">
        <ele>-4.725092938026273</ele>
        <time>2023-10-29T14:19:03Z</time>
      </trkpt>
      <trkpt lat="24.912135390612914" lon="118.53643001957633">
        <ele>-4.900546787327407</ele>
        <time>2023-10-29T14:19:15Z</time>
      </trkpt>
      <trkpt lat="24.912005943208293" lon="118.53665864856544">
        <ele>-3.130481778335964</ele>
        <time>2023-10-29T14:19:24Z</time>
      </trkpt>
      <trkpt lat="24.911918488331423" lon="118.53688727279618">
        <ele>-3.8957492407596024</ele>
        <time>2023-10-29T14:19:33Z</time>
      </trkpt>
      <trkpt lat="24.91178421276258" lon="118.53719110077752">
        <ele>-1.9789394514147114</ele>
        <time>2023-10-29T14:19:45Z</time>
      </trkpt>
      <trkpt lat="24.91165999769989" lon="118.53752299997304">
        <ele>-1.9894111808431543</ele>
        <time>2023-10-29T14:20:00Z</time>
      </trkpt>
      <trkpt lat="24.91156632514192" lon="118.53765937126718">
        <ele>-2.1840764253627514</ele>
        <time>2023-10-29T14:20:06Z</time>
      </trkpt>
      <trkpt lat="24.911440052568278" lon="118.5379682036994">
        <ele>-1.9795786393886345</ele>
        <time>2023-10-29T14:20:18Z</time>
      </trkpt>
      <trkpt lat="24.91134738941876" lon="118.53810958606839">
        <ele>-1.7770558685348286</ele>
        <time>2023-10-29T14:20:24Z</time>
      </trkpt>
      <trkpt lat="24.911239064202842" lon="118.538398359201">
        <ele>-1.2309276897242063</ele>
        <time>2023-10-29T14:20:36Z</time>
      </trkpt>
      <trkpt lat="24.911131592696893" lon="118.53862396270522">
        <ele>0.6980794317082767</ele>
        <time>2023-10-29T14:20:45Z</time>
      </trkpt>
      <trkpt lat="24.9111177927463" lon="118.53871119363161">
        <ele>0.01809244089163295</ele>
        <time>2023-10-29T14:20:48Z</time>
      </trkpt>
      <trkpt lat="24.91106489111948" lon="118.53875130295528">
        <ele>0.22344132808717612</ele>
        <time>2023-10-29T14:20:51Z</time>
      </trkpt>
      <trkpt lat="24.910997920908745" lon="118.53876033138128">
        <ele>-0.22511943992768443</ele>
        <time>2023-10-29T14:20:54Z</time>
      </trkpt>
    </trkseg>
  </trk>
</gpx>