<?xml version="1.0" encoding="UTF-8"?>
<gpx xmlns="http://www.topografix.com/GPX/1/1" xmlns:gpxtpx="http://www.garmin.com/xmlschemas/TrackPointExtension/v1" xmlns:xsi="http://www.w3.org/2001/XMLSchema-instance" xsi:schemaLocation="http://www.topografix.com/GPX/1/1 http://www.topografix.com/GPX/1/1/gpx.xsd" version="1.1" creator="gpx.py -- https://github.com/tkrajina/gpxpy">
  <trk>
    <name>gpx from keep</name>
    <type>Ride</type>
    <trkseg>
      <trkpt lat="24.93761677654477" lon="118.57401452351726">
        <ele>12.40723125077784</ele>
        <time>2024-11-15T09:48:20Z</time>
      </trkpt>
      <trkpt lat="24.93754123930563" lon="118.57402068352287">
        <ele>12.13783117197454</ele>
        <time>2024-11-15T09:48:27Z</time>
      </trkpt>
      <trkpt lat="24.937369185254095" lon="118.57382973337401">
        <ele>12.929956056177616</ele>
        <time>2024-11-15T09:48:35Z</time>
      </trkpt>
      <trkpt lat="24.9372619508685" lon="118.57378746572833">
        <ele>12.402789399027824</ele>
        <time>2024-11-15T09:48:37Z</time>
      </trkpt>
      <trkpt lat="24.936876398595068" lon="118.5735256377295">
        <ele>13.574732759967446</ele>
        <time>2024-11-15T09:48:45Z</time>
      </trkpt>
      <trkpt lat="24.936687195960396" lon="118.57343400474603">
        <ele>13.918873547576368</ele>
        <time>2024-11-15T09:48:49Z</time>
      </trkpt>
      <trkpt lat="24.936601142188724" lon="118.57334622691667">
        <ele>14.592026500031352</ele>
        <time>2024-11-15T09:48:51Z</time>
      </trkpt>
      <trkpt lat="24.93651590780585" lon="118.57329514147726">
        <ele>14.729399888776243</ele>
        <time>2024-11-15T09:48:53Z</time>
      </trkpt>
      <trkpt lat="24.936329680736097" lon="118.5732858490639">
        <ele>15.302719434723258</ele>
        <time>2024-11-15T09:48:56Z</time>
      </trkpt>
      <trkpt lat="24.936245833236587" lon="118.57325511580056">
        <ele>15.30407830979675</ele>
        <time>2024-11-15T09:48:58Z</time>
      </trkpt>
      <trkpt lat="24.936152927236087" lon="118.5731815113473">
        <ele>15.069849274121225</ele>
        <time>2024-11-15T09:49:00Z</time>
      </trkpt>
      <trkpt lat="24.935792191975036" lon="118.57303750722693">
        <ele>15.586551466025412</ele>
        <time>2024-11-15T09:49:07Z</time>
      </trkpt>
      <trkpt lat="24.935684081442645" lon="118.57296364712252">
        <ele>14.908274963498116</ele>
        <time>2024-11-15T09:49:09Z</time>
      </trkpt>
      <trkpt lat="24.935233223104905" lon="118.57278322287752">
        <ele>14.08749158680439</ele>
        <time>2024-11-15T09:49:18Z</time>
      </trkpt>
      <trkpt lat="24.935168834647683" lon="118.5727048759185">
        <ele>16.02799663413316</ele>
        <time>2024-11-15T09:49:19Z</time>
      </trkpt>
      <trkpt lat="24.935055550306643" lon="118.57266596968941">
        <ele>14.878489789552987</ele>
        <time>2024-11-15T09:49:21Z</time>
      </trkpt>
      <trkpt lat="24.93497106265023" lon="118.57267937285543">
        <ele>15.324072946794331</ele>
        <time>2024-11-15T09:49:23Z</time>
      </trkpt>
      <trkpt lat="24.934560777325427" lon="118.57251770291461">
        <ele>15.165294549427927</ele>
        <time>2024-11-15T09:49:31Z</time>
      </trkpt>
      <trkpt lat="24.934481337758264" lon="118.57242608532366">
        <ele>14.39963002409786</ele>
        <time>2024-11-15T09:49:33Z</time>
      </trkpt>
      <trkpt lat="24.93405500589339" lon="118.57220741606362">
        <ele>14.367501832544804</ele>
        <time>2024-11-15T09:49:41Z</time>
      </trkpt>
      <trkpt lat="24.93389087776357" lon="118.57212658681877">
        <ele>13.895856500603259</ele>
        <time>2024-11-15T09:49:45Z</time>
      </trkpt>
      <trkpt lat="24.933579695939923" lon="118.57201546100535">
        <ele>12.879719455726445</ele>
        <time>2024-11-15T09:49:51Z</time>
      </trkpt>
      <trkpt lat="24.933210304744645" lon="118.57181281369715">
        <ele>13.030655371025205</ele>
        <time>2024-11-15T09:50:01Z</time>
      </trkpt>
      <trkpt lat="24.93315274678315" lon="118.57175743553502">
        <ele>13.579185217618942</ele>
        <time>2024-11-15T09:50:04Z</time>
      </trkpt>
      <trkpt lat="24.933052069085587" lon="118.5716984605885">
        <ele>13.460980701260269</ele>
        <time>2024-11-15T09:50:07Z</time>
      </trkpt>
      <trkpt lat="24.93262674506265" lon="118.5715661640862">
        <ele>12.619293821044266</ele>
        <time>2024-11-15T09:50:17Z</time>
      </trkpt>
      <trkpt lat="24.932458035918952" lon="118.57146832851424">
        <ele>12.397433444857597</ele>
        <time>2024-11-15T09:50:22Z</time>
      </trkpt>
      <trkpt lat="24.932310316864722" lon="118.57131380792525">
        <ele>13.659886483103037</ele>
        <time>2024-11-15T09:50:26Z</time>
      </trkpt>
      <trkpt lat="24.93193459474086" lon="118.57112354092656">
        <ele>11.496848430484533</ele>
        <time>2024-11-15T09:50:34Z</time>
      </trkpt>
      <trkpt lat="24.931862741753235" lon="118.57106477311844">
        <ele>12.191574359312654</ele>
        <time>2024-11-15T09:50:36Z</time>
      </trkpt>
      <trkpt lat="24.93144108535473" lon="118.57080273114005">
        <ele>12.478087283670902</ele>
        <time>2024-11-15T09:50:46Z</time>
      </trkpt>
      <trkpt lat="24.931371106793197" lon="118.5706371944136">
        <ele>12.396901473402977</ele>
        <time>2024-11-15T09:50:52Z</time>
      </trkpt>
      <trkpt lat="24.931364219692362" lon="118.5705177798391">
        <ele>12.262952646240592</ele>
        <time>2024-11-15T09:50:55Z</time>
      </trkpt>
      <trkpt lat="24.931331084021785" lon="118.57041356647647">
        <ele>12.44184210523963</ele>
        <time>2024-11-15T09:50:57Z</time>
      </trkpt>
      <trkpt lat="24.93102899933148" lon="118.56996926708555">
        <ele>12.348708476871252</ele>
        <time>2024-11-15T09:51:07Z</time>
      </trkpt>
      <trkpt lat="24.930714093488202" lon="118.56951408511544">
        <ele>12.115324425511062</ele>
        <time>2024-11-15T09:51:17Z</time>
      </trkpt>
      <trkpt lat="24.930641707600774" lon="118.56943824005027">
        <ele>11.747697875835001</ele>
        <time>2024-11-15T09:51:19Z</time>
      </trkpt>
      <trkpt lat="24.930604720476182" lon="118.56936722536386">
        <ele>12.12809104565531</ele>
        <time>2024-11-15T09:51:21Z</time>
      </trkpt>
      <trkpt lat="24.930464734671407" lon="118.5692081227036">
        <ele>12.044882461428642</ele>
        <time>2024-11-15T09:51:25Z</time>
      </trkpt>
      <trkpt lat="24.930357012865784" lon="118.56900782592851">
        <ele>11.093612460419536</ele>
        <time>2024-11-15T09:51:29Z</time>
      </trkpt>
      <trkpt lat="24.930179795013526" lon="118.56872780791066">
        <ele>10.256876088678837</ele>
        <time>2024-11-15T09:51:35Z</time>
      </trkpt>
      <trkpt lat="24.930111668480713" lon="118.5685491206485">
        <ele>9.477713506668806</ele>
        <time>2024-11-15T09:51:39Z</time>
      </trkpt>
      <trkpt lat="24.930059744958708" lon="118.56824695939649">
        <ele>9.308609107509255</ele>
        <time>2024-11-15T09:51:46Z</time>
      </trkpt>
      <trkpt lat="24.929974963605247" lon="118.56808640717395">
        <ele>9.599845309741795</ele>
        <time>2024-11-15T09:51:50Z</time>
      </trkpt>
      <trkpt lat="24.92981339765917" lon="118.5679804313642">
        <ele>9.330691191367805</ele>
        <time>2024-11-15T09:51:54Z</time>
      </trkpt>
      <trkpt lat="24.929729265191114" lon="118.56795765707389">
        <ele>8.999776782467961</ele>
        <time>2024-11-15T09:51:56Z</time>
      </trkpt>
      <trkpt lat="24.929554922260273" lon="118.56794722031631">
        <ele>8.815913466736674</ele>
        <time>2024-11-15T09:52:02Z</time>
      </trkpt>
      <trkpt lat="24.92938241377824" lon="118.56796384191551">
        <ele>9.498429332859814</ele>
        <time>2024-11-15T09:52:08Z</time>
      </trkpt>
      <trkpt lat="24.929132105458336" lon="118.56801354439696">
        <ele>8.281809536740184</ele>
        <time>2024-11-15T09:52:14Z</time>
      </trkpt>
      <trkpt lat="24.928647694644955" lon="118.56803082396621">
        <ele>8.958808922208846</ele>
        <time>2024-11-15T09:52:27Z</time>
      </trkpt>
      <trkpt lat="24.928276719678863" lon="118.56804849563491">
        <ele>8.854422776028514</ele>
        <time>2024-11-15T09:52:39Z</time>
      </trkpt>
      <trkpt lat="24.928190112636198" lon="118.56786666611704">
        <ele>9.271863480098546</ele>
        <time>2024-11-15T09:52:50Z</time>
      </trkpt>
      <trkpt lat="24.928131520652762" lon="118.56779276072274">
        <ele>9.132878392003477</ele>
        <time>2024-11-15T09:52:53Z</time>
      </trkpt>
      <trkpt lat="24.92776290583034" lon="118.56777180227837">
        <ele>10.061606774106622</ele>
        <time>2024-11-15T09:53:03Z</time>
      </trkpt>
      <trkpt lat="24.9274467321066" lon="118.56783571247256">
        <ele>9.820059082470834</ele>
        <time>2024-11-15T09:53:09Z</time>
      </trkpt>
      <trkpt lat="24.926906109281642" lon="118.56790230547566">
        <ele>9.15039088204503</ele>
        <time>2024-11-15T09:53:18Z</time>
      </trkpt>
      <trkpt lat="24.92656092895923" lon="118.5679459409648">
        <ele>9.153008383698761</ele>
        <time>2024-11-15T09:53:24Z</time>
      </trkpt>
      <trkpt lat="24.926079979575352" lon="118.56795911526864">
        <ele>10.007115785963833</ele>
        <time>2024-11-15T09:53:32Z</time>
      </trkpt>
      <trkpt lat="24.92562559017548" lon="118.56801729409729">
        <ele>10.075413428246975</ele>
        <time>2024-11-15T09:53:40Z</time>
      </trkpt>
      <trkpt lat="24.925228418919453" lon="118.56803608437664">
        <ele>9.21620812639594</ele>
        <time>2024-11-15T09:53:48Z</time>
      </trkpt>
      <trkpt lat="24.925139753674053" lon="118.56799976599861">
        <ele>9.171105713583529</ele>
        <time>2024-11-15T09:53:51Z</time>
      </trkpt>
      <trkpt lat="24.925093779486936" lon="118.56793257020192">
        <ele>9.079574890434742</ele>
        <time>2024-11-15T09:53:54Z</time>
      </trkpt>
      <trkpt lat="24.92507747237185" lon="118.5678339626023">
        <ele>9.036539798602462</ele>
        <time>2024-11-15T09:53:57Z</time>
      </trkpt>
      <trkpt lat="24.9249967172249" lon="118.56781042268486">
        <ele>7.477931338362396</ele>
        <time>2024-11-15T09:54:01Z</time>
      </trkpt>
      <trkpt lat="24.924481669204198" lon="118.56783835846596">
        <ele>7.819344302639365</ele>
        <time>2024-11-15T09:54:11Z</time>
      </trkpt>
      <trkpt lat="24.923957216032974" lon="118.5678412074429">
        <ele>8.506209641695023</ele>
        <time>2024-11-15T09:54:19Z</time>
      </trkpt>
      <trkpt lat="24.923502759814877" lon="118.56789228570062">
        <ele>8.793834472075105</ele>
        <time>2024-11-15T09:54:27Z</time>
      </trkpt>
      <trkpt lat="24.923033957036207" lon="118.56792226820957">
        <ele>7.471024897880852</ele>
        <time>2024-11-15T09:54:35Z</time>
      </trkpt>
      <trkpt lat="24.92261929990368" lon="118.56794606402372">
        <ele>7.426159121096134</ele>
        <time>2024-11-15T09:54:43Z</time>
      </trkpt>
      <trkpt lat="24.922552641419323" lon="118.56785200084728">
        <ele>7.144427037797868</ele>
        <time>2024-11-15T09:54:46Z</time>
      </trkpt>
      <trkpt lat="24.922531692518575" lon="118.5676709938116">
        <ele>7.644443077966571</ele>
        <time>2024-11-15T09:54:49Z</time>
      </trkpt>
      <trkpt lat="24.92248627193893" lon="118.5674702386383">
        <ele>7.461465468630195</ele>
        <time>2024-11-15T09:54:53Z</time>
      </trkpt>
      <trkpt lat="24.9224370791287" lon="118.56738002027747">
        <ele>7.331912087276578</ele>
        <time>2024-11-15T09:54:55Z</time>
      </trkpt>
      <trkpt lat="24.92233210738364" lon="118.56737729663735">
        <ele>6.851677401922643</ele>
        <time>2024-11-15T09:54:57Z</time>
      </trkpt>
      <trkpt lat="24.92209420308117" lon="118.56746941914508">
        <ele>6.726201585493982</ele>
        <time>2024-11-15T09:55:01Z</time>
      </trkpt>
      <trkpt lat="24.92198132187967" lon="118.56749558890624">
        <ele>7.258842430077493</ele>
        <time>2024-11-15T09:55:03Z</time>
      </trkpt>
      <trkpt lat="24.921645606918148" lon="118.56749577646099">
        <ele>8.407558160834014</ele>
        <time>2024-11-15T09:55:09Z</time>
      </trkpt>
      <trkpt lat="24.921446121619795" lon="118.5674487310778">
        <ele>6.310624213889241</ele>
        <time>2024-11-15T09:55:13Z</time>
      </trkpt>
      <trkpt lat="24.921231174063834" lon="118.5673455309145">
        <ele>7.85845525469631</ele>
        <time>2024-11-15T09:55:17Z</time>
      </trkpt>
      <trkpt lat="24.92112931828026" lon="118.56727723522543">
        <ele>6.988990250043571</ele>
        <time>2024-11-15T09:55:19Z</time>
      </trkpt>
      <trkpt lat="24.921026225118197" lon="118.56723651016709">
        <ele>7.733366024680436</ele>
        <time>2024-11-15T09:55:21Z</time>
      </trkpt>
      <trkpt lat="24.920792672834498" lon="118.56720738091994">
        <ele>7.287069676443934</ele>
        <time>2024-11-15T09:55:25Z</time>
      </trkpt>
      <trkpt lat="24.920455182673816" lon="118.56724984692141">
        <ele>8.092286292463541</ele>
        <time>2024-11-15T09:55:31Z</time>
      </trkpt>
      <trkpt lat="24.92025439571781" lon="118.5673012531733">
        <ele>8.001994771882892</ele>
        <time>2024-11-15T09:55:35Z</time>
      </trkpt>
      <trkpt lat="24.92004365904927" lon="118.56739389290505">
        <ele>6.956692775711417</ele>
        <time>2024-11-15T09:55:39Z</time>
      </trkpt>
      <trkpt lat="24.91995716692117" lon="118.56745102948717">
        <ele>8.77850342541933</ele>
        <time>2024-11-15T09:55:41Z</time>
      </trkpt>
      <trkpt lat="24.919843209552333" lon="118.56747063956192">
        <ele>7.136391964741051</ele>
        <time>2024-11-15T09:55:43Z</time>
      </trkpt>
      <trkpt lat="24.91938789328167" lon="118.56747342392121">
        <ele>8.16520348098129</ele>
        <time>2024-11-15T09:55:51Z</time>
      </trkpt>
      <trkpt lat="24.919178845833805" lon="118.56740288352509">
        <ele>7.1043996857479215</ele>
        <time>2024-11-15T09:55:55Z</time>
      </trkpt>
      <trkpt lat="24.918864461143315" lon="118.56727696832125">
        <ele>7.368900664150715</ele>
        <time>2024-11-15T09:56:01Z</time>
      </trkpt>
      <trkpt lat="24.91877532903534" lon="118.5672110167167">
        <ele>8.255827622488141</ele>
        <time>2024-11-15T09:56:03Z</time>
      </trkpt>
      <trkpt lat="24.91870449082628" lon="118.56712206237889">
        <ele>6.562931224703789</ele>
        <time>2024-11-15T09:56:05Z</time>
      </trkpt>
      <trkpt lat="24.918585210968022" lon="118.56705873603194">
        <ele>7.92106591258198</ele>
        <time>2024-11-15T09:56:07Z</time>
      </trkpt>
      <trkpt lat="24.918153954862625" lon="118.56697713472843">
        <ele>6.640449893660843</ele>
        <time>2024-11-15T09:56:15Z</time>
      </trkpt>
      <trkpt lat="24.918002740306086" lon="118.5669327529902">
        <ele>6.984848729334772</ele>
        <time>2024-11-15T09:56:21Z</time>
      </trkpt>
      <trkpt lat="24.91797333452207" lon="118.56684784754339">
        <ele>7.32656438741833</ele>
        <time>2024-11-15T09:56:24Z</time>
      </trkpt>
      <trkpt lat="24.917876729154152" lon="118.56667026373164">
        <ele>7.471655781380832</ele>
        <time>2024-11-15T09:56:28Z</time>
      </trkpt>
      <trkpt lat="24.91784304930313" lon="118.5665739441891">
        <ele>8.589114166796207</ele>
        <time>2024-11-15T09:56:30Z</time>
      </trkpt>
      <trkpt lat="24.917788942630416" lon="118.5664873917689">
        <ele>8.537632616236806</ele>
        <time>2024-11-15T09:56:34Z</time>
      </trkpt>
      <trkpt lat="24.91776112951194" lon="118.56636222625674">
        <ele>8.824671550653875</ele>
        <time>2024-11-15T09:56:37Z</time>
      </trkpt>
      <trkpt lat="24.91780353467663" lon="118.56616636989112">
        <ele>9.285871872678399</ele>
        <time>2024-11-15T09:56:41Z</time>
      </trkpt>
      <trkpt lat="24.917801821038793" lon="118.56583068359535">
        <ele>10.276808618567884</ele>
        <time>2024-11-15T09:56:47Z</time>
      </trkpt>
      <trkpt lat="24.917761996591" lon="118.5655929392601">
        <ele>9.565991185605526</ele>
        <time>2024-11-15T09:56:51Z</time>
      </trkpt>
      <trkpt lat="24.917735790810067" lon="118.56526310173713">
        <ele>9.90098702441901</ele>
        <time>2024-11-15T09:56:57Z</time>
      </trkpt>
      <trkpt lat="24.917660524759594" lon="118.56507650786259">
        <ele>9.546034451574087</ele>
        <time>2024-11-15T09:57:02Z</time>
      </trkpt>
      <trkpt lat="24.917591762010357" lon="118.56503049328184">
        <ele>9.4979313518852</ele>
        <time>2024-11-15T09:57:15Z</time>
      </trkpt>
      <trkpt lat="24.917433162345066" lon="118.56458917422682">
        <ele>9.906271192245185</ele>
        <time>2024-11-15T09:57:31Z</time>
      </trkpt>
      <trkpt lat="24.917379096952978" lon="118.56451904102792">
        <ele>9.985287071205676</ele>
        <time>2024-11-15T09:57:34Z</time>
      </trkpt>
      <trkpt lat="24.917253793499622" lon="118.56424079205736">
        <ele>10.308867448940873</ele>
        <time>2024-11-15T09:57:44Z</time>
      </trkpt>
      <trkpt lat="24.917119326166787" lon="118.56414013895584">
        <ele>9.469212888740003</ele>
        <time>2024-11-15T09:57:54Z</time>
      </trkpt>
      <trkpt lat="24.916934687741886" lon="118.56394476422692">
        <ele>10.256582012400031</ele>
        <time>2024-11-15T09:58:00Z</time>
      </trkpt>
      <trkpt lat="24.916730173032278" lon="118.56363896317654">
        <ele>10.101777236908674</ele>
        <time>2024-11-15T09:58:16Z</time>
      </trkpt>
      <trkpt lat="24.91670515185486" lon="118.56356076515287">
        <ele>9.616674521006644</ele>
        <time>2024-11-15T09:58:18Z</time>
      </trkpt>
      <trkpt lat="24.91652249725863" lon="118.56329911383169">
        <ele>11.08698464743793</ele>
        <time>2024-11-15T09:58:24Z</time>
      </trkpt>
      <trkpt lat="24.91647306398288" lon="118.56320488739011">
        <ele>11.886641841381788</ele>
        <time>2024-11-15T09:58:26Z</time>
      </trkpt>
      <trkpt lat="24.916188073598082" lon="118.56282373082568">
        <ele>10.69084210973233</ele>
        <time>2024-11-15T09:58:34Z</time>
      </trkpt>
      <trkpt lat="24.91591956379141" lon="118.56241625338748">
        <ele>5.871996906585991</ele>
        <time>2024-11-15T09:58:42Z</time>
      </trkpt>
      <trkpt lat="24.915614078684833" lon="118.561969402133">
        <ele>4.364742977544665</ele>
        <time>2024-11-15T09:58:50Z</time>
      </trkpt>
      <trkpt lat="24.915310747624428" lon="118.56154698042535">
        <ele>3.8518466129899025</ele>
        <time>2024-11-15T09:58:58Z</time>
      </trkpt>
      <trkpt lat="24.91510857560929" lon="118.56127882102709">
        <ele>3.0149154011160135</ele>
        <time>2024-11-15T09:59:04Z</time>
      </trkpt>
      <trkpt lat="24.91490247739555" lon="118.56094359694137">
        <ele>3.6995892506092787</ele>
        <time>2024-11-15T09:59:17Z</time>
      </trkpt>
      <trkpt lat="24.91485087125678" lon="118.56088487180286">
        <ele>4.84349643625319</ele>
        <time>2024-11-15T09:59:23Z</time>
      </trkpt>
      <trkpt lat="24.914770471975697" lon="118.56071499855219">
        <ele>6.754411811940372</ele>
        <time>2024-11-15T09:59:28Z</time>
      </trkpt>
      <trkpt lat="24.914666919139513" lon="118.56057580474227">
        <ele>9.238659229129553</ele>
        <time>2024-11-15T09:59:32Z</time>
      </trkpt>
      <trkpt lat="24.914642991749307" lon="118.56049072496198">
        <ele>11.722108351998031</ele>
        <time>2024-11-15T09:59:40Z</time>
      </trkpt>
      <trkpt lat="24.91457925852577" lon="118.56041398099129">
        <ele>12.208188891410828</ele>
        <time>2024-11-15T09:59:45Z</time>
      </trkpt>
      <trkpt lat="24.91454825628777" lon="118.56031626662183">
        <ele>12.547625448554754</ele>
        <time>2024-11-15T09:59:48Z</time>
      </trkpt>
      <trkpt lat="24.91422102687673" lon="118.55989304376361">
        <ele>11.558155620470643</ele>
        <time>2024-11-15T09:59:58Z</time>
      </trkpt>
      <trkpt lat="24.914058135169913" lon="118.5596167318494">
        <ele>12.451380274258554</ele>
        <time>2024-11-15T10:00:04Z</time>
      </trkpt>
      <trkpt lat="24.91384071089521" lon="118.5593558194749">
        <ele>13.115567725151777</ele>
        <time>2024-11-15T10:00:10Z</time>
      </trkpt>
      <trkpt lat="24.913779187891915" lon="118.5592419696234">
        <ele>14.147015115246177</ele>
        <time>2024-11-15T10:00:12Z</time>
      </trkpt>
      <trkpt lat="24.91371137939988" lon="118.55915926940611">
        <ele>12.98232507146895</ele>
        <time>2024-11-15T10:00:14Z</time>
      </trkpt>
      <trkpt lat="24.91350974831611" lon="118.55889385950609">
        <ele>13.177153718657792</ele>
        <time>2024-11-15T10:00:20Z</time>
      </trkpt>
      <trkpt lat="24.913414646954944" lon="118.55870240490452">
        <ele>13.12118883896619</ele>
        <time>2024-11-15T10:00:24Z</time>
      </trkpt>
      <trkpt lat="24.91334582767597" lon="118.55849387801437">
        <ele>12.644967425614595</ele>
        <time>2024-11-15T10:00:28Z</time>
      </trkpt>
      <trkpt lat="24.9133261534265" lon="118.55838306831905">
        <ele>12.965061586350203</ele>
        <time>2024-11-15T10:00:31Z</time>
      </trkpt>
      <trkpt lat="24.913247034750707" lon="118.55837465875916">
        <ele>11.96164439059794</ele>
        <time>2024-11-15T10:01:30Z</time>
      </trkpt>
      <trkpt lat="24.913174072696243" lon="118.5583204963202">
        <ele>12.587478377856314</ele>
        <time>2024-11-15T10:01:37Z</time>
      </trkpt>
      <trkpt lat="24.91310709975425" lon="118.55814780834602">
        <ele>11.569743718020618</ele>
        <time>2024-11-15T10:01:47Z</time>
      </trkpt>
      <trkpt lat="24.9130678574609" lon="118.55798213267039">
        <ele>10.012996586970985</ele>
        <time>2024-11-15T10:02:00Z</time>
      </trkpt>
      <trkpt lat="24.913015508845852" lon="118.5578969389443">
        <ele>10.259556994773448</ele>
        <time>2024-11-15T10:02:03Z</time>
      </trkpt>
      <trkpt lat="24.91294751678035" lon="118.55783382696">
        <ele>10.109108067117631</ele>
        <time>2024-11-15T10:02:06Z</time>
      </trkpt>
      <trkpt lat="24.912779784505915" lon="118.557394009472">
        <ele>8.40276048425585</ele>
        <time>2024-11-15T10:02:18Z</time>
      </trkpt>
      <trkpt lat="24.91270830346486" lon="118.55722501603279">
        <ele>8.339121266268194</ele>
        <time>2024-11-15T10:02:22Z</time>
      </trkpt>
      <trkpt lat="24.91265514554174" lon="118.55715349538265">
        <ele>7.968745619058609</ele>
        <time>2024-11-15T10:02:24Z</time>
      </trkpt>
      <trkpt lat="24.91265656427241" lon="118.55704621083329">
        <ele>8.21107083465904</ele>
        <time>2024-11-15T10:02:28Z</time>
      </trkpt>
      <trkpt lat="24.912470135456825" lon="118.55654063045492">
        <ele>7.936736146919429</ele>
        <time>2024-11-15T10:02:38Z</time>
      </trkpt>
      <trkpt lat="24.912392791552165" lon="118.55636108502145">
        <ele>7.178254905156791</ele>
        <time>2024-11-15T10:02:44Z</time>
      </trkpt>
      <trkpt lat="24.91239358493101" lon="118.55628047287357">
        <ele>6.8108554389327765</ele>
        <time>2024-11-15T10:02:48Z</time>
      </trkpt>
      <trkpt lat="24.912219528872892" lon="118.55593111497073">
        <ele>5.8374413419514894</ele>
        <time>2024-11-15T10:02:57Z</time>
      </trkpt>
      <trkpt lat="24.912142987379628" lon="118.55563637408274">
        <ele>7.098739965818822</ele>
        <time>2024-11-15T10:03:03Z</time>
      </trkpt>
      <trkpt lat="24.912020342107102" lon="118.55538233228077">
        <ele>7.093482557684183</ele>
        <time>2024-11-15T10:03:09Z</time>
      </trkpt>
      <trkpt lat="24.911869672567594" lon="118.55512632144226">
        <ele>7.591532277874649</ele>
        <time>2024-11-15T10:03:15Z</time>
      </trkpt>
      <trkpt lat="24.911822766464873" lon="118.55492862418097">
        <ele>7.158482196740806</ele>
        <time>2024-11-15T10:03:21Z</time>
      </trkpt>
      <trkpt lat="24.911817991039964" lon="118.55474342353448">
        <ele>7.608032374642789</ele>
        <time>2024-11-15T10:03:29Z</time>
      </trkpt>
      <trkpt lat="24.911760600357702" lon="118.55469250784277">
        <ele>7.752458969131112</ele>
        <time>2024-11-15T10:03:34Z</time>
      </trkpt>
      <trkpt lat="24.911679814247883" lon="118.55453201819324">
        <ele>7.336750742979348</ele>
        <time>2024-11-15T10:03:41Z</time>
      </trkpt>
      <trkpt lat="24.911605101128885" lon="118.5544754160019">
        <ele>7.297797959297895</ele>
        <time>2024-11-15T10:03:44Z</time>
      </trkpt>
      <trkpt lat="24.91156550580188" lon="118.55431919332739">
        <ele>7.548583033494651</ele>
        <time>2024-11-15T10:03:50Z</time>
      </trkpt>
      <trkpt lat="24.91138330761262" lon="118.55387498654332">
        <ele>7.601927135139704</ele>
        <time>2024-11-15T10:04:03Z</time>
      </trkpt>
      <trkpt lat="24.91121456054485" lon="118.5534258199129">
        <ele>7.60368877556175</ele>
        <time>2024-11-15T10:04:13Z</time>
      </trkpt>
      <trkpt lat="24.911101544189922" lon="118.55317878538585">
        <ele>7.706424665637314</ele>
        <time>2024-11-15T10:04:19Z</time>
      </trkpt>
      <trkpt lat="24.911100333939846" lon="118.55309581095302">
        <ele>7.31024036090821</ele>
        <time>2024-11-15T10:04:22Z</time>
      </trkpt>
      <trkpt lat="24.91112457139428" lon="118.55299641527934">
        <ele>7.127244754694402</ele>
        <time>2024-11-15T10:04:26Z</time>
      </trkpt>
      <trkpt lat="24.910962904104093" lon="118.55258665931703">
        <ele>7.506830298341811</ele>
        <time>2024-11-15T10:04:40Z</time>
      </trkpt>
      <trkpt lat="24.910866917799087" lon="118.55250379853045">
        <ele>7.22453639190644</ele>
        <time>2024-11-15T10:04:44Z</time>
      </trkpt>
      <trkpt lat="24.91072225244824" lon="118.55204893474195">
        <ele>7.908319337293506</ele>
        <time>2024-11-15T10:04:54Z</time>
      </trkpt>
      <trkpt lat="24.91057479858644" lon="118.55176716816916">
        <ele>7.507759530097246</ele>
        <time>2024-11-15T10:05:00Z</time>
      </trkpt>
      <trkpt lat="24.91057819338408" lon="118.55165875047328">
        <ele>7.651164446026087</ele>
        <time>2024-11-15T10:05:03Z</time>
      </trkpt>
      <trkpt lat="24.91055090053947" lon="118.55156273850612">
        <ele>7.967760951258242</ele>
        <time>2024-11-15T10:05:06Z</time>
      </trkpt>
      <trkpt lat="24.910442893255215" lon="118.55142699892554">
        <ele>7.854274940676987</ele>
        <time>2024-11-15T10:05:10Z</time>
      </trkpt>
      <trkpt lat="24.91036015109948" lon="118.55136136649725">
        <ele>7.6587831526994705</ele>
        <time>2024-11-15T10:05:13Z</time>
      </trkpt>
      <trkpt lat="24.910305393028807" lon="118.55128524675638">
        <ele>7.362756150774658</ele>
        <time>2024-11-15T10:05:16Z</time>
      </trkpt>
      <trkpt lat="24.91026824879877" lon="118.55119286596509">
        <ele>8.092422167770565</ele>
        <time>2024-11-15T10:05:18Z</time>
      </trkpt>
      <trkpt lat="24.910166541606873" lon="118.55102405545675">
        <ele>7.9339964129030704</ele>
        <time>2024-11-15T10:05:22Z</time>
      </trkpt>
      <trkpt lat="24.909983173432913" lon="118.55050219210263">
        <ele>7.235872821882367</ele>
        <time>2024-11-15T10:05:32Z</time>
      </trkpt>
      <trkpt lat="24.909742586125514" lon="118.55007819099593">
        <ele>7.494969388470054</ele>
        <time>2024-11-15T10:05:44Z</time>
      </trkpt>
      <trkpt lat="24.909695539224398" lon="118.54999992391586">
        <ele>7.799320536665618</ele>
        <time>2024-11-15T10:05:46Z</time>
      </trkpt>
      <trkpt lat="24.909612507887612" lon="118.54977555540557">
        <ele>7.412604881450534</ele>
        <time>2024-11-15T10:05:51Z</time>
      </trkpt>
      <trkpt lat="24.90958935870247" lon="118.54959366506216">
        <ele>7.374140308238566</ele>
        <time>2024-11-15T10:05:55Z</time>
      </trkpt>
      <trkpt lat="24.909417481326255" lon="118.54906169420062">
        <ele>7.597186365164816</ele>
        <time>2024-11-15T10:06:05Z</time>
      </trkpt>
      <trkpt lat="24.909374867852858" lon="118.54898565877639">
        <ele>7.331432102248073</ele>
        <time>2024-11-15T10:06:07Z</time>
      </trkpt>
      <trkpt lat="24.909350415745955" lon="118.54887473813743">
        <ele>6.988786980509758</ele>
        <time>2024-11-15T10:06:09Z</time>
      </trkpt>
      <trkpt lat="24.909291060141967" lon="118.5487861060123">
        <ele>8.34262112248689</ele>
        <time>2024-11-15T10:06:11Z</time>
      </trkpt>
      <trkpt lat="24.909245928082466" lon="118.54859033594943">
        <ele>8.103317842818797</ele>
        <time>2024-11-15T10:06:14Z</time>
      </trkpt>
      <trkpt lat="24.90908753051509" lon="118.54824242699154">
        <ele>7.479756316170096</ele>
        <time>2024-11-15T10:06:23Z</time>
      </trkpt>
      <trkpt lat="24.909018223239382" lon="118.54817955300679">
        <ele>7.825439689680934</ele>
        <time>2024-11-15T10:06:26Z</time>
      </trkpt>
      <trkpt lat="24.908850083072537" lon="118.5477619665081">
        <ele>8.132431137375534</ele>
        <time>2024-11-15T10:06:34Z</time>
      </trkpt>
      <trkpt lat="24.90881257734111" lon="118.5476204568965">
        <ele>7.264188094064593</ele>
        <time>2024-11-15T10:06:36Z</time>
      </trkpt>
      <trkpt lat="24.908649664157565" lon="118.5472581038772">
        <ele>7.6029554875567555</ele>
        <time>2024-11-15T10:06:42Z</time>
      </trkpt>
      <trkpt lat="24.908512580126608" lon="118.54677196833326">
        <ele>8.11544871982187</ele>
        <time>2024-11-15T10:06:49Z</time>
      </trkpt>
      <trkpt lat="24.90828623899906" lon="118.54623614934826">
        <ele>7.069969213567674</ele>
        <time>2024-11-15T10:06:57Z</time>
      </trkpt>
      <trkpt lat="24.908103498286284" lon="118.54575468307102">
        <ele>7.730790696106851</ele>
        <time>2024-11-15T10:07:07Z</time>
      </trkpt>
      <trkpt lat="24.9080426294703" lon="118.54559063178206">
        <ele>7.34489559289068</ele>
        <time>2024-11-15T10:07:11Z</time>
      </trkpt>
      <trkpt lat="24.90802762344833" lon="118.54549677282078">
        <ele>7.71334760542959</ele>
        <time>2024-11-15T10:07:13Z</time>
      </trkpt>
      <trkpt lat="24.90799218043192" lon="118.54541007603802">
        <ele>7.604971839115024</ele>
        <time>2024-11-15T10:07:15Z</time>
      </trkpt>
      <trkpt lat="24.907976842430426" lon="118.54530916437635">
        <ele>7.968367054127157</ele>
        <time>2024-11-15T10:07:17Z</time>
      </trkpt>
      <trkpt lat="24.907756158239305" lon="118.54482256943176">
        <ele>7.757295986637473</ele>
        <time>2024-11-15T10:07:28Z</time>
      </trkpt>
      <trkpt lat="24.907719047439286" lon="118.54470423633525">
        <ele>7.871438788250089</ele>
        <time>2024-11-15T10:07:30Z</time>
      </trkpt>
      <trkpt lat="24.90760122333147" lon="118.54446637457343">
        <ele>7.54484289791435</ele>
        <time>2024-11-15T10:07:34Z</time>
      </trkpt>
      <trkpt lat="24.90751634236763" lon="118.54423629656343">
        <ele>7.99967438634485</ele>
        <time>2024-11-15T10:07:38Z</time>
      </trkpt>
      <trkpt lat="24.907495811891767" lon="118.5441368809144">
        <ele>7.843868405558169</ele>
        <time>2024-11-15T10:07:40Z</time>
      </trkpt>
      <trkpt lat="24.907507940301702" lon="118.54394246580632">
        <ele>7.106588792987168</ele>
        <time>2024-11-15T10:07:45Z</time>
      </trkpt>
      <trkpt lat="24.907501740449195" lon="118.54374935593827">
        <ele>7.565695660188794</ele>
        <time>2024-11-15T10:09:03Z</time>
      </trkpt>
      <trkpt lat="24.907481448416586" lon="118.54366542535628">
        <ele>7.668675710447133</ele>
        <time>2024-11-15T10:09:06Z</time>
      </trkpt>
      <trkpt lat="24.907461422118985" lon="118.54347575426763">
        <ele>7.404036136344075</ele>
        <time>2024-11-15T10:09:43Z</time>
      </trkpt>
      <trkpt lat="24.907501924477533" lon="118.54317713585912">
        <ele>7.667965207248926</ele>
        <time>2024-11-15T10:09:51Z</time>
      </trkpt>
      <trkpt lat="24.907687938093684" lon="118.5427745835531">
        <ele>7.570019785314798</ele>
        <time>2024-11-15T10:10:04Z</time>
      </trkpt>
      <trkpt lat="24.907714615767734" lon="118.54267036881312">
        <ele>7.373349517583847</ele>
        <time>2024-11-15T10:10:07Z</time>
      </trkpt>
      <trkpt lat="24.907840467336662" lon="118.54242618158194">
        <ele>7.6381043419241905</ele>
        <time>2024-11-15T10:10:13Z</time>
      </trkpt>
      <trkpt lat="24.907984370460227" lon="118.54198007901267">
        <ele>8.293818144127727</ele>
        <time>2024-11-15T10:10:25Z</time>
      </trkpt>
      <trkpt lat="24.908177753581022" lon="118.54148043919596">
        <ele>9.247664536349475</ele>
        <time>2024-11-15T10:10:39Z</time>
      </trkpt>
      <trkpt lat="24.90824185041132" lon="118.54129577881054">
        <ele>9.063202170655131</ele>
        <time>2024-11-15T10:10:44Z</time>
      </trkpt>
      <trkpt lat="24.908346023866077" lon="118.54109605360792">
        <ele>8.429506778717041</ele>
        <time>2024-11-15T10:10:50Z</time>
      </trkpt>
      <trkpt lat="24.908502460927494" lon="118.54089454751444">
        <ele>7.682956555858254</ele>
        <time>2024-11-15T10:10:57Z</time>
      </trkpt>
      <trkpt lat="24.90857138540335" lon="118.540722367979">
        <ele>7.815370283089578</ele>
        <time>2024-11-15T10:11:03Z</time>
      </trkpt>
      <trkpt lat="24.908585811441572" lon="118.540638593781">
        <ele>7.580309240147471</ele>
        <time>2024-11-15T10:11:14Z</time>
      </trkpt>
      <trkpt lat="24.90863540665651" lon="118.5405649038298">
        <ele>7.764863905496895</ele>
        <time>2024-11-15T10:11:20Z</time>
      </trkpt>
      <trkpt lat="24.908674078108465" lon="118.54040526968072">
        <ele>8.423694427125156</ele>
        <time>2024-11-15T10:11:29Z</time>
      </trkpt>
      <trkpt lat="24.908736416468766" lon="118.54034568734588">
        <ele>7.722879629582167</ele>
        <time>2024-11-15T10:11:34Z</time>
      </trkpt>
      <trkpt lat="24.90879137945821" lon="118.54014532202642">
        <ele>7.993910904973745</ele>
        <time>2024-11-15T10:11:43Z</time>
      </trkpt>
    </trkseg>
  </trk>
</gpx>