<?xml version="1.0" encoding="UTF-8"?>
<gpx xmlns="http://www.topografix.com/GPX/1/1" xmlns:gpxtpx="http://www.garmin.com/xmlschemas/TrackPointExtension/v1" xmlns:xsi="http://www.w3.org/2001/XMLSchema-instance" xsi:schemaLocation="http://www.topografix.com/GPX/1/1 http://www.topografix.com/GPX/1/1/gpx.xsd" version="1.1" creator="gpx.py -- https://github.com/tkrajina/gpxpy">
  <trk>
    <name>gpx from keep</name>
    <type>Run</type>
    <trkseg>
      <trkpt lat="24.920121120160605" lon="118.54213737862885">
        <ele>25.6810302734375</ele>
        <time>2026-01-12T12:33:01Z</time>
      </trkpt>
      <trkpt lat="24.919802136828714" lon="118.54212436815986">
        <ele>24.3670654296875</ele>
        <time>2026-01-12T12:33:10Z</time>
      </trkpt>
      <trkpt lat="24.919496134354205" lon="118.54210333666454">
        <ele>23.9180908203125</ele>
        <time>2026-01-12T12:33:19Z</time>
      </trkpt>
      <trkpt lat="24.91919016213794" lon="118.54209634036272">
        <ele>23.64300537109375</ele>
        <time>2026-01-12T12:33:28Z</time>
      </trkpt>
      <trkpt lat="24.91890014223013" lon="118.54206829012094">
        <ele>23.131591796875</ele>
        <time>2026-01-12T12:33:37Z</time>
      </trkpt>
      <trkpt lat="24.918630197394876" lon="118.54207632904084">
        <ele>24.517333984375</ele>
        <time>2026-01-12T12:33:46Z</time>
      </trkpt>
      <trkpt lat="24.918359244034672" lon="118.54208035796644">
        <ele>24.6055908203125</ele>
        <time>2026-01-12T12:33:55Z</time>
      </trkpt>
      <trkpt lat="24.917997286106612" lon="118.54207637310255">
        <ele>24.83319091796875</ele>
        <time>2026-01-12T12:34:07Z</time>
      </trkpt>
      <trkpt lat="24.917711427825047" lon="118.54212351119638">
        <ele>22.48455810546875</ele>
        <time>2026-01-12T12:34:16Z</time>
      </trkpt>
      <trkpt lat="24.91752950087188" lon="118.54214557915638">
        <ele>23.17919921875</ele>
        <time>2026-01-12T12:34:22Z</time>
      </trkpt>
    </trkseg>
  </trk>
</gpx>