<?xml version="1.0" encoding="UTF-8"?>
<gpx xmlns="http://www.topografix.com/GPX/1/1" xmlns:gpxtpx="http://www.garmin.com/xmlschemas/TrackPointExtension/v1" xmlns:xsi="http://www.w3.org/2001/XMLSchema-instance" xsi:schemaLocation="http://www.topografix.com/GPX/1/1 http://www.topografix.com/GPX/1/1/gpx.xsd" version="1.1" creator="gpx.py -- https://github.com/tkrajina/gpxpy">
  <trk>
    <name>gpx from keep</name>
    <type>Run</type>
    <trkseg>
      <trkpt lat="24.91133226764333" lon="118.53735091849921">
        <ele>10.383892441168427</ele>
        <time>2025-05-09T13:11:23Z</time>
      </trkpt>
      <trkpt lat="24.911298315505984" lon="118.53748815183909">
        <ele>10.39947490952909</ele>
        <time>2025-05-09T13:11:29Z</time>
      </trkpt>
      <trkpt lat="24.91122021412436" lon="118.5375810221259">
        <ele>10.027321288362145</ele>
        <time>2025-05-09T13:11:32Z</time>
      </trkpt>
      <trkpt lat="24.911137930514496" lon="118.53776828690074">
        <ele>10.390465054661036</ele>
        <time>2025-05-09T13:11:38Z</time>
      </trkpt>
      <trkpt lat="24.91101037413449" lon="118.53800911595103">
        <ele>10.027706772089005</ele>
        <time>2025-05-09T13:11:47Z</time>
      </trkpt>
      <trkpt lat="24.910950156161228" lon="118.53807019382577">
        <ele>9.277968187816441</ele>
        <time>2025-05-09T13:11:50Z</time>
      </trkpt>
      <trkpt lat="24.91090609117565" lon="118.53815570850682">
        <ele>10.214266956783831</ele>
        <time>2025-05-09T13:11:53Z</time>
      </trkpt>
      <trkpt lat="24.910880283184653" lon="118.53825564874545">
        <ele>9.508258108049631</ele>
        <time>2025-05-09T13:11:56Z</time>
      </trkpt>
      <trkpt lat="24.910805033799626" lon="118.53842035589945">
        <ele>9.995190344750881</ele>
        <time>2025-05-09T13:12:02Z</time>
      </trkpt>
      <trkpt lat="24.91080783982595" lon="118.53852206300628">
        <ele>9.508225256577134</ele>
        <time>2025-05-09T13:12:05Z</time>
      </trkpt>
      <trkpt lat="24.91085284922608" lon="118.53861532627587">
        <ele>9.870909599587321</ele>
        <time>2025-05-09T13:12:08Z</time>
      </trkpt>
      <trkpt lat="24.910919847351717" lon="118.53868046527487">
        <ele>10.193794891238213</ele>
        <time>2025-05-09T13:12:11Z</time>
      </trkpt>
      <trkpt lat="24.91116133601135" lon="118.53875266398232">
        <ele>8.964552893303335</ele>
        <time>2025-05-09T13:12:20Z</time>
      </trkpt>
      <trkpt lat="24.91118505226864" lon="118.538823265826">
        <ele>9.240455336868763</ele>
        <time>2025-05-09T13:12:23Z</time>
      </trkpt>
      <trkpt lat="24.91111803279693" lon="118.53916431912675">
        <ele>7.298312722705305</ele>
        <time>2025-05-09T13:12:35Z</time>
      </trkpt>
      <trkpt lat="24.911038609272254" lon="118.5395313636426">
        <ele>7.416896246373653</ele>
        <time>2025-05-09T13:12:47Z</time>
      </trkpt>
      <trkpt lat="24.91099799147117" lon="118.53971819796463">
        <ele>8.089888186194003</ele>
        <time>2025-05-09T13:12:53Z</time>
      </trkpt>
      <trkpt lat="24.910924019155708" lon="118.5399016329326">
        <ele>7.887152844108641</ele>
        <time>2025-05-09T13:12:59Z</time>
      </trkpt>
      <trkpt lat="24.910913498427277" lon="118.54010091062861">
        <ele>8.035779771395028</ele>
        <time>2025-05-09T13:13:05Z</time>
      </trkpt>
      <trkpt lat="24.910829375115146" lon="118.54029954546101">
        <ele>7.664190047420561</ele>
        <time>2025-05-09T13:13:12Z</time>
      </trkpt>
      <trkpt lat="24.91082207909655" lon="118.54041628186222">
        <ele>7.59636109881103</ele>
        <time>2025-05-09T13:13:16Z</time>
      </trkpt>
      <trkpt lat="24.91078799528102" lon="118.54053359280881">
        <ele>7.610816739499569</ele>
        <time>2025-05-09T13:13:20Z</time>
      </trkpt>
      <trkpt lat="24.9107540205128" lon="118.54090325012231">
        <ele>7.979007280431688</ele>
        <time>2025-05-09T13:13:33Z</time>
      </trkpt>
      <trkpt lat="24.910711475967297" lon="118.54105111203542">
        <ele>7.20157874096185</ele>
        <time>2025-05-09T13:13:39Z</time>
      </trkpt>
      <trkpt lat="24.910672714434558" lon="118.54111467300476">
        <ele>7.594879170879722</ele>
        <time>2025-05-09T13:13:42Z</time>
      </trkpt>
      <trkpt lat="24.910436250402327" lon="118.54131069330946">
        <ele>7.581111091189086</ele>
        <time>2025-05-09T13:13:51Z</time>
      </trkpt>
      <trkpt lat="24.910252970796247" lon="118.54148784819843">
        <ele>7.240511910058558</ele>
        <time>2025-05-09T13:13:57Z</time>
      </trkpt>
      <trkpt lat="24.910198121705232" lon="118.54156796613454">
        <ele>7.425981538370252</ele>
        <time>2025-05-09T13:14:00Z</time>
      </trkpt>
      <trkpt lat="24.910180417791327" lon="118.54166080427373">
        <ele>7.731948695145547</ele>
        <time>2025-05-09T13:14:03Z</time>
      </trkpt>
      <trkpt lat="24.91019760792518" lon="118.54176318884613">
        <ele>7.835072075016797</ele>
        <time>2025-05-09T13:14:06Z</time>
      </trkpt>
      <trkpt lat="24.910303035976348" lon="118.54200773524265">
        <ele>7.95094732940197</ele>
        <time>2025-05-09T13:14:12Z</time>
      </trkpt>
      <trkpt lat="24.910321277111375" lon="118.54211440271949">
        <ele>7.9789559887722135</ele>
        <time>2025-05-09T13:14:15Z</time>
      </trkpt>
      <trkpt lat="24.91025749120378" lon="118.54241071605253">
        <ele>7.617271089926362</ele>
        <time>2025-05-09T13:14:24Z</time>
      </trkpt>
      <trkpt lat="24.910267290271662" lon="118.5425401280084">
        <ele>7.886676370166242</ele>
        <time>2025-05-09T13:14:27Z</time>
      </trkpt>
      <trkpt lat="24.91025093197987" lon="118.54264477100246">
        <ele>8.175415502861142</ele>
        <time>2025-05-09T13:14:30Z</time>
      </trkpt>
      <trkpt lat="24.91026540382814" lon="118.54277158497561">
        <ele>7.774692252278328</ele>
        <time>2025-05-09T13:14:33Z</time>
      </trkpt>
      <trkpt lat="24.91021491078898" lon="118.54303672062059">
        <ele>7.740849855355918</ele>
        <time>2025-05-09T13:14:42Z</time>
      </trkpt>
      <trkpt lat="24.91024428263502" lon="118.543188887862">
        <ele>7.589928480796516</ele>
        <time>2025-05-09T13:14:48Z</time>
      </trkpt>
      <trkpt lat="24.910226086907137" lon="118.54327299912104">
        <ele>7.69869677349925</ele>
        <time>2025-05-09T13:14:51Z</time>
      </trkpt>
      <trkpt lat="24.910253811748376" lon="118.54334861810493">
        <ele>7.765622121281922</ele>
        <time>2025-05-09T13:14:54Z</time>
      </trkpt>
      <trkpt lat="24.91055379772387" lon="118.54337433742846">
        <ele>8.182743072509766</ele>
        <time>2025-05-09T13:15:06Z</time>
      </trkpt>
      <trkpt lat="24.91068071358985" lon="118.54330964453519">
        <ele>7.256525949575007</ele>
        <time>2025-05-09T13:15:12Z</time>
      </trkpt>
      <trkpt lat="24.910780175364405" lon="118.54331769657591">
        <ele>8.01314599532634</ele>
        <time>2025-05-09T13:15:16Z</time>
      </trkpt>
      <trkpt lat="24.91105271804253" lon="118.54326544315525">
        <ele>8.378152435645461</ele>
        <time>2025-05-09T13:15:28Z</time>
      </trkpt>
      <trkpt lat="24.911129865639577" lon="118.54327020870358">
        <ele>8.368380925618112</ele>
        <time>2025-05-09T13:15:34Z</time>
      </trkpt>
      <trkpt lat="24.911592908780634" lon="118.5432049938674">
        <ele>8.768415410071611</ele>
        <time>2025-05-09T13:17:29Z</time>
      </trkpt>
      <trkpt lat="24.9117259571744" lon="118.54322252940919">
        <ele>8.428742716088891</ele>
        <time>2025-05-09T13:17:35Z</time>
      </trkpt>
      <trkpt lat="24.912056498141112" lon="118.54312158114256">
        <ele>7.965214848518372</ele>
        <time>2025-05-09T13:17:47Z</time>
      </trkpt>
      <trkpt lat="24.912131318507534" lon="118.54310283562387">
        <ele>8.032475983723998</ele>
        <time>2025-05-09T13:17:50Z</time>
      </trkpt>
      <trkpt lat="24.912225253872986" lon="118.54305751011935">
        <ele>7.51376471016556</ele>
        <time>2025-05-09T13:17:56Z</time>
      </trkpt>
      <trkpt lat="24.912495809781632" lon="118.54296262940866">
        <ele>8.48425686173141</ele>
        <time>2025-05-09T13:18:08Z</time>
      </trkpt>
      <trkpt lat="24.912729960412463" lon="118.54286686982059">
        <ele>8.590024870820343</ele>
        <time>2025-05-09T13:18:17Z</time>
      </trkpt>
      <trkpt lat="24.91304902976917" lon="118.5427930430969">
        <ele>8.27680941671133</ele>
        <time>2025-05-09T13:18:26Z</time>
      </trkpt>
      <trkpt lat="24.913385272532768" lon="118.54276385499834">
        <ele>8.023480312898755</ele>
        <time>2025-05-09T13:18:35Z</time>
      </trkpt>
      <trkpt lat="24.91357796193256" lon="118.54273688886049">
        <ele>8.076189434155822</ele>
        <time>2025-05-09T13:18:41Z</time>
      </trkpt>
      <trkpt lat="24.91367853170036" lon="118.5427037388355">
        <ele>8.27350777387619</ele>
        <time>2025-05-09T13:18:44Z</time>
      </trkpt>
      <trkpt lat="24.91378623835401" lon="118.54269331413143">
        <ele>8.102412191219628</ele>
        <time>2025-05-09T13:18:47Z</time>
      </trkpt>
      <trkpt lat="24.91405039846372" lon="118.54259630253287">
        <ele>9.110276364721358</ele>
        <time>2025-05-09T13:18:56Z</time>
      </trkpt>
      <trkpt lat="24.914368625065123" lon="118.54246561129234">
        <ele>10.22039629612118</ele>
        <time>2025-05-09T13:19:08Z</time>
      </trkpt>
      <trkpt lat="24.91464806910044" lon="118.5424149450012">
        <ele>10.169799317605793</ele>
        <time>2025-05-09T13:19:17Z</time>
      </trkpt>
      <trkpt lat="24.914915349301836" lon="118.54235943981509">
        <ele>10.91706805024296</ele>
        <time>2025-05-09T13:19:26Z</time>
      </trkpt>
      <trkpt lat="24.915098037909907" lon="118.5422971798141">
        <ele>11.240183541551232</ele>
        <time>2025-05-09T13:19:32Z</time>
      </trkpt>
      <trkpt lat="24.915294926942874" lon="118.5422592553756">
        <ele>12.290552828460932</ele>
        <time>2025-05-09T13:19:38Z</time>
      </trkpt>
      <trkpt lat="24.915604652156123" lon="118.54210338426356">
        <ele>12.043694784864783</ele>
        <time>2025-05-09T13:19:50Z</time>
      </trkpt>
      <trkpt lat="24.915931965252685" lon="118.54203608486317">
        <ele>12.403937813825905</ele>
        <time>2025-05-09T13:20:02Z</time>
      </trkpt>
      <trkpt lat="24.91601424904999" lon="118.54201555137679">
        <ele>11.965281730517745</ele>
        <time>2025-05-09T13:20:05Z</time>
      </trkpt>
      <trkpt lat="24.9162699334703" lon="118.5418759352578">
        <ele>12.302495527081192</ele>
        <time>2025-05-09T13:20:14Z</time>
      </trkpt>
      <trkpt lat="24.91635906263576" lon="118.54183990113317">
        <ele>12.197911686263978</ele>
        <time>2025-05-09T13:20:17Z</time>
      </trkpt>
      <trkpt lat="24.91647227367425" lon="118.54175332245018">
        <ele>12.250832670368254</ele>
        <time>2025-05-09T13:20:23Z</time>
      </trkpt>
      <trkpt lat="24.916553930806113" lon="118.54172509912776">
        <ele>11.952392590232193</ele>
        <time>2025-05-09T13:20:26Z</time>
      </trkpt>
      <trkpt lat="24.916709375649262" lon="118.54169787933606">
        <ele>11.54725702572614</ele>
        <time>2025-05-09T13:20:32Z</time>
      </trkpt>
      <trkpt lat="24.916801134544247" lon="118.54171033600068">
        <ele>12.093722737394273</ele>
        <time>2025-05-09T13:20:35Z</time>
      </trkpt>
      <trkpt lat="24.916889363016335" lon="118.54174655905616">
        <ele>11.321530944667757</ele>
        <time>2025-05-09T13:20:38Z</time>
      </trkpt>
      <trkpt lat="24.9172186992879" lon="118.5417131722943">
        <ele>10.484784433618188</ele>
        <time>2025-05-09T13:20:50Z</time>
      </trkpt>
      <trkpt lat="24.917384697023397" lon="118.54170492407424">
        <ele>10.037272435612977</ele>
        <time>2025-05-09T13:20:56Z</time>
      </trkpt>
      <trkpt lat="24.91746022336727" lon="118.54167763864004">
        <ele>9.902872819453478</ele>
        <time>2025-05-09T13:20:59Z</time>
      </trkpt>
      <trkpt lat="24.91755444475186" lon="118.54169019777208">
        <ele>10.184735256247222</ele>
        <time>2025-05-09T13:21:02Z</time>
      </trkpt>
      <trkpt lat="24.917636153620666" lon="118.54167466301935">
        <ele>10.003226437605917</ele>
        <time>2025-05-09T13:21:05Z</time>
      </trkpt>
      <trkpt lat="24.917716484835495" lon="118.54169630514656">
        <ele>9.895053579472005</ele>
        <time>2025-05-09T13:21:08Z</time>
      </trkpt>
      <trkpt lat="24.918054637817168" lon="118.54167723182213">
        <ele>10.341105903498828</ele>
        <time>2025-05-09T13:21:20Z</time>
      </trkpt>
      <trkpt lat="24.91834366903234" lon="118.5417117723327">
        <ele>11.88426026608795</ele>
        <time>2025-05-09T13:21:29Z</time>
      </trkpt>
      <trkpt lat="24.9186598412401" lon="118.54172378419338">
        <ele>12.744040898047388</ele>
        <time>2025-05-09T13:21:41Z</time>
      </trkpt>
      <trkpt lat="24.918915326362615" lon="118.54171637953623">
        <ele>13.580696748569608</ele>
        <time>2025-05-09T13:21:50Z</time>
      </trkpt>
      <trkpt lat="24.919081850667087" lon="118.54173560107118">
        <ele>13.71981670614332</ele>
        <time>2025-05-09T13:21:56Z</time>
      </trkpt>
      <trkpt lat="24.919166768425367" lon="118.54171983684476">
        <ele>13.793123587034643</ele>
        <time>2025-05-09T13:21:59Z</time>
      </trkpt>
      <trkpt lat="24.919252649418805" lon="118.54172935337951">
        <ele>14.128227082081139</ele>
        <time>2025-05-09T13:22:02Z</time>
      </trkpt>
      <trkpt lat="24.919597960902905" lon="118.54170140710494">
        <ele>14.689506191760302</ele>
        <time>2025-05-09T13:22:14Z</time>
      </trkpt>
      <trkpt lat="24.919941052619006" lon="118.54169738090509">
        <ele>14.729930119588971</ele>
        <time>2025-05-09T13:22:26Z</time>
      </trkpt>
      <trkpt lat="24.92018250692036" lon="118.54169047833905">
        <ele>14.972241117618978</ele>
        <time>2025-05-09T13:22:35Z</time>
      </trkpt>
      <trkpt lat="24.92025370237131" lon="118.54165236128425">
        <ele>14.880055306479335</ele>
        <time>2025-05-09T13:22:38Z</time>
      </trkpt>
      <trkpt lat="24.920364205390257" lon="118.54154459880239">
        <ele>15.535185539163649</ele>
        <time>2025-05-09T13:22:44Z</time>
      </trkpt>
      <trkpt lat="24.920352683919358" lon="118.5416479252957">
        <ele>14.271309653297067</ele>
        <time>2025-05-09T13:22:50Z</time>
      </trkpt>
      <trkpt lat="24.920303668085474" lon="118.5417184244454">
        <ele>14.250601674430072</ele>
        <time>2025-05-09T13:22:53Z</time>
      </trkpt>
      <trkpt lat="24.920292120534093" lon="118.54191298178058">
        <ele>14.07251468859613</ele>
        <time>2025-05-09T13:22:59Z</time>
      </trkpt>
      <trkpt lat="24.920309757656884" lon="118.54199975223005">
        <ele>13.149481344036758</ele>
        <time>2025-05-09T13:23:02Z</time>
      </trkpt>
      <trkpt lat="24.920352497391697" lon="118.54208315442219">
        <ele>12.749696501530707</ele>
        <time>2025-05-09T13:23:05Z</time>
      </trkpt>
      <trkpt lat="24.92043721874766" lon="118.54211239086598">
        <ele>12.470638094469905</ele>
        <time>2025-05-09T13:23:08Z</time>
      </trkpt>
      <trkpt lat="24.920690342169053" lon="118.54214161846997">
        <ele>12.771147915162146</ele>
        <time>2025-05-09T13:23:17Z</time>
      </trkpt>
      <trkpt lat="24.92085534852438" lon="118.54211952223397">
        <ele>13.460889652371407</ele>
        <time>2025-05-09T13:23:23Z</time>
      </trkpt>
      <trkpt lat="24.92115179757646" lon="118.54215687206045">
        <ele>14.673405812121928</ele>
        <time>2025-05-09T13:23:35Z</time>
      </trkpt>
      <trkpt lat="24.921468264644915" lon="118.54215357382677">
        <ele>15.033152086660266</ele>
        <time>2025-05-09T13:23:47Z</time>
      </trkpt>
      <trkpt lat="24.921772555248385" lon="118.54213118999456">
        <ele>17.325287329033017</ele>
        <time>2025-05-09T13:24:02Z</time>
      </trkpt>
      <trkpt lat="24.921974318913506" lon="118.54217459024042">
        <ele>18.07373106200248</ele>
        <time>2025-05-09T13:24:11Z</time>
      </trkpt>
      <trkpt lat="24.922154761645416" lon="118.54223235766135">
        <ele>18.281065504066646</ele>
        <time>2025-05-09T13:24:17Z</time>
      </trkpt>
      <trkpt lat="24.92244633625273" lon="118.54227488083285">
        <ele>20.14036995731294</ele>
        <time>2025-05-09T13:24:26Z</time>
      </trkpt>
      <trkpt lat="24.922722894832432" lon="118.54237350261829">
        <ele>21.047540210187435</ele>
        <time>2025-05-09T13:24:35Z</time>
      </trkpt>
      <trkpt lat="24.922966917903487" lon="118.5424519835863">
        <ele>21.94349802657962</ele>
        <time>2025-05-09T13:24:44Z</time>
      </trkpt>
      <trkpt lat="24.9231206784687" lon="118.54253214307582">
        <ele>22.259751395322382</ele>
        <time>2025-05-09T13:24:50Z</time>
      </trkpt>
      <trkpt lat="24.923282483223247" lon="118.54254554505407">
        <ele>21.919323030859232</ele>
        <time>2025-05-09T13:24:56Z</time>
      </trkpt>
      <trkpt lat="24.923601117658496" lon="118.54267969060321">
        <ele>23.77128646429628</ele>
        <time>2025-05-09T13:25:08Z</time>
      </trkpt>
      <trkpt lat="24.92390102822213" lon="118.54283949022826">
        <ele>27.176679470576346</ele>
        <time>2025-05-09T13:25:20Z</time>
      </trkpt>
      <trkpt lat="24.924145429773915" lon="118.54296860247919">
        <ele>28.7087026508525</ele>
        <time>2025-05-09T13:25:29Z</time>
      </trkpt>
      <trkpt lat="24.92437154817708" lon="118.54313995904407">
        <ele>29.0776568967849</ele>
        <time>2025-05-09T13:25:38Z</time>
      </trkpt>
      <trkpt lat="24.92460934051487" lon="118.5433282252449">
        <ele>27.656226539984345</ele>
        <time>2025-05-09T13:25:47Z</time>
      </trkpt>
      <trkpt lat="24.924832606421816" lon="118.54352274388107">
        <ele>25.770336713641882</ele>
        <time>2025-05-09T13:25:56Z</time>
      </trkpt>
      <trkpt lat="24.925041827265918" lon="118.54373212329932">
        <ele>23.794432890601456</ele>
        <time>2025-05-09T13:26:05Z</time>
      </trkpt>
      <trkpt lat="24.925242642823363" lon="118.54396562712957">
        <ele>22.665115083567798</ele>
        <time>2025-05-09T13:26:14Z</time>
      </trkpt>
      <trkpt lat="24.925442378965577" lon="118.54418787762975">
        <ele>20.213180765509605</ele>
        <time>2025-05-09T13:26:23Z</time>
      </trkpt>
      <trkpt lat="24.92555768765205" lon="118.544351319841">
        <ele>18.994833772070706</ele>
        <time>2025-05-09T13:26:29Z</time>
      </trkpt>
      <trkpt lat="24.925628730618463" lon="118.5444258383668">
        <ele>17.956234477460384</ele>
        <time>2025-05-09T13:26:32Z</time>
      </trkpt>
      <trkpt lat="24.925794217876" lon="118.54468464930949">
        <ele>16.91131556686014</ele>
        <time>2025-05-09T13:26:41Z</time>
      </trkpt>
      <trkpt lat="24.925952655916237" lon="118.54493224697275">
        <ele>16.24506756104529</ele>
        <time>2025-05-09T13:26:50Z</time>
      </trkpt>
      <trkpt lat="24.926107817013676" lon="118.54518916856068">
        <ele>15.876211650669575</ele>
        <time>2025-05-09T13:26:59Z</time>
      </trkpt>
      <trkpt lat="24.926262743257954" lon="118.54543923326104">
        <ele>14.400415794923902</ele>
        <time>2025-05-09T13:27:08Z</time>
      </trkpt>
      <trkpt lat="24.92642040169088" lon="118.54568396160361">
        <ele>14.178529653698206</ele>
        <time>2025-05-09T13:27:17Z</time>
      </trkpt>
      <trkpt lat="24.926566822870875" lon="118.54595530389149">
        <ele>12.462190483696759</ele>
        <time>2025-05-09T13:27:26Z</time>
      </trkpt>
      <trkpt lat="24.92671873824199" lon="118.54620898134172">
        <ele>11.61743171326816</ele>
        <time>2025-05-09T13:27:35Z</time>
      </trkpt>
      <trkpt lat="24.92680492857558" lon="118.54649188603939">
        <ele>11.672624316997826</ele>
        <time>2025-05-09T13:27:44Z</time>
      </trkpt>
      <trkpt lat="24.926811896869367" lon="118.54659701303653">
        <ele>11.495939711108804</ele>
        <time>2025-05-09T13:27:47Z</time>
      </trkpt>
      <trkpt lat="24.926843335130375" lon="118.54669121181013">
        <ele>11.167542091570795</ele>
        <time>2025-05-09T13:27:50Z</time>
      </trkpt>
      <trkpt lat="24.92702240694741" lon="118.54688395990378">
        <ele>9.956420890055597</ele>
        <time>2025-05-09T13:27:59Z</time>
      </trkpt>
      <trkpt lat="24.927180735421476" lon="118.54713407191961">
        <ele>9.78964907117188</ele>
        <time>2025-05-09T13:28:08Z</time>
      </trkpt>
      <trkpt lat="24.927239527482307" lon="118.54721636930216">
        <ele>9.551078947260976</ele>
        <time>2025-05-09T13:28:11Z</time>
      </trkpt>
      <trkpt lat="24.927274019396595" lon="118.54730640395177">
        <ele>9.541186798363924</ele>
        <time>2025-05-09T13:28:14Z</time>
      </trkpt>
      <trkpt lat="24.927341123562684" lon="118.54737494803415">
        <ele>9.378098011948168</ele>
        <time>2025-05-09T13:28:17Z</time>
      </trkpt>
      <trkpt lat="24.927493914732416" lon="118.54747211093306">
        <ele>9.629940400831401</ele>
        <time>2025-05-09T13:28:23Z</time>
      </trkpt>
      <trkpt lat="24.927547238977763" lon="118.54754546309073">
        <ele>9.449048391543329</ele>
        <time>2025-05-09T13:28:26Z</time>
      </trkpt>
      <trkpt lat="24.92758362300966" lon="118.54764705983303">
        <ele>10.152691219933331</ele>
        <time>2025-05-09T13:28:29Z</time>
      </trkpt>
      <trkpt lat="24.92774933460496" lon="118.54789961589715">
        <ele>9.959201029501855</ele>
        <time>2025-05-09T13:28:38Z</time>
      </trkpt>
      <trkpt lat="24.927955576579038" lon="118.54821726738666">
        <ele>10.514043496921659</ele>
        <time>2025-05-09T13:28:50Z</time>
      </trkpt>
      <trkpt lat="24.928110815125113" lon="118.54847589763983">
        <ele>11.6361811067909</ele>
        <time>2025-05-09T13:28:59Z</time>
      </trkpt>
      <trkpt lat="24.928241659680634" lon="118.54884475685381">
        <ele>12.252781674265862</ele>
        <time>2025-05-09T13:29:11Z</time>
      </trkpt>
      <trkpt lat="24.92843297600919" lon="118.54917240515962">
        <ele>12.019132568500936</ele>
        <time>2025-05-09T13:29:23Z</time>
      </trkpt>
      <trkpt lat="24.92851330207917" lon="118.54934682595625">
        <ele>12.28177678026259</ele>
        <time>2025-05-09T13:29:29Z</time>
      </trkpt>
      <trkpt lat="24.928555396043606" lon="118.54950665267107">
        <ele>11.955487059429288</ele>
        <time>2025-05-09T13:29:35Z</time>
      </trkpt>
      <trkpt lat="24.92862752132488" lon="118.54954213578944">
        <ele>11.385442106984556</ele>
        <time>2025-05-09T13:29:38Z</time>
      </trkpt>
      <trkpt lat="24.92882175445321" lon="118.54987999931183">
        <ele>10.1627167314291</ele>
        <time>2025-05-09T13:29:50Z</time>
      </trkpt>
      <trkpt lat="24.928993929129508" lon="118.55017377070408">
        <ele>10.120253722183406</ele>
        <time>2025-05-09T13:30:00Z</time>
      </trkpt>
      <trkpt lat="24.92915303350073" lon="118.55041608969007">
        <ele>9.422915454953909</ele>
        <time>2025-05-09T13:30:09Z</time>
      </trkpt>
      <trkpt lat="24.929308895442574" lon="118.55067341382909">
        <ele>7.905684776604176</ele>
        <time>2025-05-09T13:30:18Z</time>
      </trkpt>
      <trkpt lat="24.929498671348647" lon="118.55098722839966">
        <ele>7.177382822148502</ele>
        <time>2025-05-09T13:30:30Z</time>
      </trkpt>
      <trkpt lat="24.92965218875104" lon="118.55132871495829">
        <ele>7.263180524110794</ele>
        <time>2025-05-09T13:30:42Z</time>
      </trkpt>
      <trkpt lat="24.92975992110531" lon="118.55148050333297">
        <ele>7.735411995090544</ele>
        <time>2025-05-09T13:30:48Z</time>
      </trkpt>
      <trkpt lat="24.929881619828492" lon="118.55161142751278">
        <ele>7.737496497109532</ele>
        <time>2025-05-09T13:30:54Z</time>
      </trkpt>
      <trkpt lat="24.93007278384702" lon="118.55190643083048">
        <ele>9.887205189093947</ele>
        <time>2025-05-09T13:31:06Z</time>
      </trkpt>
      <trkpt lat="24.93027511630251" lon="118.55223235972618">
        <ele>8.10919445566833</ele>
        <time>2025-05-09T13:31:18Z</time>
      </trkpt>
      <trkpt lat="24.930409270471266" lon="118.5524708102644">
        <ele>8.563666220754385</ele>
        <time>2025-05-09T13:31:27Z</time>
      </trkpt>
      <trkpt lat="24.93059572098805" lon="118.55279620987397">
        <ele>9.569832286797464</ele>
        <time>2025-05-09T13:31:39Z</time>
      </trkpt>
      <trkpt lat="24.930791629439344" lon="118.55308874224842">
        <ele>9.324307972565293</ele>
        <time>2025-05-09T13:31:51Z</time>
      </trkpt>
      <trkpt lat="24.9308654382584" lon="118.55326080637992">
        <ele>9.98272515181452</ele>
        <time>2025-05-09T13:31:57Z</time>
      </trkpt>
      <trkpt lat="24.93105932882406" lon="118.5535623276345">
        <ele>9.651102673262358</ele>
        <time>2025-05-09T13:32:09Z</time>
      </trkpt>
      <trkpt lat="24.931207173731224" lon="118.55383345847405">
        <ele>9.21412739623338</ele>
        <time>2025-05-09T13:32:18Z</time>
      </trkpt>
      <trkpt lat="24.931257761921515" lon="118.5539301179958">
        <ele>9.98924332857132</ele>
        <time>2025-05-09T13:32:21Z</time>
      </trkpt>
      <trkpt lat="24.93132524348069" lon="118.55393459313153">
        <ele>9.176649920642376</ele>
        <time>2025-05-09T13:32:27Z</time>
      </trkpt>
      <trkpt lat="24.931431499618903" lon="118.55408085985134">
        <ele>9.08379060216248</ele>
        <time>2025-05-09T13:32:33Z</time>
      </trkpt>
      <trkpt lat="24.931505152671548" lon="118.55425087723717">
        <ele>9.549925901927054</ele>
        <time>2025-05-09T13:32:39Z</time>
      </trkpt>
      <trkpt lat="24.931581815712185" lon="118.55455101712555">
        <ele>8.214582327753305</ele>
        <time>2025-05-09T13:32:48Z</time>
      </trkpt>
      <trkpt lat="24.931644025979008" lon="118.5546102700874">
        <ele>8.582761873491108</ele>
        <time>2025-05-09T13:32:51Z</time>
      </trkpt>
      <trkpt lat="24.931820927440558" lon="118.55491726486912">
        <ele>9.345837228000164</ele>
        <time>2025-05-09T13:33:03Z</time>
      </trkpt>
      <trkpt lat="24.932002356944825" lon="118.55521938501177">
        <ele>8.02757870964706</ele>
        <time>2025-05-09T13:33:15Z</time>
      </trkpt>
      <trkpt lat="24.93219691368428" lon="118.55551822521625">
        <ele>8.079740265384316</ele>
        <time>2025-05-09T13:33:27Z</time>
      </trkpt>
      <trkpt lat="24.932372833816927" lon="118.55585185902103">
        <ele>9.04407119937241</ele>
        <time>2025-05-09T13:33:39Z</time>
      </trkpt>
      <trkpt lat="24.932498114325494" lon="118.55607174344405">
        <ele>10.091534753330052</ele>
        <time>2025-05-09T13:33:48Z</time>
      </trkpt>
      <trkpt lat="24.93265341481617" lon="118.55630746273454">
        <ele>9.9478460540995</ele>
        <time>2025-05-09T13:33:57Z</time>
      </trkpt>
      <trkpt lat="24.93273177188815" lon="118.55647622938571">
        <ele>9.897453743964434</ele>
        <time>2025-05-09T13:34:03Z</time>
      </trkpt>
      <trkpt lat="24.932731323778096" lon="118.55656747157786">
        <ele>10.721771606244147</ele>
        <time>2025-05-09T13:34:06Z</time>
      </trkpt>
      <trkpt lat="24.93270094641174" lon="118.55665765815127">
        <ele>11.030480986461043</ele>
        <time>2025-05-09T13:34:09Z</time>
      </trkpt>
      <trkpt lat="24.93259029743693" lon="118.55680048043097">
        <ele>11.1060457713902</ele>
        <time>2025-05-09T13:34:15Z</time>
      </trkpt>
      <trkpt lat="24.932459635176" lon="118.55691830697485">
        <ele>11.68330480158329</ele>
        <time>2025-05-09T13:34:21Z</time>
      </trkpt>
      <trkpt lat="24.9321484912763" lon="118.55710602251399">
        <ele>10.134862697683275</ele>
        <time>2025-05-09T13:34:33Z</time>
      </trkpt>
      <trkpt lat="24.931850189226864" lon="118.55732163763336">
        <ele>10.12484943959862</ele>
        <time>2025-05-09T13:34:45Z</time>
      </trkpt>
      <trkpt lat="24.931554383785777" lon="118.55755134284831">
        <ele>11.30665048956871</ele>
        <time>2025-05-09T13:34:57Z</time>
      </trkpt>
      <trkpt lat="24.931328186898757" lon="118.55773636015381">
        <ele>11.9257671860978</ele>
        <time>2025-05-09T13:35:06Z</time>
      </trkpt>
      <trkpt lat="24.93103364124279" lon="118.55796165251166">
        <ele>12.93224276509136</ele>
        <time>2025-05-09T13:35:18Z</time>
      </trkpt>
      <trkpt lat="24.9306870397386" lon="118.5581512123511">
        <ele>12.272328360937536</ele>
        <time>2025-05-09T13:35:31Z</time>
      </trkpt>
      <trkpt lat="24.93053348645017" lon="118.55820997282846">
        <ele>11.319106638431549</ele>
        <time>2025-05-09T13:35:37Z</time>
      </trkpt>
      <trkpt lat="24.930472264302626" lon="118.55827192337537">
        <ele>11.25121015124023</ele>
        <time>2025-05-09T13:35:40Z</time>
      </trkpt>
      <trkpt lat="24.930143842523496" lon="118.5584185459054">
        <ele>12.236376075074077</ele>
        <time>2025-05-09T13:35:52Z</time>
      </trkpt>
      <trkpt lat="24.929891445792165" lon="118.55853394491632">
        <ele>12.796427284367383</ele>
        <time>2025-05-09T13:36:01Z</time>
      </trkpt>
      <trkpt lat="24.929622079106707" lon="118.55865520860321">
        <ele>12.612226650118828</ele>
        <time>2025-05-09T13:36:10Z</time>
      </trkpt>
      <trkpt lat="24.929334250543707" lon="118.5587457548684">
        <ele>12.608832122758031</ele>
        <time>2025-05-09T13:36:20Z</time>
      </trkpt>
      <trkpt lat="24.929044012017158" lon="118.55885908028228">
        <ele>12.246736665256321</ele>
        <time>2025-05-09T13:36:31Z</time>
      </trkpt>
      <trkpt lat="24.92886548943513" lon="118.55889945939718">
        <ele>12.55755563173443</ele>
        <time>2025-05-09T13:36:37Z</time>
      </trkpt>
      <trkpt lat="24.928771863289434" lon="118.55893984226687">
        <ele>12.31066230032593</ele>
        <time>2025-05-09T13:36:40Z</time>
      </trkpt>
      <trkpt lat="24.92843486435267" lon="118.55901796209434">
        <ele>12.280154384672642</ele>
        <time>2025-05-09T13:36:52Z</time>
      </trkpt>
      <trkpt lat="24.928195822403328" lon="118.55907452732127">
        <ele>12.436787315644324</ele>
        <time>2025-05-09T13:37:01Z</time>
      </trkpt>
      <trkpt lat="24.928023733234724" lon="118.55909465383672">
        <ele>12.506044633686543</ele>
        <time>2025-05-09T13:37:07Z</time>
      </trkpt>
      <trkpt lat="24.927923598608082" lon="118.55913244730033">
        <ele>12.944366614334285</ele>
        <time>2025-05-09T13:37:10Z</time>
      </trkpt>
      <trkpt lat="24.927842253030953" lon="118.55913506448113">
        <ele>12.56233991868794</ele>
        <time>2025-05-09T13:37:13Z</time>
      </trkpt>
      <trkpt lat="24.927494323083092" lon="118.55919088122174">
        <ele>11.364101260900497</ele>
        <time>2025-05-09T13:37:25Z</time>
      </trkpt>
      <trkpt lat="24.927210604037356" lon="118.55921585546633">
        <ele>9.98769498243928</ele>
        <time>2025-05-09T13:37:34Z</time>
      </trkpt>
      <trkpt lat="24.926933622124267" lon="118.5592311471897">
        <ele>10.061174936592579</ele>
        <time>2025-05-09T13:37:43Z</time>
      </trkpt>
      <trkpt lat="24.926841534408165" lon="118.5592459778967">
        <ele>10.253374338150024</ele>
        <time>2025-05-09T13:37:46Z</time>
      </trkpt>
      <trkpt lat="24.926557219662875" lon="118.55922631416674">
        <ele>10.391951656900346</ele>
        <time>2025-05-09T13:37:55Z</time>
      </trkpt>
      <trkpt lat="24.92636345791658" lon="118.5592333201132">
        <ele>10.51969991903752</ele>
        <time>2025-05-09T13:38:01Z</time>
      </trkpt>
      <trkpt lat="24.926184034665347" lon="118.55922237793554">
        <ele>10.372002543881536</ele>
        <time>2025-05-09T13:38:07Z</time>
      </trkpt>
      <trkpt lat="24.92603233573875" lon="118.55918518494946">
        <ele>9.46570837404579</ele>
        <time>2025-05-09T13:38:13Z</time>
      </trkpt>
      <trkpt lat="24.925885865060135" lon="118.55910116880167">
        <ele>9.675269196741283</ele>
        <time>2025-05-09T13:38:19Z</time>
      </trkpt>
      <trkpt lat="24.92578014409621" lon="118.5590714771622">
        <ele>10.082712798379362</ele>
        <time>2025-05-09T13:38:23Z</time>
      </trkpt>
      <trkpt lat="24.925497669498732" lon="118.55910645860523">
        <ele>9.922287746332586</ele>
        <time>2025-05-09T13:38:33Z</time>
      </trkpt>
      <trkpt lat="24.925347988313362" lon="118.55919690538067">
        <ele>10.93217443767935</ele>
        <time>2025-05-09T13:38:39Z</time>
      </trkpt>
      <trkpt lat="24.925269159719658" lon="118.5592231657153">
        <ele>10.942274107597768</ele>
        <time>2025-05-09T13:38:42Z</time>
      </trkpt>
      <trkpt lat="24.925191993438066" lon="118.5592273066044">
        <ele>10.73521367739886</ele>
        <time>2025-05-09T13:38:45Z</time>
      </trkpt>
      <trkpt lat="24.92511110126869" lon="118.55919923020795">
        <ele>11.202592067420483</ele>
        <time>2025-05-09T13:38:48Z</time>
      </trkpt>
      <trkpt lat="24.924839680802318" lon="118.55919986664281">
        <ele>9.472333235666156</ele>
        <time>2025-05-09T13:38:57Z</time>
      </trkpt>
      <trkpt lat="24.92474442586281" lon="118.55919089791847">
        <ele>9.89962114021182</ele>
        <time>2025-05-09T13:39:00Z</time>
      </trkpt>
      <trkpt lat="24.924419397611047" lon="118.55922001812868">
        <ele>10.199554082937539</ele>
        <time>2025-05-09T13:39:12Z</time>
      </trkpt>
      <trkpt lat="24.92434740110958" lon="118.5592105200848">
        <ele>10.011541003361344</ele>
        <time>2025-05-09T13:39:15Z</time>
      </trkpt>
      <trkpt lat="24.92419485448993" lon="118.5592243711701">
        <ele>10.064883021637797</ele>
        <time>2025-05-09T13:39:21Z</time>
      </trkpt>
      <trkpt lat="24.923922664375254" lon="118.55920162169903">
        <ele>10.475738485343754</ele>
        <time>2025-05-09T13:39:30Z</time>
      </trkpt>
      <trkpt lat="24.92370007531451" lon="118.55917565010898">
        <ele>9.928099008277059</ele>
        <time>2025-05-09T13:39:39Z</time>
      </trkpt>
      <trkpt lat="24.92362266886173" lon="118.55918887288428">
        <ele>9.583044050261378</ele>
        <time>2025-05-09T13:39:42Z</time>
      </trkpt>
      <trkpt lat="24.92343054164382" lon="118.55917401931099">
        <ele>9.75738734100014</ele>
        <time>2025-05-09T13:39:48Z</time>
      </trkpt>
      <trkpt lat="24.92333320920754" lon="118.55918825054104">
        <ele>9.519361494109035</ele>
        <time>2025-05-09T13:39:51Z</time>
      </trkpt>
      <trkpt lat="24.92312679462137" lon="118.55913900613454">
        <ele>9.920085720717907</ele>
        <time>2025-05-09T13:39:57Z</time>
      </trkpt>
      <trkpt lat="24.922926607984873" lon="118.55912658517207">
        <ele>9.737555764615536</ele>
        <time>2025-05-09T13:40:03Z</time>
      </trkpt>
      <trkpt lat="24.92270536932335" lon="118.5591528647086">
        <ele>9.048193231225014</ele>
        <time>2025-05-09T13:40:09Z</time>
      </trkpt>
      <trkpt lat="24.92249275233251" lon="118.55915937096759">
        <ele>8.69188622571528</ele>
        <time>2025-05-09T13:40:15Z</time>
      </trkpt>
      <trkpt lat="24.922182138886626" lon="118.5591210769854">
        <ele>10.213977822102606</ele>
        <time>2025-05-09T13:40:24Z</time>
      </trkpt>
      <trkpt lat="24.922047960167447" lon="118.55908882723155">
        <ele>10.462173185311258</ele>
        <time>2025-05-09T13:40:28Z</time>
      </trkpt>
      <trkpt lat="24.921942666514553" lon="118.55911705114973">
        <ele>11.179007645696402</ele>
        <time>2025-05-09T13:40:31Z</time>
      </trkpt>
      <trkpt lat="24.921608565591185" lon="118.55910636084735">
        <ele>12.294757759198546</ele>
        <time>2025-05-09T13:40:42Z</time>
      </trkpt>
      <trkpt lat="24.92144251403163" lon="118.55909796195397">
        <ele>11.971126980148256</ele>
        <time>2025-05-09T13:40:48Z</time>
      </trkpt>
      <trkpt lat="24.921287532251533" lon="118.55916924927662">
        <ele>10.725290801376104</ele>
        <time>2025-05-09T13:40:54Z</time>
      </trkpt>
      <trkpt lat="24.92112702654807" lon="118.5591730581878">
        <ele>10.714448017068207</ele>
        <time>2025-05-09T13:41:00Z</time>
      </trkpt>
      <trkpt lat="24.921032242451236" lon="118.55913528087446">
        <ele>9.260072967037559</ele>
        <time>2025-05-09T13:41:03Z</time>
      </trkpt>
      <trkpt lat="24.920727706511727" lon="118.55912671114618">
        <ele>9.000401203520596</ele>
        <time>2025-05-09T13:41:12Z</time>
      </trkpt>
      <trkpt lat="24.92038554176241" lon="118.55914584539701">
        <ele>9.274908448569477</ele>
        <time>2025-05-09T13:41:24Z</time>
      </trkpt>
      <trkpt lat="24.920028898031283" lon="118.55914845784557">
        <ele>9.930987988598645</ele>
        <time>2025-05-09T13:41:36Z</time>
      </trkpt>
      <trkpt lat="24.91985542760532" lon="118.5591323258215">
        <ele>10.260259854607284</ele>
        <time>2025-05-09T13:41:42Z</time>
      </trkpt>
      <trkpt lat="24.9196414462288" lon="118.55920454336807">
        <ele>10.783655838109553</ele>
        <time>2025-05-09T13:41:51Z</time>
      </trkpt>
      <trkpt lat="24.919568507660465" lon="118.55921299105005">
        <ele>10.20193290989846</ele>
        <time>2025-05-09T13:41:54Z</time>
      </trkpt>
      <trkpt lat="24.919292223169556" lon="118.55916896701973">
        <ele>9.991940534673631</ele>
        <time>2025-05-09T13:42:03Z</time>
      </trkpt>
      <trkpt lat="24.91901831054964" lon="118.55916377343745">
        <ele>10.532036081887782</ele>
        <time>2025-05-09T13:42:12Z</time>
      </trkpt>
      <trkpt lat="24.91866292325834" lon="118.559135280371">
        <ele>9.890741880983114</ele>
        <time>2025-05-09T13:42:24Z</time>
      </trkpt>
      <trkpt lat="24.918571601361336" lon="118.5591549571908">
        <ele>10.401485580950975</ele>
        <time>2025-05-09T13:42:27Z</time>
      </trkpt>
      <trkpt lat="24.91848141133079" lon="118.55914130194239">
        <ele>10.671233043074608</ele>
        <time>2025-05-09T13:42:30Z</time>
      </trkpt>
      <trkpt lat="24.91812988956158" lon="118.55915878205413">
        <ele>10.10558323469013</ele>
        <time>2025-05-09T13:42:41Z</time>
      </trkpt>
      <trkpt lat="24.918043619394247" lon="118.55916192171765">
        <ele>10.276898725889623</ele>
        <time>2025-05-09T13:42:44Z</time>
      </trkpt>
      <trkpt lat="24.91775244467198" lon="118.55913932075713">
        <ele>10.672847771085799</ele>
        <time>2025-05-09T13:42:54Z</time>
      </trkpt>
      <trkpt lat="24.91767637218985" lon="118.5591295265699">
        <ele>11.031805403530598</ele>
        <time>2025-05-09T13:42:57Z</time>
      </trkpt>
      <trkpt lat="24.917596904237595" lon="118.55914346613167">
        <ele>10.757391406223178</ele>
        <time>2025-05-09T13:43:00Z</time>
      </trkpt>
      <trkpt lat="24.917261793873756" lon="118.55916281038586">
        <ele>10.488926046527922</ele>
        <time>2025-05-09T13:43:12Z</time>
      </trkpt>
      <trkpt lat="24.916931932533068" lon="118.55923502659856">
        <ele>10.53807829786092</ele>
        <time>2025-05-09T13:43:24Z</time>
      </trkpt>
      <trkpt lat="24.91663927147696" lon="118.55931443195578">
        <ele>10.122511486522853</ele>
        <time>2025-05-09T13:43:33Z</time>
      </trkpt>
      <trkpt lat="24.916297228062113" lon="118.55943043857872">
        <ele>12.138528131879866</ele>
        <time>2025-05-09T13:43:45Z</time>
      </trkpt>
      <trkpt lat="24.916054991747725" lon="118.55957366169145">
        <ele>12.770264372229576</ele>
        <time>2025-05-09T13:43:54Z</time>
      </trkpt>
      <trkpt lat="24.915748688165774" lon="118.55974066093523">
        <ele>13.334910701029003</ele>
        <time>2025-05-09T13:44:06Z</time>
      </trkpt>
      <trkpt lat="24.91562371847402" lon="118.55981131498257">
        <ele>14.024163458496332</ele>
        <time>2025-05-09T13:44:12Z</time>
      </trkpt>
      <trkpt lat="24.915444330383924" lon="118.55996998760598">
        <ele>14.404879062436521</ele>
        <time>2025-05-09T13:44:21Z</time>
      </trkpt>
      <trkpt lat="24.915267103206503" lon="118.56005436647878">
        <ele>13.948131266981363</ele>
        <time>2025-05-09T13:44:27Z</time>
      </trkpt>
      <trkpt lat="24.915029921235874" lon="118.56021293929976">
        <ele>13.507432932034135</ele>
        <time>2025-05-09T13:44:36Z</time>
      </trkpt>
      <trkpt lat="24.91470811884393" lon="118.56040496926144">
        <ele>12.85624035447836</ele>
        <time>2025-05-09T13:44:47Z</time>
      </trkpt>
      <trkpt lat="24.914451967092482" lon="118.5606153230904">
        <ele>11.98031254298985</ele>
        <time>2025-05-09T13:44:57Z</time>
      </trkpt>
      <trkpt lat="24.914202815451738" lon="118.56076188460453">
        <ele>10.881893719546497</ele>
        <time>2025-05-09T13:45:06Z</time>
      </trkpt>
      <trkpt lat="24.913890682948576" lon="118.56094838426263">
        <ele>9.931385848671198</ele>
        <time>2025-05-09T13:45:18Z</time>
      </trkpt>
      <trkpt lat="24.913637615352457" lon="118.56107449660506">
        <ele>10.806279961019754</ele>
        <time>2025-05-09T13:45:27Z</time>
      </trkpt>
      <trkpt lat="24.91338710548495" lon="118.56123725810036">
        <ele>11.480299822986126</ele>
        <time>2025-05-09T13:45:36Z</time>
      </trkpt>
      <trkpt lat="24.91313686295078" lon="118.56136759072325">
        <ele>11.677226338535547</ele>
        <time>2025-05-09T13:45:45Z</time>
      </trkpt>
      <trkpt lat="24.91279539947227" lon="118.56149381908855">
        <ele>11.347571861930192</ele>
        <time>2025-05-09T13:45:57Z</time>
      </trkpt>
      <trkpt lat="24.912638408723275" lon="118.56156347211254">
        <ele>11.6708212364465</ele>
        <time>2025-05-09T13:46:03Z</time>
      </trkpt>
      <trkpt lat="24.91228262639177" lon="118.56162504784095">
        <ele>12.122886144556105</ele>
        <time>2025-05-09T13:46:15Z</time>
      </trkpt>
      <trkpt lat="24.91199894884247" lon="118.56165375624694">
        <ele>11.878983417525887</ele>
        <time>2025-05-09T13:46:24Z</time>
      </trkpt>
      <trkpt lat="24.911700525018055" lon="118.56164848908118">
        <ele>11.426645593717694</ele>
        <time>2025-05-09T13:46:33Z</time>
      </trkpt>
      <trkpt lat="24.911429848769505" lon="118.56167490024843">
        <ele>11.341058026999235</ele>
        <time>2025-05-09T13:46:42Z</time>
      </trkpt>
      <trkpt lat="24.911076556675134" lon="118.56167119619059">
        <ele>11.571566528640687</ele>
        <time>2025-05-09T13:46:53Z</time>
      </trkpt>
      <trkpt lat="24.91076738454742" lon="118.56169127235805">
        <ele>11.536514893174171</ele>
        <time>2025-05-09T13:47:03Z</time>
      </trkpt>
      <trkpt lat="24.91075037796583" lon="118.56159866457914">
        <ele>12.000775149092078</ele>
        <time>2025-05-09T13:47:06Z</time>
      </trkpt>
      <trkpt lat="24.911050186661626" lon="118.56143070963921">
        <ele>12.151238068938255</ele>
        <time>2025-05-09T13:47:18Z</time>
      </trkpt>
      <trkpt lat="24.911270334040758" lon="118.561314103512">
        <ele>12.623746876604855</ele>
        <time>2025-05-09T13:47:27Z</time>
      </trkpt>
      <trkpt lat="24.911502724873966" lon="118.56125348281049">
        <ele>12.32473995629698</ele>
        <time>2025-05-09T13:47:36Z</time>
      </trkpt>
      <trkpt lat="24.911833935545072" lon="118.56103579922946">
        <ele>14.621227964758873</ele>
        <time>2025-05-09T13:47:48Z</time>
      </trkpt>
      <trkpt lat="24.912091601140443" lon="118.56085074518258">
        <ele>15.276710621081293</ele>
        <time>2025-05-09T13:47:57Z</time>
      </trkpt>
      <trkpt lat="24.91224885506583" lon="118.56074160322883">
        <ele>14.851298820227385</ele>
        <time>2025-05-09T13:48:03Z</time>
      </trkpt>
      <trkpt lat="24.912473165528723" lon="118.56053172390415">
        <ele>14.267675693146884</ele>
        <time>2025-05-09T13:48:12Z</time>
      </trkpt>
      <trkpt lat="24.912588667016717" lon="118.56042841319021">
        <ele>14.380059498362243</ele>
        <time>2025-05-09T13:48:18Z</time>
      </trkpt>
      <trkpt lat="24.912728985181126" lon="118.56024603999907">
        <ele>13.427878212183714</ele>
        <time>2025-05-09T13:48:24Z</time>
      </trkpt>
      <trkpt lat="24.91275549439346" lon="118.56015582041937">
        <ele>12.909044835716486</ele>
        <time>2025-05-09T13:48:27Z</time>
      </trkpt>
      <trkpt lat="24.912890651743925" lon="118.55988036240443">
        <ele>11.922492953017354</ele>
        <time>2025-05-09T13:48:36Z</time>
      </trkpt>
      <trkpt lat="24.91303954973284" lon="118.5595368895642">
        <ele>11.92103832308203</ele>
        <time>2025-05-09T13:48:48Z</time>
      </trkpt>
      <trkpt lat="24.913087195696562" lon="118.55941470667406">
        <ele>11.678999401628971</ele>
        <time>2025-05-09T13:48:52Z</time>
      </trkpt>
      <trkpt lat="24.91315067178929" lon="118.55933149227852">
        <ele>11.916542259044945</ele>
        <time>2025-05-09T13:48:55Z</time>
      </trkpt>
      <trkpt lat="24.913236416253337" lon="118.55925258345687">
        <ele>12.342924295924604</ele>
        <time>2025-05-09T13:48:59Z</time>
      </trkpt>
      <trkpt lat="24.913228364515998" lon="118.55905744630552">
        <ele>12.304900486022234</ele>
        <time>2025-05-09T13:49:06Z</time>
      </trkpt>
      <trkpt lat="24.913249806088906" lon="118.55901823073457">
        <ele>12.333122830837965</ele>
        <time>2025-05-09T13:49:15Z</time>
      </trkpt>
      <trkpt lat="24.913248057911353" lon="118.55900271390692">
        <ele>12.43344206083566</ele>
        <time>2025-05-09T13:49:23Z</time>
      </trkpt>
      <trkpt lat="24.91318874752636" lon="118.55899490019021">
        <ele>12.000074204988778</ele>
        <time>2025-05-09T13:49:26Z</time>
      </trkpt>
      <trkpt lat="24.91308866593685" lon="118.55887635312257">
        <ele>11.400051650591195</ele>
        <time>2025-05-09T13:49:32Z</time>
      </trkpt>
      <trkpt lat="24.913016778347284" lon="118.55881714871114">
        <ele>12.616759883239865</ele>
        <time>2025-05-09T13:49:35Z</time>
      </trkpt>
      <trkpt lat="24.912828149678813" lon="118.55851214216221">
        <ele>11.672644062899053</ele>
        <time>2025-05-09T13:49:47Z</time>
      </trkpt>
      <trkpt lat="24.912699493140877" lon="118.55825026572029">
        <ele>10.873809148557484</ele>
        <time>2025-05-09T13:49:56Z</time>
      </trkpt>
      <trkpt lat="24.912572279295716" lon="118.55789436140196">
        <ele>9.685372724197805</ele>
        <time>2025-05-09T13:50:08Z</time>
      </trkpt>
      <trkpt lat="24.91247757609113" lon="118.55762043260609">
        <ele>8.653675612993538</ele>
        <time>2025-05-09T13:50:17Z</time>
      </trkpt>
      <trkpt lat="24.91232932115448" lon="118.55732948292368">
        <ele>7.069140242412686</ele>
        <time>2025-05-09T13:50:29Z</time>
      </trkpt>
      <trkpt lat="24.9121971302957" lon="118.55702687837308">
        <ele>6.034111340530217</ele>
        <time>2025-05-09T13:50:41Z</time>
      </trkpt>
      <trkpt lat="24.91213452987731" lon="118.5568498915054">
        <ele>5.206012082286179</ele>
        <time>2025-05-09T13:50:53Z</time>
      </trkpt>
      <trkpt lat="24.912024316698044" lon="118.55661944300239">
        <ele>4.869560992345214</ele>
        <time>2025-05-09T13:51:01Z</time>
      </trkpt>
      <trkpt lat="24.91194876798136" lon="118.55652025174025">
        <ele>4.995557041838765</ele>
        <time>2025-05-09T13:51:05Z</time>
      </trkpt>
      <trkpt lat="24.911924348745732" lon="118.55642715420761">
        <ele>5.031267869286239</ele>
        <time>2025-05-09T13:51:08Z</time>
      </trkpt>
      <trkpt lat="24.91186453183665" lon="118.55634069408018">
        <ele>5.012976040132344</ele>
        <time>2025-05-09T13:51:12Z</time>
      </trkpt>
      <trkpt lat="24.91181574194077" lon="118.55609947337861">
        <ele>5.060082966461778</ele>
        <time>2025-05-09T13:51:18Z</time>
      </trkpt>
      <trkpt lat="24.911750806922004" lon="118.55594158913895">
        <ele>4.644802761264145</ele>
        <time>2025-05-09T13:51:24Z</time>
      </trkpt>
      <trkpt lat="24.91170730052404" lon="118.55587201283413">
        <ele>4.779632274992764</ele>
        <time>2025-05-09T13:51:27Z</time>
      </trkpt>
      <trkpt lat="24.911679450655928" lon="118.55578232529885">
        <ele>4.994429883547127</ele>
        <time>2025-05-09T13:51:30Z</time>
      </trkpt>
      <trkpt lat="24.911668397911228" lon="118.5556745680879">
        <ele>4.988721193745732</ele>
        <time>2025-05-09T13:51:33Z</time>
      </trkpt>
      <trkpt lat="24.91157503276713" lon="118.555356207287">
        <ele>6.40415293071419</ele>
        <time>2025-05-09T13:51:42Z</time>
      </trkpt>
      <trkpt lat="24.91155816999264" lon="118.5552407539458">
        <ele>7.214097327552736</ele>
        <time>2025-05-09T13:51:45Z</time>
      </trkpt>
      <trkpt lat="24.91148943194841" lon="118.55505811217398">
        <ele>6.981564427725971</ele>
        <time>2025-05-09T13:51:51Z</time>
      </trkpt>
      <trkpt lat="24.911454677471685" lon="118.55500602513034">
        <ele>7.077268552966416</ele>
        <time>2025-05-09T13:51:54Z</time>
      </trkpt>
      <trkpt lat="24.91138779610227" lon="118.55499612102257">
        <ele>6.360898247919977</ele>
        <time>2025-05-09T13:51:57Z</time>
      </trkpt>
      <trkpt lat="24.91133434471887" lon="118.55476633795989">
        <ele>7.386773327365518</ele>
        <time>2025-05-09T13:52:06Z</time>
      </trkpt>
      <trkpt lat="24.911313978868613" lon="118.55455054394817">
        <ele>7.728580034337938</ele>
        <time>2025-05-09T13:52:12Z</time>
      </trkpt>
      <trkpt lat="24.91117369212343" lon="118.55419455743207">
        <ele>8.15997064858675</ele>
        <time>2025-05-09T13:52:24Z</time>
      </trkpt>
      <trkpt lat="24.911032524486064" lon="118.55390417871847">
        <ele>8.037434504367411</ele>
        <time>2025-05-09T13:52:33Z</time>
      </trkpt>
      <trkpt lat="24.91089964568804" lon="118.55365016566242">
        <ele>7.521115656942129</ele>
        <time>2025-05-09T13:52:42Z</time>
      </trkpt>
      <trkpt lat="24.910794406747012" lon="118.55334192329947">
        <ele>7.793160079047084</ele>
        <time>2025-05-09T13:52:51Z</time>
      </trkpt>
      <trkpt lat="24.910735332955667" lon="118.55324233677055">
        <ele>7.631356604397297</ele>
        <time>2025-05-09T13:52:54Z</time>
      </trkpt>
      <trkpt lat="24.91066113079819" lon="118.55319370734051">
        <ele>7.159898917190731</ele>
        <time>2025-05-09T13:52:57Z</time>
      </trkpt>
      <trkpt lat="24.91050156291286" lon="118.5528802185625">
        <ele>7.678142098709941</ele>
        <time>2025-05-09T13:53:07Z</time>
      </trkpt>
      <trkpt lat="24.91046223034252" lon="118.55278800663177">
        <ele>7.578233817592263</ele>
        <time>2025-05-09T13:53:10Z</time>
      </trkpt>
      <trkpt lat="24.91045310760516" lon="118.55260610059028">
        <ele>8.137653167359531</ele>
        <time>2025-05-09T13:53:16Z</time>
      </trkpt>
      <trkpt lat="24.910355140341355" lon="118.5522569911352">
        <ele>7.605969366617501</ele>
        <time>2025-05-09T13:53:28Z</time>
      </trkpt>
      <trkpt lat="24.91026138398117" lon="118.55201558310267">
        <ele>8.225271176546812</ele>
        <time>2025-05-09T13:53:37Z</time>
      </trkpt>
      <trkpt lat="24.910240676633745" lon="118.55190888592986">
        <ele>7.846400762908161</ele>
        <time>2025-05-09T13:53:40Z</time>
      </trkpt>
      <trkpt lat="24.910170540726913" lon="118.55175102615792">
        <ele>7.81029733736068</ele>
        <time>2025-05-09T13:53:46Z</time>
      </trkpt>
      <trkpt lat="24.910153067003176" lon="118.55166865665934">
        <ele>7.653576393611729</ele>
        <time>2025-05-09T13:53:49Z</time>
      </trkpt>
      <trkpt lat="24.910022431492067" lon="118.55138950825224">
        <ele>7.246551487594843</ele>
        <time>2025-05-09T13:53:58Z</time>
      </trkpt>
      <trkpt lat="24.90996745470999" lon="118.55122285382419">
        <ele>7.245004392229021</ele>
        <time>2025-05-09T13:54:04Z</time>
      </trkpt>
      <trkpt lat="24.909885429582182" lon="118.55106866489363">
        <ele>8.130470987409353</ele>
        <time>2025-05-09T13:54:10Z</time>
      </trkpt>
      <trkpt lat="24.909809300222314" lon="118.55097766456826">
        <ele>8.469764769077301</ele>
        <time>2025-05-09T13:54:13Z</time>
      </trkpt>
      <trkpt lat="24.90971422236987" lon="118.55080046015931">
        <ele>7.451671668328345</ele>
        <time>2025-05-09T13:54:19Z</time>
      </trkpt>
      <trkpt lat="24.909659551284378" lon="118.55058974836304">
        <ele>6.978406277485192</ele>
        <time>2025-05-09T13:54:25Z</time>
      </trkpt>
      <trkpt lat="24.909663223090252" lon="118.55049875092983">
        <ele>8.015949015505612</ele>
        <time>2025-05-09T13:54:28Z</time>
      </trkpt>
      <trkpt lat="24.909481222396906" lon="118.55016992788603">
        <ele>7.254663143306971</ele>
        <time>2025-05-09T13:54:40Z</time>
      </trkpt>
      <trkpt lat="24.90934154774824" lon="118.54982372270878">
        <ele>7.5067841643467546</ele>
        <time>2025-05-09T13:54:52Z</time>
      </trkpt>
      <trkpt lat="24.90923622269506" lon="118.54964216763842">
        <ele>8.052857676520944</ele>
        <time>2025-05-09T13:54:58Z</time>
      </trkpt>
      <trkpt lat="24.909189296517948" lon="118.54935750392413">
        <ele>7.4721787348389626</ele>
        <time>2025-05-09T13:55:07Z</time>
      </trkpt>
      <trkpt lat="24.90907999412083" lon="118.54901915530266">
        <ele>8.165350385010242</ele>
        <time>2025-05-09T13:55:17Z</time>
      </trkpt>
      <trkpt lat="24.908948551799206" lon="118.54870773755248">
        <ele>6.998281372711062</ele>
        <time>2025-05-09T13:55:27Z</time>
      </trkpt>
      <trkpt lat="24.908763123602874" lon="118.54836561382261">
        <ele>7.819860707968473</ele>
        <time>2025-05-09T13:55:39Z</time>
      </trkpt>
      <trkpt lat="24.90869966487632" lon="118.54816249280972">
        <ele>7.50522224791348</ele>
        <time>2025-05-09T13:55:45Z</time>
      </trkpt>
      <trkpt lat="24.90866682880656" lon="118.54796699266912">
        <ele>7.152790394611657</ele>
        <time>2025-05-09T13:55:51Z</time>
      </trkpt>
      <trkpt lat="24.908566147230292" lon="118.54767432813381">
        <ele>8.037694885395467</ele>
        <time>2025-05-09T13:56:00Z</time>
      </trkpt>
      <trkpt lat="24.9084569692672" lon="118.54740151627955">
        <ele>7.576411552727222</ele>
        <time>2025-05-09T13:56:09Z</time>
      </trkpt>
      <trkpt lat="24.9083990993116" lon="118.54740343497723">
        <ele>8.031896129250526</ele>
        <time>2025-05-09T13:56:12Z</time>
      </trkpt>
      <trkpt lat="24.908525069465345" lon="118.5477285704996">
        <ele>8.39450120087713</ele>
        <time>2025-05-09T13:56:27Z</time>
      </trkpt>
      <trkpt lat="24.90855909751768" lon="118.54782593444888">
        <ele>8.957114799879491</ele>
        <time>2025-05-09T13:56:33Z</time>
      </trkpt>
      <trkpt lat="24.908607870497566" lon="118.5478318037109">
        <ele>7.867368724197149</ele>
        <time>2025-05-09T13:56:36Z</time>
      </trkpt>
      <trkpt lat="24.908666113509877" lon="118.54778593910648">
        <ele>8.183079838752747</ele>
        <time>2025-05-09T13:56:39Z</time>
      </trkpt>
      <trkpt lat="24.908782317383327" lon="118.54773241047113">
        <ele>7.913822469301522</ele>
        <time>2025-05-09T13:56:45Z</time>
      </trkpt>
      <trkpt lat="24.908827984293474" lon="118.5476817340065">
        <ele>7.384530973620713</ele>
        <time>2025-05-09T13:56:48Z</time>
      </trkpt>
      <trkpt lat="24.90873885004135" lon="118.54735345955179">
        <ele>6.523581750690937</ele>
        <time>2025-05-09T13:57:06Z</time>
      </trkpt>
      <trkpt lat="24.908644445279926" lon="118.54705849471948">
        <ele>6.793423730880022</ele>
        <time>2025-05-09T13:57:19Z</time>
      </trkpt>
      <trkpt lat="24.908503318618333" lon="118.54676717908549">
        <ele>6.703832880593836</ele>
        <time>2025-05-09T13:57:32Z</time>
      </trkpt>
      <trkpt lat="24.908470806884452" lon="118.54665423643758">
        <ele>6.592295782640576</ele>
        <time>2025-05-09T13:57:35Z</time>
      </trkpt>
      <trkpt lat="24.908331822596473" lon="118.5463637635147">
        <ele>7.6371238101273775</ele>
        <time>2025-05-09T13:57:44Z</time>
      </trkpt>
      <trkpt lat="24.908206119760795" lon="118.5460777935148">
        <ele>8.14452501013875</ele>
        <time>2025-05-09T13:57:53Z</time>
      </trkpt>
      <trkpt lat="24.908140568906937" lon="118.54588363798699">
        <ele>8.087308807298541</ele>
        <time>2025-05-09T13:57:59Z</time>
      </trkpt>
      <trkpt lat="24.908065770914643" lon="118.54571291622082">
        <ele>7.626351867802441</ele>
        <time>2025-05-09T13:58:05Z</time>
      </trkpt>
      <trkpt lat="24.907977974396683" lon="118.5454166181766">
        <ele>7.6790296621620655</ele>
        <time>2025-05-09T13:58:15Z</time>
      </trkpt>
      <trkpt lat="24.9078570603503" lon="118.54509161211483">
        <ele>7.6263852855190635</ele>
        <time>2025-05-09T13:58:27Z</time>
      </trkpt>
      <trkpt lat="24.90782220527532" lon="118.54497398853294">
        <ele>7.967378250323236</ele>
        <time>2025-05-09T13:58:31Z</time>
      </trkpt>
      <trkpt lat="24.9076037290902" lon="118.54465833845977">
        <ele>8.389149626716971</ele>
        <time>2025-05-09T13:58:43Z</time>
      </trkpt>
      <trkpt lat="24.907571727141324" lon="118.54456609695448">
        <ele>7.889847709797323</ele>
        <time>2025-05-09T13:58:46Z</time>
      </trkpt>
      <trkpt lat="24.907495945961507" lon="118.54423199181181">
        <ele>7.293196459300816</ele>
        <time>2025-05-09T13:58:55Z</time>
      </trkpt>
      <trkpt lat="24.907497892327505" lon="118.54412562971702">
        <ele>7.805283994413912</ele>
        <time>2025-05-09T13:58:58Z</time>
      </trkpt>
      <trkpt lat="24.907526675470077" lon="118.54401793688369">
        <ele>7.71390872169286</ele>
        <time>2025-05-09T13:59:01Z</time>
      </trkpt>
      <trkpt lat="24.907640695126954" lon="118.54385390313638">
        <ele>7.274779302999377</ele>
        <time>2025-05-09T13:59:07Z</time>
      </trkpt>
      <trkpt lat="24.90778418319112" lon="118.54377510361144">
        <ele>7.674689341336489</ele>
        <time>2025-05-09T13:59:13Z</time>
      </trkpt>
      <trkpt lat="24.908106537466647" lon="118.54373035410308">
        <ele>7.094079095870256</ele>
        <time>2025-05-09T13:59:26Z</time>
      </trkpt>
      <trkpt lat="24.908476764324778" lon="118.543752956478">
        <ele>7.342400519177318</ele>
        <time>2025-05-09T13:59:38Z</time>
      </trkpt>
      <trkpt lat="24.9087561872533" lon="118.54373962882676">
        <ele>7.363954693078995</ele>
        <time>2025-05-09T13:59:47Z</time>
      </trkpt>
      <trkpt lat="24.909074939850235" lon="118.5436797969602">
        <ele>7.820883857086301</ele>
        <time>2025-05-09T13:59:59Z</time>
      </trkpt>
      <trkpt lat="24.90913947747948" lon="118.5436558503946">
        <ele>7.8564974796026945</ele>
        <time>2025-05-09T14:00:02Z</time>
      </trkpt>
      <trkpt lat="24.909223034563308" lon="118.54365540838916">
        <ele>8.034032450988889</ele>
        <time>2025-05-09T14:00:05Z</time>
      </trkpt>
      <trkpt lat="24.90941139328225" lon="118.5437105164702">
        <ele>7.3974713906645775</ele>
        <time>2025-05-09T14:00:11Z</time>
      </trkpt>
      <trkpt lat="24.90972488880426" lon="118.5437076018023">
        <ele>7.5216185469180346</ele>
        <time>2025-05-09T14:00:20Z</time>
      </trkpt>
      <trkpt lat="24.91001721997626" lon="118.54370838794254">
        <ele>7.46735043078661</ele>
        <time>2025-05-09T14:00:32Z</time>
      </trkpt>
      <trkpt lat="24.910103087703856" lon="118.54369044435738">
        <ele>7.676440296694636</ele>
        <time>2025-05-09T14:00:35Z</time>
      </trkpt>
      <trkpt lat="24.910460396263367" lon="118.54368222234504">
        <ele>8.008936532773077</ele>
        <time>2025-05-09T14:00:47Z</time>
      </trkpt>
      <trkpt lat="24.91075722373823" lon="118.54367190710623">
        <ele>7.577846430242062</ele>
        <time>2025-05-09T14:00:56Z</time>
      </trkpt>
      <trkpt lat="24.91085202446278" lon="118.54369098687914">
        <ele>7.9046534188091755</ele>
        <time>2025-05-09T14:00:59Z</time>
      </trkpt>
      <trkpt lat="24.910902309003628" lon="118.54364313238399">
        <ele>8.200808460824192</ele>
        <time>2025-05-09T14:01:02Z</time>
      </trkpt>
      <trkpt lat="24.910902418247307" lon="118.54357513952135">
        <ele>7.308278001844883</ele>
        <time>2025-05-09T14:01:05Z</time>
      </trkpt>
      <trkpt lat="24.91082472512208" lon="118.54340539317701">
        <ele>7.264700224623084</ele>
        <time>2025-05-09T14:01:11Z</time>
      </trkpt>
      <trkpt lat="24.910778608024184" lon="118.54334529672867">
        <ele>7.616086863912642</ele>
        <time>2025-05-09T14:01:14Z</time>
      </trkpt>
      <trkpt lat="24.910423674991556" lon="118.54330363825943">
        <ele>7.3401770275086164</ele>
        <time>2025-05-09T14:01:27Z</time>
      </trkpt>
      <trkpt lat="24.910329373968295" lon="118.54332438358034">
        <ele>7.203236692585051</ele>
        <time>2025-05-09T14:01:30Z</time>
      </trkpt>
      <trkpt lat="24.910283233912914" lon="118.54327566764023">
        <ele>8.049858855083585</ele>
        <time>2025-05-09T14:01:33Z</time>
      </trkpt>
      <trkpt lat="24.910317091535056" lon="118.54315978894118">
        <ele>7.21456562820822</ele>
        <time>2025-05-09T14:01:37Z</time>
      </trkpt>
      <trkpt lat="24.910303640970163" lon="118.54293837732077">
        <ele>7.4351597633212805</ele>
        <time>2025-05-09T14:01:44Z</time>
      </trkpt>
      <trkpt lat="24.910356703729555" lon="118.54257082233798">
        <ele>7.6956492541357875</ele>
        <time>2025-05-09T14:01:56Z</time>
      </trkpt>
      <trkpt lat="24.910331668860568" lon="118.54224767805609">
        <ele>7.62289216555655</ele>
        <time>2025-05-09T14:02:05Z</time>
      </trkpt>
      <trkpt lat="24.910339752796194" lon="118.54192502256025">
        <ele>7.342131590470672</ele>
        <time>2025-05-09T14:02:14Z</time>
      </trkpt>
      <trkpt lat="24.91038501895072" lon="118.54166018740439">
        <ele>7.511606089770794</ele>
        <time>2025-05-09T14:02:23Z</time>
      </trkpt>
      <trkpt lat="24.910335857631054" lon="118.54139147484851">
        <ele>7.905773440375924</ele>
        <time>2025-05-09T14:02:29Z</time>
      </trkpt>
      <trkpt lat="24.91032804021173" lon="118.54127268834199">
        <ele>7.738179804757237</ele>
        <time>2025-05-09T14:02:32Z</time>
      </trkpt>
      <trkpt lat="24.91037835925561" lon="118.54115810472702">
        <ele>7.415190415456891</ele>
        <time>2025-05-09T14:02:35Z</time>
      </trkpt>
      <trkpt lat="24.91040253220709" lon="118.5410520724851">
        <ele>7.582308068871498</ele>
        <time>2025-05-09T14:02:38Z</time>
      </trkpt>
      <trkpt lat="24.91046628027206" lon="118.54096964916145">
        <ele>7.519636498764157</ele>
        <time>2025-05-09T14:02:41Z</time>
      </trkpt>
      <trkpt lat="24.910556433579863" lon="118.54089632764394">
        <ele>7.062331201508641</ele>
        <time>2025-05-09T14:02:44Z</time>
      </trkpt>
      <trkpt lat="24.910742134848" lon="118.54058943244998">
        <ele>7.7320028366521</ele>
        <time>2025-05-09T14:02:56Z</time>
      </trkpt>
      <trkpt lat="24.91078809536888" lon="118.54051112356277">
        <ele>7.7064721481874585</ele>
        <time>2025-05-09T14:02:59Z</time>
      </trkpt>
      <trkpt lat="24.910886105029192" lon="118.54015339683733">
        <ele>7.773586331866682</ele>
        <time>2025-05-09T14:03:11Z</time>
      </trkpt>
      <trkpt lat="24.910929524475527" lon="118.53988724596162">
        <ele>7.464241722598672</ele>
        <time>2025-05-09T14:03:20Z</time>
      </trkpt>
      <trkpt lat="24.91101260896492" lon="118.53971563623014">
        <ele>7.2750386809930205</ele>
        <time>2025-05-09T14:03:26Z</time>
      </trkpt>
      <trkpt lat="24.91110169682892" lon="118.53939842881073">
        <ele>7.271220967173576</ele>
        <time>2025-05-09T14:03:36Z</time>
      </trkpt>
      <trkpt lat="24.911138587110703" lon="118.539316852436">
        <ele>7.612190802581608</ele>
        <time>2025-05-09T14:03:39Z</time>
      </trkpt>
      <trkpt lat="24.911168526609053" lon="118.53907824537445">
        <ele>7.797355153597891</ele>
        <time>2025-05-09T14:03:46Z</time>
      </trkpt>
      <trkpt lat="24.911210694503318" lon="118.53897720749143">
        <ele>8.445833967067301</ele>
        <time>2025-05-09T14:03:49Z</time>
      </trkpt>
      <trkpt lat="24.911229528637126" lon="118.53888024277924">
        <ele>8.303372661583126</ele>
        <time>2025-05-09T14:03:52Z</time>
      </trkpt>
      <trkpt lat="24.9112294497678" lon="118.53878478287287">
        <ele>8.551356041803956</ele>
        <time>2025-05-09T14:03:55Z</time>
      </trkpt>
      <trkpt lat="24.911150758470946" lon="118.53872050558813">
        <ele>9.680280555970967</ele>
        <time>2025-05-09T14:03:58Z</time>
      </trkpt>
      <trkpt lat="24.910874299130583" lon="118.5386498460156">
        <ele>9.11733565479517</ele>
        <time>2025-05-09T14:04:07Z</time>
      </trkpt>
      <trkpt lat="24.91082139722504" lon="118.53856745013344">
        <ele>9.042957033030689</ele>
        <time>2025-05-09T14:04:10Z</time>
      </trkpt>
      <trkpt lat="24.91082990092897" lon="118.53847936687525">
        <ele>9.830755660310388</ele>
        <time>2025-05-09T14:04:13Z</time>
      </trkpt>
      <trkpt lat="24.910867899897536" lon="118.53839130870276">
        <ele>10.062718189321458</ele>
        <time>2025-05-09T14:04:16Z</time>
      </trkpt>
      <trkpt lat="24.910941851971522" lon="118.53809814993592">
        <ele>10.162330787628889</ele>
        <time>2025-05-09T14:04:25Z</time>
      </trkpt>
      <trkpt lat="24.910983077072025" lon="118.53792813113992">
        <ele>10.567690456286073</ele>
        <time>2025-05-09T14:04:31Z</time>
      </trkpt>
      <trkpt lat="24.91112419062703" lon="118.53767449367845">
        <ele>9.494917819276452</ele>
        <time>2025-05-09T14:04:40Z</time>
      </trkpt>
      <trkpt lat="24.911189909308035" lon="118.53759030510713">
        <ele>10.301786595955491</ele>
        <time>2025-05-09T14:04:43Z</time>
      </trkpt>
      <trkpt lat="24.91133035695164" lon="118.5373027303911">
        <ele>10.506051257252693</ele>
        <time>2025-05-09T14:04:52Z</time>
      </trkpt>
      <trkpt lat="24.911431211543025" lon="118.53701421164118">
        <ele>10.970478096976876</ele>
        <time>2025-05-09T14:05:01Z</time>
      </trkpt>
      <trkpt lat="24.911445054166546" lon="118.53692235419851">
        <ele>10.76058157440275</ele>
        <time>2025-05-09T14:05:04Z</time>
      </trkpt>
      <trkpt lat="24.911395502613026" lon="118.53681512910501">
        <ele>11.679028013721108</ele>
        <time>2025-05-09T14:05:07Z</time>
      </trkpt>
      <trkpt lat="24.911419848927643" lon="118.53672643886259">
        <ele>11.930093445815146</ele>
        <time>2025-05-09T14:05:10Z</time>
      </trkpt>
      <trkpt lat="24.91134835319852" lon="118.53667167115766">
        <ele>12.21718381345272</ele>
        <time>2025-05-09T14:05:16Z</time>
      </trkpt>
      <trkpt lat="24.91126591256203" lon="118.53663564311104">
        <ele>12.714967844076455</ele>
        <time>2025-05-09T14:05:19Z</time>
      </trkpt>
    </trkseg>
  </trk>
</gpx>