<?xml version="1.0" encoding="UTF-8"?>
<gpx xmlns="http://www.topografix.com/GPX/1/1" xmlns:gpxtpx="http://www.garmin.com/xmlschemas/TrackPointExtension/v1" xmlns:xsi="http://www.w3.org/2001/XMLSchema-instance" xsi:schemaLocation="http://www.topografix.com/GPX/1/1 http://www.topografix.com/GPX/1/1/gpx.xsd" version="1.1" creator="gpx.py -- https://github.com/tkrajina/gpxpy">
  <trk>
    <name>gpx from keep</name>
    <type>Run</type>
    <trkseg>
      <trkpt lat="24.910754322870194" lon="118.53861873848658">
        <ele>9.632653192086064</ele>
        <time>2024-06-24T14:01:02Z</time>
      </trkpt>
      <trkpt lat="24.910470954241212" lon="118.53858599931891">
        <ele>9.843949753791094</ele>
        <time>2024-06-24T14:01:12Z</time>
      </trkpt>
      <trkpt lat="24.910379159089548" lon="118.53851029180105">
        <ele>9.22494347114116</ele>
        <time>2024-06-24T14:01:15Z</time>
      </trkpt>
      <trkpt lat="24.910066153594016" lon="118.53840365507205">
        <ele>9.411581085063517</ele>
        <time>2024-06-24T14:01:24Z</time>
      </trkpt>
      <trkpt lat="24.909971608664417" lon="118.538389856361">
        <ele>9.503755134530365</ele>
        <time>2024-06-24T14:01:27Z</time>
      </trkpt>
      <trkpt lat="24.909702662468867" lon="118.53839900952279">
        <ele>7.915740965865552</ele>
        <time>2024-06-24T14:01:36Z</time>
      </trkpt>
      <trkpt lat="24.909512139580162" lon="118.53836155895057">
        <ele>7.669233073480427</ele>
        <time>2024-06-24T14:01:42Z</time>
      </trkpt>
      <trkpt lat="24.909408019090872" lon="118.53837521788874">
        <ele>7.146355534903705</ele>
        <time>2024-06-24T14:01:45Z</time>
      </trkpt>
      <trkpt lat="24.909305332132234" lon="118.53836790019221">
        <ele>8.117757238447666</ele>
        <time>2024-06-24T14:01:48Z</time>
      </trkpt>
      <trkpt lat="24.90923707917526" lon="118.53831944663466">
        <ele>7.547350057400763</ele>
        <time>2024-06-24T14:01:51Z</time>
      </trkpt>
      <trkpt lat="24.909191321426285" lon="118.53825003391424">
        <ele>7.701643110252917</ele>
        <time>2024-06-24T14:01:54Z</time>
      </trkpt>
      <trkpt lat="24.909184909821843" lon="118.53815627023126">
        <ele>8.213844881393015</ele>
        <time>2024-06-24T14:01:57Z</time>
      </trkpt>
      <trkpt lat="24.90922791615566" lon="118.53798339160606">
        <ele>7.315148359164596</ele>
        <time>2024-06-24T14:02:03Z</time>
      </trkpt>
      <trkpt lat="24.90937606783723" lon="118.53803417768637">
        <ele>8.24183316808194</ele>
        <time>2024-06-24T14:02:48Z</time>
      </trkpt>
      <trkpt lat="24.90944317323085" lon="118.53792879563912">
        <ele>7.86977126263082</ele>
        <time>2024-06-24T14:02:54Z</time>
      </trkpt>
      <trkpt lat="24.90947250567683" lon="118.53780618138222">
        <ele>8.412077319808304</ele>
        <time>2024-06-24T14:02:57Z</time>
      </trkpt>
      <trkpt lat="24.909468687857647" lon="118.5375407940697">
        <ele>8.732701351866126</ele>
        <time>2024-06-24T14:03:03Z</time>
      </trkpt>
      <trkpt lat="24.909564072577002" lon="118.53715492995816">
        <ele>9.742023892700672</ele>
        <time>2024-06-24T14:03:14Z</time>
      </trkpt>
      <trkpt lat="24.909589553508088" lon="118.53705409143839">
        <ele>9.150310587137938</ele>
        <time>2024-06-24T14:03:17Z</time>
      </trkpt>
      <trkpt lat="24.90946671324901" lon="118.53687815509919">
        <ele>8.946274447254837</ele>
        <time>2024-06-24T14:03:23Z</time>
      </trkpt>
      <trkpt lat="24.90953127320133" lon="118.53654492556817">
        <ele>9.2284559533</ele>
        <time>2024-06-24T14:03:32Z</time>
      </trkpt>
      <trkpt lat="24.90958280428737" lon="118.5363464631071">
        <ele>8.830321605317295</ele>
        <time>2024-06-24T14:03:38Z</time>
      </trkpt>
      <trkpt lat="24.909632110749506" lon="118.53605287663719">
        <ele>9.711047554388642</ele>
        <time>2024-06-24T14:03:47Z</time>
      </trkpt>
      <trkpt lat="24.909668798644464" lon="118.53572392960653">
        <ele>9.483297635801136</ele>
        <time>2024-06-24T14:03:56Z</time>
      </trkpt>
      <trkpt lat="24.909719306590784" lon="118.5353693596426">
        <ele>9.637541510164738</ele>
        <time>2024-06-24T14:04:05Z</time>
      </trkpt>
      <trkpt lat="24.909739258109894" lon="118.5352553117666">
        <ele>9.329391044564545</ele>
        <time>2024-06-24T14:04:08Z</time>
      </trkpt>
      <trkpt lat="24.90974967936622" lon="118.53493846103014">
        <ele>8.574825719930232</ele>
        <time>2024-06-24T14:04:17Z</time>
      </trkpt>
      <trkpt lat="24.909769581700097" lon="118.53484878106808">
        <ele>8.387141433544457</ele>
        <time>2024-06-24T14:04:20Z</time>
      </trkpt>
      <trkpt lat="24.90984543194007" lon="118.53485077143455">
        <ele>7.786313476972282</ele>
        <time>2024-06-24T14:04:23Z</time>
      </trkpt>
      <trkpt lat="24.91001527682367" lon="118.53494007068645">
        <ele>8.140034891664982</ele>
        <time>2024-06-24T14:04:29Z</time>
      </trkpt>
      <trkpt lat="24.9102002179688" lon="118.53498698295589">
        <ele>9.49773336853832</ele>
        <time>2024-06-24T14:04:35Z</time>
      </trkpt>
      <trkpt lat="24.91046996228562" lon="118.53512914401155">
        <ele>9.84929595887661</ele>
        <time>2024-06-24T14:04:44Z</time>
      </trkpt>
      <trkpt lat="24.910659953228595" lon="118.53520047563492">
        <ele>9.749059354886413</ele>
        <time>2024-06-24T14:04:50Z</time>
      </trkpt>
      <trkpt lat="24.910923342879457" lon="118.53535063971219">
        <ele>10.441386836580932</ele>
        <time>2024-06-24T14:04:59Z</time>
      </trkpt>
      <trkpt lat="24.911206539279927" lon="118.53544989233096">
        <ele>10.57647852320224</ele>
        <time>2024-06-24T14:05:08Z</time>
      </trkpt>
      <trkpt lat="24.911534585287292" lon="118.53556107637182">
        <ele>9.971301710233092</ele>
        <time>2024-06-24T14:05:19Z</time>
      </trkpt>
      <trkpt lat="24.91186828101819" lon="118.53574492735548">
        <ele>10.141191550530493</ele>
        <time>2024-06-24T14:05:30Z</time>
      </trkpt>
      <trkpt lat="24.91214569912736" lon="118.53584317486873">
        <ele>9.488858208060265</ele>
        <time>2024-06-24T14:05:39Z</time>
      </trkpt>
      <trkpt lat="24.912388839584377" lon="118.53599170624473">
        <ele>9.867393210530281</ele>
        <time>2024-06-24T14:05:48Z</time>
      </trkpt>
      <trkpt lat="24.912649511444844" lon="118.53612935941376">
        <ele>9.515605626627803</ele>
        <time>2024-06-24T14:06:00Z</time>
      </trkpt>
      <trkpt lat="24.91286580998495" lon="118.53615862187365">
        <ele>10.547070885077119</ele>
        <time>2024-06-24T14:06:15Z</time>
      </trkpt>
      <trkpt lat="24.91313191294245" lon="118.53631197539123">
        <ele>11.239616255275905</ele>
        <time>2024-06-24T14:06:24Z</time>
      </trkpt>
      <trkpt lat="24.913321890218942" lon="118.53638862333011">
        <ele>12.562276265583932</ele>
        <time>2024-06-24T14:06:30Z</time>
      </trkpt>
      <trkpt lat="24.913425698774127" lon="118.53641116586014">
        <ele>13.274849653244019</ele>
        <time>2024-06-24T14:06:33Z</time>
      </trkpt>
      <trkpt lat="24.91372264601643" lon="118.5365384037488">
        <ele>13.205258535221219</ele>
        <time>2024-06-24T14:06:42Z</time>
      </trkpt>
      <trkpt lat="24.91399966614304" lon="118.53669604021776">
        <ele>12.973435291089118</ele>
        <time>2024-06-24T14:06:51Z</time>
      </trkpt>
      <trkpt lat="24.914288887132173" lon="118.53681736427143">
        <ele>12.50024950131774</ele>
        <time>2024-06-24T14:07:00Z</time>
      </trkpt>
      <trkpt lat="24.914617376403637" lon="118.53697121062748">
        <ele>13.323796767741442</ele>
        <time>2024-06-24T14:07:12Z</time>
      </trkpt>
      <trkpt lat="24.914807114259318" lon="118.53702147615516">
        <ele>15.19317119102925</ele>
        <time>2024-06-24T14:07:18Z</time>
      </trkpt>
      <trkpt lat="24.91501311281303" lon="118.53711364482562">
        <ele>15.594136853702366</ele>
        <time>2024-06-24T14:07:26Z</time>
      </trkpt>
      <trkpt lat="24.915124227998398" lon="118.5371978470214">
        <ele>14.852657905779779</ele>
        <time>2024-06-24T14:07:30Z</time>
      </trkpt>
      <trkpt lat="24.91528076414775" lon="118.53754080094532">
        <ele>15.70401568338275</ele>
        <time>2024-06-24T14:07:41Z</time>
      </trkpt>
      <trkpt lat="24.915408510271693" lon="118.53780845370386">
        <ele>15.469050869345665</ele>
        <time>2024-06-24T14:07:50Z</time>
      </trkpt>
      <trkpt lat="24.9155153236425" lon="118.53810554954197">
        <ele>15.493633622303605</ele>
        <time>2024-06-24T14:07:59Z</time>
      </trkpt>
      <trkpt lat="24.91555413924951" lon="118.53818028590607">
        <ele>15.268697866238654</ele>
        <time>2024-06-24T14:08:02Z</time>
      </trkpt>
      <trkpt lat="24.915649385761842" lon="118.53846683997887">
        <ele>16.11823229212314</ele>
        <time>2024-06-24T14:08:11Z</time>
      </trkpt>
      <trkpt lat="24.9157618760118" lon="118.53877878456093">
        <ele>15.379671745933592</ele>
        <time>2024-06-24T14:08:20Z</time>
      </trkpt>
      <trkpt lat="24.91580843311651" lon="118.53900307000643">
        <ele>15.062952192500234</ele>
        <time>2024-06-24T14:08:26Z</time>
      </trkpt>
      <trkpt lat="24.915905702636326" lon="118.53928383975396">
        <ele>14.119002416729927</ele>
        <time>2024-06-24T14:08:35Z</time>
      </trkpt>
      <trkpt lat="24.915967303864395" lon="118.53949006171504">
        <ele>14.162813600152731</ele>
        <time>2024-06-24T14:08:41Z</time>
      </trkpt>
      <trkpt lat="24.91603213141228" lon="118.53981255454838">
        <ele>13.252024168148637</ele>
        <time>2024-06-24T14:08:50Z</time>
      </trkpt>
      <trkpt lat="24.91612782155409" lon="118.54013331764828">
        <ele>12.639364688657224</ele>
        <time>2024-06-24T14:08:59Z</time>
      </trkpt>
      <trkpt lat="24.91620134678212" lon="118.540334346792">
        <ele>12.75562288891524</ele>
        <time>2024-06-24T14:09:05Z</time>
      </trkpt>
      <trkpt lat="24.916221221563593" lon="118.540455465734">
        <ele>12.284917751327157</ele>
        <time>2024-06-24T14:09:08Z</time>
      </trkpt>
      <trkpt lat="24.91625650469126" lon="118.54055755580606">
        <ele>12.128427422605455</ele>
        <time>2024-06-24T14:09:11Z</time>
      </trkpt>
      <trkpt lat="24.916269458176295" lon="118.54066753546246">
        <ele>12.061888800933957</ele>
        <time>2024-06-24T14:09:14Z</time>
      </trkpt>
      <trkpt lat="24.916300646320224" lon="118.54077405141389">
        <ele>12.101932771503925</ele>
        <time>2024-06-24T14:09:17Z</time>
      </trkpt>
      <trkpt lat="24.916318463925922" lon="118.54096451831933">
        <ele>12.998349477536976</ele>
        <time>2024-06-24T14:09:23Z</time>
      </trkpt>
      <trkpt lat="24.916351817979866" lon="118.54109035948076">
        <ele>12.797267574816942</ele>
        <time>2024-06-24T14:09:27Z</time>
      </trkpt>
      <trkpt lat="24.916413614976964" lon="118.54121120234747">
        <ele>13.0492163868621</ele>
        <time>2024-06-24T14:09:31Z</time>
      </trkpt>
      <trkpt lat="24.91641897596655" lon="118.54136055836871">
        <ele>13.176004942506552</ele>
        <time>2024-06-24T14:09:35Z</time>
      </trkpt>
      <trkpt lat="24.916465663279066" lon="118.5414838118983">
        <ele>12.311198469251394</ele>
        <time>2024-06-24T14:09:39Z</time>
      </trkpt>
      <trkpt lat="24.916488435965817" lon="118.54163174886406">
        <ele>12.64341226220131</ele>
        <time>2024-06-24T14:09:43Z</time>
      </trkpt>
      <trkpt lat="24.91643707203263" lon="118.54184324512526">
        <ele>12.015105783008039</ele>
        <time>2024-06-24T14:09:49Z</time>
      </trkpt>
      <trkpt lat="24.916359325841338" lon="118.54189670042304">
        <ele>12.501349478028715</ele>
        <time>2024-06-24T14:09:52Z</time>
      </trkpt>
      <trkpt lat="24.916228988358366" lon="118.54192469432218">
        <ele>12.05166454333812</ele>
        <time>2024-06-24T14:09:55Z</time>
      </trkpt>
      <trkpt lat="24.915924330667107" lon="118.54204401794586">
        <ele>12.479172119870782</ele>
        <time>2024-06-24T14:10:04Z</time>
      </trkpt>
      <trkpt lat="24.915754941608963" lon="118.54209260126527">
        <ele>11.901076391339302</ele>
        <time>2024-06-24T14:10:10Z</time>
      </trkpt>
      <trkpt lat="24.915685635604866" lon="118.54215248431136">
        <ele>11.742510930635035</ele>
        <time>2024-06-24T14:10:13Z</time>
      </trkpt>
      <trkpt lat="24.91545957389378" lon="118.54222372453222">
        <ele>11.853370972909033</ele>
        <time>2024-06-24T14:10:19Z</time>
      </trkpt>
      <trkpt lat="24.915362542206488" lon="118.54222755882063">
        <ele>12.493268309161067</ele>
        <time>2024-06-24T14:10:22Z</time>
      </trkpt>
      <trkpt lat="24.915059094826834" lon="118.54235154326071">
        <ele>12.554532323032618</ele>
        <time>2024-06-24T14:10:31Z</time>
      </trkpt>
      <trkpt lat="24.914959370107912" lon="118.54237464623499">
        <ele>11.72142679989338</ele>
        <time>2024-06-24T14:10:34Z</time>
      </trkpt>
      <trkpt lat="24.914880542335144" lon="118.542416103913">
        <ele>10.757487406022847</ele>
        <time>2024-06-24T14:10:37Z</time>
      </trkpt>
      <trkpt lat="24.91479678662138" lon="118.54243220433368">
        <ele>11.13193348608911</ele>
        <time>2024-06-24T14:10:40Z</time>
      </trkpt>
      <trkpt lat="24.91462110698189" lon="118.54250048475635">
        <ele>11.209492652677</ele>
        <time>2024-06-24T14:10:46Z</time>
      </trkpt>
      <trkpt lat="24.914365698895583" lon="118.54252399397458">
        <ele>10.39414429012686</ele>
        <time>2024-06-24T14:10:55Z</time>
      </trkpt>
      <trkpt lat="24.914050694552174" lon="118.54261535213382">
        <ele>10.411697924137115</ele>
        <time>2024-06-24T14:11:04Z</time>
      </trkpt>
      <trkpt lat="24.913767451471482" lon="118.54267633100045">
        <ele>9.234052736312151</ele>
        <time>2024-06-24T14:11:13Z</time>
      </trkpt>
      <trkpt lat="24.913682870352506" lon="118.542708286714">
        <ele>8.778292197734118</ele>
        <time>2024-06-24T14:11:16Z</time>
      </trkpt>
      <trkpt lat="24.913498142373815" lon="118.5427328761482">
        <ele>8.901431292295456</ele>
        <time>2024-06-24T14:11:22Z</time>
      </trkpt>
    </trkseg>
  </trk>
</gpx>