<?xml version="1.0" encoding="UTF-8"?>
<gpx xmlns="http://www.topografix.com/GPX/1/1" xmlns:gpxtpx="http://www.garmin.com/xmlschemas/TrackPointExtension/v1" xmlns:xsi="http://www.w3.org/2001/XMLSchema-instance" xsi:schemaLocation="http://www.topografix.com/GPX/1/1 http://www.topografix.com/GPX/1/1/gpx.xsd" version="1.1" creator="gpx.py -- https://github.com/tkrajina/gpxpy">
  <trk>
    <name>gpx from keep</name>
    <type>Run</type>
    <trkseg>
      <trkpt lat="24.911292727119108" lon="118.53741428959987">
        <ele>10.475096751004457</ele>
        <time>2025-06-15T13:08:34Z</time>
      </trkpt>
      <trkpt lat="24.911101494291785" lon="118.53772426374343">
        <ele>9.774876638315618</ele>
        <time>2025-06-15T13:08:46Z</time>
      </trkpt>
      <trkpt lat="24.910968618682574" lon="118.53799129085837">
        <ele>9.686336065642536</ele>
        <time>2025-06-15T13:08:55Z</time>
      </trkpt>
      <trkpt lat="24.910913848696232" lon="118.5380712006637">
        <ele>9.520432597026229</ele>
        <time>2025-06-15T13:08:58Z</time>
      </trkpt>
      <trkpt lat="24.91076938155771" lon="118.5384331830528">
        <ele>10.238934696651995</ele>
        <time>2025-06-15T13:09:10Z</time>
      </trkpt>
      <trkpt lat="24.910750027245953" lon="118.53852118011439">
        <ele>9.380161094479263</ele>
        <time>2025-06-15T13:09:13Z</time>
      </trkpt>
      <trkpt lat="24.910776449968715" lon="118.53861919107952">
        <ele>10.307655526325107</ele>
        <time>2025-06-15T13:09:16Z</time>
      </trkpt>
      <trkpt lat="24.91094226333461" lon="118.53870285846183">
        <ele>9.987122163176537</ele>
        <time>2025-06-15T13:09:22Z</time>
      </trkpt>
      <trkpt lat="24.91111859107267" lon="118.53875681026148">
        <ele>9.383300815708935</ele>
        <time>2025-06-15T13:09:28Z</time>
      </trkpt>
      <trkpt lat="24.911155800795857" lon="118.53881822708753">
        <ele>9.11300774756819</ele>
        <time>2025-06-15T13:09:31Z</time>
      </trkpt>
      <trkpt lat="24.911083273531478" lon="118.53910511699831">
        <ele>7.48620247002691</ele>
        <time>2025-06-15T13:09:40Z</time>
      </trkpt>
      <trkpt lat="24.91101653513919" lon="118.53947043135054">
        <ele>8.202385377138853</ele>
        <time>2025-06-15T13:09:52Z</time>
      </trkpt>
      <trkpt lat="24.910911267469935" lon="118.53981173851555">
        <ele>8.351231537759304</ele>
        <time>2025-06-15T13:10:04Z</time>
      </trkpt>
      <trkpt lat="24.910880107112508" lon="118.53990789104644">
        <ele>7.844917410053313</ele>
        <time>2025-06-15T13:10:07Z</time>
      </trkpt>
      <trkpt lat="24.91088074574075" lon="118.54000015875228">
        <ele>8.009933821856976</ele>
        <time>2025-06-15T13:10:10Z</time>
      </trkpt>
      <trkpt lat="24.910795303640576" lon="118.54025393050101">
        <ele>8.903562458232045</ele>
        <time>2025-06-15T13:10:19Z</time>
      </trkpt>
      <trkpt lat="24.91072359202848" lon="118.54062205845149">
        <ele>7.323862268589437</ele>
        <time>2025-06-15T13:10:31Z</time>
      </trkpt>
      <trkpt lat="24.91066432063707" lon="118.54098161344601">
        <ele>6.969794929027557</ele>
        <time>2025-06-15T13:10:43Z</time>
      </trkpt>
      <trkpt lat="24.910598252784702" lon="118.54120944374421">
        <ele>7.080139365047216</ele>
        <time>2025-06-15T13:10:51Z</time>
      </trkpt>
      <trkpt lat="24.910542331767775" lon="118.54129831174939">
        <ele>7.029073848389089</ele>
        <time>2025-06-15T13:10:54Z</time>
      </trkpt>
      <trkpt lat="24.910456976445044" lon="118.54147949550224">
        <ele>7.415817519649863</ele>
        <time>2025-06-15T13:11:00Z</time>
      </trkpt>
      <trkpt lat="24.910393278217196" lon="118.54157238999119">
        <ele>7.097604598850012</ele>
        <time>2025-06-15T13:11:03Z</time>
      </trkpt>
      <trkpt lat="24.910317278518924" lon="118.54164739701427">
        <ele>7.298824245110154</ele>
        <time>2025-06-15T13:11:06Z</time>
      </trkpt>
      <trkpt lat="24.910253294046438" lon="118.54174207574415">
        <ele>7.368997764773667</ele>
        <time>2025-06-15T13:11:09Z</time>
      </trkpt>
      <trkpt lat="24.910248656619874" lon="118.54185108234059">
        <ele>7.99273064173758</ele>
        <time>2025-06-15T13:11:12Z</time>
      </trkpt>
      <trkpt lat="24.910280253617106" lon="118.54195938225872">
        <ele>7.864960661157966</ele>
        <time>2025-06-15T13:11:15Z</time>
      </trkpt>
      <trkpt lat="24.91026595988093" lon="118.54205233599426">
        <ele>7.5009683249518275</ele>
        <time>2025-06-15T13:11:18Z</time>
      </trkpt>
      <trkpt lat="24.910292337011416" lon="118.54236298219962">
        <ele>7.8968845857307315</ele>
        <time>2025-06-15T13:11:27Z</time>
      </trkpt>
      <trkpt lat="24.910239873300757" lon="118.54265551439343">
        <ele>8.046187182888389</ele>
        <time>2025-06-15T13:11:36Z</time>
      </trkpt>
      <trkpt lat="24.910187505874045" lon="118.54303500478967">
        <ele>7.981921207159758</ele>
        <time>2025-06-15T13:11:48Z</time>
      </trkpt>
      <trkpt lat="24.91019020252298" lon="118.5432176342691">
        <ele>8.349919638596475</ele>
        <time>2025-06-15T13:11:54Z</time>
      </trkpt>
      <trkpt lat="24.910176743635855" lon="118.54329985102889">
        <ele>8.043261557817459</ele>
        <time>2025-06-15T13:11:57Z</time>
      </trkpt>
      <trkpt lat="24.910209653648554" lon="118.5433638112508">
        <ele>8.022710205055773</ele>
        <time>2025-06-15T13:12:00Z</time>
      </trkpt>
      <trkpt lat="24.910277100936472" lon="118.54339076464905">
        <ele>7.5798520082607865</ele>
        <time>2025-06-15T13:12:03Z</time>
      </trkpt>
      <trkpt lat="24.910603486515654" lon="118.54335006932378">
        <ele>7.348610331304371</ele>
        <time>2025-06-15T13:12:15Z</time>
      </trkpt>
      <trkpt lat="24.91095950796744" lon="118.5433288993065">
        <ele>7.788441249169409</ele>
        <time>2025-06-15T13:12:27Z</time>
      </trkpt>
      <trkpt lat="24.911289194503663" lon="118.54327703809916">
        <ele>7.473006095737219</ele>
        <time>2025-06-15T13:12:39Z</time>
      </trkpt>
      <trkpt lat="24.911640399864314" lon="118.54320945073437">
        <ele>8.861959088593721</ele>
        <time>2025-06-15T13:12:51Z</time>
      </trkpt>
      <trkpt lat="24.911990269419228" lon="118.54313738335428">
        <ele>7.752139040268958</ele>
        <time>2025-06-15T13:13:03Z</time>
      </trkpt>
      <trkpt lat="24.91233482463542" lon="118.54304400334676">
        <ele>7.455374779179692</ele>
        <time>2025-06-15T13:13:15Z</time>
      </trkpt>
      <trkpt lat="24.912611154700052" lon="118.54294265687531">
        <ele>8.042330609634519</ele>
        <time>2025-06-15T13:13:24Z</time>
      </trkpt>
      <trkpt lat="24.912880113614058" lon="118.54286590152854">
        <ele>9.570894464850426</ele>
        <time>2025-06-15T13:13:33Z</time>
      </trkpt>
      <trkpt lat="24.91320456135417" lon="118.54277431126002">
        <ele>8.637780286371708</ele>
        <time>2025-06-15T13:13:45Z</time>
      </trkpt>
      <trkpt lat="24.91348446057375" lon="118.54272636055963">
        <ele>8.283738463185728</ele>
        <time>2025-06-15T13:13:54Z</time>
      </trkpt>
      <trkpt lat="24.913654397472104" lon="118.54269635219991">
        <ele>8.665058812126517</ele>
        <time>2025-06-15T13:14:00Z</time>
      </trkpt>
      <trkpt lat="24.913897267562206" lon="118.54261421685042">
        <ele>8.58409411367029</ele>
        <time>2025-06-15T13:14:09Z</time>
      </trkpt>
      <trkpt lat="24.913941735374127" lon="118.5427031085792">
        <ele>9.923048465512693</ele>
        <time>2025-06-15T13:14:12Z</time>
      </trkpt>
      <trkpt lat="24.913928906738075" lon="118.54290749900363">
        <ele>8.784798475913703</ele>
        <time>2025-06-15T13:14:18Z</time>
      </trkpt>
      <trkpt lat="24.913979137070147" lon="118.5429866480952">
        <ele>8.072848247364163</ele>
        <time>2025-06-15T13:14:21Z</time>
      </trkpt>
      <trkpt lat="24.91410996125132" lon="118.54290374516128">
        <ele>8.365058104507625</ele>
        <time>2025-06-15T13:14:27Z</time>
      </trkpt>
      <trkpt lat="24.914195903585178" lon="118.54287483470763">
        <ele>8.439300416968763</ele>
        <time>2025-06-15T13:14:30Z</time>
      </trkpt>
      <trkpt lat="24.91453407060261" lon="118.5428866292342">
        <ele>9.80016016215086</ele>
        <time>2025-06-15T13:14:42Z</time>
      </trkpt>
      <trkpt lat="24.91462777276739" lon="118.54282921618113">
        <ele>9.77255533915013</ele>
        <time>2025-06-15T13:14:45Z</time>
      </trkpt>
      <trkpt lat="24.914760099234318" lon="118.54277961637166">
        <ele>9.765885800123215</ele>
        <time>2025-06-15T13:14:49Z</time>
      </trkpt>
      <trkpt lat="24.914998683932417" lon="118.54274971418037">
        <ele>10.33315694052726</ele>
        <time>2025-06-15T13:14:57Z</time>
      </trkpt>
      <trkpt lat="24.915118292296583" lon="118.54270970885135">
        <ele>10.365332921035588</ele>
        <time>2025-06-15T13:15:01Z</time>
      </trkpt>
      <trkpt lat="24.915337816668092" lon="118.5425954513132">
        <ele>12.44200148805976</ele>
        <time>2025-06-15T13:15:09Z</time>
      </trkpt>
      <trkpt lat="24.915681143109907" lon="118.54253201878025">
        <ele>11.801543175242841</ele>
        <time>2025-06-15T13:15:21Z</time>
      </trkpt>
      <trkpt lat="24.91599558150331" lon="118.54246189815605">
        <ele>12.194841678254306</ele>
        <time>2025-06-15T13:15:33Z</time>
      </trkpt>
      <trkpt lat="24.916240509680964" lon="118.5424232115599">
        <ele>12.275414865463972</ele>
        <time>2025-06-15T13:15:42Z</time>
      </trkpt>
      <trkpt lat="24.916402762891998" lon="118.54236527097777">
        <ele>12.797455126419663</ele>
        <time>2025-06-15T13:15:48Z</time>
      </trkpt>
      <trkpt lat="24.91656120583453" lon="118.54240018142856">
        <ele>12.561108444817364</ele>
        <time>2025-06-15T13:15:54Z</time>
      </trkpt>
      <trkpt lat="24.916591615870697" lon="118.54238766976475">
        <ele>12.870206855237484</ele>
        <time>2025-06-15T13:16:34Z</time>
      </trkpt>
      <trkpt lat="24.916907889710718" lon="118.5423224367411">
        <ele>11.711888982914388</ele>
        <time>2025-06-15T13:16:46Z</time>
      </trkpt>
      <trkpt lat="24.91699823982731" lon="118.54229021611907">
        <ele>11.539602436125278</ele>
        <time>2025-06-15T13:16:49Z</time>
      </trkpt>
      <trkpt lat="24.91724009216133" lon="118.54218485023364">
        <ele>10.165305416099727</ele>
        <time>2025-06-15T13:16:58Z</time>
      </trkpt>
      <trkpt lat="24.917604593032426" lon="118.54213940856043">
        <ele>11.367111902683973</ele>
        <time>2025-06-15T13:17:10Z</time>
      </trkpt>
      <trkpt lat="24.917873335353992" lon="118.54209777600909">
        <ele>12.173239353112876</ele>
        <time>2025-06-15T13:17:19Z</time>
      </trkpt>
      <trkpt lat="24.917963384723013" lon="118.54208962275423">
        <ele>11.676822035573423</ele>
        <time>2025-06-15T13:17:22Z</time>
      </trkpt>
      <trkpt lat="24.91805168386771" lon="118.5421072753486">
        <ele>12.507330264896154</ele>
        <time>2025-06-15T13:17:25Z</time>
      </trkpt>
      <trkpt lat="24.918327628483418" lon="118.5421007994998">
        <ele>12.359899350441992</ele>
        <time>2025-06-15T13:17:34Z</time>
      </trkpt>
      <trkpt lat="24.918606259578336" lon="118.5420922013248">
        <ele>13.101775949820876</ele>
        <time>2025-06-15T13:17:43Z</time>
      </trkpt>
      <trkpt lat="24.918879746772234" lon="118.54210965421589">
        <ele>14.092708751559258</ele>
        <time>2025-06-15T13:17:52Z</time>
      </trkpt>
      <trkpt lat="24.91915498220248" lon="118.54211588748053">
        <ele>14.691654888913035</ele>
        <time>2025-06-15T13:18:01Z</time>
      </trkpt>
      <trkpt lat="24.91941888997785" lon="118.54211540447429">
        <ele>14.80538884550333</ele>
        <time>2025-06-15T13:18:10Z</time>
      </trkpt>
      <trkpt lat="24.919501058305503" lon="118.54214093851166">
        <ele>14.381630665622652</ele>
        <time>2025-06-15T13:18:13Z</time>
      </trkpt>
      <trkpt lat="24.919836664784494" lon="118.54215618812371">
        <ele>14.585252420976758</ele>
        <time>2025-06-15T13:18:25Z</time>
      </trkpt>
      <trkpt lat="24.9201923726215" lon="118.54215876088573">
        <ele>12.98207436595112</ele>
        <time>2025-06-15T13:18:37Z</time>
      </trkpt>
      <trkpt lat="24.92047277278158" lon="118.54216065094533">
        <ele>12.640771498903632</ele>
        <time>2025-06-15T13:18:46Z</time>
      </trkpt>
      <trkpt lat="24.920817512784495" lon="118.54214261452455">
        <ele>12.996328801847994</ele>
        <time>2025-06-15T13:18:58Z</time>
      </trkpt>
      <trkpt lat="24.921159769937802" lon="118.54213937270536">
        <ele>14.450576378963888</ele>
        <time>2025-06-15T13:19:10Z</time>
      </trkpt>
      <trkpt lat="24.92150074905348" lon="118.54216102967322">
        <ele>15.818367600440979</ele>
        <time>2025-06-15T13:19:22Z</time>
      </trkpt>
      <trkpt lat="24.92184343459555" lon="118.5421846790883">
        <ele>16.91038758121431</ele>
        <time>2025-06-15T13:19:34Z</time>
      </trkpt>
      <trkpt lat="24.92217191895525" lon="118.54223723732724">
        <ele>18.207909796386957</ele>
        <time>2025-06-15T13:19:46Z</time>
      </trkpt>
      <trkpt lat="24.922337897010685" lon="118.54227700252024">
        <ele>19.129211695864797</ele>
        <time>2025-06-15T13:19:52Z</time>
      </trkpt>
      <trkpt lat="24.922417353539984" lon="118.54227876812705">
        <ele>19.523258300498128</ele>
        <time>2025-06-15T13:19:55Z</time>
      </trkpt>
      <trkpt lat="24.92272155904986" lon="118.54238058959433">
        <ele>20.943925910629332</ele>
        <time>2025-06-15T13:20:07Z</time>
      </trkpt>
      <trkpt lat="24.92279944720053" lon="118.54239289809827">
        <ele>21.345625713467598</ele>
        <time>2025-06-15T13:20:10Z</time>
      </trkpt>
      <trkpt lat="24.923129690300126" lon="118.54251540943847">
        <ele>22.008356042206287</ele>
        <time>2025-06-15T13:20:22Z</time>
      </trkpt>
      <trkpt lat="24.92344699196351" lon="118.54265792996198">
        <ele>22.33356657344848</ele>
        <time>2025-06-15T13:20:34Z</time>
      </trkpt>
      <trkpt lat="24.923601368995936" lon="118.54272826214569">
        <ele>23.529902651906013</ele>
        <time>2025-06-15T13:20:40Z</time>
      </trkpt>
      <trkpt lat="24.923894496669277" lon="118.54290877455904">
        <ele>26.82686409726739</ele>
        <time>2025-06-15T13:20:52Z</time>
      </trkpt>
      <trkpt lat="24.924198257977622" lon="118.54309525786663">
        <ele>28.495920197106898</ele>
        <time>2025-06-15T13:21:04Z</time>
      </trkpt>
      <trkpt lat="24.924429389121695" lon="118.5432565289704">
        <ele>27.827847794629633</ele>
        <time>2025-06-15T13:21:13Z</time>
      </trkpt>
      <trkpt lat="24.92458312904995" lon="118.5433597332734">
        <ele>26.996924323029816</ele>
        <time>2025-06-15T13:21:19Z</time>
      </trkpt>
      <trkpt lat="24.924843602251173" lon="118.54363574273448">
        <ele>24.585219557397068</ele>
        <time>2025-06-15T13:21:31Z</time>
      </trkpt>
      <trkpt lat="24.925049408206373" lon="118.54385094346502">
        <ele>22.345162491314113</ele>
        <time>2025-06-15T13:21:40Z</time>
      </trkpt>
      <trkpt lat="24.925239308881775" lon="118.54407017461843">
        <ele>20.832008759491146</ele>
        <time>2025-06-15T13:21:49Z</time>
      </trkpt>
      <trkpt lat="24.925479134629544" lon="118.54436435003471">
        <ele>18.333713050931692</ele>
        <time>2025-06-15T13:22:01Z</time>
      </trkpt>
      <trkpt lat="24.92568333546362" lon="118.54468675413031">
        <ele>16.39620088879019</ele>
        <time>2025-06-15T13:22:13Z</time>
      </trkpt>
      <trkpt lat="24.925845735042394" lon="118.54493416918571">
        <ele>16.42268911935389</ele>
        <time>2025-06-15T13:22:22Z</time>
      </trkpt>
      <trkpt lat="24.92599694673152" lon="118.54518637198521">
        <ele>15.773141470737755</ele>
        <time>2025-06-15T13:22:31Z</time>
      </trkpt>
      <trkpt lat="24.92619923416571" lon="118.54550248463971">
        <ele>14.229710180312395</ele>
        <time>2025-06-15T13:22:43Z</time>
      </trkpt>
      <trkpt lat="24.926238467290634" lon="118.54558595957926">
        <ele>14.43278632313013</ele>
        <time>2025-06-15T13:22:46Z</time>
      </trkpt>
      <trkpt lat="24.926443391003303" lon="118.54591601205716">
        <ele>12.758746744133532</ele>
        <time>2025-06-15T13:22:58Z</time>
      </trkpt>
      <trkpt lat="24.9266286737946" lon="118.54624196725433">
        <ele>11.600184268318117</ele>
        <time>2025-06-15T13:23:10Z</time>
      </trkpt>
      <trkpt lat="24.926735694731846" lon="118.5463952015396">
        <ele>11.18815041333437</ele>
        <time>2025-06-15T13:23:16Z</time>
      </trkpt>
      <trkpt lat="24.92679750329896" lon="118.54657119572147">
        <ele>10.717229157686234</ele>
        <time>2025-06-15T13:23:22Z</time>
      </trkpt>
      <trkpt lat="24.92681683551876" lon="118.54667112388641">
        <ele>10.755670567974448</ele>
        <time>2025-06-15T13:23:25Z</time>
      </trkpt>
      <trkpt lat="24.926881656127318" lon="118.54671870300092">
        <ele>11.16287309769541</ele>
        <time>2025-06-15T13:23:28Z</time>
      </trkpt>
      <trkpt lat="24.926941850429838" lon="118.54669117573759">
        <ele>10.646849602460861</ele>
        <time>2025-06-15T13:23:31Z</time>
      </trkpt>
      <trkpt lat="24.92693769130737" lon="118.54670366799166">
        <ele>10.072172161191702</ele>
        <time>2025-06-15T13:24:00Z</time>
      </trkpt>
      <trkpt lat="24.927096371962147" lon="118.54659534840428">
        <ele>10.210645041428506</ele>
        <time>2025-06-15T13:24:09Z</time>
      </trkpt>
      <trkpt lat="24.927129564393532" lon="118.54649315971905">
        <ele>9.356129517778754</ele>
        <time>2025-06-15T13:24:12Z</time>
      </trkpt>
      <trkpt lat="24.927026179577197" lon="118.54633893240494">
        <ele>9.82694723829627</ele>
        <time>2025-06-15T13:24:18Z</time>
      </trkpt>
      <trkpt lat="24.926880289032223" lon="118.54599072976131">
        <ele>12.797795512713492</ele>
        <time>2025-06-15T13:24:30Z</time>
      </trkpt>
      <trkpt lat="24.926709854577926" lon="118.54565154264071">
        <ele>13.771089130081236</ele>
        <time>2025-06-15T13:24:42Z</time>
      </trkpt>
      <trkpt lat="24.926517667872588" lon="118.5453197625072">
        <ele>14.750592967495322</ele>
        <time>2025-06-15T13:24:54Z</time>
      </trkpt>
      <trkpt lat="24.926340342222623" lon="118.54501402111325">
        <ele>15.69419607333839</ele>
        <time>2025-06-15T13:25:06Z</time>
      </trkpt>
      <trkpt lat="24.926250586900533" lon="118.5448728373435">
        <ele>16.61201689671725</ele>
        <time>2025-06-15T13:25:12Z</time>
      </trkpt>
      <trkpt lat="24.926130538645882" lon="118.54462169855218">
        <ele>17.5634656669572</ele>
        <time>2025-06-15T13:25:21Z</time>
      </trkpt>
      <trkpt lat="24.925940958002883" lon="118.54432769639254">
        <ele>17.62643333990127</ele>
        <time>2025-06-15T13:25:33Z</time>
      </trkpt>
      <trkpt lat="24.925748055523208" lon="118.5440324042378">
        <ele>20.083351102657616</ele>
        <time>2025-06-15T13:25:45Z</time>
      </trkpt>
      <trkpt lat="24.9255885011914" lon="118.5438136283527">
        <ele>21.59961661323905</ele>
        <time>2025-06-15T13:25:54Z</time>
      </trkpt>
      <trkpt lat="24.925350889326328" lon="118.54355565774202">
        <ele>24.03177109453827</ele>
        <time>2025-06-15T13:26:06Z</time>
      </trkpt>
      <trkpt lat="24.925106885852795" lon="118.5433157595729">
        <ele>25.01162123028189</ele>
        <time>2025-06-15T13:26:18Z</time>
      </trkpt>
      <trkpt lat="24.924992272315905" lon="118.54319415375117">
        <ele>27.04506104066968</ele>
        <time>2025-06-15T13:26:24Z</time>
      </trkpt>
      <trkpt lat="24.924713784686187" lon="118.5430072311727">
        <ele>30.741327152587473</ele>
        <time>2025-06-15T13:26:36Z</time>
      </trkpt>
      <trkpt lat="24.924423897912696" lon="118.54279670568812">
        <ele>30.079331285320222</ele>
        <time>2025-06-15T13:26:48Z</time>
      </trkpt>
      <trkpt lat="24.924201480023672" lon="118.54263895293793">
        <ele>31.14574417937547</ele>
        <time>2025-06-15T13:26:57Z</time>
      </trkpt>
      <trkpt lat="24.92391576122048" lon="118.5424706730372">
        <ele>29.266416848637164</ele>
        <time>2025-06-15T13:27:09Z</time>
      </trkpt>
      <trkpt lat="24.92359659238637" lon="118.54230642426273">
        <ele>26.604053949005902</ele>
        <time>2025-06-15T13:27:21Z</time>
      </trkpt>
      <trkpt lat="24.923352818953838" lon="118.54216381895033">
        <ele>27.243021457456052</ele>
        <time>2025-06-15T13:27:30Z</time>
      </trkpt>
      <trkpt lat="24.923181084425902" lon="118.54207443811897">
        <ele>19.70427124015987</ele>
        <time>2025-06-15T13:27:36Z</time>
      </trkpt>
      <trkpt lat="24.92299805065282" lon="118.54202613919303">
        <ele>21.190165607258677</ele>
        <time>2025-06-15T13:27:42Z</time>
      </trkpt>
      <trkpt lat="24.922918490255917" lon="118.5419842044472">
        <ele>20.789299921132624</ele>
        <time>2025-06-15T13:27:45Z</time>
      </trkpt>
      <trkpt lat="24.922567801857014" lon="118.54189055805696">
        <ele>20.273160816170275</ele>
        <time>2025-06-15T13:27:57Z</time>
      </trkpt>
      <trkpt lat="24.922219436689765" lon="118.54180918855178">
        <ele>19.176789481192827</ele>
        <time>2025-06-15T13:28:09Z</time>
      </trkpt>
      <trkpt lat="24.921876288590628" lon="118.54177436463706">
        <ele>17.263871919363737</ele>
        <time>2025-06-15T13:28:21Z</time>
      </trkpt>
      <trkpt lat="24.921679525235824" lon="118.54174602848535">
        <ele>16.512785223312676</ele>
        <time>2025-06-15T13:28:27Z</time>
      </trkpt>
      <trkpt lat="24.921336956107904" lon="118.54174829423592">
        <ele>16.505533881485462</ele>
        <time>2025-06-15T13:28:39Z</time>
      </trkpt>
      <trkpt lat="24.921066150144508" lon="118.54175166387236">
        <ele>15.605293597094715</ele>
        <time>2025-06-15T13:28:48Z</time>
      </trkpt>
      <trkpt lat="24.92078415915734" lon="118.54175400345545">
        <ele>14.940190511755645</ele>
        <time>2025-06-15T13:28:57Z</time>
      </trkpt>
      <trkpt lat="24.920507135226273" lon="118.54172186867726">
        <ele>14.123266207054257</ele>
        <time>2025-06-15T13:29:06Z</time>
      </trkpt>
      <trkpt lat="24.92019602849682" lon="118.54172667700345">
        <ele>13.691914861090481</ele>
        <time>2025-06-15T13:29:15Z</time>
      </trkpt>
      <trkpt lat="24.919857368606483" lon="118.5417184729616">
        <ele>13.990601103752851</ele>
        <time>2025-06-15T13:29:27Z</time>
      </trkpt>
      <trkpt lat="24.91967445912049" lon="118.54173941779274">
        <ele>14.175496127456427</ele>
        <time>2025-06-15T13:29:33Z</time>
      </trkpt>
      <trkpt lat="24.91958290079888" lon="118.54171317500139">
        <ele>14.520334319211543</ele>
        <time>2025-06-15T13:29:36Z</time>
      </trkpt>
      <trkpt lat="24.919277243757303" lon="118.54175780776632">
        <ele>14.490313537418842</ele>
        <time>2025-06-15T13:29:46Z</time>
      </trkpt>
      <trkpt lat="24.91899959289541" lon="118.5417303146057">
        <ele>14.465076310560107</ele>
        <time>2025-06-15T13:29:55Z</time>
      </trkpt>
      <trkpt lat="24.918822471255435" lon="118.54172533859474">
        <ele>13.413304146379232</ele>
        <time>2025-06-15T13:30:01Z</time>
      </trkpt>
      <trkpt lat="24.918472582545544" lon="118.5417536226867">
        <ele>12.461441121995449</ele>
        <time>2025-06-15T13:30:13Z</time>
      </trkpt>
      <trkpt lat="24.91812187548468" lon="118.54172193353864">
        <ele>11.087492508813739</ele>
        <time>2025-06-15T13:30:25Z</time>
      </trkpt>
      <trkpt lat="24.91794078288398" lon="118.54174174541646">
        <ele>10.709807523526251</ele>
        <time>2025-06-15T13:30:31Z</time>
      </trkpt>
      <trkpt lat="24.917758035542583" lon="118.54170996581131">
        <ele>10.766748132184148</ele>
        <time>2025-06-15T13:30:37Z</time>
      </trkpt>
      <trkpt lat="24.917415071456762" lon="118.5417451529961">
        <ele>10.204217812977731</ele>
        <time>2025-06-15T13:30:49Z</time>
      </trkpt>
      <trkpt lat="24.917142818570788" lon="118.54175706263304">
        <ele>9.436701593920588</ele>
        <time>2025-06-15T13:30:58Z</time>
      </trkpt>
      <trkpt lat="24.916964812716017" lon="118.54177255997853">
        <ele>8.851366397924721</ele>
        <time>2025-06-15T13:31:04Z</time>
      </trkpt>
      <trkpt lat="24.91674633088758" lon="118.54172225901532">
        <ele>10.921140537597239</ele>
        <time>2025-06-15T13:31:13Z</time>
      </trkpt>
      <trkpt lat="24.91673175423944" lon="118.5416869054232">
        <ele>12.180637911893427</ele>
        <time>2025-06-15T13:32:21Z</time>
      </trkpt>
      <trkpt lat="24.91645437718014" lon="118.5417589387391">
        <ele>12.250452156178653</ele>
        <time>2025-06-15T13:32:33Z</time>
      </trkpt>
      <trkpt lat="24.916322894376794" lon="118.5417905785877">
        <ele>12.921173879876733</ele>
        <time>2025-06-15T13:32:42Z</time>
      </trkpt>
      <trkpt lat="24.91601767314807" lon="118.54195963526466">
        <ele>12.081460192799568</ele>
        <time>2025-06-15T13:32:54Z</time>
      </trkpt>
      <trkpt lat="24.91574156901152" lon="118.54206150166186">
        <ele>12.60747483652085</ele>
        <time>2025-06-15T13:33:03Z</time>
      </trkpt>
      <trkpt lat="24.91545892626786" lon="118.54223617663511">
        <ele>12.239839090965688</ele>
        <time>2025-06-15T13:33:12Z</time>
      </trkpt>
      <trkpt lat="24.915369407796312" lon="118.54228418647082">
        <ele>12.486445408314466</ele>
        <time>2025-06-15T13:33:15Z</time>
      </trkpt>
      <trkpt lat="24.915265471683174" lon="118.54231308707104">
        <ele>12.770544986240566</ele>
        <time>2025-06-15T13:33:18Z</time>
      </trkpt>
      <trkpt lat="24.915180967818955" lon="118.54236806021594">
        <ele>12.143298043869436</ele>
        <time>2025-06-15T13:33:21Z</time>
      </trkpt>
      <trkpt lat="24.914979278362523" lon="118.54243965846442">
        <ele>11.131880479864776</ele>
        <time>2025-06-15T13:33:27Z</time>
      </trkpt>
      <trkpt lat="24.914823056532214" lon="118.5424286377192">
        <ele>10.704728555865586</ele>
        <time>2025-06-15T13:33:33Z</time>
      </trkpt>
      <trkpt lat="24.91474018426679" lon="118.54245013025765">
        <ele>10.822463409043849</ele>
        <time>2025-06-15T13:33:36Z</time>
      </trkpt>
      <trkpt lat="24.91465704966818" lon="118.5424503366159">
        <ele>10.101705924607813</ele>
        <time>2025-06-15T13:33:39Z</time>
      </trkpt>
      <trkpt lat="24.914574711878597" lon="118.54247720321194">
        <ele>9.858158227987587</ele>
        <time>2025-06-15T13:33:42Z</time>
      </trkpt>
      <trkpt lat="24.91429997817777" lon="118.54250570240276">
        <ele>9.276397979818285</ele>
        <time>2025-06-15T13:33:51Z</time>
      </trkpt>
      <trkpt lat="24.91411171454923" lon="118.5425533005277">
        <ele>10.473306051455438</ele>
        <time>2025-06-15T13:33:57Z</time>
      </trkpt>
      <trkpt lat="24.913933516727333" lon="118.54262401173136">
        <ele>9.40430683363229</ele>
        <time>2025-06-15T13:34:03Z</time>
      </trkpt>
      <trkpt lat="24.913840332840945" lon="118.54263127797971">
        <ele>9.231108660809696</ele>
        <time>2025-06-15T13:34:06Z</time>
      </trkpt>
      <trkpt lat="24.91367240533599" lon="118.54269681772954">
        <ele>8.87211716081947</ele>
        <time>2025-06-15T13:34:12Z</time>
      </trkpt>
      <trkpt lat="24.91340307293676" lon="118.54275876435956">
        <ele>8.034323225729167</ele>
        <time>2025-06-15T13:34:21Z</time>
      </trkpt>
      <trkpt lat="24.913219535108986" lon="118.54280997672657">
        <ele>8.101344893686473</ele>
        <time>2025-06-15T13:34:27Z</time>
      </trkpt>
      <trkpt lat="24.912958733931852" lon="118.54284048931584">
        <ele>7.655139002948999</ele>
        <time>2025-06-15T13:34:36Z</time>
      </trkpt>
      <trkpt lat="24.912705572354717" lon="118.54289416900328">
        <ele>8.74987106025219</ele>
        <time>2025-06-15T13:34:45Z</time>
      </trkpt>
      <trkpt lat="24.912610483750395" lon="118.54293985384676">
        <ele>9.083777355961502</ele>
        <time>2025-06-15T13:34:48Z</time>
      </trkpt>
      <trkpt lat="24.91235707152751" lon="118.54300321304157">
        <ele>8.72699031420052</ele>
        <time>2025-06-15T13:34:57Z</time>
      </trkpt>
      <trkpt lat="24.91217957715403" lon="118.5430949638911">
        <ele>7.957474069669843</ele>
        <time>2025-06-15T13:35:04Z</time>
      </trkpt>
      <trkpt lat="24.911919932234834" lon="118.54315980517147">
        <ele>8.167173230089247</ele>
        <time>2025-06-15T13:35:13Z</time>
      </trkpt>
      <trkpt lat="24.911837862208333" lon="118.54319422823129">
        <ele>7.021646457724273</ele>
        <time>2025-06-15T13:35:16Z</time>
      </trkpt>
      <trkpt lat="24.911499331923036" lon="118.5432641228111">
        <ele>8.597239210270345</ele>
        <time>2025-06-15T13:35:28Z</time>
      </trkpt>
      <trkpt lat="24.911157083074762" lon="118.54331715615503">
        <ele>7.9926940724253654</ele>
        <time>2025-06-15T13:35:40Z</time>
      </trkpt>
      <trkpt lat="24.910815389726558" lon="118.54335132417229">
        <ele>7.389963104389608</ele>
        <time>2025-06-15T13:35:51Z</time>
      </trkpt>
      <trkpt lat="24.910537284503274" lon="118.54335024500915">
        <ele>7.3909753216430545</ele>
        <time>2025-06-15T13:36:01Z</time>
      </trkpt>
      <trkpt lat="24.91026442762094" lon="118.5433821139851">
        <ele>7.729299050755799</ele>
        <time>2025-06-15T13:36:10Z</time>
      </trkpt>
      <trkpt lat="24.91024241863747" lon="118.54329192208385">
        <ele>7.447457781992853</ele>
        <time>2025-06-15T13:36:13Z</time>
      </trkpt>
      <trkpt lat="24.910266466752606" lon="118.54320736232793">
        <ele>6.650403309613466</ele>
        <time>2025-06-15T13:36:16Z</time>
      </trkpt>
      <trkpt lat="24.910214808771" lon="118.54302973621671">
        <ele>7.649586201645434</ele>
        <time>2025-06-15T13:36:22Z</time>
      </trkpt>
      <trkpt lat="24.910266877410386" lon="118.54273516051668">
        <ele>7.101540127769113</ele>
        <time>2025-06-15T13:36:31Z</time>
      </trkpt>
      <trkpt lat="24.91034740252037" lon="118.54254742655124">
        <ele>6.675492100417614</ele>
        <time>2025-06-15T13:36:37Z</time>
      </trkpt>
      <trkpt lat="24.910353320647747" lon="118.5424581137354">
        <ele>7.496305743232369</ele>
        <time>2025-06-15T13:36:40Z</time>
      </trkpt>
      <trkpt lat="24.91032396992832" lon="118.5423590881427">
        <ele>7.28637333586812</ele>
        <time>2025-06-15T13:36:43Z</time>
      </trkpt>
    </trkseg>
  </trk>
</gpx>