<?xml version="1.0" encoding="UTF-8"?>
<gpx xmlns="http://www.topografix.com/GPX/1/1" xmlns:gpxtpx="http://www.garmin.com/xmlschemas/TrackPointExtension/v1" xmlns:xsi="http://www.w3.org/2001/XMLSchema-instance" xsi:schemaLocation="http://www.topografix.com/GPX/1/1 http://www.topografix.com/GPX/1/1/gpx.xsd" version="1.1" creator="gpx.py -- https://github.com/tkrajina/gpxpy">
  <trk>
    <name>gpx from keep</name>
    <type>Run</type>
    <trkseg>
      <trkpt lat="24.910781125364593" lon="118.53854842181627">
        <ele>9.755771764554083</ele>
        <time>2024-09-30T14:03:19Z</time>
      </trkpt>
      <trkpt lat="24.910441193712238" lon="118.53848051965919">
        <ele>9.571098539046943</ele>
        <time>2024-09-30T14:03:31Z</time>
      </trkpt>
      <trkpt lat="24.910246484068438" lon="118.53845773257872">
        <ele>8.330466262996197</ele>
        <time>2024-09-30T14:03:37Z</time>
      </trkpt>
      <trkpt lat="24.91015197623191" lon="118.53842683099333">
        <ele>8.68844211101532</ele>
        <time>2024-09-30T14:03:40Z</time>
      </trkpt>
      <trkpt lat="24.90987449916248" lon="118.53837874533401">
        <ele>7.567593154497445</ele>
        <time>2024-09-30T14:03:49Z</time>
      </trkpt>
      <trkpt lat="24.909691617083908" lon="118.53840297728784">
        <ele>8.130657082423568</ele>
        <time>2024-09-30T14:03:55Z</time>
      </trkpt>
      <trkpt lat="24.909512566723592" lon="118.5383616005027">
        <ele>6.4795256946235895</ele>
        <time>2024-09-30T14:04:01Z</time>
      </trkpt>
      <trkpt lat="24.90918637251032" lon="118.53834614432903">
        <ele>7.0769768711179495</ele>
        <time>2024-09-30T14:04:10Z</time>
      </trkpt>
      <trkpt lat="24.909096884474142" lon="118.53828713682823">
        <ele>6.504251849837601</ele>
        <time>2024-09-30T14:04:13Z</time>
      </trkpt>
      <trkpt lat="24.909086962587377" lon="118.53816980143375">
        <ele>6.387368521653116</ele>
        <time>2024-09-30T14:04:17Z</time>
      </trkpt>
      <trkpt lat="24.909171980488388" lon="118.53786117609702">
        <ele>7.7528205486014485</ele>
        <time>2024-09-30T14:04:26Z</time>
      </trkpt>
      <trkpt lat="24.909205183405096" lon="118.53775343478111">
        <ele>7.62781279720366</ele>
        <time>2024-09-30T14:04:29Z</time>
      </trkpt>
      <trkpt lat="24.90925186776913" lon="118.53753368547794">
        <ele>8.645686708390713</ele>
        <time>2024-09-30T14:04:35Z</time>
      </trkpt>
      <trkpt lat="24.909306825282886" lon="118.53745450756655">
        <ele>9.547035477124155</ele>
        <time>2024-09-30T14:04:38Z</time>
      </trkpt>
      <trkpt lat="24.90933113680451" lon="118.53719887894982">
        <ele>9.897537059150636</ele>
        <time>2024-09-30T14:04:47Z</time>
      </trkpt>
      <trkpt lat="24.909355165095747" lon="118.53708801847236">
        <ele>11.016395291313529</ele>
        <time>2024-09-30T14:04:50Z</time>
      </trkpt>
      <trkpt lat="24.90945411950159" lon="118.53687191305185">
        <ele>10.093292442150414</ele>
        <time>2024-09-30T14:04:57Z</time>
      </trkpt>
      <trkpt lat="24.909536670085103" lon="118.53645760174936">
        <ele>10.508044658228755</ele>
        <time>2024-09-30T14:05:09Z</time>
      </trkpt>
      <trkpt lat="24.90957694901982" lon="118.53606315342387">
        <ele>10.024369101040065</ele>
        <time>2024-09-30T14:05:21Z</time>
      </trkpt>
      <trkpt lat="24.909619052420233" lon="118.53571426925605">
        <ele>10.088285509496927</ele>
        <time>2024-09-30T14:05:32Z</time>
      </trkpt>
      <trkpt lat="24.909635492237307" lon="118.53551214948587">
        <ele>9.9487886428833</ele>
        <time>2024-09-30T14:05:38Z</time>
      </trkpt>
      <trkpt lat="24.90970094221307" lon="118.53521385173835">
        <ele>9.394657568074763</ele>
        <time>2024-09-30T14:05:47Z</time>
      </trkpt>
      <trkpt lat="24.909725443948282" lon="118.53511048689133">
        <ele>9.346113937906921</ele>
        <time>2024-09-30T14:05:50Z</time>
      </trkpt>
      <trkpt lat="24.909757427256253" lon="118.53472636265788">
        <ele>8.462731868959963</ele>
        <time>2024-09-30T14:06:02Z</time>
      </trkpt>
      <trkpt lat="24.909772429622663" lon="118.53444218495034">
        <ele>8.021101919002831</ele>
        <time>2024-09-30T14:06:11Z</time>
      </trkpt>
      <trkpt lat="24.909822226841648" lon="118.53424426885579">
        <ele>6.813753580674529</ele>
        <time>2024-09-30T14:06:17Z</time>
      </trkpt>
      <trkpt lat="24.909893858563233" lon="118.53389525207355">
        <ele>7.840338620357215</ele>
        <time>2024-09-30T14:06:29Z</time>
      </trkpt>
      <trkpt lat="24.91005166079242" lon="118.53382219119004">
        <ele>7.400981452316046</ele>
        <time>2024-09-30T14:06:35Z</time>
      </trkpt>
      <trkpt lat="24.910414156222" lon="118.53376195199358">
        <ele>9.202493012882769</ele>
        <time>2024-09-30T14:06:47Z</time>
      </trkpt>
      <trkpt lat="24.91051007627351" lon="118.53374469078618">
        <ele>9.433099629357457</ele>
        <time>2024-09-30T14:06:50Z</time>
      </trkpt>
      <trkpt lat="24.910806940131092" lon="118.5337463928612">
        <ele>10.03661646693945</ele>
        <time>2024-09-30T14:06:59Z</time>
      </trkpt>
      <trkpt lat="24.911167384574473" lon="118.53374266101848">
        <ele>10.728551068343222</ele>
        <time>2024-09-30T14:07:11Z</time>
      </trkpt>
      <trkpt lat="24.911478388592364" lon="118.53374948428862">
        <ele>9.809503873810172</ele>
        <time>2024-09-30T14:07:22Z</time>
      </trkpt>
      <trkpt lat="24.911562152563313" lon="118.53376449709918">
        <ele>9.883119011297822</ele>
        <time>2024-09-30T14:07:25Z</time>
      </trkpt>
      <trkpt lat="24.91183421821138" lon="118.53375707041215">
        <ele>10.596729092299938</ele>
        <time>2024-09-30T14:07:34Z</time>
      </trkpt>
      <trkpt lat="24.91201728031371" lon="118.53376689258162">
        <ele>9.74621151573956</ele>
        <time>2024-09-30T14:07:40Z</time>
      </trkpt>
      <trkpt lat="24.912293604701002" lon="118.53376158664994">
        <ele>10.552494310773909</ele>
        <time>2024-09-30T14:07:49Z</time>
      </trkpt>
      <trkpt lat="24.912560852435195" lon="118.53373738926507">
        <ele>10.61313202790916</ele>
        <time>2024-09-30T14:07:58Z</time>
      </trkpt>
      <trkpt lat="24.91282269340072" lon="118.53374249286736">
        <ele>9.839449606835842</ele>
        <time>2024-09-30T14:08:07Z</time>
      </trkpt>
      <trkpt lat="24.913174788227938" lon="118.53380943792817">
        <ele>11.05480077303946</ele>
        <time>2024-09-30T14:08:19Z</time>
      </trkpt>
      <trkpt lat="24.91350378341101" lon="118.5338693903695">
        <ele>10.539882754907012</ele>
        <time>2024-09-30T14:08:31Z</time>
      </trkpt>
      <trkpt lat="24.913587472773354" lon="118.53388280823776">
        <ele>10.141272277571261</ele>
        <time>2024-09-30T14:08:34Z</time>
      </trkpt>
      <trkpt lat="24.913666514642838" lon="118.5339159644481">
        <ele>9.086238933727145</ele>
        <time>2024-09-30T14:08:37Z</time>
      </trkpt>
      <trkpt lat="24.91393205463654" lon="118.5339404840241">
        <ele>9.714978695847094</ele>
        <time>2024-09-30T14:08:46Z</time>
      </trkpt>
      <trkpt lat="24.914014009317984" lon="118.53393425722372">
        <ele>9.525141856633127</ele>
        <time>2024-09-30T14:08:49Z</time>
      </trkpt>
      <trkpt lat="24.914369379486814" lon="118.53399512323617">
        <ele>10.427235623821616</ele>
        <time>2024-09-30T14:09:01Z</time>
      </trkpt>
      <trkpt lat="24.91475432316203" lon="118.53408268152144">
        <ele>12.857770991511643</ele>
        <time>2024-09-30T14:09:15Z</time>
      </trkpt>
      <trkpt lat="24.915061731682105" lon="118.53413290967117">
        <ele>12.259664725512266</ele>
        <time>2024-09-30T14:09:25Z</time>
      </trkpt>
      <trkpt lat="24.91541879982154" lon="118.53417885413175">
        <ele>11.7665372826159</ele>
        <time>2024-09-30T14:09:37Z</time>
      </trkpt>
      <trkpt lat="24.91575768933595" lon="118.53423643367327">
        <ele>13.051061471924186</ele>
        <time>2024-09-30T14:09:49Z</time>
      </trkpt>
      <trkpt lat="24.916106061505285" lon="118.53429533471859">
        <ele>11.880652855150402</ele>
        <time>2024-09-30T14:10:01Z</time>
      </trkpt>
      <trkpt lat="24.916439435942486" lon="118.53435552823872">
        <ele>12.218714635819197</ele>
        <time>2024-09-30T14:10:13Z</time>
      </trkpt>
      <trkpt lat="24.916783139372406" lon="118.53442285526224">
        <ele>13.382579017430544</ele>
        <time>2024-09-30T14:10:25Z</time>
      </trkpt>
      <trkpt lat="24.91712591976401" lon="118.53449788200436">
        <ele>14.45150978397578</ele>
        <time>2024-09-30T14:10:37Z</time>
      </trkpt>
      <trkpt lat="24.91740424286997" lon="118.53455363761269">
        <ele>15.074763333424926</ele>
        <time>2024-09-30T14:10:46Z</time>
      </trkpt>
      <trkpt lat="24.917751374837625" lon="118.53465822408718">
        <ele>14.035905357450247</ele>
        <time>2024-09-30T14:10:58Z</time>
      </trkpt>
      <trkpt lat="24.918022996117124" lon="118.5347238564319">
        <ele>13.962411372922361</ele>
        <time>2024-09-30T14:11:07Z</time>
      </trkpt>
      <trkpt lat="24.918300953542936" lon="118.53478475230929">
        <ele>13.281064585782588</ele>
        <time>2024-09-30T14:11:17Z</time>
      </trkpt>
      <trkpt lat="24.91839784800397" lon="118.5348095292921">
        <ele>12.66607703268528</ele>
        <time>2024-09-30T14:11:20Z</time>
      </trkpt>
      <trkpt lat="24.918474548864868" lon="118.53486276570706">
        <ele>12.31221186183393</ele>
        <time>2024-09-30T14:11:23Z</time>
      </trkpt>
      <trkpt lat="24.91856074374473" lon="118.53495249797014">
        <ele>12.752039946615696</ele>
        <time>2024-09-30T14:11:27Z</time>
      </trkpt>
      <trkpt lat="24.918640923075497" lon="118.53513576263849">
        <ele>11.499826205894351</ele>
        <time>2024-09-30T14:11:33Z</time>
      </trkpt>
      <trkpt lat="24.918633486244488" lon="118.53523320926706">
        <ele>11.371143004857004</ele>
        <time>2024-09-30T14:11:36Z</time>
      </trkpt>
      <trkpt lat="24.918537418490914" lon="118.5355139559162">
        <ele>9.52032467070967</ele>
        <time>2024-09-30T14:11:45Z</time>
      </trkpt>
      <trkpt lat="24.91848135560712" lon="118.53569187243652">
        <ele>9.712544545531273</ele>
        <time>2024-09-30T14:11:51Z</time>
      </trkpt>
      <trkpt lat="24.91843714140083" lon="118.53577685563148">
        <ele>9.488798700273037</ele>
        <time>2024-09-30T14:11:54Z</time>
      </trkpt>
      <trkpt lat="24.918392536152293" lon="118.53596451910347">
        <ele>9.810681849718094</ele>
        <time>2024-09-30T14:12:00Z</time>
      </trkpt>
      <trkpt lat="24.918212423002704" lon="118.53630860955637">
        <ele>9.386093295179307</ele>
        <time>2024-09-30T14:12:12Z</time>
      </trkpt>
      <trkpt lat="24.918068272450515" lon="118.5366694298497">
        <ele>8.733903719112277</ele>
        <time>2024-09-30T14:12:24Z</time>
      </trkpt>
      <trkpt lat="24.917934434398717" lon="118.53700680453943">
        <ele>10.049649560824037</ele>
        <time>2024-09-30T14:12:36Z</time>
      </trkpt>
      <trkpt lat="24.917751506248205" lon="118.53733655759414">
        <ele>9.43257029633969</ele>
        <time>2024-09-30T14:12:48Z</time>
      </trkpt>
      <trkpt lat="24.917658398967063" lon="118.53749216343024">
        <ele>9.748689368367195</ele>
        <time>2024-09-30T14:12:54Z</time>
      </trkpt>
      <trkpt lat="24.91757986027909" lon="118.53769053915241">
        <ele>9.632097344845533</ele>
        <time>2024-09-30T14:13:00Z</time>
      </trkpt>
      <trkpt lat="24.917517883128003" lon="118.5379064081207">
        <ele>9.703806098550558</ele>
        <time>2024-09-30T14:13:06Z</time>
      </trkpt>
      <trkpt lat="24.91738045198938" lon="118.53816576364625">
        <ele>10.206975155510008</ele>
        <time>2024-09-30T14:13:15Z</time>
      </trkpt>
      <trkpt lat="24.91729877964777" lon="118.53834566606183">
        <ele>10.144611971452832</ele>
        <time>2024-09-30T14:13:21Z</time>
      </trkpt>
      <trkpt lat="24.917218137412657" lon="118.53861285771217">
        <ele>10.275129485875368</ele>
        <time>2024-09-30T14:13:30Z</time>
      </trkpt>
      <trkpt lat="24.91713587811783" lon="118.53881974593325">
        <ele>9.907575348392129</ele>
        <time>2024-09-30T14:13:36Z</time>
      </trkpt>
      <trkpt lat="24.917056120378753" lon="118.5391248613975">
        <ele>9.981236931867898</ele>
        <time>2024-09-30T14:13:45Z</time>
      </trkpt>
      <trkpt lat="24.917031921631168" lon="118.53922204441045">
        <ele>9.9565539220348</ele>
        <time>2024-09-30T14:13:48Z</time>
      </trkpt>
      <trkpt lat="24.91693036149676" lon="118.53949417809879">
        <ele>10.179733414202929</ele>
        <time>2024-09-30T14:13:57Z</time>
      </trkpt>
      <trkpt lat="24.916911126942345" lon="118.53959427766986">
        <ele>10.43631381727755</ele>
        <time>2024-09-30T14:14:00Z</time>
      </trkpt>
      <trkpt lat="24.916803453289887" lon="118.53974668296064">
        <ele>10.584509934298694</ele>
        <time>2024-09-30T14:14:06Z</time>
      </trkpt>
      <trkpt lat="24.916635527474977" lon="118.54001429213709">
        <ele>10.154099491424859</ele>
        <time>2024-09-30T14:14:15Z</time>
      </trkpt>
      <trkpt lat="24.91649411976232" lon="118.540274669643">
        <ele>10.510797902941704</ele>
        <time>2024-09-30T14:14:24Z</time>
      </trkpt>
      <trkpt lat="24.916437084048273" lon="118.54059264974651">
        <ele>12.380927987396717</ele>
        <time>2024-09-30T14:14:33Z</time>
      </trkpt>
      <trkpt lat="24.916449258940084" lon="118.54071622737827">
        <ele>11.373214779421687</ele>
        <time>2024-09-30T14:14:36Z</time>
      </trkpt>
      <trkpt lat="24.916436809177643" lon="118.54083283193181">
        <ele>11.898762617260218</ele>
        <time>2024-09-30T14:14:39Z</time>
      </trkpt>
      <trkpt lat="24.916493824001627" lon="118.54114801296244">
        <ele>12.69366838503629</ele>
        <time>2024-09-30T14:14:48Z</time>
      </trkpt>
      <trkpt lat="24.916551391027937" lon="118.54146170317048">
        <ele>12.401087508536875</ele>
        <time>2024-09-30T14:14:57Z</time>
      </trkpt>
      <trkpt lat="24.91658716129536" lon="118.54166737192382">
        <ele>12.18806025851518</ele>
        <time>2024-09-30T14:15:03Z</time>
      </trkpt>
      <trkpt lat="24.91650569690935" lon="118.5419541948014">
        <ele>10.646094607189298</ele>
        <time>2024-09-30T14:15:12Z</time>
      </trkpt>
      <trkpt lat="24.916404191831088" lon="118.54195028545607">
        <ele>10.435267410241067</ele>
        <time>2024-09-30T14:15:15Z</time>
      </trkpt>
      <trkpt lat="24.91611474852296" lon="118.54212906071272">
        <ele>12.003170360811055</ele>
        <time>2024-09-30T14:15:24Z</time>
      </trkpt>
      <trkpt lat="24.915816915761585" lon="118.54238961940642">
        <ele>12.154477723874152</ele>
        <time>2024-09-30T14:15:33Z</time>
      </trkpt>
      <trkpt lat="24.915633044965556" lon="118.54252537157595">
        <ele>12.679376047104597</ele>
        <time>2024-09-30T14:15:39Z</time>
      </trkpt>
      <trkpt lat="24.915533019707436" lon="118.54257272773187">
        <ele>12.352228218689561</ele>
        <time>2024-09-30T14:15:42Z</time>
      </trkpt>
      <trkpt lat="24.915440688123894" lon="118.54263867725236">
        <ele>12.579408588819206</ele>
        <time>2024-09-30T14:15:45Z</time>
      </trkpt>
      <trkpt lat="24.915350642185793" lon="118.54267629869526">
        <ele>12.988923675380647</ele>
        <time>2024-09-30T14:15:48Z</time>
      </trkpt>
      <trkpt lat="24.915080436330662" lon="118.54272117729096">
        <ele>11.84529913496226</ele>
        <time>2024-09-30T14:15:57Z</time>
      </trkpt>
      <trkpt lat="24.914933751939493" lon="118.54267148066239">
        <ele>10.547826325520873</ele>
        <time>2024-09-30T14:16:03Z</time>
      </trkpt>
      <trkpt lat="24.914859328899364" lon="118.54262545361249">
        <ele>10.472021443769336</ele>
        <time>2024-09-30T14:16:06Z</time>
      </trkpt>
      <trkpt lat="24.91454724448654" lon="118.5425629164887">
        <ele>10.291233541443944</ele>
        <time>2024-09-30T14:16:18Z</time>
      </trkpt>
      <trkpt lat="24.91447027788586" lon="118.54253569232216">
        <ele>9.641806470230222</ele>
        <time>2024-09-30T14:16:21Z</time>
      </trkpt>
      <trkpt lat="24.91420454586135" lon="118.54254671733574">
        <ele>10.202190108597279</ele>
        <time>2024-09-30T14:16:30Z</time>
      </trkpt>
      <trkpt lat="24.914133023787944" lon="118.54258047637087">
        <ele>9.63316052313894</ele>
        <time>2024-09-30T14:16:33Z</time>
      </trkpt>
      <trkpt lat="24.914048647483497" lon="118.5425884805905">
        <ele>10.04949641879648</ele>
        <time>2024-09-30T14:16:36Z</time>
      </trkpt>
      <trkpt lat="24.91397237244429" lon="118.54263091104542">
        <ele>9.549266142770648</ele>
        <time>2024-09-30T14:16:39Z</time>
      </trkpt>
      <trkpt lat="24.913622509369528" lon="118.54270815213077">
        <ele>9.161436052061617</ele>
        <time>2024-09-30T14:16:51Z</time>
      </trkpt>
      <trkpt lat="24.913336697665898" lon="118.54278097347161">
        <ele>8.161315822973847</ele>
        <time>2024-09-30T14:17:00Z</time>
      </trkpt>
      <trkpt lat="24.913069605716725" lon="118.54285046905159">
        <ele>7.59868155233562</ele>
        <time>2024-09-30T14:17:09Z</time>
      </trkpt>
      <trkpt lat="24.912721694141986" lon="118.54291949402523">
        <ele>8.62886826787144</ele>
        <time>2024-09-30T14:17:21Z</time>
      </trkpt>
      <trkpt lat="24.912403778693147" lon="118.54302141458771">
        <ele>8.361385468393564</ele>
        <time>2024-09-30T14:17:33Z</time>
      </trkpt>
      <trkpt lat="24.912136050472828" lon="118.54310353304624">
        <ele>7.9480378003790975</ele>
        <time>2024-09-30T14:17:42Z</time>
      </trkpt>
      <trkpt lat="24.911811368639142" lon="118.54320370295656">
        <ele>7.83571761008352</ele>
        <time>2024-09-30T14:17:54Z</time>
      </trkpt>
      <trkpt lat="24.911470869135474" lon="118.54326922872696">
        <ele>8.370585395023227</ele>
        <time>2024-09-30T14:18:06Z</time>
      </trkpt>
      <trkpt lat="24.91130078324814" lon="118.54331126370232">
        <ele>8.211425881832838</ele>
        <time>2024-09-30T14:18:12Z</time>
      </trkpt>
      <trkpt lat="24.910953361264152" lon="118.54334730645145">
        <ele>7.709802714176476</ele>
        <time>2024-09-30T14:18:24Z</time>
      </trkpt>
      <trkpt lat="24.910674302931085" lon="118.54334379585072">
        <ele>6.973602675832808</ele>
        <time>2024-09-30T14:18:33Z</time>
      </trkpt>
      <trkpt lat="24.91050043489376" lon="118.54332386018224">
        <ele>7.569733229465783</ele>
        <time>2024-09-30T14:18:39Z</time>
      </trkpt>
      <trkpt lat="24.910298330151882" lon="118.54337353776899">
        <ele>7.464488399215043</ele>
        <time>2024-09-30T14:18:45Z</time>
      </trkpt>
      <trkpt lat="24.909997670223213" lon="118.54339456592592">
        <ele>7.293881241232157</ele>
        <time>2024-09-30T14:18:54Z</time>
      </trkpt>
      <trkpt lat="24.90969899017214" lon="118.54337230437316">
        <ele>7.430857899598777</ele>
        <time>2024-09-30T14:19:03Z</time>
      </trkpt>
      <trkpt lat="24.909533648720465" lon="118.54333468868519">
        <ele>7.981287493370473</ele>
        <time>2024-09-30T14:19:09Z</time>
      </trkpt>
      <trkpt lat="24.90944827800631" lon="118.54335345580049">
        <ele>7.331297928467393</ele>
        <time>2024-09-30T14:19:12Z</time>
      </trkpt>
      <trkpt lat="24.909258931915485" lon="118.5433328117063">
        <ele>7.325728867202997</ele>
        <time>2024-09-30T14:19:18Z</time>
      </trkpt>
      <trkpt lat="24.90896919269291" lon="118.54333160789807">
        <ele>7.783393745310605</ele>
        <time>2024-09-30T14:19:27Z</time>
      </trkpt>
      <trkpt lat="24.908663214106713" lon="118.54335645793115">
        <ele>7.22502376884222</ele>
        <time>2024-09-30T14:19:36Z</time>
      </trkpt>
      <trkpt lat="24.90857548729905" lon="118.54336164856396">
        <ele>7.324872103519738</ele>
        <time>2024-09-30T14:19:39Z</time>
      </trkpt>
      <trkpt lat="24.90848945934162" lon="118.54339042507175">
        <ele>6.9107630886137486</ele>
        <time>2024-09-30T14:19:42Z</time>
      </trkpt>
      <trkpt lat="24.90831343821753" lon="118.54340200350045">
        <ele>7.235595026984811</ele>
        <time>2024-09-30T14:19:48Z</time>
      </trkpt>
      <trkpt lat="24.908255125885606" lon="118.5433807514254">
        <ele>8.01281400769949</ele>
        <time>2024-09-30T14:19:51Z</time>
      </trkpt>
      <trkpt lat="24.907915032517085" lon="118.54340906731015">
        <ele>7.794476542621851</ele>
        <time>2024-09-30T14:20:03Z</time>
      </trkpt>
      <trkpt lat="24.9078341071204" lon="118.54342374298453">
        <ele>8.05567729845643</ele>
        <time>2024-09-30T14:20:06Z</time>
      </trkpt>
      <trkpt lat="24.90772879138993" lon="118.54341099837522">
        <ele>7.882371914573014</ele>
        <time>2024-09-30T14:20:09Z</time>
      </trkpt>
      <trkpt lat="24.9075255066052" lon="118.54333784461522">
        <ele>7.6425226693972945</ele>
        <time>2024-09-30T14:20:15Z</time>
      </trkpt>
      <trkpt lat="24.907457730425705" lon="118.54327734565175">
        <ele>7.384070147760212</ele>
        <time>2024-09-30T14:20:18Z</time>
      </trkpt>
      <trkpt lat="24.90745254857724" lon="118.54319036703681">
        <ele>7.221218122169375</ele>
        <time>2024-09-30T14:20:21Z</time>
      </trkpt>
      <trkpt lat="24.907596707643354" lon="118.54291698442181">
        <ele>7.225232606753707</ele>
        <time>2024-09-30T14:20:30Z</time>
      </trkpt>
      <trkpt lat="24.907711094108304" lon="118.5426312128813">
        <ele>7.92794297914952</ele>
        <time>2024-09-30T14:20:39Z</time>
      </trkpt>
      <trkpt lat="24.90784938539627" lon="118.542266113459">
        <ele>7.791705205105245</ele>
        <time>2024-09-30T14:20:51Z</time>
      </trkpt>
      <trkpt lat="24.90799266533679" lon="118.54189786920338">
        <ele>8.185908251442015</ele>
        <time>2024-09-30T14:21:03Z</time>
      </trkpt>
      <trkpt lat="24.908098371269354" lon="118.5415876011727">
        <ele>10.279259910807014</ele>
        <time>2024-09-30T14:21:15Z</time>
      </trkpt>
      <trkpt lat="24.908210534579844" lon="118.54140160871387">
        <ele>9.799533707089722</ele>
        <time>2024-09-30T14:21:21Z</time>
      </trkpt>
      <trkpt lat="24.908301548042918" lon="118.54118346368281">
        <ele>9.351032426580787</ele>
        <time>2024-09-30T14:21:27Z</time>
      </trkpt>
      <trkpt lat="24.908334847670208" lon="118.54106532268322">
        <ele>8.22106296569109</ele>
        <time>2024-09-30T14:21:30Z</time>
      </trkpt>
      <trkpt lat="24.90849106067138" lon="118.54076759449462">
        <ele>7.38327431678772</ele>
        <time>2024-09-30T14:21:39Z</time>
      </trkpt>
      <trkpt lat="24.90854923770535" lon="118.5406786606874">
        <ele>7.487771078012884</ele>
        <time>2024-09-30T14:21:42Z</time>
      </trkpt>
      <trkpt lat="24.908644747758828" lon="118.54035878894896">
        <ele>7.2755788173526525</ele>
        <time>2024-09-30T14:21:51Z</time>
      </trkpt>
      <trkpt lat="24.908722382831154" lon="118.54002328589834">
        <ele>7.988691105507314</ele>
        <time>2024-09-30T14:22:00Z</time>
      </trkpt>
      <trkpt lat="24.90877982857454" lon="118.53980674116399">
        <ele>7.738696093671024</ele>
        <time>2024-09-30T14:22:06Z</time>
      </trkpt>
      <trkpt lat="24.908799417031364" lon="118.53964133944403">
        <ele>7.364281561225653</ele>
        <time>2024-09-30T14:22:12Z</time>
      </trkpt>
      <trkpt lat="24.908836718836177" lon="118.53956734764724">
        <ele>8.129066015593708</ele>
        <time>2024-09-30T14:22:15Z</time>
      </trkpt>
      <trkpt lat="24.908863702501645" lon="118.53940052084815">
        <ele>8.041109463199973</ele>
        <time>2024-09-30T14:22:21Z</time>
      </trkpt>
      <trkpt lat="24.908990292144082" lon="118.53904695939652">
        <ele>7.533543993718922</ele>
        <time>2024-09-30T14:22:33Z</time>
      </trkpt>
      <trkpt lat="24.909045614699345" lon="118.53874819574175">
        <ele>8.050425748340786</ele>
        <time>2024-09-30T14:22:45Z</time>
      </trkpt>
      <trkpt lat="24.90909091492242" lon="118.53855930101817">
        <ele>8.258769290521741</ele>
        <time>2024-09-30T14:22:51Z</time>
      </trkpt>
      <trkpt lat="24.909100093535542" lon="118.53843490266111">
        <ele>8.00747714471072</ele>
        <time>2024-09-30T14:22:54Z</time>
      </trkpt>
      <trkpt lat="24.909172056519676" lon="118.5381201587434">
        <ele>8.15565312281251</ele>
        <time>2024-09-30T14:23:03Z</time>
      </trkpt>
      <trkpt lat="24.90926331380727" lon="118.53780947993751">
        <ele>7.540673955343664</ele>
        <time>2024-09-30T14:23:12Z</time>
      </trkpt>
      <trkpt lat="24.909277265982777" lon="118.53770256761558">
        <ele>8.292106850072742</ele>
        <time>2024-09-30T14:23:15Z</time>
      </trkpt>
      <trkpt lat="24.90934379523886" lon="118.53751896951337">
        <ele>10.343261794187129</ele>
        <time>2024-09-30T14:23:21Z</time>
      </trkpt>
      <trkpt lat="24.90941290411558" lon="118.53712816241384">
        <ele>10.022139368578792</ele>
        <time>2024-09-30T14:23:33Z</time>
      </trkpt>
      <trkpt lat="24.909507064185824" lon="118.53681330260146">
        <ele>9.736191930249333</ele>
        <time>2024-09-30T14:23:42Z</time>
      </trkpt>
      <trkpt lat="24.90958102958009" lon="118.536512294395">
        <ele>10.16934827901423</ele>
        <time>2024-09-30T14:23:51Z</time>
      </trkpt>
      <trkpt lat="24.909627348301704" lon="118.53631219084669">
        <ele>10.61711867339909</ele>
        <time>2024-09-30T14:23:57Z</time>
      </trkpt>
      <trkpt lat="24.909636748294826" lon="118.53592603289984">
        <ele>10.625314167700708</ele>
        <time>2024-09-30T14:24:09Z</time>
      </trkpt>
      <trkpt lat="24.90969241361962" lon="118.53562105651028">
        <ele>9.726658777333796</ele>
        <time>2024-09-30T14:24:18Z</time>
      </trkpt>
      <trkpt lat="24.90971725569488" lon="118.53552853878766">
        <ele>10.081858344376087</ele>
        <time>2024-09-30T14:24:21Z</time>
      </trkpt>
      <trkpt lat="24.909738591711175" lon="118.53521693163367">
        <ele>9.882479336112738</ele>
        <time>2024-09-30T14:24:30Z</time>
      </trkpt>
      <trkpt lat="24.909788052680636" lon="118.5348261208214">
        <ele>7.920271111652255</ele>
        <time>2024-09-30T14:24:42Z</time>
      </trkpt>
      <trkpt lat="24.90982145748924" lon="118.53449494327343">
        <ele>7.7939928425475955</ele>
        <time>2024-09-30T14:24:54Z</time>
      </trkpt>
      <trkpt lat="24.909856760773494" lon="118.53418302220841">
        <ele>7.516766977496445</ele>
        <time>2024-09-30T14:25:03Z</time>
      </trkpt>
      <trkpt lat="24.90986476050268" lon="118.53407875246614">
        <ele>7.1309935469180346</ele>
        <time>2024-09-30T14:25:06Z</time>
      </trkpt>
      <trkpt lat="24.909897236846135" lon="118.53398294632177">
        <ele>6.820504236035049</ele>
        <time>2024-09-30T14:25:09Z</time>
      </trkpt>
      <trkpt lat="24.90994416680109" lon="118.53390878927779">
        <ele>7.418348863720894</ele>
        <time>2024-09-30T14:25:12Z</time>
      </trkpt>
      <trkpt lat="24.91001501629095" lon="118.53385058436164">
        <ele>7.131513903848827</ele>
        <time>2024-09-30T14:25:15Z</time>
      </trkpt>
      <trkpt lat="24.910091901185147" lon="118.53381216370259">
        <ele>7.480093204416335</ele>
        <time>2024-09-30T14:25:18Z</time>
      </trkpt>
      <trkpt lat="24.910255142990803" lon="118.53381535181862">
        <ele>8.450150177814066</ele>
        <time>2024-09-30T14:25:24Z</time>
      </trkpt>
      <trkpt lat="24.9103434477529" lon="118.5337850784162">
        <ele>9.076608910225332</ele>
        <time>2024-09-30T14:25:27Z</time>
      </trkpt>
      <trkpt lat="24.910534921384368" lon="118.53375905617003">
        <ele>9.620761318132281</ele>
        <time>2024-09-30T14:25:33Z</time>
      </trkpt>
      <trkpt lat="24.910825621771693" lon="118.53377116618158">
        <ele>10.20833485480398</ele>
        <time>2024-09-30T14:25:42Z</time>
      </trkpt>
      <trkpt lat="24.911112870763763" lon="118.53376486540134">
        <ele>10.275163497775793</ele>
        <time>2024-09-30T14:25:51Z</time>
      </trkpt>
      <trkpt lat="24.91138738400781" lon="118.53376641697606">
        <ele>11.861444806680083</ele>
        <time>2024-09-30T14:26:00Z</time>
      </trkpt>
      <trkpt lat="24.911741524163297" lon="118.53374870439497">
        <ele>9.525756078772247</ele>
        <time>2024-09-30T14:26:12Z</time>
      </trkpt>
      <trkpt lat="24.912034749993275" lon="118.53377419860342">
        <ele>10.30790862813592</ele>
        <time>2024-09-30T14:26:21Z</time>
      </trkpt>
      <trkpt lat="24.91221903964219" lon="118.53379927294199">
        <ele>9.954218004830182</ele>
        <time>2024-09-30T14:26:27Z</time>
      </trkpt>
      <trkpt lat="24.912408413619996" lon="118.53376235122427">
        <ele>9.799858557060361</ele>
        <time>2024-09-30T14:26:33Z</time>
      </trkpt>
      <trkpt lat="24.912769135591162" lon="118.53376162771539">
        <ele>10.567674058489501</ele>
        <time>2024-09-30T14:26:45Z</time>
      </trkpt>
      <trkpt lat="24.912851979289023" lon="118.5337611913845">
        <ele>10.302488467656076</ele>
        <time>2024-09-30T14:26:48Z</time>
      </trkpt>
      <trkpt lat="24.913124921841142" lon="118.5338203588781">
        <ele>10.948043924756348</ele>
        <time>2024-09-30T14:26:57Z</time>
      </trkpt>
      <trkpt lat="24.913393990242536" lon="118.53386183862892">
        <ele>9.63606420531869</ele>
        <time>2024-09-30T14:27:06Z</time>
      </trkpt>
      <trkpt lat="24.91357693522649" lon="118.53388334772787">
        <ele>10.099226407706738</ele>
        <time>2024-09-30T14:27:12Z</time>
      </trkpt>
      <trkpt lat="24.91375176360021" lon="118.53394680433765">
        <ele>11.174280693754554</ele>
        <time>2024-09-30T14:27:18Z</time>
      </trkpt>
      <trkpt lat="24.91393992867656" lon="118.53397039964297">
        <ele>10.459442677907646</ele>
        <time>2024-09-30T14:27:24Z</time>
      </trkpt>
      <trkpt lat="24.91402783895866" lon="118.53396252758508">
        <ele>10.540455569513142</ele>
        <time>2024-09-30T14:27:27Z</time>
      </trkpt>
      <trkpt lat="24.914164868408037" lon="118.53400731274418">
        <ele>10.524235690943897</ele>
        <time>2024-09-30T14:27:33Z</time>
      </trkpt>
      <trkpt lat="24.91445230189216" lon="118.53403548388471">
        <ele>11.53241384588182</ele>
        <time>2024-09-30T14:27:42Z</time>
      </trkpt>
      <trkpt lat="24.9147452883135" lon="118.53408944566345">
        <ele>11.916258254088461</ele>
        <time>2024-09-30T14:27:51Z</time>
      </trkpt>
      <trkpt lat="24.9150432814178" lon="118.5341459836426">
        <ele>13.956176324747503</ele>
        <time>2024-09-30T14:28:00Z</time>
      </trkpt>
      <trkpt lat="24.91524140062668" lon="118.53415919794443">
        <ele>13.478146935813129</ele>
        <time>2024-09-30T14:28:06Z</time>
      </trkpt>
    </trkseg>
  </trk>
</gpx>