<?xml version="1.0" encoding="UTF-8"?>
<gpx xmlns="http://www.topografix.com/GPX/1/1" xmlns:gpxtpx="http://www.garmin.com/xmlschemas/TrackPointExtension/v1" xmlns:xsi="http://www.w3.org/2001/XMLSchema-instance" xsi:schemaLocation="http://www.topografix.com/GPX/1/1 http://www.topografix.com/GPX/1/1/gpx.xsd" version="1.1" creator="gpx.py -- https://github.com/tkrajina/gpxpy">
  <trk>
    <name>gpx from keep</name>
    <type>Run</type>
    <trkseg>
      <trkpt lat="24.910622632458207" lon="118.53855449382827">
        <ele>10.068679711781442</ele>
        <time>2024-09-20T13:59:48Z</time>
      </trkpt>
      <trkpt lat="24.91032403069646" lon="118.53848164185297">
        <ele>9.878793805837631</ele>
        <time>2024-09-20T13:59:57Z</time>
      </trkpt>
      <trkpt lat="24.910036002855893" lon="118.53841126977605">
        <ele>8.916258407756686</ele>
        <time>2024-09-20T14:00:06Z</time>
      </trkpt>
      <trkpt lat="24.90974123755771" lon="118.53832772695587">
        <ele>8.015487800352275</ele>
        <time>2024-09-20T14:00:15Z</time>
      </trkpt>
      <trkpt lat="24.909443162014067" lon="118.53833186977575">
        <ele>7.301579709164798</ele>
        <time>2024-09-20T14:00:24Z</time>
      </trkpt>
      <trkpt lat="24.90922114658362" lon="118.53833458335082">
        <ele>7.596997190266848</ele>
        <time>2024-09-20T14:00:30Z</time>
      </trkpt>
      <trkpt lat="24.909102567503137" lon="118.53835319815708">
        <ele>8.067380711436272</ele>
        <time>2024-09-20T14:00:33Z</time>
      </trkpt>
      <trkpt lat="24.908944167338152" lon="118.53824370946487">
        <ele>7.6959214098751545</ele>
        <time>2024-09-20T14:00:39Z</time>
      </trkpt>
      <trkpt lat="24.909041929011973" lon="118.53791950633308">
        <ele>8.2671285783872</ele>
        <time>2024-09-20T14:00:48Z</time>
      </trkpt>
      <trkpt lat="24.90910101226005" lon="118.53769706298391">
        <ele>7.964461515657604</ele>
        <time>2024-09-20T14:00:54Z</time>
      </trkpt>
      <trkpt lat="24.90919970403546" lon="118.53749782275032">
        <ele>8.645470460876822</ele>
        <time>2024-09-20T14:01:00Z</time>
      </trkpt>
      <trkpt lat="24.909273564239232" lon="118.53721131369362">
        <ele>9.54851885419339</ele>
        <time>2024-09-20T14:01:09Z</time>
      </trkpt>
      <trkpt lat="24.909300118865787" lon="118.53710668122521">
        <ele>9.715754422359169</ele>
        <time>2024-09-20T14:01:12Z</time>
      </trkpt>
      <trkpt lat="24.909382863873635" lon="118.53691029418026">
        <ele>9.84499464649707</ele>
        <time>2024-09-20T14:01:18Z</time>
      </trkpt>
      <trkpt lat="24.909434189682855" lon="118.53660380181839">
        <ele>9.611394212581217</ele>
        <time>2024-09-20T14:01:27Z</time>
      </trkpt>
      <trkpt lat="24.90949986932082" lon="118.53631065526355">
        <ele>9.782066869549453</ele>
        <time>2024-09-20T14:01:36Z</time>
      </trkpt>
      <trkpt lat="24.90950864384067" lon="118.53609949015578">
        <ele>10.641379141248763</ele>
        <time>2024-09-20T14:01:42Z</time>
      </trkpt>
      <trkpt lat="24.909537512097835" lon="118.53600625861034">
        <ele>9.882857692427933</ele>
        <time>2024-09-20T14:01:45Z</time>
      </trkpt>
      <trkpt lat="24.90957547888116" lon="118.53569111635693">
        <ele>9.937329451553524</ele>
        <time>2024-09-20T14:01:54Z</time>
      </trkpt>
      <trkpt lat="24.909616037493684" lon="118.5353710152579">
        <ele>10.119098732247949</ele>
        <time>2024-09-20T14:02:03Z</time>
      </trkpt>
      <trkpt lat="24.909652297029396" lon="118.53505482790122">
        <ele>8.667835883796215</ele>
        <time>2024-09-20T14:02:12Z</time>
      </trkpt>
      <trkpt lat="24.90970193861457" lon="118.53475419312042">
        <ele>7.518659881316125</ele>
        <time>2024-09-20T14:02:21Z</time>
      </trkpt>
      <trkpt lat="24.909704377528044" lon="118.5346473752787">
        <ele>7.548868907615542</ele>
        <time>2024-09-20T14:02:24Z</time>
      </trkpt>
      <trkpt lat="24.90974323472846" lon="118.5344514710764">
        <ele>7.664024789817631</ele>
        <time>2024-09-20T14:02:30Z</time>
      </trkpt>
      <trkpt lat="24.909743123261133" lon="118.53434229043204">
        <ele>7.773798949085176</ele>
        <time>2024-09-20T14:02:33Z</time>
      </trkpt>
      <trkpt lat="24.90978283863953" lon="118.53404463635843">
        <ele>7.83913126681</ele>
        <time>2024-09-20T14:02:42Z</time>
      </trkpt>
      <trkpt lat="24.909797345829848" lon="118.53394428239648">
        <ele>7.686002439819276</ele>
        <time>2024-09-20T14:02:45Z</time>
      </trkpt>
      <trkpt lat="24.90984521290708" lon="118.53385678500221">
        <ele>7.519301428459585</ele>
        <time>2024-09-20T14:02:48Z</time>
      </trkpt>
      <trkpt lat="24.909918792857383" lon="118.53379782742485">
        <ele>7.614619459025562</ele>
        <time>2024-09-20T14:02:51Z</time>
      </trkpt>
      <trkpt lat="24.910001818989763" lon="118.53376064039195">
        <ele>7.911477379500866</ele>
        <time>2024-09-20T14:02:54Z</time>
      </trkpt>
      <trkpt lat="24.91035948318931" lon="118.53372187474936">
        <ele>9.738627719692886</ele>
        <time>2024-09-20T14:03:06Z</time>
      </trkpt>
      <trkpt lat="24.910448874992944" lon="118.53370189733796">
        <ele>9.90103313792497</ele>
        <time>2024-09-20T14:03:09Z</time>
      </trkpt>
      <trkpt lat="24.91073741581603" lon="118.53371528086089">
        <ele>10.478158455342054</ele>
        <time>2024-09-20T14:03:18Z</time>
      </trkpt>
      <trkpt lat="24.911023841252764" lon="118.5337200631006">
        <ele>10.24204231146723</ele>
        <time>2024-09-20T14:03:27Z</time>
      </trkpt>
      <trkpt lat="24.911310759453844" lon="118.53370311685416">
        <ele>9.959997568279505</ele>
        <time>2024-09-20T14:03:36Z</time>
      </trkpt>
      <trkpt lat="24.91160007112272" lon="118.53374288204924">
        <ele>10.214380905032158</ele>
        <time>2024-09-20T14:03:45Z</time>
      </trkpt>
      <trkpt lat="24.91177678485944" lon="118.53372980249651">
        <ele>10.586313514970243</ele>
        <time>2024-09-20T14:03:51Z</time>
      </trkpt>
      <trkpt lat="24.912073064198744" lon="118.53373988063537">
        <ele>10.053381538949907</ele>
        <time>2024-09-20T14:04:00Z</time>
      </trkpt>
      <trkpt lat="24.912360056512625" lon="118.53370295743167">
        <ele>10.784151644445956</ele>
        <time>2024-09-20T14:04:09Z</time>
      </trkpt>
      <trkpt lat="24.91263717271201" lon="118.53371394667427">
        <ele>10.45311062503606</ele>
        <time>2024-09-20T14:04:18Z</time>
      </trkpt>
      <trkpt lat="24.912730767518664" lon="118.5337040248022">
        <ele>11.013589967042208</ele>
        <time>2024-09-20T14:04:21Z</time>
      </trkpt>
      <trkpt lat="24.9128193289021" lon="118.53371857726981">
        <ele>10.741451263427734</ele>
        <time>2024-09-20T14:04:24Z</time>
      </trkpt>
      <trkpt lat="24.913067693987237" lon="118.53382292421972">
        <ele>10.412082156166434</ele>
        <time>2024-09-20T14:04:33Z</time>
      </trkpt>
      <trkpt lat="24.913408989405383" lon="118.53386313445345">
        <ele>9.869460442103446</ele>
        <time>2024-09-20T14:04:45Z</time>
      </trkpt>
      <trkpt lat="24.91376689847562" lon="118.53390662752913">
        <ele>10.62374116666615</ele>
        <time>2024-09-20T14:04:57Z</time>
      </trkpt>
      <trkpt lat="24.913962063978403" lon="118.53391661770614">
        <ele>10.589352750219405</ele>
        <time>2024-09-20T14:05:03Z</time>
      </trkpt>
      <trkpt lat="24.91423620522399" lon="118.5339775359317">
        <ele>10.768027260899544</ele>
        <time>2024-09-20T14:05:12Z</time>
      </trkpt>
      <trkpt lat="24.91451094134524" lon="118.53401737051698">
        <ele>12.364224279299378</ele>
        <time>2024-09-20T14:05:21Z</time>
      </trkpt>
      <trkpt lat="24.914853258726602" lon="118.53408146938744">
        <ele>12.947687328793108</ele>
        <time>2024-09-20T14:05:33Z</time>
      </trkpt>
      <trkpt lat="24.9151289175668" lon="118.53411845052254">
        <ele>12.8474931884557</ele>
        <time>2024-09-20T14:05:42Z</time>
      </trkpt>
      <trkpt lat="24.915311413886712" lon="118.53412820853421">
        <ele>12.644724509678781</ele>
        <time>2024-09-20T14:05:48Z</time>
      </trkpt>
      <trkpt lat="24.915662170913212" lon="118.53420077108366">
        <ele>12.833644409663975</ele>
        <time>2024-09-20T14:06:00Z</time>
      </trkpt>
      <trkpt lat="24.91584147213671" lon="118.5342050697941">
        <ele>12.656131298281252</ele>
        <time>2024-09-20T14:06:06Z</time>
      </trkpt>
      <trkpt lat="24.9160132222066" lon="118.53427379719913">
        <ele>12.810999331064522</ele>
        <time>2024-09-20T14:06:12Z</time>
      </trkpt>
      <trkpt lat="24.916284202288253" lon="118.534333887708">
        <ele>12.391411914490163</ele>
        <time>2024-09-20T14:06:21Z</time>
      </trkpt>
      <trkpt lat="24.9166461108683" lon="118.5343834947235">
        <ele>13.81765113119036</ele>
        <time>2024-09-20T14:06:33Z</time>
      </trkpt>
      <trkpt lat="24.916913709376345" lon="118.53443037669956">
        <ele>14.693264743313193</ele>
        <time>2024-09-20T14:06:42Z</time>
      </trkpt>
      <trkpt lat="24.917191639998197" lon="118.53449496698047">
        <ele>14.780487942509353</ele>
        <time>2024-09-20T14:06:51Z</time>
      </trkpt>
      <trkpt lat="24.917543453990934" lon="118.53457529524071">
        <ele>14.274878771975636</ele>
        <time>2024-09-20T14:07:03Z</time>
      </trkpt>
      <trkpt lat="24.917731211211496" lon="118.53463513777724">
        <ele>14.423255747184157</ele>
        <time>2024-09-20T14:07:09Z</time>
      </trkpt>
      <trkpt lat="24.91801181467377" lon="118.53467704955139">
        <ele>14.969780969433486</ele>
        <time>2024-09-20T14:07:18Z</time>
      </trkpt>
      <trkpt lat="24.918355150665082" lon="118.53480602160538">
        <ele>13.356439985334873</ele>
        <time>2024-09-20T14:07:30Z</time>
      </trkpt>
      <trkpt lat="24.91844752793811" lon="118.53484142456816">
        <ele>13.02371178381145</ele>
        <time>2024-09-20T14:07:33Z</time>
      </trkpt>
      <trkpt lat="24.918503364051173" lon="118.53490449974865">
        <ele>12.851635568775237</ele>
        <time>2024-09-20T14:07:36Z</time>
      </trkpt>
      <trkpt lat="24.918580347941738" lon="118.53507509599586">
        <ele>12.418195600621402</ele>
        <time>2024-09-20T14:07:42Z</time>
      </trkpt>
      <trkpt lat="24.918579255326765" lon="118.53516876935936">
        <ele>12.017617590725422</ele>
        <time>2024-09-20T14:07:45Z</time>
      </trkpt>
      <trkpt lat="24.918551133785368" lon="118.53526808745735">
        <ele>11.40798002295196</ele>
        <time>2024-09-20T14:07:48Z</time>
      </trkpt>
      <trkpt lat="24.918428532273175" lon="118.53554821016203">
        <ele>10.77122642006725</ele>
        <time>2024-09-20T14:07:57Z</time>
      </trkpt>
      <trkpt lat="24.918332630096803" lon="118.53583173487084">
        <ele>10.30119527503848</ele>
        <time>2024-09-20T14:08:06Z</time>
      </trkpt>
      <trkpt lat="24.918265107278415" lon="118.53600901476545">
        <ele>10.133076285943389</ele>
        <time>2024-09-20T14:08:12Z</time>
      </trkpt>
      <trkpt lat="24.91811521449308" lon="118.53625915422224">
        <ele>10.101398540660739</ele>
        <time>2024-09-20T14:08:21Z</time>
      </trkpt>
      <trkpt lat="24.917995505768047" lon="118.53654071001992">
        <ele>9.7671517431736</ele>
        <time>2024-09-20T14:08:30Z</time>
      </trkpt>
      <trkpt lat="24.917918343398235" lon="118.53686768809706">
        <ele>10.078529166989028</ele>
        <time>2024-09-20T14:08:42Z</time>
      </trkpt>
      <trkpt lat="24.91785611598155" lon="118.53705051235825">
        <ele>9.872567253187299</ele>
        <time>2024-09-20T14:08:48Z</time>
      </trkpt>
      <trkpt lat="24.917779233191972" lon="118.5371307976083">
        <ele>10.02583393920213</ele>
        <time>2024-09-20T14:08:51Z</time>
      </trkpt>
      <trkpt lat="24.91768569942074" lon="118.53732698697469">
        <ele>9.644630914554</ele>
        <time>2024-09-20T14:08:57Z</time>
      </trkpt>
      <trkpt lat="24.91766241306332" lon="118.53742403443907">
        <ele>9.765081523917615</ele>
        <time>2024-09-20T14:09:00Z</time>
      </trkpt>
      <trkpt lat="24.917535952369843" lon="118.53771309019926">
        <ele>10.003423445858061</ele>
        <time>2024-09-20T14:09:09Z</time>
      </trkpt>
      <trkpt lat="24.91751257270841" lon="118.53781262230443">
        <ele>10.08640865329653</ele>
        <time>2024-09-20T14:09:12Z</time>
      </trkpt>
      <trkpt lat="24.917369298337956" lon="118.53807769916466">
        <ele>9.725603734143078</ele>
        <time>2024-09-20T14:09:21Z</time>
      </trkpt>
      <trkpt lat="24.917280182653517" lon="118.5383804286984">
        <ele>10.1742840744555</ele>
        <time>2024-09-20T14:09:30Z</time>
      </trkpt>
      <trkpt lat="24.917255528431305" lon="118.5384910646807">
        <ele>9.87225307058543</ele>
        <time>2024-09-20T14:09:33Z</time>
      </trkpt>
      <trkpt lat="24.917110793938704" lon="118.53879628490488">
        <ele>10.521333876997232</ele>
        <time>2024-09-20T14:09:43Z</time>
      </trkpt>
      <trkpt lat="24.91707964202649" lon="118.53887286881857">
        <ele>10.633758277632296</ele>
        <time>2024-09-20T14:09:46Z</time>
      </trkpt>
      <trkpt lat="24.917046634011694" lon="118.539054654521">
        <ele>10.015614612028003</ele>
        <time>2024-09-20T14:09:52Z</time>
      </trkpt>
      <trkpt lat="24.916885700016078" lon="118.53932755753883">
        <ele>9.891575659625232</ele>
        <time>2024-09-20T14:10:01Z</time>
      </trkpt>
      <trkpt lat="24.916717969321805" lon="118.53957244426145">
        <ele>9.948430839926004</ele>
        <time>2024-09-20T14:10:10Z</time>
      </trkpt>
      <trkpt lat="24.91656837570196" lon="118.53984879149296">
        <ele>10.42799744848162</ele>
        <time>2024-09-20T14:10:19Z</time>
      </trkpt>
      <trkpt lat="24.916451010703398" lon="118.5400999881513">
        <ele>11.327993443235755</ele>
        <time>2024-09-20T14:10:28Z</time>
      </trkpt>
      <trkpt lat="24.91639400958737" lon="118.54040504598711">
        <ele>12.684833027422428</ele>
        <time>2024-09-20T14:10:37Z</time>
      </trkpt>
      <trkpt lat="24.91638253129421" lon="118.54050535030431">
        <ele>12.976852929219604</ele>
        <time>2024-09-20T14:10:40Z</time>
      </trkpt>
      <trkpt lat="24.916406399742343" lon="118.54080848737519">
        <ele>12.553699919953942</ele>
        <time>2024-09-20T14:10:49Z</time>
      </trkpt>
      <trkpt lat="24.91645151039661" lon="118.54112896077275">
        <ele>13.341723539866507</ele>
        <time>2024-09-20T14:10:58Z</time>
      </trkpt>
      <trkpt lat="24.916473925864175" lon="118.54123153538256">
        <ele>13.26195817720145</ele>
        <time>2024-09-20T14:11:01Z</time>
      </trkpt>
      <trkpt lat="24.916624389104403" lon="118.54152279927774">
        <ele>12.417719702236354</ele>
        <time>2024-09-20T14:11:10Z</time>
      </trkpt>
      <trkpt lat="24.916593538424372" lon="118.5416317651247">
        <ele>12.772057170048356</ele>
        <time>2024-09-20T14:11:13Z</time>
      </trkpt>
      <trkpt lat="24.916528432499298" lon="118.54173511360443">
        <ele>12.947697383351624</ele>
        <time>2024-09-20T14:11:16Z</time>
      </trkpt>
      <trkpt lat="24.916497622478374" lon="118.54182235710192">
        <ele>12.630374527536333</ele>
        <time>2024-09-20T14:11:19Z</time>
      </trkpt>
      <trkpt lat="24.9164051202453" lon="118.5418748378416">
        <ele>11.809315387159586</ele>
        <time>2024-09-20T14:11:22Z</time>
      </trkpt>
      <trkpt lat="24.916117228708725" lon="118.54199319316001">
        <ele>12.552090724930167</ele>
        <time>2024-09-20T14:11:31Z</time>
      </trkpt>
      <trkpt lat="24.915796700045505" lon="118.54216898526177">
        <ele>12.22009034641087</ele>
        <time>2024-09-20T14:11:40Z</time>
      </trkpt>
      <trkpt lat="24.91560006239641" lon="118.54225285176216">
        <ele>12.621987675316632</ele>
        <time>2024-09-20T14:11:46Z</time>
      </trkpt>
      <trkpt lat="24.915290813202205" lon="118.54239873156573">
        <ele>12.425776936113834</ele>
        <time>2024-09-20T14:11:55Z</time>
      </trkpt>
      <trkpt lat="24.915095213680104" lon="118.54248403437495">
        <ele>11.92455639783293</ele>
        <time>2024-09-20T14:12:01Z</time>
      </trkpt>
      <trkpt lat="24.914940261213907" lon="118.5424769448239">
        <ele>10.992412355728447</ele>
        <time>2024-09-20T14:12:07Z</time>
      </trkpt>
      <trkpt lat="24.91487019104107" lon="118.54248949402796">
        <ele>10.702428868040442</ele>
        <time>2024-09-20T14:12:10Z</time>
      </trkpt>
      <trkpt lat="24.91478456408617" lon="118.54247479166646">
        <ele>10.634256761521101</ele>
        <time>2024-09-20T14:12:13Z</time>
      </trkpt>
      <trkpt lat="24.914477160321464" lon="118.54248278371601">
        <ele>10.092613843269646</ele>
        <time>2024-09-20T14:12:28Z</time>
      </trkpt>
      <trkpt lat="24.91428019359683" lon="118.54250117446666">
        <ele>10.194700903259218</ele>
        <time>2024-09-20T14:12:34Z</time>
      </trkpt>
      <trkpt lat="24.914090190376637" lon="118.54255986042286">
        <ele>10.099736616946757</ele>
        <time>2024-09-20T14:12:40Z</time>
      </trkpt>
      <trkpt lat="24.913774495143322" lon="118.54262290700326">
        <ele>9.974334005266428</ele>
        <time>2024-09-20T14:12:49Z</time>
      </trkpt>
      <trkpt lat="24.913589682847622" lon="118.54266054815349">
        <ele>9.447789299301803</ele>
        <time>2024-09-20T14:12:55Z</time>
      </trkpt>
      <trkpt lat="24.91329661942984" lon="118.5427790716394">
        <ele>9.091395212337375</ele>
        <time>2024-09-20T14:13:04Z</time>
      </trkpt>
      <trkpt lat="24.913114760227533" lon="118.54278678937922">
        <ele>8.40362088009715</ele>
        <time>2024-09-20T14:13:10Z</time>
      </trkpt>
      <trkpt lat="24.912778637675682" lon="118.54286909490139">
        <ele>8.849627531133592</ele>
        <time>2024-09-20T14:13:22Z</time>
      </trkpt>
      <trkpt lat="24.91250446420916" lon="118.54294978184511">
        <ele>9.210860501974821</ele>
        <time>2024-09-20T14:13:31Z</time>
      </trkpt>
      <trkpt lat="24.912169689136963" lon="118.54304597609044">
        <ele>8.52015182748437</ele>
        <time>2024-09-20T14:13:43Z</time>
      </trkpt>
      <trkpt lat="24.911822582666982" lon="118.54313862594871">
        <ele>8.12288014870137</ele>
        <time>2024-09-20T14:13:55Z</time>
      </trkpt>
      <trkpt lat="24.91164899370312" lon="118.54316679676961">
        <ele>8.829814372584224</ele>
        <time>2024-09-20T14:14:01Z</time>
      </trkpt>
      <trkpt lat="24.911549360442876" lon="118.5432004980439">
        <ele>8.463747842237353</ele>
        <time>2024-09-20T14:14:04Z</time>
      </trkpt>
      <trkpt lat="24.91119588297904" lon="118.54326786503968">
        <ele>8.502059206366539</ele>
        <time>2024-09-20T14:14:16Z</time>
      </trkpt>
      <trkpt lat="24.910917863307073" lon="118.54329767421272">
        <ele>7.8820098657161</ele>
        <time>2024-09-20T14:14:25Z</time>
      </trkpt>
      <trkpt lat="24.910685523536092" lon="118.54330123845176">
        <ele>8.009619609452784</ele>
        <time>2024-09-20T14:14:34Z</time>
      </trkpt>
      <trkpt lat="24.9106174553188" lon="118.54328614702978">
        <ele>7.753366315737367</ele>
        <time>2024-09-20T14:14:37Z</time>
      </trkpt>
      <trkpt lat="24.910349134439148" lon="118.54330191726972">
        <ele>7.350977415218949</ele>
        <time>2024-09-20T14:14:46Z</time>
      </trkpt>
      <trkpt lat="24.910021145768397" lon="118.54334291067887">
        <ele>7.272417579777539</ele>
        <time>2024-09-20T14:14:55Z</time>
      </trkpt>
      <trkpt lat="24.909689133321713" lon="118.54336870912302">
        <ele>7.794013197533786</ele>
        <time>2024-09-20T14:15:04Z</time>
      </trkpt>
      <trkpt lat="24.909383712277815" lon="118.54337103526618">
        <ele>7.650935357436538</ele>
        <time>2024-09-20T14:15:13Z</time>
      </trkpt>
      <trkpt lat="24.909094781166125" lon="118.54333414240578">
        <ele>7.532163412310183</ele>
        <time>2024-09-20T14:15:22Z</time>
      </trkpt>
      <trkpt lat="24.908776873878626" lon="118.54330924631297">
        <ele>7.59246835578233</ele>
        <time>2024-09-20T14:15:31Z</time>
      </trkpt>
      <trkpt lat="24.908562287440937" lon="118.54333845933938">
        <ele>7.884993572719395</ele>
        <time>2024-09-20T14:15:37Z</time>
      </trkpt>
      <trkpt lat="24.90828614413943" lon="118.54333842807014">
        <ele>7.555631319060922</ele>
        <time>2024-09-20T14:15:46Z</time>
      </trkpt>
      <trkpt lat="24.907922685414796" lon="118.54335729092573">
        <ele>7.873049070127308</ele>
        <time>2024-09-20T14:15:58Z</time>
      </trkpt>
      <trkpt lat="24.90763120825277" lon="118.54335863425685">
        <ele>7.780476932413876</ele>
        <time>2024-09-20T14:16:07Z</time>
      </trkpt>
      <trkpt lat="24.90745601160162" lon="118.54329929629898">
        <ele>8.278548691421747</ele>
        <time>2024-09-20T14:16:13Z</time>
      </trkpt>
      <trkpt lat="24.90739227914016" lon="118.54322981968915">
        <ele>8.214602841064334</ele>
        <time>2024-09-20T14:16:16Z</time>
      </trkpt>
      <trkpt lat="24.907380585548896" lon="118.54313888611807">
        <ele>8.404685121029615</ele>
        <time>2024-09-20T14:16:19Z</time>
      </trkpt>
      <trkpt lat="24.907517471754012" lon="118.54286182695469">
        <ele>7.7650458458811045</ele>
        <time>2024-09-20T14:16:28Z</time>
      </trkpt>
      <trkpt lat="24.907537965595882" lon="118.54275953893348">
        <ele>7.739343986846507</ele>
        <time>2024-09-20T14:16:31Z</time>
      </trkpt>
      <trkpt lat="24.907668465067186" lon="118.54239925958535">
        <ele>8.546089224517345</ele>
        <time>2024-09-20T14:16:43Z</time>
      </trkpt>
      <trkpt lat="24.907740120664727" lon="118.54220449266681">
        <ele>8.585693644359708</ele>
        <time>2024-09-20T14:16:49Z</time>
      </trkpt>
      <trkpt lat="24.907804376045913" lon="118.54211825739841">
        <ele>8.3830172624439</ele>
        <time>2024-09-20T14:16:52Z</time>
      </trkpt>
      <trkpt lat="24.90789519372104" lon="118.54189892941766">
        <ele>8.650135030038655</ele>
        <time>2024-09-20T14:16:58Z</time>
      </trkpt>
      <trkpt lat="24.907936663716526" lon="118.54168922422438">
        <ele>9.742531900294125</ele>
        <time>2024-09-20T14:17:04Z</time>
      </trkpt>
      <trkpt lat="24.907986699711937" lon="118.5415559389686">
        <ele>9.859662936069071</ele>
        <time>2024-09-20T14:17:10Z</time>
      </trkpt>
      <trkpt lat="24.907984848921462" lon="118.54149255158303">
        <ele>9.868567889556289</ele>
        <time>2024-09-20T14:17:13Z</time>
      </trkpt>
      <trkpt lat="24.90803950260786" lon="118.54140926630919">
        <ele>10.094596045091748</ele>
        <time>2024-09-20T14:17:16Z</time>
      </trkpt>
      <trkpt lat="24.90805968821178" lon="118.54133029312797">
        <ele>10.311768726445735</ele>
        <time>2024-09-20T14:17:19Z</time>
      </trkpt>
      <trkpt lat="24.908191774101848" lon="118.54108223024318">
        <ele>9.864320203661919</ele>
        <time>2024-09-20T14:17:25Z</time>
      </trkpt>
      <trkpt lat="24.90825408599608" lon="118.54084515195761">
        <ele>9.753477815538645</ele>
        <time>2024-09-20T14:17:31Z</time>
      </trkpt>
      <trkpt lat="24.908307187444134" lon="118.54076001383476">
        <ele>9.017213859595358</ele>
        <time>2024-09-20T14:17:34Z</time>
      </trkpt>
      <trkpt lat="24.908399449881713" lon="118.54068837681048">
        <ele>8.071136365644634</ele>
        <time>2024-09-20T14:17:37Z</time>
      </trkpt>
      <trkpt lat="24.90845802965405" lon="118.54059096502054">
        <ele>8.565670935437083</ele>
        <time>2024-09-20T14:17:40Z</time>
      </trkpt>
      <trkpt lat="24.908475873521578" lon="118.54049616796362">
        <ele>8.746974349021912</ele>
        <time>2024-09-20T14:17:44Z</time>
      </trkpt>
      <trkpt lat="24.908519450999016" lon="118.54043792772187">
        <ele>8.383589269593358</ele>
        <time>2024-09-20T14:17:47Z</time>
      </trkpt>
      <trkpt lat="24.90861766116393" lon="118.54007215467914">
        <ele>8.048990409821272</ele>
        <time>2024-09-20T14:17:56Z</time>
      </trkpt>
      <trkpt lat="24.90870378185004" lon="118.53983093996403">
        <ele>7.450776643119752</ele>
        <time>2024-09-20T14:18:02Z</time>
      </trkpt>
      <trkpt lat="24.90871829913258" lon="118.53958300456418">
        <ele>7.931901333853602</ele>
        <time>2024-09-20T14:18:08Z</time>
      </trkpt>
      <trkpt lat="24.90879371025008" lon="118.539269386238">
        <ele>7.55279406812042</ele>
        <time>2024-09-20T14:18:18Z</time>
      </trkpt>
      <trkpt lat="24.908869394635936" lon="118.53893471724612">
        <ele>7.543456306681037</ele>
        <time>2024-09-20T14:18:29Z</time>
      </trkpt>
      <trkpt lat="24.908944836436916" lon="118.53854661749982">
        <ele>7.482649167068303</ele>
        <time>2024-09-20T14:18:41Z</time>
      </trkpt>
      <trkpt lat="24.908985790045012" lon="118.5383384916418">
        <ele>7.542446142993867</ele>
        <time>2024-09-20T14:18:47Z</time>
      </trkpt>
      <trkpt lat="24.909032350693526" lon="118.53824576602497">
        <ele>7.291620781645179</ele>
        <time>2024-09-20T14:18:50Z</time>
      </trkpt>
      <trkpt lat="24.909090150506195" lon="118.53793642371966">
        <ele>7.857440805993974</ele>
        <time>2024-09-20T14:18:59Z</time>
      </trkpt>
      <trkpt lat="24.909100852303432" lon="118.53783078562545">
        <ele>8.240504340268672</ele>
        <time>2024-09-20T14:19:02Z</time>
      </trkpt>
      <trkpt lat="24.909165271509753" lon="118.53765692021905">
        <ele>8.191366208717227</ele>
        <time>2024-09-20T14:19:08Z</time>
      </trkpt>
      <trkpt lat="24.909211506424004" lon="118.53757744618548">
        <ele>8.324619718827307</ele>
        <time>2024-09-20T14:19:11Z</time>
      </trkpt>
      <trkpt lat="24.909270189462795" lon="118.53726762217595">
        <ele>9.934922400861979</ele>
        <time>2024-09-20T14:19:20Z</time>
      </trkpt>
      <trkpt lat="24.90927689079994" lon="118.53718269449311">
        <ele>9.850282308645546</ele>
        <time>2024-09-20T14:19:23Z</time>
      </trkpt>
      <trkpt lat="24.909370683698302" lon="118.53685316291137">
        <ele>10.071494802832603</ele>
        <time>2024-09-20T14:19:32Z</time>
      </trkpt>
      <trkpt lat="24.90942190359415" lon="118.5366256042623">
        <ele>10.321518660522997</ele>
        <time>2024-09-20T14:19:38Z</time>
      </trkpt>
      <trkpt lat="24.909428857672577" lon="118.53651668245323">
        <ele>10.242624551989138</ele>
        <time>2024-09-20T14:19:41Z</time>
      </trkpt>
      <trkpt lat="24.909472883836038" lon="118.53641116233086">
        <ele>9.571517474018037</ele>
        <time>2024-09-20T14:19:44Z</time>
      </trkpt>
      <trkpt lat="24.909517020891265" lon="118.53608255729574">
        <ele>10.097196443937719</ele>
        <time>2024-09-20T14:19:53Z</time>
      </trkpt>
      <trkpt lat="24.909516614341662" lon="118.5359680670061">
        <ele>9.667583705857396</ele>
        <time>2024-09-20T14:19:56Z</time>
      </trkpt>
      <trkpt lat="24.9095749543253" lon="118.53562603598027">
        <ele>10.140187488868833</ele>
        <time>2024-09-20T14:20:05Z</time>
      </trkpt>
      <trkpt lat="24.909617877230648" lon="118.53529254679633">
        <ele>9.45689373742789</ele>
        <time>2024-09-20T14:20:14Z</time>
      </trkpt>
      <trkpt lat="24.909674701683503" lon="118.53494405648249">
        <ele>8.545720413327217</ele>
        <time>2024-09-20T14:20:24Z</time>
      </trkpt>
      <trkpt lat="24.90972456947516" lon="118.5346250205202">
        <ele>7.430179295130074</ele>
        <time>2024-09-20T14:20:34Z</time>
      </trkpt>
      <trkpt lat="24.90975148549226" lon="118.53442377109576">
        <ele>7.2346908543258905</ele>
        <time>2024-09-20T14:20:40Z</time>
      </trkpt>
      <trkpt lat="24.909743208488727" lon="118.53430778166201">
        <ele>7.586513475514948</ele>
        <time>2024-09-20T14:20:43Z</time>
      </trkpt>
      <trkpt lat="24.909791321556586" lon="118.53398270885225">
        <ele>7.640923161059618</ele>
        <time>2024-09-20T14:20:52Z</time>
      </trkpt>
      <trkpt lat="24.909841293787636" lon="118.53391199554522">
        <ele>7.500926339067519</ele>
        <time>2024-09-20T14:20:55Z</time>
      </trkpt>
      <trkpt lat="24.90988303659816" lon="118.53381399416426">
        <ele>7.718675995245576</ele>
        <time>2024-09-20T14:20:58Z</time>
      </trkpt>
      <trkpt lat="24.910053633652915" lon="118.5337663890879">
        <ele>8.421175206080079</ele>
        <time>2024-09-20T14:21:04Z</time>
      </trkpt>
      <trkpt lat="24.910316720929313" lon="118.53374705008669">
        <ele>9.206082941032946</ele>
        <time>2024-09-20T14:21:13Z</time>
      </trkpt>
      <trkpt lat="24.910417743250726" lon="118.53371293233025">
        <ele>9.482165591791272</ele>
        <time>2024-09-20T14:21:16Z</time>
      </trkpt>
      <trkpt lat="24.910720037812045" lon="118.5337046494019">
        <ele>9.908260691910982</ele>
        <time>2024-09-20T14:21:25Z</time>
      </trkpt>
      <trkpt lat="24.910824714576002" lon="118.53371996076692">
        <ele>10.214443805627525</ele>
        <time>2024-09-20T14:21:28Z</time>
      </trkpt>
      <trkpt lat="24.911132236377846" lon="118.53370699808092">
        <ele>9.772603838704526</ele>
        <time>2024-09-20T14:21:37Z</time>
      </trkpt>
      <trkpt lat="24.911437701759453" lon="118.53371277472466">
        <ele>9.760423453524709</ele>
        <time>2024-09-20T14:21:46Z</time>
      </trkpt>
      <trkpt lat="24.911736478934987" lon="118.53370652992301">
        <ele>9.5799600481987</ele>
        <time>2024-09-20T14:21:55Z</time>
      </trkpt>
      <trkpt lat="24.911936630286977" lon="118.53371505142402">
        <ele>10.853008055128157</ele>
        <time>2024-09-20T14:22:01Z</time>
      </trkpt>
      <trkpt lat="24.91222667513351" lon="118.53370605311501">
        <ele>10.55200007557869</ele>
        <time>2024-09-20T14:22:10Z</time>
      </trkpt>
      <trkpt lat="24.912519819077218" lon="118.53370279538507">
        <ele>10.400059211999178</ele>
        <time>2024-09-20T14:22:19Z</time>
      </trkpt>
      <trkpt lat="24.912842043998676" lon="118.53372920670053">
        <ele>10.586306110955775</ele>
        <time>2024-09-20T14:22:29Z</time>
      </trkpt>
      <trkpt lat="24.91302166595248" lon="118.53378696621166">
        <ele>10.814957145601511</ele>
        <time>2024-09-20T14:22:35Z</time>
      </trkpt>
      <trkpt lat="24.91337995354105" lon="118.53382515704949">
        <ele>10.684066868387163</ele>
        <time>2024-09-20T14:22:46Z</time>
      </trkpt>
      <trkpt lat="24.913561253945332" lon="118.53388296442981">
        <ele>10.09436394739896</ele>
        <time>2024-09-20T14:22:52Z</time>
      </trkpt>
      <trkpt lat="24.913863914261825" lon="118.5339051869646">
        <ele>10.099990494549274</ele>
        <time>2024-09-20T14:23:01Z</time>
      </trkpt>
      <trkpt lat="24.914164129216584" lon="118.53393571275141">
        <ele>10.802091649733484</ele>
        <time>2024-09-20T14:23:10Z</time>
      </trkpt>
      <trkpt lat="24.91444109118199" lon="118.53400375355189">
        <ele>11.608940690755844</ele>
        <time>2024-09-20T14:23:19Z</time>
      </trkpt>
      <trkpt lat="24.91471607723696" lon="118.53402747639711">
        <ele>12.84232213255018</ele>
        <time>2024-09-20T14:23:28Z</time>
      </trkpt>
      <trkpt lat="24.91483082555744" lon="118.53403598544107">
        <ele>13.115383258089423</ele>
        <time>2024-09-20T14:23:31Z</time>
      </trkpt>
      <trkpt lat="24.915158725422422" lon="118.53409422250999">
        <ele>12.919838058762252</ele>
        <time>2024-09-20T14:23:40Z</time>
      </trkpt>
      <trkpt lat="24.91522715909133" lon="118.5341069299491">
        <ele>12.701962664723396</ele>
        <time>2024-09-20T14:23:43Z</time>
      </trkpt>
      <trkpt lat="24.91522715909133" lon="118.5341069299491">
        <ele>12.701962664723396</ele>
        <time>2024-09-20T14:23:44Z</time>
      </trkpt>
    </trkseg>
  </trk>
</gpx>