<?xml version="1.0" encoding="UTF-8"?>
<gpx xmlns="http://www.topografix.com/GPX/1/1" xmlns:gpxtpx="http://www.garmin.com/xmlschemas/TrackPointExtension/v1" xmlns:xsi="http://www.w3.org/2001/XMLSchema-instance" xsi:schemaLocation="http://www.topografix.com/GPX/1/1 http://www.topografix.com/GPX/1/1/gpx.xsd" version="1.1" creator="gpx.py -- https://github.com/tkrajina/gpxpy">
  <trk>
    <name>gpx from keep</name>
    <type>Run</type>
    <trkseg>
      <trkpt lat="24.918217158696486" lon="118.53417289584472">
        <ele>14.338310739403891</ele>
        <time>2025-05-19T14:16:31Z</time>
      </trkpt>
      <trkpt lat="24.91810858687722" lon="118.53410540671715">
        <ele>14.511533038395235</ele>
        <time>2025-05-19T14:16:35Z</time>
      </trkpt>
      <trkpt lat="24.91775098228116" lon="118.5340438032685">
        <ele>14.742129057645798</ele>
        <time>2025-05-19T14:16:47Z</time>
      </trkpt>
      <trkpt lat="24.917459126788508" lon="118.53401303657722">
        <ele>14.460223303176463</ele>
        <time>2025-05-19T14:16:56Z</time>
      </trkpt>
      <trkpt lat="24.917191649515722" lon="118.53390641031838">
        <ele>14.94599983934313</ele>
        <time>2025-05-19T14:17:05Z</time>
      </trkpt>
      <trkpt lat="24.91685454984241" lon="118.53384634246657">
        <ele>14.812168588861823</ele>
        <time>2025-05-19T14:17:17Z</time>
      </trkpt>
      <trkpt lat="24.91676843234368" lon="118.53383159382591">
        <ele>15.078763953410089</ele>
        <time>2025-05-19T14:17:20Z</time>
      </trkpt>
      <trkpt lat="24.9166872110298" lon="118.53384447740325">
        <ele>14.690695219673216</ele>
        <time>2025-05-19T14:17:23Z</time>
      </trkpt>
      <trkpt lat="24.91651545044763" lon="118.53379953057825">
        <ele>14.184016047976911</ele>
        <time>2025-05-19T14:17:29Z</time>
      </trkpt>
      <trkpt lat="24.91624648031831" lon="118.53374744097438">
        <ele>13.901850862428546</ele>
        <time>2025-05-19T14:17:38Z</time>
      </trkpt>
      <trkpt lat="24.91589286762934" lon="118.53368575649469">
        <ele>12.26465120445937</ele>
        <time>2025-05-19T14:17:50Z</time>
      </trkpt>
      <trkpt lat="24.915665968153316" lon="118.53359390683511">
        <ele>12.500870942138135</ele>
        <time>2025-05-19T14:17:59Z</time>
      </trkpt>
      <trkpt lat="24.915333188926102" lon="118.53351821283258">
        <ele>12.453955182805657</ele>
        <time>2025-05-19T14:18:11Z</time>
      </trkpt>
      <trkpt lat="24.915064889739742" lon="118.53346348264955">
        <ele>13.109780713915825</ele>
        <time>2025-05-19T14:18:20Z</time>
      </trkpt>
      <trkpt lat="24.914995216045032" lon="118.53343935192211">
        <ele>14.233624255284667</ele>
        <time>2025-05-19T14:18:23Z</time>
      </trkpt>
      <trkpt lat="24.915003371980465" lon="118.53338997696314">
        <ele>14.985577554441988</ele>
        <time>2025-05-19T14:18:26Z</time>
      </trkpt>
      <trkpt lat="24.9150641460369" lon="118.53338838150057">
        <ele>15.273778101429343</ele>
        <time>2025-05-19T14:18:29Z</time>
      </trkpt>
      <trkpt lat="24.915139182663466" lon="118.53335802566922">
        <ele>15.401369824074209</ele>
        <time>2025-05-19T14:18:32Z</time>
      </trkpt>
      <trkpt lat="24.915122705267674" lon="118.53329817905708">
        <ele>15.14582113455981</ele>
        <time>2025-05-19T14:18:35Z</time>
      </trkpt>
      <trkpt lat="24.914960028939515" lon="118.53325384482399">
        <ele>15.313218821771443</ele>
        <time>2025-05-19T14:18:42Z</time>
      </trkpt>
      <trkpt lat="24.914894592861252" lon="118.53326251562328">
        <ele>15.614720425568521</ele>
        <time>2025-05-19T14:18:45Z</time>
      </trkpt>
      <trkpt lat="24.914858155371213" lon="118.53329333682953">
        <ele>15.367989083752036</ele>
        <time>2025-05-19T14:18:48Z</time>
      </trkpt>
      <trkpt lat="24.914911373257937" lon="118.53334731776866">
        <ele>15.202827829867601</ele>
        <time>2025-05-19T14:18:51Z</time>
      </trkpt>
      <trkpt lat="24.914976200542842" lon="118.53337160859029">
        <ele>15.056688458658755</ele>
        <time>2025-05-19T14:18:54Z</time>
      </trkpt>
      <trkpt lat="24.91502135308886" lon="118.5334835426762">
        <ele>14.05078289937228</ele>
        <time>2025-05-19T14:19:00Z</time>
      </trkpt>
      <trkpt lat="24.91502430907963" lon="118.53355334917795">
        <ele>12.893541160970926</ele>
        <time>2025-05-19T14:19:03Z</time>
      </trkpt>
      <trkpt lat="24.915007119832563" lon="118.53363355786246">
        <ele>12.847697626799345</ele>
        <time>2025-05-19T14:19:06Z</time>
      </trkpt>
      <trkpt lat="24.914904292772395" lon="118.53381954110783">
        <ele>13.022788058035076</ele>
        <time>2025-05-19T14:19:15Z</time>
      </trkpt>
      <trkpt lat="24.91492197182277" lon="118.5340005980359">
        <ele>11.819675135426223</ele>
        <time>2025-05-19T14:19:21Z</time>
      </trkpt>
      <trkpt lat="24.91491051502174" lon="118.53409609701173">
        <ele>12.29464444797486</ele>
        <time>2025-05-19T14:19:24Z</time>
      </trkpt>
      <trkpt lat="24.914744783812313" lon="118.53413214484728">
        <ele>11.186720660887659</ele>
        <time>2025-05-19T14:19:30Z</time>
      </trkpt>
      <trkpt lat="24.914726385716623" lon="118.53420816137584">
        <ele>11.657658933661878</ele>
        <time>2025-05-19T14:19:33Z</time>
      </trkpt>
      <trkpt lat="24.914843532353004" lon="118.5342701852838">
        <ele>10.895628824830055</ele>
        <time>2025-05-19T14:19:39Z</time>
      </trkpt>
      <trkpt lat="24.91497609938824" lon="118.5342855782548">
        <ele>11.036214024759829</ele>
        <time>2025-05-19T14:19:45Z</time>
      </trkpt>
      <trkpt lat="24.915030057600156" lon="118.5342481779178">
        <ele>11.361755695194006</ele>
        <time>2025-05-19T14:19:48Z</time>
      </trkpt>
      <trkpt lat="24.91494361822786" lon="118.53419345298335">
        <ele>11.64510446228087</ele>
        <time>2025-05-19T14:19:54Z</time>
      </trkpt>
      <trkpt lat="24.914874348123007" lon="118.5341756632564">
        <ele>11.219136877916753</ele>
        <time>2025-05-19T14:19:57Z</time>
      </trkpt>
      <trkpt lat="24.91480843981836" lon="118.53412736680609">
        <ele>11.418522107414901</ele>
        <time>2025-05-19T14:20:00Z</time>
      </trkpt>
      <trkpt lat="24.914459783277103" lon="118.5340675130304">
        <ele>12.42123376391828</ele>
        <time>2025-05-19T14:20:12Z</time>
      </trkpt>
      <trkpt lat="24.914132744294474" lon="118.53402037925699">
        <ele>10.642741974443197</ele>
        <time>2025-05-19T14:20:24Z</time>
      </trkpt>
      <trkpt lat="24.913995855169787" lon="118.53393443658189">
        <ele>10.111632820218801</ele>
        <time>2025-05-19T14:20:30Z</time>
      </trkpt>
      <trkpt lat="24.91372400886578" lon="118.5339069076342">
        <ele>9.650439779274166</ele>
        <time>2025-05-19T14:20:39Z</time>
      </trkpt>
      <trkpt lat="24.91362916580274" lon="118.53390211617575">
        <ele>9.879844571463764</ele>
        <time>2025-05-19T14:20:42Z</time>
      </trkpt>
      <trkpt lat="24.91356314641877" lon="118.53393004981751">
        <ele>9.738913924433291</ele>
        <time>2025-05-19T14:20:45Z</time>
      </trkpt>
      <trkpt lat="24.913549649050474" lon="118.53398730198884">
        <ele>9.161390606313944</ele>
        <time>2025-05-19T14:20:48Z</time>
      </trkpt>
      <trkpt lat="24.913389213832442" lon="118.53428915129493">
        <ele>9.636599610559642</ele>
        <time>2025-05-19T14:21:00Z</time>
      </trkpt>
      <trkpt lat="24.913241543827198" lon="118.53463418338293">
        <ele>9.99165212456137</ele>
        <time>2025-05-19T14:21:12Z</time>
      </trkpt>
      <trkpt lat="24.91313469207256" lon="118.53479736961907">
        <ele>10.463664248585701</ele>
        <time>2025-05-19T14:21:18Z</time>
      </trkpt>
      <trkpt lat="24.9130909447057" lon="118.53498135596541">
        <ele>10.110176028683782</ele>
        <time>2025-05-19T14:21:24Z</time>
      </trkpt>
      <trkpt lat="24.9129848094454" lon="118.5351599231606">
        <ele>9.812192330136895</ele>
        <time>2025-05-19T14:21:30Z</time>
      </trkpt>
      <trkpt lat="24.912955987438604" lon="118.53525298552817">
        <ele>10.199999722652137</ele>
        <time>2025-05-19T14:21:33Z</time>
      </trkpt>
      <trkpt lat="24.912887202111737" lon="118.53533558227211">
        <ele>10.685455679893494</ele>
        <time>2025-05-19T14:21:36Z</time>
      </trkpt>
      <trkpt lat="24.912854880555674" lon="118.5354293513891">
        <ele>10.361322751268744</ele>
        <time>2025-05-19T14:21:39Z</time>
      </trkpt>
      <trkpt lat="24.912788405461527" lon="118.53550468486586">
        <ele>10.398197442293167</ele>
        <time>2025-05-19T14:21:42Z</time>
      </trkpt>
      <trkpt lat="24.912676252954352" lon="118.5357787476063">
        <ele>10.627616118639708</ele>
        <time>2025-05-19T14:21:51Z</time>
      </trkpt>
      <trkpt lat="24.91252738705427" lon="118.53601867637737">
        <ele>9.68897933140397</ele>
        <time>2025-05-19T14:22:00Z</time>
      </trkpt>
      <trkpt lat="24.912524292991982" lon="118.53607942828124">
        <ele>10.139441028237343</ele>
        <time>2025-05-19T14:22:03Z</time>
      </trkpt>
      <trkpt lat="24.912438585960953" lon="118.53624564990507">
        <ele>10.310208330862224</ele>
        <time>2025-05-19T14:22:12Z</time>
      </trkpt>
      <trkpt lat="24.912376176280638" lon="118.53630332240988">
        <ele>10.647502412088215</ele>
        <time>2025-05-19T14:22:15Z</time>
      </trkpt>
      <trkpt lat="24.912376176280638" lon="118.53630332240988">
        <ele>10.647502412088215</ele>
        <time>2025-05-19T14:22:16Z</time>
      </trkpt>
    </trkseg>
  </trk>
</gpx>