<?xml version="1.0" encoding="UTF-8"?>
<gpx xmlns="http://www.topografix.com/GPX/1/1" xmlns:gpxtpx="http://www.garmin.com/xmlschemas/TrackPointExtension/v1" xmlns:xsi="http://www.w3.org/2001/XMLSchema-instance" xsi:schemaLocation="http://www.topografix.com/GPX/1/1 http://www.topografix.com/GPX/1/1/gpx.xsd" version="1.1" creator="gpx.py -- https://github.com/tkrajina/gpxpy">
  <trk>
    <name>gpx from keep</name>
    <type>Run</type>
    <trkseg>
      <trkpt lat="24.91129654215167" lon="118.53741314384685">
        <ele>10.567340230569243</ele>
        <time>2025-05-15T13:22:48Z</time>
      </trkpt>
      <trkpt lat="24.911196157226836" lon="118.53766876858309">
        <ele>10.02217108104378</ele>
        <time>2025-05-15T13:23:00Z</time>
      </trkpt>
      <trkpt lat="24.911042331584834" lon="118.5379458521109">
        <ele>9.764442952349782</ele>
        <time>2025-05-15T13:23:07Z</time>
      </trkpt>
      <trkpt lat="24.91097732598159" lon="118.53800791369518">
        <ele>9.53152132127434</ele>
        <time>2025-05-15T13:23:10Z</time>
      </trkpt>
      <trkpt lat="24.910953257723776" lon="118.5380915761537">
        <ele>9.129351827315986</ele>
        <time>2025-05-15T13:23:13Z</time>
      </trkpt>
      <trkpt lat="24.910892010805345" lon="118.53817804429033">
        <ele>10.191808911971748</ele>
        <time>2025-05-15T13:23:16Z</time>
      </trkpt>
      <trkpt lat="24.91081243592084" lon="118.53838187702868">
        <ele>9.886060480959713</ele>
        <time>2025-05-15T13:23:22Z</time>
      </trkpt>
      <trkpt lat="24.910826350844285" lon="118.53848463641957">
        <ele>10.22403327934444</ele>
        <time>2025-05-15T13:23:25Z</time>
      </trkpt>
      <trkpt lat="24.910815774225572" lon="118.53856269159232">
        <ele>10.37020314577967</ele>
        <time>2025-05-15T13:23:28Z</time>
      </trkpt>
      <trkpt lat="24.910888124389555" lon="118.53865412834206">
        <ele>10.255543692968786</ele>
        <time>2025-05-15T13:23:31Z</time>
      </trkpt>
      <trkpt lat="24.911053226973205" lon="118.53872466225738">
        <ele>10.652616003528237</ele>
        <time>2025-05-15T13:23:37Z</time>
      </trkpt>
      <trkpt lat="24.91119317770419" lon="118.53875824894057">
        <ele>8.67793027125299</ele>
        <time>2025-05-15T13:23:43Z</time>
      </trkpt>
      <trkpt lat="24.911148970831487" lon="118.53912165793294">
        <ele>7.880800376646221</ele>
        <time>2025-05-15T13:23:55Z</time>
      </trkpt>
      <trkpt lat="24.91107875507556" lon="118.53941300849972">
        <ele>7.346488842740655</ele>
        <time>2025-05-15T13:24:04Z</time>
      </trkpt>
      <trkpt lat="24.910959989594573" lon="118.5397806534341">
        <ele>7.707360156811774</ele>
        <time>2025-05-15T13:24:16Z</time>
      </trkpt>
      <trkpt lat="24.910912618636814" lon="118.5399723685736">
        <ele>7.672056860290468</ele>
        <time>2025-05-15T13:24:22Z</time>
      </trkpt>
      <trkpt lat="24.910916320367164" lon="118.54006920137192">
        <ele>7.733045958913863</ele>
        <time>2025-05-15T13:24:25Z</time>
      </trkpt>
      <trkpt lat="24.910831507292833" lon="118.54044352137079">
        <ele>7.312898874282837</ele>
        <time>2025-05-15T13:24:37Z</time>
      </trkpt>
      <trkpt lat="24.910734280087702" lon="118.54085169642929">
        <ele>6.89234434068203</ele>
        <time>2025-05-15T13:24:50Z</time>
      </trkpt>
      <trkpt lat="24.910681722552823" lon="118.54113657606055">
        <ele>7.285011097788811</ele>
        <time>2025-05-15T13:24:59Z</time>
      </trkpt>
      <trkpt lat="24.910532778713876" lon="118.5414115306797">
        <ele>7.681248006410897</ele>
        <time>2025-05-15T13:25:08Z</time>
      </trkpt>
      <trkpt lat="24.910478381375796" lon="118.54152189311584">
        <ele>7.881300291977823</ele>
        <time>2025-05-15T13:25:11Z</time>
      </trkpt>
      <trkpt lat="24.910298868316534" lon="118.54170216508976">
        <ele>7.663562493398786</ele>
        <time>2025-05-15T13:25:17Z</time>
      </trkpt>
      <trkpt lat="24.910244570959108" lon="118.54180567528584">
        <ele>7.971188337542117</ele>
        <time>2025-05-15T13:25:20Z</time>
      </trkpt>
      <trkpt lat="24.91029246242907" lon="118.54204801688664">
        <ele>7.282248924486339</ele>
        <time>2025-05-15T13:25:26Z</time>
      </trkpt>
      <trkpt lat="24.91031075418849" lon="118.54236686635856">
        <ele>7.564185790717602</ele>
        <time>2025-05-15T13:25:38Z</time>
      </trkpt>
      <trkpt lat="24.910233627015835" lon="118.54268550816285">
        <ele>7.5831642402336</ele>
        <time>2025-05-15T13:25:47Z</time>
      </trkpt>
      <trkpt lat="24.910238334022832" lon="118.54279463809927">
        <ele>7.329533263109624</ele>
        <time>2025-05-15T13:25:50Z</time>
      </trkpt>
      <trkpt lat="24.910188108131386" lon="118.54307013923439">
        <ele>8.702492628246546</ele>
        <time>2025-05-15T13:25:59Z</time>
      </trkpt>
      <trkpt lat="24.91022082946356" lon="118.54315409746344">
        <ele>7.689388581551611</ele>
        <time>2025-05-15T13:26:02Z</time>
      </trkpt>
      <trkpt lat="24.910229047130628" lon="118.54323019069831">
        <ele>8.037649292498827</ele>
        <time>2025-05-15T13:26:05Z</time>
      </trkpt>
      <trkpt lat="24.91021608177151" lon="118.54331942733867">
        <ele>8.070176426321268</ele>
        <time>2025-05-15T13:26:08Z</time>
      </trkpt>
      <trkpt lat="24.910247920485045" lon="118.54337680013495">
        <ele>7.99358182027936</ele>
        <time>2025-05-15T13:26:11Z</time>
      </trkpt>
      <trkpt lat="24.91048970411904" lon="118.54337738786707">
        <ele>8.082913965918124</ele>
        <time>2025-05-15T13:26:20Z</time>
      </trkpt>
      <trkpt lat="24.91067452598161" lon="118.54332241775468">
        <ele>7.378013304434717</ele>
        <time>2025-05-15T13:26:26Z</time>
      </trkpt>
      <trkpt lat="24.910759098686693" lon="118.54334438460064">
        <ele>7.9877043748274446</ele>
        <time>2025-05-15T13:26:29Z</time>
      </trkpt>
      <trkpt lat="24.910933022944437" lon="118.54351483549962">
        <ele>7.5018334574997425</ele>
        <time>2025-05-15T13:26:36Z</time>
      </trkpt>
      <trkpt lat="24.911015514692664" lon="118.54357494621247">
        <ele>7.485274130478501</ele>
        <time>2025-05-15T13:26:39Z</time>
      </trkpt>
      <trkpt lat="24.911191536703438" lon="118.54361615548002">
        <ele>7.407221065834165</ele>
        <time>2025-05-15T13:26:45Z</time>
      </trkpt>
      <trkpt lat="24.911566488037504" lon="118.5435616540206">
        <ele>7.476086979731917</ele>
        <time>2025-05-15T13:26:59Z</time>
      </trkpt>
      <trkpt lat="24.911932086059284" lon="118.54348055258689">
        <ele>7.763730252161622</ele>
        <time>2025-05-15T13:27:11Z</time>
      </trkpt>
      <trkpt lat="24.912250126851646" lon="118.54338225312856">
        <ele>7.64243827201426</ele>
        <time>2025-05-15T13:27:22Z</time>
      </trkpt>
      <trkpt lat="24.912523369732952" lon="118.54332445147747">
        <ele>7.682169300504029</ele>
        <time>2025-05-15T13:27:31Z</time>
      </trkpt>
      <trkpt lat="24.91281774748741" lon="118.54327717292966">
        <ele>7.620588163845241</ele>
        <time>2025-05-15T13:27:40Z</time>
      </trkpt>
      <trkpt lat="24.91299997994957" lon="118.54324150018">
        <ele>8.030784678645432</ele>
        <time>2025-05-15T13:27:46Z</time>
      </trkpt>
      <trkpt lat="24.913071307881918" lon="118.5431912482192">
        <ele>7.109333295375109</ele>
        <time>2025-05-15T13:27:49Z</time>
      </trkpt>
      <trkpt lat="24.913146639189225" lon="118.54316551528913">
        <ele>7.660564157180488</ele>
        <time>2025-05-15T13:27:52Z</time>
      </trkpt>
      <trkpt lat="24.9132253607365" lon="118.54315963893897">
        <ele>7.691948018036783</ele>
        <time>2025-05-15T13:27:55Z</time>
      </trkpt>
      <trkpt lat="24.913282379075124" lon="118.54312443032212">
        <ele>7.768545225262642</ele>
        <time>2025-05-15T13:27:58Z</time>
      </trkpt>
      <trkpt lat="24.913359940205126" lon="118.54313569084043">
        <ele>7.390211584046483</ele>
        <time>2025-05-15T13:28:01Z</time>
      </trkpt>
      <trkpt lat="24.91341971778308" lon="118.54310066176569">
        <ele>7.156140732578933</ele>
        <time>2025-05-15T13:28:04Z</time>
      </trkpt>
      <trkpt lat="24.913701300712454" lon="118.54306060134273">
        <ele>7.84592526126653</ele>
        <time>2025-05-15T13:28:13Z</time>
      </trkpt>
      <trkpt lat="24.9139171660222" lon="118.54303952308878">
        <ele>8.073561320081353</ele>
        <time>2025-05-15T13:28:19Z</time>
      </trkpt>
      <trkpt lat="24.914058726757666" lon="118.5429671100384">
        <ele>7.587452568113804</ele>
        <time>2025-05-15T13:28:25Z</time>
      </trkpt>
      <trkpt lat="24.91411807559426" lon="118.54291047170905">
        <ele>8.413186946883798</ele>
        <time>2025-05-15T13:28:28Z</time>
      </trkpt>
      <trkpt lat="24.914260769254728" lon="118.54285635393859">
        <ele>9.521680308505893</ele>
        <time>2025-05-15T13:28:34Z</time>
      </trkpt>
      <trkpt lat="24.914352075512785" lon="118.5428401462202">
        <ele>9.741231837309897</ele>
        <time>2025-05-15T13:28:37Z</time>
      </trkpt>
      <trkpt lat="24.91444017986073" lon="118.54285530664683">
        <ele>9.494380068965256</ele>
        <time>2025-05-15T13:28:40Z</time>
      </trkpt>
      <trkpt lat="24.914731865586862" lon="118.54280812375694">
        <ele>10.0631408020854</ele>
        <time>2025-05-15T13:28:49Z</time>
      </trkpt>
      <trkpt lat="24.91492717550914" lon="118.54273017997143">
        <ele>10.087466531433165</ele>
        <time>2025-05-15T13:28:56Z</time>
      </trkpt>
      <trkpt lat="24.915181135634235" lon="118.54269923072374">
        <ele>10.315791806206107</ele>
        <time>2025-05-15T13:29:04Z</time>
      </trkpt>
      <trkpt lat="24.91530359787705" lon="118.5426344782155">
        <ele>11.293313890695572</ele>
        <time>2025-05-15T13:29:08Z</time>
      </trkpt>
      <trkpt lat="24.915648653932216" lon="118.54254444667733">
        <ele>12.18510000128299</ele>
        <time>2025-05-15T13:29:20Z</time>
      </trkpt>
      <trkpt lat="24.915881343365793" lon="118.54247125558697">
        <ele>12.428263120353222</ele>
        <time>2025-05-15T13:29:29Z</time>
      </trkpt>
      <trkpt lat="24.916150860087008" lon="118.54243100686058">
        <ele>12.263489907607436</ele>
        <time>2025-05-15T13:29:39Z</time>
      </trkpt>
      <trkpt lat="24.916385857310104" lon="118.54234708381578">
        <ele>12.189811158925295</ele>
        <time>2025-05-15T13:29:48Z</time>
      </trkpt>
      <trkpt lat="24.916472460582035" lon="118.54234110036168">
        <ele>12.231370856054127</ele>
        <time>2025-05-15T13:29:51Z</time>
      </trkpt>
      <trkpt lat="24.916619850220826" lon="118.54237304770658">
        <ele>12.011895658448339</ele>
        <time>2025-05-15T13:29:57Z</time>
      </trkpt>
      <trkpt lat="24.916938184121413" lon="118.54229057300543">
        <ele>11.40739612095058</ele>
        <time>2025-05-15T13:30:06Z</time>
      </trkpt>
      <trkpt lat="24.917032692861735" lon="118.54226525904369">
        <ele>10.943688506260514</ele>
        <time>2025-05-15T13:30:09Z</time>
      </trkpt>
      <trkpt lat="24.91726524419433" lon="118.54216677659997">
        <ele>10.188359789550304</ele>
        <time>2025-05-15T13:30:18Z</time>
      </trkpt>
      <trkpt lat="24.91762441640677" lon="118.54212340096748">
        <ele>11.557950851507485</ele>
        <time>2025-05-15T13:30:30Z</time>
      </trkpt>
      <trkpt lat="24.917968354041193" lon="118.5420864008785">
        <ele>12.083943548612297</ele>
        <time>2025-05-15T13:30:42Z</time>
      </trkpt>
      <trkpt lat="24.918318661843482" lon="118.54208241903547">
        <ele>12.600599518045783</ele>
        <time>2025-05-15T13:30:54Z</time>
      </trkpt>
      <trkpt lat="24.918591949243208" lon="118.54208742010589">
        <ele>12.903958788141608</ele>
        <time>2025-05-15T13:31:03Z</time>
      </trkpt>
      <trkpt lat="24.918713623896878" lon="118.54207885126272">
        <ele>13.082799865864217</ele>
        <time>2025-05-15T13:31:07Z</time>
      </trkpt>
      <trkpt lat="24.91883673956522" lon="118.54209834326637">
        <ele>14.075492929667234</ele>
        <time>2025-05-15T13:31:11Z</time>
      </trkpt>
      <trkpt lat="24.919214646490207" lon="118.54205828522035">
        <ele>14.928985859267414</ele>
        <time>2025-05-15T13:31:23Z</time>
      </trkpt>
      <trkpt lat="24.91953646556143" lon="118.54206608868817">
        <ele>14.986562229692936</ele>
        <time>2025-05-15T13:31:33Z</time>
      </trkpt>
      <trkpt lat="24.919619669824343" lon="118.54207793707369">
        <ele>14.623086440376937</ele>
        <time>2025-05-15T13:31:36Z</time>
      </trkpt>
      <trkpt lat="24.91971177348308" lon="118.54206721856599">
        <ele>14.840134133584797</ele>
        <time>2025-05-15T13:31:39Z</time>
      </trkpt>
      <trkpt lat="24.92006377271565" lon="118.54208544038676">
        <ele>13.350710959173739</ele>
        <time>2025-05-15T13:31:51Z</time>
      </trkpt>
      <trkpt lat="24.920426681330934" lon="118.54209701385231">
        <ele>12.606602974236012</ele>
        <time>2025-05-15T13:32:03Z</time>
      </trkpt>
      <trkpt lat="24.920776275421463" lon="118.54211877315304">
        <ele>12.921893772669137</ele>
        <time>2025-05-15T13:32:15Z</time>
      </trkpt>
      <trkpt lat="24.921040495001314" lon="118.54214125185372">
        <ele>14.049689297564328</ele>
        <time>2025-05-15T13:32:24Z</time>
      </trkpt>
      <trkpt lat="24.92138358919122" lon="118.54213976488941">
        <ele>14.807635727338493</ele>
        <time>2025-05-15T13:32:36Z</time>
      </trkpt>
      <trkpt lat="24.921726744129288" lon="118.54214795801649">
        <ele>16.47343795839697</ele>
        <time>2025-05-15T13:32:48Z</time>
      </trkpt>
      <trkpt lat="24.922048260784234" lon="118.54220999944643">
        <ele>18.21460606250912</ele>
        <time>2025-05-15T13:33:00Z</time>
      </trkpt>
      <trkpt lat="24.922214739329842" lon="118.54223144118798">
        <ele>18.985504212789237</ele>
        <time>2025-05-15T13:33:06Z</time>
      </trkpt>
      <trkpt lat="24.922309966674938" lon="118.54226415820874">
        <ele>19.39149374142289</ele>
        <time>2025-05-15T13:33:09Z</time>
      </trkpt>
      <trkpt lat="24.922633457092637" lon="118.54233150628863">
        <ele>20.237821179442108</ele>
        <time>2025-05-15T13:33:21Z</time>
      </trkpt>
      <trkpt lat="24.922962099051517" lon="118.54242223958622">
        <ele>21.6419222028926</ele>
        <time>2025-05-15T13:33:33Z</time>
      </trkpt>
      <trkpt lat="24.923290951726035" lon="118.54254973431797">
        <ele>22.379792094230652</ele>
        <time>2025-05-15T13:33:45Z</time>
      </trkpt>
      <trkpt lat="24.923602408967493" lon="118.54268826548426">
        <ele>23.835533594712615</ele>
        <time>2025-05-15T13:33:57Z</time>
      </trkpt>
      <trkpt lat="24.923902967830678" lon="118.54285959030054">
        <ele>26.87348847463727</ele>
        <time>2025-05-15T13:34:09Z</time>
      </trkpt>
      <trkpt lat="24.924152007870312" lon="118.54301886248336">
        <ele>28.733466277830303</ele>
        <time>2025-05-15T13:34:19Z</time>
      </trkpt>
      <trkpt lat="24.924432723408692" lon="118.5432140876635">
        <ele>27.922103472985327</ele>
        <time>2025-05-15T13:34:31Z</time>
      </trkpt>
      <trkpt lat="24.92470795883541" lon="118.54343591878289">
        <ele>26.34711160324514</ele>
        <time>2025-05-15T13:34:43Z</time>
      </trkpt>
      <trkpt lat="24.924909285621048" lon="118.54364217635131">
        <ele>24.993298375047743</ele>
        <time>2025-05-15T13:34:52Z</time>
      </trkpt>
      <trkpt lat="24.92500795386319" lon="118.54381173731376">
        <ele>23.513751779682934</ele>
        <time>2025-05-15T13:34:58Z</time>
      </trkpt>
      <trkpt lat="24.925187439883747" lon="118.54390451581521">
        <ele>22.131343961693347</ele>
        <time>2025-05-15T13:35:04Z</time>
      </trkpt>
      <trkpt lat="24.925259404887413" lon="118.5439760738492">
        <ele>21.61988019477576</ele>
        <time>2025-05-15T13:35:07Z</time>
      </trkpt>
      <trkpt lat="24.925434712638655" lon="118.54422470151897">
        <ele>19.95752563327551</ele>
        <time>2025-05-15T13:35:16Z</time>
      </trkpt>
      <trkpt lat="24.92566212588636" lon="118.54456641040485">
        <ele>17.153220681473613</ele>
        <time>2025-05-15T13:35:28Z</time>
      </trkpt>
      <trkpt lat="24.925867630854714" lon="118.54488920800655">
        <ele>16.176875974982977</ele>
        <time>2025-05-15T13:35:42Z</time>
      </trkpt>
      <trkpt lat="24.926025808153653" lon="118.5451510836679">
        <ele>15.931653867475688</ele>
        <time>2025-05-15T13:35:51Z</time>
      </trkpt>
      <trkpt lat="24.926199594697838" lon="118.54541012639356">
        <ele>14.778610751964152</ele>
        <time>2025-05-15T13:36:00Z</time>
      </trkpt>
      <trkpt lat="24.926404082631358" lon="118.54573697398052">
        <ele>13.478002422489226</ele>
        <time>2025-05-15T13:36:12Z</time>
      </trkpt>
      <trkpt lat="24.926563676601724" lon="118.54599510399487">
        <ele>11.980143337510526</ele>
        <time>2025-05-15T13:36:21Z</time>
      </trkpt>
      <trkpt lat="24.92673017052926" lon="118.54631600459388">
        <ele>11.565003945492208</ele>
        <time>2025-05-15T13:36:33Z</time>
      </trkpt>
      <trkpt lat="24.926763353788694" lon="118.5464002375101">
        <ele>11.635751671157777</ele>
        <time>2025-05-15T13:36:36Z</time>
      </trkpt>
      <trkpt lat="24.92680353722128" lon="118.54666808945467">
        <ele>10.65582853090018</ele>
        <time>2025-05-15T13:36:45Z</time>
      </trkpt>
      <trkpt lat="24.926869752448628" lon="118.54672543228338">
        <ele>10.960839326493442</ele>
        <time>2025-05-15T13:36:48Z</time>
      </trkpt>
      <trkpt lat="24.926907062399913" lon="118.54678039354974">
        <ele>10.838021165691316</ele>
        <time>2025-05-15T13:36:51Z</time>
      </trkpt>
      <trkpt lat="24.92690154560748" lon="118.54679066928017">
        <ele>10.405629699118435</ele>
        <time>2025-05-15T13:36:54Z</time>
      </trkpt>
      <trkpt lat="24.92690704450106" lon="118.54678673542979">
        <ele>9.976203698664904</ele>
        <time>2025-05-15T13:37:13Z</time>
      </trkpt>
      <trkpt lat="24.927098573333136" lon="118.54703697878656">
        <ele>10.53953410871327</ele>
        <time>2025-05-15T13:37:28Z</time>
      </trkpt>
      <trkpt lat="24.927272706789555" lon="118.54729888602007">
        <ele>9.343056759797037</ele>
        <time>2025-05-15T13:37:40Z</time>
      </trkpt>
      <trkpt lat="24.927476480373105" lon="118.54749677694132">
        <ele>8.774909128434956</ele>
        <time>2025-05-15T13:37:49Z</time>
      </trkpt>
      <trkpt lat="24.92752637657308" lon="118.54756603480376">
        <ele>9.754150156863034</ele>
        <time>2025-05-15T13:37:52Z</time>
      </trkpt>
      <trkpt lat="24.927566294003466" lon="118.54765847139495">
        <ele>9.889881944283843</ele>
        <time>2025-05-15T13:37:55Z</time>
      </trkpt>
      <trkpt lat="24.927734929087432" lon="118.54789350863562">
        <ele>10.179574841633439</ele>
        <time>2025-05-15T13:38:04Z</time>
      </trkpt>
      <trkpt lat="24.927834372740115" lon="118.54806386093817">
        <ele>10.313564117066562</ele>
        <time>2025-05-15T13:38:10Z</time>
      </trkpt>
      <trkpt lat="24.927953651809194" lon="118.54823085212378">
        <ele>10.100109397433698</ele>
        <time>2025-05-15T13:38:16Z</time>
      </trkpt>
      <trkpt lat="24.928074636663275" lon="118.54850818802298">
        <ele>11.426547911949456</ele>
        <time>2025-05-15T13:38:25Z</time>
      </trkpt>
      <trkpt lat="24.928204461126107" lon="118.54878074434892">
        <ele>12.00418565608561</ele>
        <time>2025-05-15T13:38:34Z</time>
      </trkpt>
      <trkpt lat="24.928345847620474" lon="118.54903542309862">
        <ele>12.405796609818935</ele>
        <time>2025-05-15T13:38:43Z</time>
      </trkpt>
      <trkpt lat="24.928547182474876" lon="118.54935001736851">
        <ele>12.063861614093184</ele>
        <time>2025-05-15T13:38:55Z</time>
      </trkpt>
      <trkpt lat="24.92874483453645" lon="118.5496620075735">
        <ele>10.73999887611717</ele>
        <time>2025-05-15T13:39:07Z</time>
      </trkpt>
      <trkpt lat="24.928887850624907" lon="118.54991668026835">
        <ele>10.052966749295592</ele>
        <time>2025-05-15T13:39:16Z</time>
      </trkpt>
      <trkpt lat="24.929038484051198" lon="118.55015928812001">
        <ele>10.310509481467307</ele>
        <time>2025-05-15T13:39:25Z</time>
      </trkpt>
      <trkpt lat="24.929245851976063" lon="118.55047596135715">
        <ele>8.578207824379206</ele>
        <time>2025-05-15T13:39:37Z</time>
      </trkpt>
      <trkpt lat="24.929347281805036" lon="118.55063539153983">
        <ele>7.511498759500682</ele>
        <time>2025-05-15T13:39:43Z</time>
      </trkpt>
      <trkpt lat="24.929387714028397" lon="118.5507295926876">
        <ele>7.288273570127785</ele>
        <time>2025-05-15T13:39:46Z</time>
      </trkpt>
      <trkpt lat="24.929570766779104" lon="118.5510192624584">
        <ele>6.992784150876105</ele>
        <time>2025-05-15T13:39:58Z</time>
      </trkpt>
      <trkpt lat="24.929687373026624" lon="118.551293360144">
        <ele>7.110718230716884</ele>
        <time>2025-05-15T13:40:07Z</time>
      </trkpt>
      <trkpt lat="24.92975888904309" lon="118.55148122621404">
        <ele>7.593552955426276</ele>
        <time>2025-05-15T13:40:13Z</time>
      </trkpt>
      <trkpt lat="24.929908099977204" lon="118.55171257257034">
        <ele>9.115364126861095</ele>
        <time>2025-05-15T13:40:22Z</time>
      </trkpt>
      <trkpt lat="24.930071390395987" lon="118.55192659738744">
        <ele>9.23965485021472</ele>
        <time>2025-05-15T13:40:31Z</time>
      </trkpt>
      <trkpt lat="24.93009927368712" lon="118.55201684951582">
        <ele>8.541522095911205</ele>
        <time>2025-05-15T13:40:34Z</time>
      </trkpt>
      <trkpt lat="24.930159166375883" lon="118.55208622674537">
        <ele>8.256533737294376</ele>
        <time>2025-05-15T13:40:37Z</time>
      </trkpt>
      <trkpt lat="24.930333587222062" lon="118.55242079118186">
        <ele>8.06481147930026</ele>
        <time>2025-05-15T13:40:49Z</time>
      </trkpt>
      <trkpt lat="24.930515631158865" lon="118.55273963974261">
        <ele>9.02281682845205</ele>
        <time>2025-05-15T13:41:01Z</time>
      </trkpt>
      <trkpt lat="24.93069731640254" lon="118.55304759679309">
        <ele>9.155665854923427</ele>
        <time>2025-05-15T13:41:13Z</time>
      </trkpt>
      <trkpt lat="24.93090568013139" lon="118.5533734040157">
        <ele>9.100957928225398</ele>
        <time>2025-05-15T13:41:25Z</time>
      </trkpt>
      <trkpt lat="24.931092571605724" lon="118.55367338576559">
        <ele>9.230450093746185</ele>
        <time>2025-05-15T13:41:37Z</time>
      </trkpt>
      <trkpt lat="24.931228405124568" lon="118.55391772671786">
        <ele>9.37076158542186</ele>
        <time>2025-05-15T13:41:46Z</time>
      </trkpt>
      <trkpt lat="24.93134423709044" lon="118.55400423019668">
        <ele>9.237518860958517</ele>
        <time>2025-05-15T13:41:52Z</time>
      </trkpt>
      <trkpt lat="24.931382993727613" lon="118.55410921675318">
        <ele>9.54315075930208</ele>
        <time>2025-05-15T13:41:55Z</time>
      </trkpt>
      <trkpt lat="24.931482419352538" lon="118.55427650834065">
        <ele>8.855954117141664</ele>
        <time>2025-05-15T13:42:01Z</time>
      </trkpt>
      <trkpt lat="24.93159072465224" lon="118.55456446151007">
        <ele>7.856800400651991</ele>
        <time>2025-05-15T13:42:10Z</time>
      </trkpt>
      <trkpt lat="24.931644492653263" lon="118.55472138930625">
        <ele>8.895631958730519</ele>
        <time>2025-05-15T13:42:16Z</time>
      </trkpt>
      <trkpt lat="24.93172592586531" lon="118.55485683717545">
        <ele>8.582219841890037</ele>
        <time>2025-05-15T13:42:22Z</time>
      </trkpt>
      <trkpt lat="24.931779612042828" lon="118.55487786681746">
        <ele>9.119376310147345</ele>
        <time>2025-05-15T13:42:25Z</time>
      </trkpt>
      <trkpt lat="24.93185060055098" lon="118.55484054546947">
        <ele>8.37240226007998</ele>
        <time>2025-05-15T13:42:28Z</time>
      </trkpt>
      <trkpt lat="24.931919203183313" lon="118.55486608734057">
        <ele>8.439723560586572</ele>
        <time>2025-05-15T13:42:31Z</time>
      </trkpt>
      <trkpt lat="24.93197858775839" lon="118.55504059417602">
        <ele>7.866929583251476</ele>
        <time>2025-05-15T13:42:37Z</time>
      </trkpt>
      <trkpt lat="24.93212568025858" lon="118.55529438366133">
        <ele>8.004137406125665</ele>
        <time>2025-05-15T13:42:46Z</time>
      </trkpt>
      <trkpt lat="24.932326947762192" lon="118.55560375273602">
        <ele>7.792712552472949</ele>
        <time>2025-05-15T13:42:58Z</time>
      </trkpt>
      <trkpt lat="24.932419124160784" lon="118.55577541912335">
        <ele>8.64807522110641</ele>
        <time>2025-05-15T13:43:04Z</time>
      </trkpt>
      <trkpt lat="24.93257233755759" lon="118.55599339900101">
        <ele>9.921191963367164</ele>
        <time>2025-05-15T13:43:13Z</time>
      </trkpt>
      <trkpt lat="24.932690338839517" lon="118.5562346498177">
        <ele>9.283171923831105</ele>
        <time>2025-05-15T13:43:22Z</time>
      </trkpt>
      <trkpt lat="24.932744900035686" lon="118.55641791671451">
        <ele>8.915906827896833</ele>
        <time>2025-05-15T13:43:28Z</time>
      </trkpt>
      <trkpt lat="24.93272745457713" lon="118.55659756600552">
        <ele>9.892464676871896</ele>
        <time>2025-05-15T13:43:34Z</time>
      </trkpt>
      <trkpt lat="24.932592452609878" lon="118.55679680524551">
        <ele>11.201824475079775</ele>
        <time>2025-05-15T13:43:43Z</time>
      </trkpt>
      <trkpt lat="24.932395666929633" lon="118.55696430005014">
        <ele>12.089260925538838</ele>
        <time>2025-05-15T13:43:52Z</time>
      </trkpt>
      <trkpt lat="24.932095895625828" lon="118.5571648953033">
        <ele>10.319917494431138</ele>
        <time>2025-05-15T13:44:04Z</time>
      </trkpt>
      <trkpt lat="24.931799196366832" lon="118.5573901364111">
        <ele>10.305063797160983</ele>
        <time>2025-05-15T13:44:16Z</time>
      </trkpt>
      <trkpt lat="24.93158614983353" lon="118.55754977303819">
        <ele>11.316855547949672</ele>
        <time>2025-05-15T13:44:25Z</time>
      </trkpt>
      <trkpt lat="24.931513098914017" lon="118.55757704304706">
        <ele>11.672591831535101</ele>
        <time>2025-05-15T13:44:28Z</time>
      </trkpt>
      <trkpt lat="24.931360355757327" lon="118.55770742639129">
        <ele>12.00282821804285</ele>
        <time>2025-05-15T13:44:34Z</time>
      </trkpt>
      <trkpt lat="24.931065031806018" lon="118.55790746313829">
        <ele>12.376206126995385</ele>
        <time>2025-05-15T13:44:46Z</time>
      </trkpt>
      <trkpt lat="24.930815055116945" lon="118.55806382773302">
        <ele>11.805534691549838</ele>
        <time>2025-05-15T13:44:55Z</time>
      </trkpt>
      <trkpt lat="24.930650902099337" lon="118.55814816597218">
        <ele>11.990706133656204</ele>
        <time>2025-05-15T13:45:01Z</time>
      </trkpt>
      <trkpt lat="24.930592254420358" lon="118.55820664628432">
        <ele>11.34446787647903</ele>
        <time>2025-05-15T13:45:04Z</time>
      </trkpt>
      <trkpt lat="24.930435008469754" lon="118.55827382985073">
        <ele>11.519533946178854</ele>
        <time>2025-05-15T13:45:10Z</time>
      </trkpt>
      <trkpt lat="24.930370091530584" lon="118.55832597480159">
        <ele>11.716796746477485</ele>
        <time>2025-05-15T13:45:13Z</time>
      </trkpt>
      <trkpt lat="24.930197818620947" lon="118.5583599827561">
        <ele>11.81661574356258</ele>
        <time>2025-05-15T13:45:19Z</time>
      </trkpt>
      <trkpt lat="24.93003207200217" lon="118.5584447897944">
        <ele>12.4992566537112</ele>
        <time>2025-05-15T13:45:25Z</time>
      </trkpt>
      <trkpt lat="24.929953591472984" lon="118.55850522768438">
        <ele>12.55300873145461</ele>
        <time>2025-05-15T13:45:28Z</time>
      </trkpt>
      <trkpt lat="24.929692200825116" lon="118.55861053295496">
        <ele>11.732785424217582</ele>
        <time>2025-05-15T13:45:37Z</time>
      </trkpt>
      <trkpt lat="24.92941308040589" lon="118.5587251574358">
        <ele>11.967512903735042</ele>
        <time>2025-05-15T13:45:46Z</time>
      </trkpt>
      <trkpt lat="24.929320669433476" lon="118.5587564513624">
        <ele>11.603247616440058</ele>
        <time>2025-05-15T13:45:49Z</time>
      </trkpt>
      <trkpt lat="24.929229832738386" lon="118.55876178959497">
        <ele>11.187861130572855</ele>
        <time>2025-05-15T13:45:52Z</time>
      </trkpt>
      <trkpt lat="24.92915718936046" lon="118.55882305705305">
        <ele>12.119196231476963</ele>
        <time>2025-05-15T13:45:55Z</time>
      </trkpt>
      <trkpt lat="24.929020409834195" lon="118.55889192253646">
        <ele>11.622967065311968</ele>
        <time>2025-05-15T13:46:01Z</time>
      </trkpt>
      <trkpt lat="24.928766803690262" lon="118.5589533612661">
        <ele>12.10797162167728</ele>
        <time>2025-05-15T13:46:10Z</time>
      </trkpt>
      <trkpt lat="24.928515930759406" lon="118.55899794246066">
        <ele>11.943470996804535</ele>
        <time>2025-05-15T13:46:19Z</time>
      </trkpt>
      <trkpt lat="24.928172130187587" lon="118.55908514955003">
        <ele>12.185377595946193</ele>
        <time>2025-05-15T13:46:31Z</time>
      </trkpt>
      <trkpt lat="24.928010634372136" lon="118.55912979612145">
        <ele>12.35129858367145</ele>
        <time>2025-05-15T13:46:37Z</time>
      </trkpt>
      <trkpt lat="24.927919408825804" lon="118.55912826547386">
        <ele>12.137020335532725</ele>
        <time>2025-05-15T13:46:40Z</time>
      </trkpt>
      <trkpt lat="24.92772639699048" lon="118.55918741858233">
        <ele>12.329202339053154</ele>
        <time>2025-05-15T13:46:46Z</time>
      </trkpt>
      <trkpt lat="24.92745437283131" lon="118.55921303485455">
        <ele>10.585885557346046</ele>
        <time>2025-05-15T13:46:55Z</time>
      </trkpt>
      <trkpt lat="24.927265376033795" lon="118.55923577777148">
        <ele>10.630866254679859</ele>
        <time>2025-05-15T13:47:01Z</time>
      </trkpt>
      <trkpt lat="24.92699556209312" lon="118.55923958116665">
        <ele>10.106525208801031</ele>
        <time>2025-05-15T13:47:10Z</time>
      </trkpt>
      <trkpt lat="24.926628040798075" lon="118.55926800483425">
        <ele>10.805903375148773</ele>
        <time>2025-05-15T13:47:22Z</time>
      </trkpt>
      <trkpt lat="24.926426919918505" lon="118.55925792906359">
        <ele>10.785387358628213</ele>
        <time>2025-05-15T13:47:28Z</time>
      </trkpt>
      <trkpt lat="24.92616046317716" lon="118.55926727597998">
        <ele>10.021880017593503</ele>
        <time>2025-05-15T13:47:37Z</time>
      </trkpt>
      <trkpt lat="24.92599536023186" lon="118.55923572080115">
        <ele>9.540137562900782</ele>
        <time>2025-05-15T13:47:43Z</time>
      </trkpt>
      <trkpt lat="24.925913407153285" lon="118.55918810288215">
        <ele>8.714723212644458</ele>
        <time>2025-05-15T13:47:46Z</time>
      </trkpt>
      <trkpt lat="24.92584720892196" lon="118.55912190905238">
        <ele>9.042540431022644</ele>
        <time>2025-05-15T13:47:49Z</time>
      </trkpt>
      <trkpt lat="24.925758777112943" lon="118.55909140042084">
        <ele>9.095375639386475</ele>
        <time>2025-05-15T13:47:52Z</time>
      </trkpt>
      <trkpt lat="24.92551688522529" lon="118.5591302008513">
        <ele>9.80345953349024</ele>
        <time>2025-05-15T13:48:01Z</time>
      </trkpt>
      <trkpt lat="24.925437180287595" lon="118.55915896900369">
        <ele>10.158859761431813</ele>
        <time>2025-05-15T13:48:04Z</time>
      </trkpt>
      <trkpt lat="24.92536688121115" lon="118.55922011010526">
        <ele>10.835667428560555</ele>
        <time>2025-05-15T13:48:07Z</time>
      </trkpt>
      <trkpt lat="24.92519056048556" lon="118.55925571045445">
        <ele>10.474561383016407</ele>
        <time>2025-05-15T13:48:13Z</time>
      </trkpt>
      <trkpt lat="24.9250192053635" lon="118.55922657358064">
        <ele>10.340501759201288</ele>
        <time>2025-05-15T13:48:19Z</time>
      </trkpt>
      <trkpt lat="24.924746291507994" lon="118.55921776006348">
        <ele>10.401700537651777</ele>
        <time>2025-05-15T13:48:28Z</time>
      </trkpt>
      <trkpt lat="24.924473728353426" lon="118.55921590433903">
        <ele>10.168545015156269</ele>
        <time>2025-05-15T13:48:37Z</time>
      </trkpt>
      <trkpt lat="24.924200351549686" lon="118.55921783036294">
        <ele>9.790133691392839</ele>
        <time>2025-05-15T13:48:46Z</time>
      </trkpt>
      <trkpt lat="24.92387218736006" lon="118.55919581830423">
        <ele>9.59563572332263</ele>
        <time>2025-05-15T13:48:58Z</time>
      </trkpt>
      <trkpt lat="24.923516045199815" lon="118.55917277322995">
        <ele>10.242767989635468</ele>
        <time>2025-05-15T13:49:10Z</time>
      </trkpt>
      <trkpt lat="24.92323915975478" lon="118.55917284795314">
        <ele>10.416277416981757</ele>
        <time>2025-05-15T13:49:19Z</time>
      </trkpt>
      <trkpt lat="24.923150138131394" lon="118.55916670186951">
        <ele>9.805247275158763</ele>
        <time>2025-05-15T13:49:22Z</time>
      </trkpt>
      <trkpt lat="24.923052407193474" lon="118.55918383517715">
        <ele>10.008766141720116</ele>
        <time>2025-05-15T13:49:25Z</time>
      </trkpt>
      <trkpt lat="24.92276272414872" lon="118.55916871557957">
        <ele>10.022136612795293</ele>
        <time>2025-05-15T13:49:34Z</time>
      </trkpt>
      <trkpt lat="24.922474155993623" lon="118.5591867740558">
        <ele>9.578296421095729</ele>
        <time>2025-05-15T13:49:43Z</time>
      </trkpt>
      <trkpt lat="24.922273484516825" lon="118.55917826657672">
        <ele>10.548668151721358</ele>
        <time>2025-05-15T13:49:49Z</time>
      </trkpt>
      <trkpt lat="24.922090499068105" lon="118.55912708518177">
        <ele>11.092979764565825</ele>
        <time>2025-05-15T13:49:55Z</time>
      </trkpt>
      <trkpt lat="24.921997991166275" lon="118.55912441578384">
        <ele>11.459312869235873</ele>
        <time>2025-05-15T13:49:58Z</time>
      </trkpt>
      <trkpt lat="24.921907998856273" lon="118.55914404595488">
        <ele>12.178393868729472</ele>
        <time>2025-05-15T13:50:01Z</time>
      </trkpt>
      <trkpt lat="24.9215635849936" lon="118.55912291216657">
        <ele>11.880649036727846</ele>
        <time>2025-05-15T13:50:13Z</time>
      </trkpt>
      <trkpt lat="24.921491439620155" lon="118.55911860195293">
        <ele>11.505685893818736</ele>
        <time>2025-05-15T13:50:16Z</time>
      </trkpt>
      <trkpt lat="24.921440774375284" lon="118.55909547511752">
        <ele>11.490101295523345</ele>
        <time>2025-05-15T13:50:19Z</time>
      </trkpt>
      <trkpt lat="24.921290909420726" lon="118.55915903342125">
        <ele>10.780512102879584</ele>
        <time>2025-05-15T13:50:25Z</time>
      </trkpt>
      <trkpt lat="24.92104709424192" lon="118.55918104573678">
        <ele>10.171580172143877</ele>
        <time>2025-05-15T13:50:34Z</time>
      </trkpt>
      <trkpt lat="24.92075469391949" lon="118.55916877731347">
        <ele>10.02063708100468</ele>
        <time>2025-05-15T13:50:43Z</time>
      </trkpt>
      <trkpt lat="24.920472128316064" lon="118.5591720086661">
        <ele>9.423528876155615</ele>
        <time>2025-05-15T13:50:52Z</time>
      </trkpt>
      <trkpt lat="24.920217009060686" lon="118.5591508449246">
        <ele>9.536182207986712</ele>
        <time>2025-05-15T13:51:01Z</time>
      </trkpt>
      <trkpt lat="24.919933104598705" lon="118.55914772152097">
        <ele>9.784283527173102</ele>
        <time>2025-05-15T13:51:10Z</time>
      </trkpt>
      <trkpt lat="24.919624001548975" lon="118.55914672757223">
        <ele>9.742514019832015</ele>
        <time>2025-05-15T13:51:22Z</time>
      </trkpt>
      <trkpt lat="24.919272314397745" lon="118.5591449730581">
        <ele>9.686478636227548</ele>
        <time>2025-05-15T13:51:34Z</time>
      </trkpt>
      <trkpt lat="24.918926211512375" lon="118.5591382386501">
        <ele>10.66136117465794</ele>
        <time>2025-05-15T13:51:46Z</time>
      </trkpt>
      <trkpt lat="24.918601365801475" lon="118.55908606676799">
        <ele>10.737141601741314</ele>
        <time>2025-05-15T13:51:58Z</time>
      </trkpt>
      <trkpt lat="24.918290062851895" lon="118.55910998785882">
        <ele>9.914388682693243</ele>
        <time>2025-05-15T13:52:07Z</time>
      </trkpt>
      <trkpt lat="24.91800552167244" lon="118.55911375799721">
        <ele>10.683655264787376</ele>
        <time>2025-05-15T13:52:16Z</time>
      </trkpt>
      <trkpt lat="24.917641205173133" lon="118.55912495102022">
        <ele>10.77246892824769</ele>
        <time>2025-05-15T13:52:28Z</time>
      </trkpt>
      <trkpt lat="24.917356068015437" lon="118.5591291895212">
        <ele>10.117560297250748</ele>
        <time>2025-05-15T13:52:40Z</time>
      </trkpt>
      <trkpt lat="24.917026281250113" lon="118.55917702919704">
        <ele>10.487144903279841</ele>
        <time>2025-05-15T13:52:49Z</time>
      </trkpt>
      <trkpt lat="24.91675059785052" lon="118.55923877605338">
        <ele>9.712526185438037</ele>
        <time>2025-05-15T13:52:58Z</time>
      </trkpt>
      <trkpt lat="24.916474676612395" lon="118.55932386627632">
        <ele>10.293075948022306</ele>
        <time>2025-05-15T13:53:07Z</time>
      </trkpt>
      <trkpt lat="24.916230443933618" lon="118.55941476503449">
        <ele>11.838083392009139</ele>
        <time>2025-05-15T13:53:16Z</time>
      </trkpt>
      <trkpt lat="24.915979008883404" lon="118.55957333146004">
        <ele>12.38134882133454</ele>
        <time>2025-05-15T13:53:25Z</time>
      </trkpt>
      <trkpt lat="24.915682029543827" lon="118.55976521467078">
        <ele>12.404827823862433</ele>
        <time>2025-05-15T13:53:37Z</time>
      </trkpt>
      <trkpt lat="24.915387401893675" lon="118.55996551045627">
        <ele>15.856266098096967</ele>
        <time>2025-05-15T13:53:49Z</time>
      </trkpt>
      <trkpt lat="24.915160864170424" lon="118.56008033863267">
        <ele>14.188441647216678</ele>
        <time>2025-05-15T13:53:58Z</time>
      </trkpt>
      <trkpt lat="24.91501633663532" lon="118.5601766736047">
        <ele>13.516529992222786</ele>
        <time>2025-05-15T13:54:04Z</time>
      </trkpt>
      <trkpt lat="24.9147723317934" lon="118.56030201033248">
        <ele>13.163123997859657</ele>
        <time>2025-05-15T13:54:13Z</time>
      </trkpt>
      <trkpt lat="24.914541491150853" lon="118.56047164000081">
        <ele>13.228583349846303</ele>
        <time>2025-05-15T13:54:22Z</time>
      </trkpt>
      <trkpt lat="24.91429300701765" lon="118.56064105603168">
        <ele>13.310697906650603</ele>
        <time>2025-05-15T13:54:32Z</time>
      </trkpt>
      <trkpt lat="24.913982939398057" lon="118.56083469500365">
        <ele>10.735974020324647</ele>
        <time>2025-05-15T13:54:44Z</time>
      </trkpt>
      <trkpt lat="24.913668514336106" lon="118.56104257348714">
        <ele>9.894463449716568</ele>
        <time>2025-05-15T13:54:56Z</time>
      </trkpt>
      <trkpt lat="24.91335978845536" lon="118.56124505843201">
        <ele>11.085590416565537</ele>
        <time>2025-05-15T13:55:08Z</time>
      </trkpt>
      <trkpt lat="24.91303917613158" lon="118.56139630433024">
        <ele>11.869984470307827</ele>
        <time>2025-05-15T13:55:20Z</time>
      </trkpt>
      <trkpt lat="24.912790432355994" lon="118.56148563324413">
        <ele>11.670727797783911</ele>
        <time>2025-05-15T13:55:29Z</time>
      </trkpt>
      <trkpt lat="24.91268900116242" lon="118.56154287310599">
        <ele>11.96422067657113</ele>
        <time>2025-05-15T13:55:33Z</time>
      </trkpt>
      <trkpt lat="24.912343697385165" lon="118.56160175376131">
        <ele>11.80834199860692</ele>
        <time>2025-05-15T13:55:45Z</time>
      </trkpt>
      <trkpt lat="24.912112603125028" lon="118.5616406918025">
        <ele>11.998264944180846</ele>
        <time>2025-05-15T13:55:54Z</time>
      </trkpt>
      <trkpt lat="24.911971809709026" lon="118.56162570192534">
        <ele>12.474025642499328</ele>
        <time>2025-05-15T13:56:00Z</time>
      </trkpt>
      <trkpt lat="24.911599749307776" lon="118.56164514231992">
        <ele>11.868359263986349</ele>
        <time>2025-05-15T13:56:12Z</time>
      </trkpt>
      <trkpt lat="24.911257117263574" lon="118.56165626812714">
        <ele>12.313778490759432</ele>
        <time>2025-05-15T13:56:22Z</time>
      </trkpt>
      <trkpt lat="24.910928588043443" lon="118.56168564082405">
        <ele>10.839198435656726</ele>
        <time>2025-05-15T13:56:32Z</time>
      </trkpt>
      <trkpt lat="24.910840342767184" lon="118.56169714702249">
        <ele>10.890404276549816</ele>
        <time>2025-05-15T13:56:35Z</time>
      </trkpt>
      <trkpt lat="24.91074403574302" lon="118.56168496899156">
        <ele>10.97818271163851</ele>
        <time>2025-05-15T13:56:38Z</time>
      </trkpt>
      <trkpt lat="24.910582174093047" lon="118.56169949400686">
        <ele>12.61194659769535</ele>
        <time>2025-05-15T13:56:44Z</time>
      </trkpt>
      <trkpt lat="24.91048770123149" lon="118.56161124544028">
        <ele>11.534826165996492</ele>
        <time>2025-05-15T13:56:53Z</time>
      </trkpt>
      <trkpt lat="24.91040481281163" lon="118.56144945565003">
        <ele>12.414814195595682</ele>
        <time>2025-05-15T13:56:59Z</time>
      </trkpt>
      <trkpt lat="24.91033670649749" lon="118.56145966250129">
        <ele>12.682318843901157</ele>
        <time>2025-05-15T13:57:02Z</time>
      </trkpt>
      <trkpt lat="24.910032224264647" lon="118.56160104539501">
        <ele>12.331427114084363</ele>
        <time>2025-05-15T13:57:14Z</time>
      </trkpt>
      <trkpt lat="24.909714490927207" lon="118.56175705077749">
        <ele>12.882405521348119</ele>
        <time>2025-05-15T13:57:26Z</time>
      </trkpt>
      <trkpt lat="24.909392558344717" lon="118.56191808347496">
        <ele>12.93605847004801</ele>
        <time>2025-05-15T13:57:38Z</time>
      </trkpt>
      <trkpt lat="24.90911634191057" lon="118.56204169879446">
        <ele>13.300727950409055</ele>
        <time>2025-05-15T13:57:47Z</time>
      </trkpt>
      <trkpt lat="24.908835494432616" lon="118.56215928446714">
        <ele>12.600086810067296</ele>
        <time>2025-05-15T13:57:56Z</time>
      </trkpt>
      <trkpt lat="24.908570023590936" lon="118.5622479324469">
        <ele>13.243653845973313</ele>
        <time>2025-05-15T13:58:05Z</time>
      </trkpt>
      <trkpt lat="24.908287209933704" lon="118.56233075888623">
        <ele>12.674413241446018</ele>
        <time>2025-05-15T13:58:14Z</time>
      </trkpt>
      <trkpt lat="24.90801512452561" lon="118.56241391308316">
        <ele>12.578034796752036</ele>
        <time>2025-05-15T13:58:24Z</time>
      </trkpt>
      <trkpt lat="24.90773145618697" lon="118.56249085249657">
        <ele>13.467115754261613</ele>
        <time>2025-05-15T13:58:34Z</time>
      </trkpt>
      <trkpt lat="24.907429219790213" lon="118.56257878138767">
        <ele>12.542952267453074</ele>
        <time>2025-05-15T13:58:44Z</time>
      </trkpt>
      <trkpt lat="24.907077125034355" lon="118.56269926264156">
        <ele>11.403201873414218</ele>
        <time>2025-05-15T13:58:56Z</time>
      </trkpt>
      <trkpt lat="24.906816681588243" lon="118.56276132366116">
        <ele>10.17337531875819</ele>
        <time>2025-05-15T13:59:05Z</time>
      </trkpt>
      <trkpt lat="24.90673560434181" lon="118.56281077269954">
        <ele>10.217243225313723</ele>
        <time>2025-05-15T13:59:08Z</time>
      </trkpt>
      <trkpt lat="24.90647835711205" lon="118.5629004803211">
        <ele>9.541086974553764</ele>
        <time>2025-05-15T13:59:17Z</time>
      </trkpt>
      <trkpt lat="24.906217199679705" lon="118.56303553356538">
        <ele>9.704073110595345</ele>
        <time>2025-05-15T13:59:26Z</time>
      </trkpt>
      <trkpt lat="24.90595654563734" lon="118.56318230700445">
        <ele>10.43782720156014</ele>
        <time>2025-05-15T13:59:35Z</time>
      </trkpt>
      <trkpt lat="24.90570300024107" lon="118.56332062512405">
        <ele>10.694623475894332</ele>
        <time>2025-05-15T13:59:44Z</time>
      </trkpt>
      <trkpt lat="24.90543227088544" lon="118.56347469772697">
        <ele>10.2760168351233</ele>
        <time>2025-05-15T13:59:56Z</time>
      </trkpt>
      <trkpt lat="24.90520426303251" lon="118.56360183624167">
        <ele>9.940038149245083</ele>
        <time>2025-05-15T14:00:05Z</time>
      </trkpt>
      <trkpt lat="24.904962453098506" lon="118.56375246334463">
        <ele>10.926170215941966</ele>
        <time>2025-05-15T14:00:14Z</time>
      </trkpt>
      <trkpt lat="24.904719745354477" lon="118.56389909104226">
        <ele>10.271399318240583</ele>
        <time>2025-05-15T14:00:23Z</time>
      </trkpt>
      <trkpt lat="24.904370929983262" lon="118.56405757064846">
        <ele>10.185660931281745</ele>
        <time>2025-05-15T14:00:34Z</time>
      </trkpt>
      <trkpt lat="24.904044148266482" lon="118.56419872175918">
        <ele>9.94755787588656</ele>
        <time>2025-05-15T14:00:45Z</time>
      </trkpt>
      <trkpt lat="24.903805481987078" lon="118.56428896864041">
        <ele>7.990314200520515</ele>
        <time>2025-05-15T14:00:54Z</time>
      </trkpt>
      <trkpt lat="24.903717864112714" lon="118.56430406617346">
        <ele>8.272933815605938</ele>
        <time>2025-05-15T14:00:57Z</time>
      </trkpt>
      <trkpt lat="24.903434932567166" lon="118.56442770117242">
        <ele>7.823815932497382</ele>
        <time>2025-05-15T14:01:06Z</time>
      </trkpt>
      <trkpt lat="24.9031792149966" lon="118.56454067829016">
        <ele>8.289088606834412</ele>
        <time>2025-05-15T14:01:15Z</time>
      </trkpt>
      <trkpt lat="24.90289715502003" lon="118.56466281094048">
        <ele>8.777631756849587</ele>
        <time>2025-05-15T14:01:24Z</time>
      </trkpt>
      <trkpt lat="24.902809792156464" lon="118.56469051413971">
        <ele>7.83619733247906</ele>
        <time>2025-05-15T14:01:27Z</time>
      </trkpt>
      <trkpt lat="24.902660931919936" lon="118.56477387386559">
        <ele>7.697024038992822</ele>
        <time>2025-05-15T14:01:33Z</time>
      </trkpt>
      <trkpt lat="24.90250487904725" lon="118.56489418884095">
        <ele>7.334153368137777</ele>
        <time>2025-05-15T14:01:39Z</time>
      </trkpt>
      <trkpt lat="24.902186205174612" lon="118.56507327430657">
        <ele>7.476393853314221</ele>
        <time>2025-05-15T14:01:51Z</time>
      </trkpt>
      <trkpt lat="24.90192856596475" lon="118.5652063638628">
        <ele>7.399606867693365</ele>
        <time>2025-05-15T14:02:00Z</time>
      </trkpt>
      <trkpt lat="24.901678291607197" lon="118.56532989031817">
        <ele>7.193586950190365</ele>
        <time>2025-05-15T14:02:09Z</time>
      </trkpt>
      <trkpt lat="24.90159060201378" lon="118.56536687057212">
        <ele>7.1067679561674595</ele>
        <time>2025-05-15T14:02:12Z</time>
      </trkpt>
      <trkpt lat="24.901444099803093" lon="118.56547000774384">
        <ele>7.401033516973257</ele>
        <time>2025-05-15T14:02:18Z</time>
      </trkpt>
      <trkpt lat="24.901354192262225" lon="118.56548418697624">
        <ele>7.351118152029812</ele>
        <time>2025-05-15T14:02:21Z</time>
      </trkpt>
      <trkpt lat="24.901113823916294" lon="118.56563623958434">
        <ele>7.805539847351611</ele>
        <time>2025-05-15T14:02:30Z</time>
      </trkpt>
      <trkpt lat="24.90100599812511" lon="118.56568157538449">
        <ele>7.935645369812846</ele>
        <time>2025-05-15T14:02:33Z</time>
      </trkpt>
      <trkpt lat="24.900708618896914" lon="118.56585379145098">
        <ele>7.141913001425564</ele>
        <time>2025-05-15T14:02:44Z</time>
      </trkpt>
      <trkpt lat="24.900452908308893" lon="118.56600824002996">
        <ele>8.059367444366217</ele>
        <time>2025-05-15T14:02:54Z</time>
      </trkpt>
      <trkpt lat="24.900181464830293" lon="118.56614845130683">
        <ele>7.620116046629846</ele>
        <time>2025-05-15T14:03:03Z</time>
      </trkpt>
      <trkpt lat="24.89991127365889" lon="118.5662827335357">
        <ele>8.29582585580647</ele>
        <time>2025-05-15T14:03:12Z</time>
      </trkpt>
      <trkpt lat="24.899600534315802" lon="118.56646290420228">
        <ele>7.340727660804987</ele>
        <time>2025-05-15T14:03:24Z</time>
      </trkpt>
      <trkpt lat="24.899346445226513" lon="118.56658873791656">
        <ele>7.956580805592239</ele>
        <time>2025-05-15T14:03:33Z</time>
      </trkpt>
      <trkpt lat="24.899068985938964" lon="118.56677117940218">
        <ele>7.851557610556483</ele>
        <time>2025-05-15T14:03:45Z</time>
      </trkpt>
      <trkpt lat="24.898837897990738" lon="118.56685090547533">
        <ele>7.415709526278079</ele>
        <time>2025-05-15T14:03:54Z</time>
      </trkpt>
      <trkpt lat="24.898711478777276" lon="118.56696486671609">
        <ele>7.453256382606924</ele>
        <time>2025-05-15T14:04:00Z</time>
      </trkpt>
      <trkpt lat="24.898472939935832" lon="118.56708086809132">
        <ele>8.026964471675456</ele>
        <time>2025-05-15T14:04:09Z</time>
      </trkpt>
      <trkpt lat="24.898318808221685" lon="118.56720697512961">
        <ele>7.997491831891239</ele>
        <time>2025-05-15T14:04:15Z</time>
      </trkpt>
      <trkpt lat="24.89802110320712" lon="118.56736315700063">
        <ele>7.968029433861375</ele>
        <time>2025-05-15T14:04:24Z</time>
      </trkpt>
      <trkpt lat="24.897737948987917" lon="118.56753347242497">
        <ele>8.33968449011445</ele>
        <time>2025-05-15T14:04:33Z</time>
      </trkpt>
      <trkpt lat="24.897650317055493" lon="118.56757668106623">
        <ele>8.171610646881163</ele>
        <time>2025-05-15T14:04:36Z</time>
      </trkpt>
      <trkpt lat="24.897355835492775" lon="118.56776900139852">
        <ele>8.885688454844058</ele>
        <time>2025-05-15T14:04:47Z</time>
      </trkpt>
      <trkpt lat="24.897101470959356" lon="118.56799198864002">
        <ele>8.655146468430758</ele>
        <time>2025-05-15T14:04:58Z</time>
      </trkpt>
      <trkpt lat="24.896878992456266" lon="118.56813491919333">
        <ele>9.458308555185795</ele>
        <time>2025-05-15T14:05:07Z</time>
      </trkpt>
      <trkpt lat="24.8966061230761" lon="118.56838400448609">
        <ele>10.225687134079635</ele>
        <time>2025-05-15T14:05:19Z</time>
      </trkpt>
      <trkpt lat="24.896375300658462" lon="118.56856600293187">
        <ele>9.241634792648256</ele>
        <time>2025-05-15T14:05:28Z</time>
      </trkpt>
      <trkpt lat="24.896087032626987" lon="118.56882218180915">
        <ele>8.897125473245978</ele>
        <time>2025-05-15T14:05:40Z</time>
      </trkpt>
      <trkpt lat="24.895866318975777" lon="118.5690147261727">
        <ele>9.25822679977864</ele>
        <time>2025-05-15T14:05:49Z</time>
      </trkpt>
      <trkpt lat="24.895673613344748" lon="118.56921301492878">
        <ele>8.36083208490163</ele>
        <time>2025-05-15T14:05:58Z</time>
      </trkpt>
      <trkpt lat="24.895518111903698" lon="118.56934295371646">
        <ele>7.860450645908713</ele>
        <time>2025-05-15T14:06:04Z</time>
      </trkpt>
      <trkpt lat="24.89525661438575" lon="118.5696193594838">
        <ele>8.42078731302172</ele>
        <time>2025-05-15T14:06:16Z</time>
      </trkpt>
      <trkpt lat="24.895051298467063" lon="118.5698509142219">
        <ele>7.619828016497195</ele>
        <time>2025-05-15T14:06:25Z</time>
      </trkpt>
      <trkpt lat="24.894799560574867" lon="118.57011777355491">
        <ele>7.675623425282538</ele>
        <time>2025-05-15T14:06:37Z</time>
      </trkpt>
      <trkpt lat="24.894615803220592" lon="118.57034843954563">
        <ele>7.520137272775173</ele>
        <time>2025-05-15T14:06:46Z</time>
      </trkpt>
      <trkpt lat="24.894381583707055" lon="118.57067429385312">
        <ele>8.349973192438483</ele>
        <time>2025-05-15T14:06:57Z</time>
      </trkpt>
      <trkpt lat="24.894328078888368" lon="118.57073638171838">
        <ele>7.55095743201673</ele>
        <time>2025-05-15T14:07:00Z</time>
      </trkpt>
      <trkpt lat="24.894236650203098" lon="118.57069987306424">
        <ele>8.065798544324934</ele>
        <time>2025-05-15T14:07:03Z</time>
      </trkpt>
      <trkpt lat="24.89401769208486" lon="118.57046805910313">
        <ele>7.857321038842201</ele>
        <time>2025-05-15T14:07:15Z</time>
      </trkpt>
      <trkpt lat="24.893724646200845" lon="118.5702267399452">
        <ele>7.3746811570599675</ele>
        <time>2025-05-15T14:07:27Z</time>
      </trkpt>
      <trkpt lat="24.893643674843055" lon="118.57019052851813">
        <ele>7.638815849088132</ele>
        <time>2025-05-15T14:07:30Z</time>
      </trkpt>
      <trkpt lat="24.89339089542295" lon="118.57018682360518">
        <ele>8.003759812563658</ele>
        <time>2025-05-15T14:07:39Z</time>
      </trkpt>
      <trkpt lat="24.89312841038884" lon="118.57026465022277">
        <ele>7.690993431024253</ele>
        <time>2025-05-15T14:07:48Z</time>
      </trkpt>
      <trkpt lat="24.892955684789538" lon="118.5703056555344">
        <ele>7.920158092863858</ele>
        <time>2025-05-15T14:07:54Z</time>
      </trkpt>
      <trkpt lat="24.89289206204105" lon="118.57028447808509">
        <ele>8.091326349414885</ele>
        <time>2025-05-15T14:07:57Z</time>
      </trkpt>
      <trkpt lat="24.892852329802423" lon="118.57023991381378">
        <ele>8.210301634855568</ele>
        <time>2025-05-15T14:08:00Z</time>
      </trkpt>
      <trkpt lat="24.892819086970775" lon="118.5701376653553">
        <ele>7.456053147092462</ele>
        <time>2025-05-15T14:08:03Z</time>
      </trkpt>
      <trkpt lat="24.892746260966145" lon="118.56977836809499">
        <ele>8.51927159819752</ele>
        <time>2025-05-15T14:08:15Z</time>
      </trkpt>
      <trkpt lat="24.892713601325646" lon="118.56950147086752">
        <ele>8.660094913095236</ele>
        <time>2025-05-15T14:08:24Z</time>
      </trkpt>
      <trkpt lat="24.89271929930069" lon="118.56932518364707">
        <ele>7.854490625672042</ele>
        <time>2025-05-15T14:08:30Z</time>
      </trkpt>
      <trkpt lat="24.89276541951496" lon="118.56901593279495">
        <ele>7.598902522586286</ele>
        <time>2025-05-15T14:08:39Z</time>
      </trkpt>
      <trkpt lat="24.89273798043192" lon="118.56890634506142">
        <ele>8.2791537521407</ele>
        <time>2025-05-15T14:08:42Z</time>
      </trkpt>
      <trkpt lat="24.892755453347064" lon="118.56868557903883">
        <ele>8.673604416660964</ele>
        <time>2025-05-15T14:08:48Z</time>
      </trkpt>
      <trkpt lat="24.89269490659036" lon="118.56845510973342">
        <ele>8.880635801702738</ele>
        <time>2025-05-15T14:08:55Z</time>
      </trkpt>
      <trkpt lat="24.892684671835433" lon="118.56806088441874">
        <ele>9.216965641826391</ele>
        <time>2025-05-15T14:09:06Z</time>
      </trkpt>
      <trkpt lat="24.89267710378685" lon="118.56787495223998">
        <ele>9.712319171056151</ele>
        <time>2025-05-15T14:09:12Z</time>
      </trkpt>
      <trkpt lat="24.89273195914685" lon="118.56756260226433">
        <ele>9.663251649588346</ele>
        <time>2025-05-15T14:09:21Z</time>
      </trkpt>
      <trkpt lat="24.892726987153907" lon="118.56746380035382">
        <ele>9.946646568365395</ele>
        <time>2025-05-15T14:09:24Z</time>
      </trkpt>
      <trkpt lat="24.892693076729213" lon="118.56736488565113">
        <ele>9.756008060649037</ele>
        <time>2025-05-15T14:09:27Z</time>
      </trkpt>
      <trkpt lat="24.892636934243406" lon="118.56727293452961">
        <ele>9.36900815460831</ele>
        <time>2025-05-15T14:09:30Z</time>
      </trkpt>
      <trkpt lat="24.892594127600372" lon="118.56716399418895">
        <ele>9.51538940705359</ele>
        <time>2025-05-15T14:09:33Z</time>
      </trkpt>
      <trkpt lat="24.89259127732344" lon="118.56686381988573">
        <ele>8.414570075459778</ele>
        <time>2025-05-15T14:09:42Z</time>
      </trkpt>
      <trkpt lat="24.892618383001285" lon="118.56675025094178">
        <ele>8.432716622948647</ele>
        <time>2025-05-15T14:09:45Z</time>
      </trkpt>
      <trkpt lat="24.892566526601655" lon="118.56638025574848">
        <ele>7.982727935537696</ele>
        <time>2025-05-15T14:09:57Z</time>
      </trkpt>
      <trkpt lat="24.89265194347487" lon="118.56600706320398">
        <ele>9.536404859274626</ele>
        <time>2025-05-15T14:10:09Z</time>
      </trkpt>
      <trkpt lat="24.892717353145894" lon="118.56572327067215">
        <ele>8.013670774176717</ele>
        <time>2025-05-15T14:10:18Z</time>
      </trkpt>
      <trkpt lat="24.89279603776857" lon="118.56556277782835">
        <ele>7.873651536181569</ele>
        <time>2025-05-15T14:10:24Z</time>
      </trkpt>
      <trkpt lat="24.892819201371776" lon="118.5654843928043">
        <ele>8.786442561075091</ele>
        <time>2025-05-15T14:10:27Z</time>
      </trkpt>
      <trkpt lat="24.892883668532704" lon="118.56542446895287">
        <ele>7.83345040678978</ele>
        <time>2025-05-15T14:10:30Z</time>
      </trkpt>
      <trkpt lat="24.893131437946145" lon="118.56535941698294">
        <ele>7.41664357110858</ele>
        <time>2025-05-15T14:10:39Z</time>
      </trkpt>
      <trkpt lat="24.89323779422041" lon="118.56535325385092">
        <ele>7.498917789198458</ele>
        <time>2025-05-15T14:10:42Z</time>
      </trkpt>
      <trkpt lat="24.893567784944427" lon="118.56518580592443">
        <ele>8.613025702536106</ele>
        <time>2025-05-15T14:10:54Z</time>
      </trkpt>
      <trkpt lat="24.893770072859564" lon="118.56510110128163">
        <ele>8.307086115702987</ele>
        <time>2025-05-15T14:11:01Z</time>
      </trkpt>
      <trkpt lat="24.89405565158953" lon="118.56501987001417">
        <ele>9.739676372148097</ele>
        <time>2025-05-15T14:11:12Z</time>
      </trkpt>
      <trkpt lat="24.89420712250905" lon="118.56498647681158">
        <ele>9.28786500170827</ele>
        <time>2025-05-15T14:11:18Z</time>
      </trkpt>
      <trkpt lat="24.89446317524858" lon="118.5649098381208">
        <ele>10.28599665965885</ele>
        <time>2025-05-15T14:11:27Z</time>
      </trkpt>
      <trkpt lat="24.894643848930233" lon="118.56479449751046">
        <ele>12.158845081925392</ele>
        <time>2025-05-15T14:11:33Z</time>
      </trkpt>
      <trkpt lat="24.894723424121747" lon="118.56476776104752">
        <ele>12.013329869136214</ele>
        <time>2025-05-15T14:11:36Z</time>
      </trkpt>
      <trkpt lat="24.89500110019813" lon="118.56461506948648">
        <ele>12.336502010934055</ele>
        <time>2025-05-15T14:11:45Z</time>
      </trkpt>
      <trkpt lat="24.89518962610567" lon="118.56457667351707">
        <ele>12.280806503258646</ele>
        <time>2025-05-15T14:11:51Z</time>
      </trkpt>
      <trkpt lat="24.895394599543568" lon="118.56445507267111">
        <ele>11.362291356548667</ele>
        <time>2025-05-15T14:11:57Z</time>
      </trkpt>
      <trkpt lat="24.895502762252892" lon="118.56441712410518">
        <ele>11.005609756335616</ele>
        <time>2025-05-15T14:12:00Z</time>
      </trkpt>
      <trkpt lat="24.8958201645602" lon="118.56427937321766">
        <ele>11.482733558863401</ele>
        <time>2025-05-15T14:12:12Z</time>
      </trkpt>
      <trkpt lat="24.89590724177854" lon="118.56419647925455">
        <ele>12.075949538499117</ele>
        <time>2025-05-15T14:12:15Z</time>
      </trkpt>
      <trkpt lat="24.896010151626715" lon="118.564138337323">
        <ele>12.410422335378826</ele>
        <time>2025-05-15T14:12:18Z</time>
      </trkpt>
      <trkpt lat="24.89629487229027" lon="118.56407023522115">
        <ele>12.354076201096177</ele>
        <time>2025-05-15T14:12:27Z</time>
      </trkpt>
      <trkpt lat="24.8964703958179" lon="118.563997684512">
        <ele>12.987800736911595</ele>
        <time>2025-05-15T14:12:33Z</time>
      </trkpt>
      <trkpt lat="24.896558613606796" lon="118.56393703096673">
        <ele>14.130285724066198</ele>
        <time>2025-05-15T14:12:36Z</time>
      </trkpt>
      <trkpt lat="24.896726395336497" lon="118.56388246715727">
        <ele>13.16616495884955</ele>
        <time>2025-05-15T14:12:42Z</time>
      </trkpt>
      <trkpt lat="24.89702574205215" lon="118.56370760637158">
        <ele>14.308373583480716</ele>
        <time>2025-05-15T14:12:54Z</time>
      </trkpt>
      <trkpt lat="24.89711769772592" lon="118.56366544241116">
        <ele>14.340915062464774</ele>
        <time>2025-05-15T14:12:57Z</time>
      </trkpt>
      <trkpt lat="24.897224351715632" lon="118.56364856505792">
        <ele>14.689504185691476</ele>
        <time>2025-05-15T14:13:00Z</time>
      </trkpt>
      <trkpt lat="24.897530350536808" lon="118.56350929292863">
        <ele>12.64755267649889</ele>
        <time>2025-05-15T14:13:10Z</time>
      </trkpt>
      <trkpt lat="24.89783212221502" lon="118.56336868704248">
        <ele>11.961639223620296</ele>
        <time>2025-05-15T14:13:21Z</time>
      </trkpt>
      <trkpt lat="24.898131306705256" lon="118.56326059725167">
        <ele>11.258263492025435</ele>
        <time>2025-05-15T14:13:30Z</time>
      </trkpt>
      <trkpt lat="24.898329170262112" lon="118.56322200053839">
        <ele>12.426937500014901</ele>
        <time>2025-05-15T14:13:36Z</time>
      </trkpt>
      <trkpt lat="24.89861569498478" lon="118.56309948616973">
        <ele>12.931909546256065</ele>
        <time>2025-05-15T14:13:45Z</time>
      </trkpt>
      <trkpt lat="24.898828213640613" lon="118.56303031260948">
        <ele>14.469182660803199</ele>
        <time>2025-05-15T14:13:51Z</time>
      </trkpt>
    </trkseg>
  </trk>
</gpx>