<?xml version="1.0" encoding="UTF-8"?>
<gpx xmlns="http://www.topografix.com/GPX/1/1" xmlns:gpxtpx="http://www.garmin.com/xmlschemas/TrackPointExtension/v1" xmlns:xsi="http://www.w3.org/2001/XMLSchema-instance" xsi:schemaLocation="http://www.topografix.com/GPX/1/1 http://www.topografix.com/GPX/1/1/gpx.xsd" version="1.1" creator="gpx.py -- https://github.com/tkrajina/gpxpy">
  <trk>
    <name>gpx from keep</name>
    <type>Run</type>
    <trkseg>
      <trkpt lat="24.91075343635161" lon="118.53858825391481">
        <ele>9.590100643225014</ele>
        <time>2024-10-29T14:02:27Z</time>
      </trkpt>
      <trkpt lat="24.910450697743826" lon="118.5385247737117">
        <ele>11.38475857488811</ele>
        <time>2024-10-29T14:02:39Z</time>
      </trkpt>
      <trkpt lat="24.910296435652594" lon="118.53850111990195">
        <ele>8.807706686668098</ele>
        <time>2024-10-29T14:02:45Z</time>
      </trkpt>
      <trkpt lat="24.91000435226848" lon="118.53840622222181">
        <ele>8.980239148251712</ele>
        <time>2024-10-29T14:02:54Z</time>
      </trkpt>
      <trkpt lat="24.909910264534872" lon="118.53839066837588">
        <ele>8.524716674350202</ele>
        <time>2024-10-29T14:02:57Z</time>
      </trkpt>
      <trkpt lat="24.909604925365056" lon="118.53838686786389">
        <ele>7.783318934030831</ele>
        <time>2024-10-29T14:03:06Z</time>
      </trkpt>
      <trkpt lat="24.909402374506726" lon="118.53841886783437">
        <ele>8.445022435858846</ele>
        <time>2024-10-29T14:03:12Z</time>
      </trkpt>
      <trkpt lat="24.909206296243777" lon="118.53834861922073">
        <ele>8.203291050158441</ele>
        <time>2024-10-29T14:03:18Z</time>
      </trkpt>
      <trkpt lat="24.9091223495971" lon="118.53825744043901">
        <ele>8.384125135838985</ele>
        <time>2024-10-29T14:03:22Z</time>
      </trkpt>
      <trkpt lat="24.909257092208996" lon="118.53784970474173">
        <ele>8.229075668379664</ele>
        <time>2024-10-29T14:03:34Z</time>
      </trkpt>
      <trkpt lat="24.909338135589564" lon="118.53755252321474">
        <ele>9.515666483901441</ele>
        <time>2024-10-29T14:03:42Z</time>
      </trkpt>
      <trkpt lat="24.909365400548904" lon="118.5374372349244">
        <ele>9.423755187541246</ele>
        <time>2024-10-29T14:03:46Z</time>
      </trkpt>
      <trkpt lat="24.9093575212212" lon="118.53732780005107">
        <ele>10.076818065717816</ele>
        <time>2024-10-29T14:03:50Z</time>
      </trkpt>
      <trkpt lat="24.90939267305734" lon="118.53714185780404">
        <ele>10.328232194297016</ele>
        <time>2024-10-29T14:03:56Z</time>
      </trkpt>
      <trkpt lat="24.909443551592904" lon="118.53704510256985">
        <ele>9.762123881839216</ele>
        <time>2024-10-29T14:03:59Z</time>
      </trkpt>
      <trkpt lat="24.909499350710682" lon="118.53684737384056">
        <ele>10.377127445302904</ele>
        <time>2024-10-29T14:04:05Z</time>
      </trkpt>
      <trkpt lat="24.909566363326245" lon="118.53653720624689">
        <ele>9.794524946250021</ele>
        <time>2024-10-29T14:04:14Z</time>
      </trkpt>
      <trkpt lat="24.90962356206095" lon="118.5363230388131">
        <ele>9.627120709978044</ele>
        <time>2024-10-29T14:04:20Z</time>
      </trkpt>
      <trkpt lat="24.9096479394263" lon="118.53602288965425">
        <ele>10.64038897305727</ele>
        <time>2024-10-29T14:04:29Z</time>
      </trkpt>
      <trkpt lat="24.90969535556658" lon="118.5356262717029">
        <ele>10.156515879556537</ele>
        <time>2024-10-29T14:04:41Z</time>
      </trkpt>
      <trkpt lat="24.909740278555763" lon="118.53542324703601">
        <ele>9.797385459765792</ele>
        <time>2024-10-29T14:04:47Z</time>
      </trkpt>
      <trkpt lat="24.909766340054826" lon="118.53511246662869">
        <ele>10.171001138165593</ele>
        <time>2024-10-29T14:04:56Z</time>
      </trkpt>
      <trkpt lat="24.909777362193882" lon="118.53481142554337">
        <ele>8.516880555078387</ele>
        <time>2024-10-29T14:05:05Z</time>
      </trkpt>
      <trkpt lat="24.909796391145015" lon="118.53443232187301">
        <ele>8.01382425520569</ele>
        <time>2024-10-29T14:05:17Z</time>
      </trkpt>
      <trkpt lat="24.909875824307104" lon="118.53408974220866">
        <ele>7.388005749322474</ele>
        <time>2024-10-29T14:05:27Z</time>
      </trkpt>
      <trkpt lat="24.90989856564525" lon="118.53396157806131">
        <ele>7.9398749731481075</ele>
        <time>2024-10-29T14:05:31Z</time>
      </trkpt>
      <trkpt lat="24.909983696010553" lon="118.53385225101312">
        <ele>8.878524338826537</ele>
        <time>2024-10-29T14:05:35Z</time>
      </trkpt>
      <trkpt lat="24.910086406069304" lon="118.53379597211554">
        <ele>7.44717950373888</ele>
        <time>2024-10-29T14:05:39Z</time>
      </trkpt>
      <trkpt lat="24.910204611623605" lon="118.53377209495177">
        <ele>9.415675143711269</ele>
        <time>2024-10-29T14:05:43Z</time>
      </trkpt>
      <trkpt lat="24.9105678455851" lon="118.53377539623341">
        <ele>9.679859445430338</ele>
        <time>2024-10-29T14:05:55Z</time>
      </trkpt>
      <trkpt lat="24.910852656440245" lon="118.53376125791294">
        <ele>9.824976964853704</ele>
        <time>2024-10-29T14:06:04Z</time>
      </trkpt>
      <trkpt lat="24.91103796093014" lon="118.5337860282615">
        <ele>9.538828330114484</ele>
        <time>2024-10-29T14:06:10Z</time>
      </trkpt>
      <trkpt lat="24.911132792217508" lon="118.53377225959092">
        <ele>8.594430074095726</ele>
        <time>2024-10-29T14:06:13Z</time>
      </trkpt>
      <trkpt lat="24.91148867399415" lon="118.53377606610357">
        <ele>10.0662922533229</ele>
        <time>2024-10-29T14:06:25Z</time>
      </trkpt>
      <trkpt lat="24.91164973612514" lon="118.53379360957472">
        <ele>10.390926340594888</ele>
        <time>2024-10-29T14:06:31Z</time>
      </trkpt>
      <trkpt lat="24.91194391093357" lon="118.53381972457382">
        <ele>7.600723695941269</ele>
        <time>2024-10-29T14:06:40Z</time>
      </trkpt>
      <trkpt lat="24.912223822606443" lon="118.53381694641537">
        <ele>8.513897457160056</ele>
        <time>2024-10-29T14:06:49Z</time>
      </trkpt>
      <trkpt lat="24.912397116553397" lon="118.53378724111418">
        <ele>10.04603112488985</ele>
        <time>2024-10-29T14:06:55Z</time>
      </trkpt>
      <trkpt lat="24.912756430298526" lon="118.5337963286937">
        <ele>10.863937793299556</ele>
        <time>2024-10-29T14:07:07Z</time>
      </trkpt>
      <trkpt lat="24.912845617023105" lon="118.53378805714327">
        <ele>10.64633100386709</ele>
        <time>2024-10-29T14:07:10Z</time>
      </trkpt>
      <trkpt lat="24.912934097891643" lon="118.5338004875573">
        <ele>9.881134402006865</ele>
        <time>2024-10-29T14:07:13Z</time>
      </trkpt>
      <trkpt lat="24.91310203498551" lon="118.53387169730445">
        <ele>10.640607190318406</ele>
        <time>2024-10-29T14:07:19Z</time>
      </trkpt>
      <trkpt lat="24.91348048761027" lon="118.53390004016786">
        <ele>9.506487281061709</ele>
        <time>2024-10-29T14:07:32Z</time>
      </trkpt>
      <trkpt lat="24.9135975073232" lon="118.53390587384487">
        <ele>10.527956220321357</ele>
        <time>2024-10-29T14:07:36Z</time>
      </trkpt>
      <trkpt lat="24.91371453469051" lon="118.5339408219599">
        <ele>10.409379255026579</ele>
        <time>2024-10-29T14:07:40Z</time>
      </trkpt>
      <trkpt lat="24.914085280076407" lon="118.53398836736423">
        <ele>11.258129857480526</ele>
        <time>2024-10-29T14:07:52Z</time>
      </trkpt>
      <trkpt lat="24.914206058198243" lon="118.53400435213787">
        <ele>10.55796867236495</ele>
        <time>2024-10-29T14:07:56Z</time>
      </trkpt>
      <trkpt lat="24.914495534038714" lon="118.5340681658009">
        <ele>13.127199138514698</ele>
        <time>2024-10-29T14:08:06Z</time>
      </trkpt>
      <trkpt lat="24.914740170491978" lon="118.53410406068028">
        <ele>12.0638491474092</ele>
        <time>2024-10-29T14:08:15Z</time>
      </trkpt>
      <trkpt lat="24.91502347436734" lon="118.53415778010148">
        <ele>13.041055463254452</ele>
        <time>2024-10-29T14:08:24Z</time>
      </trkpt>
      <trkpt lat="24.915304316332232" lon="118.53416824608867">
        <ele>12.049807111732662</ele>
        <time>2024-10-29T14:08:33Z</time>
      </trkpt>
      <trkpt lat="24.91564374422483" lon="118.53422461740784">
        <ele>13.019362286664546</ele>
        <time>2024-10-29T14:08:45Z</time>
      </trkpt>
      <trkpt lat="24.915972986070344" lon="118.53428609692624">
        <ele>12.35877867974341</ele>
        <time>2024-10-29T14:08:57Z</time>
      </trkpt>
      <trkpt lat="24.916313259310634" lon="118.53434403528234">
        <ele>11.370322600007057</ele>
        <time>2024-10-29T14:09:09Z</time>
      </trkpt>
      <trkpt lat="24.91668148547322" lon="118.5344175033389">
        <ele>13.518079091794789</ele>
        <time>2024-10-29T14:09:21Z</time>
      </trkpt>
      <trkpt lat="24.916951763780464" lon="118.53446994843226">
        <ele>14.601937478408217</ele>
        <time>2024-10-29T14:09:30Z</time>
      </trkpt>
      <trkpt lat="24.91726082279309" lon="118.53453029207327">
        <ele>14.627770149149</ele>
        <time>2024-10-29T14:09:40Z</time>
      </trkpt>
      <trkpt lat="24.91762170876471" lon="118.53461622877978">
        <ele>14.092847502790391</ele>
        <time>2024-10-29T14:09:52Z</time>
      </trkpt>
      <trkpt lat="24.91798616419042" lon="118.53472243908594">
        <ele>13.30511044152081</ele>
        <time>2024-10-29T14:10:04Z</time>
      </trkpt>
      <trkpt lat="24.91833192980952" lon="118.53478524237308">
        <ele>13.207515167072415</ele>
        <time>2024-10-29T14:10:16Z</time>
      </trkpt>
      <trkpt lat="24.918517810861015" lon="118.53488525910946">
        <ele>14.049628742970526</ele>
        <time>2024-10-29T14:10:22Z</time>
      </trkpt>
      <trkpt lat="24.91858674288667" lon="118.5349463030796">
        <ele>13.16749016661197</ele>
        <time>2024-10-29T14:10:25Z</time>
      </trkpt>
      <trkpt lat="24.918646159207757" lon="118.5350282200494">
        <ele>13.04211780615151</ele>
        <time>2024-10-29T14:10:28Z</time>
      </trkpt>
      <trkpt lat="24.918678310896443" lon="118.53511996801736">
        <ele>11.244138298556209</ele>
        <time>2024-10-29T14:10:31Z</time>
      </trkpt>
      <trkpt lat="24.918679987554768" lon="118.53522713623154">
        <ele>12.2584219397977</ele>
        <time>2024-10-29T14:10:34Z</time>
      </trkpt>
      <trkpt lat="24.918633880584377" lon="118.5354124576679">
        <ele>9.694777538068593</ele>
        <time>2024-10-29T14:10:40Z</time>
      </trkpt>
      <trkpt lat="24.918514308878006" lon="118.53569574651706">
        <ele>9.817953079007566</ele>
        <time>2024-10-29T14:10:49Z</time>
      </trkpt>
      <trkpt lat="24.918432412693086" lon="118.53598523094703">
        <ele>9.885595343075693</ele>
        <time>2024-10-29T14:10:58Z</time>
      </trkpt>
      <trkpt lat="24.918254427525124" lon="118.53633225033033">
        <ele>9.924434792250395</ele>
        <time>2024-10-29T14:11:10Z</time>
      </trkpt>
      <trkpt lat="24.91810821405298" lon="118.53667280474211">
        <ele>9.791389339603484</ele>
        <time>2024-10-29T14:11:22Z</time>
      </trkpt>
      <trkpt lat="24.91802022495489" lon="118.53699386403672">
        <ele>9.429454217664897</ele>
        <time>2024-10-29T14:11:34Z</time>
      </trkpt>
      <trkpt lat="24.91799539449614" lon="118.53707302104914">
        <ele>9.531490904279053</ele>
        <time>2024-10-29T14:11:37Z</time>
      </trkpt>
      <trkpt lat="24.917986884463197" lon="118.53717195204192">
        <ele>9.801892907358706</ele>
        <time>2024-10-29T14:11:40Z</time>
      </trkpt>
      <trkpt lat="24.917919923812118" lon="118.53726096603152">
        <ele>9.845729812048376</ele>
        <time>2024-10-29T14:11:43Z</time>
      </trkpt>
      <trkpt lat="24.91787842108648" lon="118.53736071327177">
        <ele>10.245932350866497</ele>
        <time>2024-10-29T14:11:46Z</time>
      </trkpt>
      <trkpt lat="24.917806520851343" lon="118.53745072895006">
        <ele>10.006035070866346</ele>
        <time>2024-10-29T14:11:49Z</time>
      </trkpt>
      <trkpt lat="24.91764361122639" lon="118.53781173170925">
        <ele>10.236279137432575</ele>
        <time>2024-10-29T14:12:01Z</time>
      </trkpt>
      <trkpt lat="24.91756039812096" lon="118.53810188888019">
        <ele>10.299815140664577</ele>
        <time>2024-10-29T14:12:10Z</time>
      </trkpt>
      <trkpt lat="24.91751876753088" lon="118.53817686203594">
        <ele>10.474818704649806</ele>
        <time>2024-10-29T14:12:13Z</time>
      </trkpt>
      <trkpt lat="24.91749852302378" lon="118.53825668340694">
        <ele>10.874465494416654</ele>
        <time>2024-10-29T14:12:16Z</time>
      </trkpt>
      <trkpt lat="24.917304932375508" lon="118.53860800319104">
        <ele>10.061679331585765</ele>
        <time>2024-10-29T14:12:28Z</time>
      </trkpt>
      <trkpt lat="24.91721862806322" lon="118.53879365895592">
        <ele>10.193908276036382</ele>
        <time>2024-10-29T14:12:34Z</time>
      </trkpt>
      <trkpt lat="24.917200389378124" lon="118.53887737590408">
        <ele>10.083372414112091</ele>
        <time>2024-10-29T14:12:37Z</time>
      </trkpt>
      <trkpt lat="24.917117149850633" lon="118.53909007603248">
        <ele>9.896460010670125</ele>
        <time>2024-10-29T14:12:43Z</time>
      </trkpt>
      <trkpt lat="24.91711926185597" lon="118.53920913074421">
        <ele>9.373204531148076</ele>
        <time>2024-10-29T14:12:46Z</time>
      </trkpt>
      <trkpt lat="24.917083763182326" lon="118.53936694960923">
        <ele>9.59730708412826</ele>
        <time>2024-10-29T14:12:52Z</time>
      </trkpt>
      <trkpt lat="24.91695218125276" lon="118.53957243746166">
        <ele>10.879791007377207</ele>
        <time>2024-10-29T14:13:01Z</time>
      </trkpt>
      <trkpt lat="24.916884378120496" lon="118.53962794188357">
        <ele>9.803388201631606</ele>
        <time>2024-10-29T14:13:04Z</time>
      </trkpt>
      <trkpt lat="24.91683345292498" lon="118.53971619284236">
        <ele>10.540603341534734</ele>
        <time>2024-10-29T14:13:07Z</time>
      </trkpt>
      <trkpt lat="24.916764914768397" lon="118.5397954779976">
        <ele>10.399606331251562</ele>
        <time>2024-10-29T14:13:10Z</time>
      </trkpt>
      <trkpt lat="24.916654160548767" lon="118.53999932069203">
        <ele>9.677166641689837</ele>
        <time>2024-10-29T14:13:16Z</time>
      </trkpt>
      <trkpt lat="24.916598058257506" lon="118.54017357613267">
        <ele>10.404019015841186</ele>
        <time>2024-10-29T14:13:22Z</time>
      </trkpt>
      <trkpt lat="24.916588289846622" lon="118.54039948579631">
        <ele>9.799242157489061</ele>
        <time>2024-10-29T14:13:28Z</time>
      </trkpt>
      <trkpt lat="24.916546067311526" lon="118.54073904738753">
        <ele>12.139071476645768</ele>
        <time>2024-10-29T14:13:37Z</time>
      </trkpt>
      <trkpt lat="24.916517986823823" lon="118.54084577692923">
        <ele>13.37797106988728</ele>
        <time>2024-10-29T14:13:40Z</time>
      </trkpt>
      <trkpt lat="24.916551575153665" lon="118.54122312528034">
        <ele>12.50679338350892</ele>
        <time>2024-10-29T14:13:52Z</time>
      </trkpt>
      <trkpt lat="24.91664496428111" lon="118.54150305790179">
        <ele>11.881018959917128</ele>
        <time>2024-10-29T14:14:01Z</time>
      </trkpt>
      <trkpt lat="24.91671352438574" lon="118.54159151703574">
        <ele>11.80664353724569</ele>
        <time>2024-10-29T14:14:04Z</time>
      </trkpt>
      <trkpt lat="24.916721572537096" lon="118.54166332962713">
        <ele>11.990850395523012</ele>
        <time>2024-10-29T14:14:07Z</time>
      </trkpt>
      <trkpt lat="24.916595667511206" lon="118.54190283613796">
        <ele>11.791635874658823</ele>
        <time>2024-10-29T14:14:16Z</time>
      </trkpt>
      <trkpt lat="24.916373976322333" lon="118.54197789775216">
        <ele>11.206346908584237</ele>
        <time>2024-10-29T14:14:22Z</time>
      </trkpt>
      <trkpt lat="24.916191551538393" lon="118.54209147328955">
        <ele>12.542180291377008</ele>
        <time>2024-10-29T14:14:28Z</time>
      </trkpt>
      <trkpt lat="24.91601956220976" lon="118.54225133427096">
        <ele>12.891634535044432</ele>
        <time>2024-10-29T14:14:34Z</time>
      </trkpt>
      <trkpt lat="24.915819855445775" lon="118.54234881244875">
        <ele>12.177356576547027</ele>
        <time>2024-10-29T14:14:40Z</time>
      </trkpt>
      <trkpt lat="24.915639910745917" lon="118.54249438684626">
        <ele>12.048508982174098</ele>
        <time>2024-10-29T14:14:46Z</time>
      </trkpt>
      <trkpt lat="24.915541935577373" lon="118.54253883825231">
        <ele>12.722525928169489</ele>
        <time>2024-10-29T14:14:49Z</time>
      </trkpt>
      <trkpt lat="24.91523629497663" lon="118.5425098087398">
        <ele>12.978941412642598</ele>
        <time>2024-10-29T14:14:58Z</time>
      </trkpt>
      <trkpt lat="24.915139736087053" lon="118.54248386426215">
        <ele>12.653510571457446</ele>
        <time>2024-10-29T14:15:01Z</time>
      </trkpt>
      <trkpt lat="24.914788033236178" lon="118.54252878809785">
        <ele>10.23668510839343</ele>
        <time>2024-10-29T14:15:13Z</time>
      </trkpt>
      <trkpt lat="24.91444909839905" lon="118.54259429218608">
        <ele>9.613037794828415</ele>
        <time>2024-10-29T14:15:25Z</time>
      </trkpt>
      <trkpt lat="24.914339435490653" lon="118.54259160176068">
        <ele>9.579742207191885</ele>
        <time>2024-10-29T14:15:28Z</time>
      </trkpt>
      <trkpt lat="24.914234600818023" lon="118.54261318469736">
        <ele>10.070407580584288</ele>
        <time>2024-10-29T14:15:31Z</time>
      </trkpt>
      <trkpt lat="24.91415084832022" lon="118.54266156797699">
        <ele>9.998766178265214</ele>
        <time>2024-10-29T14:15:34Z</time>
      </trkpt>
      <trkpt lat="24.913974125638934" lon="118.54271244606134">
        <ele>9.441785984672606</ele>
        <time>2024-10-29T14:15:40Z</time>
      </trkpt>
      <trkpt lat="24.913902597535287" lon="118.54269697278106">
        <ele>9.596247497946024</ele>
        <time>2024-10-29T14:15:43Z</time>
      </trkpt>
      <trkpt lat="24.913566553840496" lon="118.54276350744549">
        <ele>8.466311321593821</ele>
        <time>2024-10-29T14:15:55Z</time>
      </trkpt>
      <trkpt lat="24.91328533957297" lon="118.54280991157948">
        <ele>8.103934197686613</ele>
        <time>2024-10-29T14:16:04Z</time>
      </trkpt>
      <trkpt lat="24.913015253008393" lon="118.54287087485953">
        <ele>7.8027046620845795</ele>
        <time>2024-10-29T14:16:13Z</time>
      </trkpt>
      <trkpt lat="24.912944438424763" lon="118.54289690570118">
        <ele>7.843420336954296</ele>
        <time>2024-10-29T14:16:16Z</time>
      </trkpt>
      <trkpt lat="24.912849280365197" lon="118.54290350515974">
        <ele>8.229967458173633</ele>
        <time>2024-10-29T14:16:19Z</time>
      </trkpt>
      <trkpt lat="24.912582357626217" lon="118.54299567363836">
        <ele>8.31872808933258</ele>
        <time>2024-10-29T14:16:28Z</time>
      </trkpt>
      <trkpt lat="24.91233678147113" lon="118.54308093230973">
        <ele>7.9156296495348215</ele>
        <time>2024-10-29T14:16:37Z</time>
      </trkpt>
      <trkpt lat="24.911984478365373" lon="118.54316216363439">
        <ele>7.768028361722827</ele>
        <time>2024-10-29T14:16:49Z</time>
      </trkpt>
      <trkpt lat="24.911815991658656" lon="118.5431766466957">
        <ele>8.078500469215214</ele>
        <time>2024-10-29T14:16:55Z</time>
      </trkpt>
      <trkpt lat="24.91146720577107" lon="118.54325629040262">
        <ele>8.605963010340929</ele>
        <time>2024-10-29T14:17:07Z</time>
      </trkpt>
      <trkpt lat="24.911196436270917" lon="118.54329420539409">
        <ele>8.591419455595315</ele>
        <time>2024-10-29T14:17:16Z</time>
      </trkpt>
      <trkpt lat="24.910901401379842" lon="118.54332743279134">
        <ele>8.60274406708777</ele>
        <time>2024-10-29T14:17:25Z</time>
      </trkpt>
      <trkpt lat="24.910622612052634" lon="118.54333558838194">
        <ele>7.271529894322157</ele>
        <time>2024-10-29T14:17:34Z</time>
      </trkpt>
      <trkpt lat="24.91044518682091" lon="118.54332618446247">
        <ele>7.710492480546236</ele>
        <time>2024-10-29T14:17:40Z</time>
      </trkpt>
      <trkpt lat="24.910338401295327" lon="118.54336460861049">
        <ele>7.516331411898136</ele>
        <time>2024-10-29T14:17:43Z</time>
      </trkpt>
      <trkpt lat="24.91004775136038" lon="118.54340688457046">
        <ele>7.837458343245089</ele>
        <time>2024-10-29T14:17:52Z</time>
      </trkpt>
      <trkpt lat="24.909745526575133" lon="118.54341778700869">
        <ele>7.9386238269507885</ele>
        <time>2024-10-29T14:18:01Z</time>
      </trkpt>
      <trkpt lat="24.909473162261502" lon="118.54340478585098">
        <ele>7.156142162159085</ele>
        <time>2024-10-29T14:18:10Z</time>
      </trkpt>
      <trkpt lat="24.909195904380752" lon="118.54338457971164">
        <ele>7.6801115013659</ele>
        <time>2024-10-29T14:18:19Z</time>
      </trkpt>
      <trkpt lat="24.90890494851693" lon="118.54337249003355">
        <ele>7.622060560621321</ele>
        <time>2024-10-29T14:18:28Z</time>
      </trkpt>
      <trkpt lat="24.9086291741811" lon="118.54340014924179">
        <ele>8.040140753611922</ele>
        <time>2024-10-29T14:18:37Z</time>
      </trkpt>
      <trkpt lat="24.90833813158338" lon="118.54343289432602">
        <ele>8.492961036972702</ele>
        <time>2024-10-29T14:18:46Z</time>
      </trkpt>
      <trkpt lat="24.908004353037388" lon="118.54344781586711">
        <ele>7.7077549723908305</ele>
        <time>2024-10-29T14:18:58Z</time>
      </trkpt>
      <trkpt lat="24.90771223359419" lon="118.5434360453578">
        <ele>7.709347601048648</ele>
        <time>2024-10-29T14:19:07Z</time>
      </trkpt>
      <trkpt lat="24.907535239011683" lon="118.54335150071367">
        <ele>7.979464557953179</ele>
        <time>2024-10-29T14:19:13Z</time>
      </trkpt>
      <trkpt lat="24.907495957982135" lon="118.54327246562968">
        <ele>7.893210005015135</ele>
        <time>2024-10-29T14:19:16Z</time>
      </trkpt>
      <trkpt lat="24.907594063869798" lon="118.54300039769383">
        <ele>7.801764141768217</ele>
        <time>2024-10-29T14:19:25Z</time>
      </trkpt>
      <trkpt lat="24.907718762656806" lon="118.54271692962675">
        <ele>7.342033879831433</ele>
        <time>2024-10-29T14:19:34Z</time>
      </trkpt>
      <trkpt lat="24.90777583742477" lon="118.54251910438137">
        <ele>7.794777442701161</ele>
        <time>2024-10-29T14:19:40Z</time>
      </trkpt>
      <trkpt lat="24.907919776568107" lon="118.54216376109572">
        <ele>7.791042078286409</ele>
        <time>2024-10-29T14:19:52Z</time>
      </trkpt>
      <trkpt lat="24.9080280397949" lon="118.54187927410612">
        <ele>8.240761606022716</ele>
        <time>2024-10-29T14:20:01Z</time>
      </trkpt>
      <trkpt lat="24.90815612087136" lon="118.54160907344601">
        <ele>9.554304655641317</ele>
        <time>2024-10-29T14:20:10Z</time>
      </trkpt>
      <trkpt lat="24.908205021768776" lon="118.5415211006983">
        <ele>9.613073257729411</ele>
        <time>2024-10-29T14:20:13Z</time>
      </trkpt>
      <trkpt lat="24.90827638034432" lon="118.54131643208385">
        <ele>9.187384418211877</ele>
        <time>2024-10-29T14:20:19Z</time>
      </trkpt>
      <trkpt lat="24.9084106178321" lon="118.5410014631122">
        <ele>8.717852800153196</ele>
        <time>2024-10-29T14:20:28Z</time>
      </trkpt>
      <trkpt lat="24.908467993980437" lon="118.54091770865791">
        <ele>8.3427777858451</ele>
        <time>2024-10-29T14:20:31Z</time>
      </trkpt>
      <trkpt lat="24.908558231759677" lon="118.54070201864285">
        <ele>8.164849336259067</ele>
        <time>2024-10-29T14:20:37Z</time>
      </trkpt>
      <trkpt lat="24.90864496964795" lon="118.54036772445443">
        <ele>8.095223042182624</ele>
        <time>2024-10-29T14:20:46Z</time>
      </trkpt>
      <trkpt lat="24.90871290596444" lon="118.54015545583611">
        <ele>8.01140175294131</ele>
        <time>2024-10-29T14:20:52Z</time>
      </trkpt>
      <trkpt lat="24.908727848408137" lon="118.54004926899003">
        <ele>7.899706203490496</ele>
        <time>2024-10-29T14:20:55Z</time>
      </trkpt>
      <trkpt lat="24.90876345241748" lon="118.53995053487404">
        <ele>7.786102272570133</ele>
        <time>2024-10-29T14:20:58Z</time>
      </trkpt>
      <trkpt lat="24.90882472867641" lon="118.53961695345507">
        <ele>7.909113321453333</ele>
        <time>2024-10-29T14:21:07Z</time>
      </trkpt>
      <trkpt lat="24.90886306274381" lon="118.53953775971817">
        <ele>7.907091040164232</ele>
        <time>2024-10-29T14:21:10Z</time>
      </trkpt>
      <trkpt lat="24.908909129668178" lon="118.53929201653216">
        <ele>8.072663533501327</ele>
        <time>2024-10-29T14:21:19Z</time>
      </trkpt>
      <trkpt lat="24.909043440330343" lon="118.53892460632758">
        <ele>7.591690867207944</ele>
        <time>2024-10-29T14:21:31Z</time>
      </trkpt>
      <trkpt lat="24.909124467430125" lon="118.53863065441779">
        <ele>8.19078064430505</ele>
        <time>2024-10-29T14:21:40Z</time>
      </trkpt>
      <trkpt lat="24.9091397061659" lon="118.53852536428934">
        <ele>7.943121308460832</ele>
        <time>2024-10-29T14:21:43Z</time>
      </trkpt>
      <trkpt lat="24.909172146173255" lon="118.53844433339172">
        <ele>7.905944486148655</ele>
        <time>2024-10-29T14:21:46Z</time>
      </trkpt>
      <trkpt lat="24.909245346056" lon="118.53805678278536">
        <ele>8.185309869237244</ele>
        <time>2024-10-29T14:21:58Z</time>
      </trkpt>
      <trkpt lat="24.909340521887106" lon="118.53767086253086">
        <ele>9.238646385259926</ele>
        <time>2024-10-29T14:22:10Z</time>
      </trkpt>
      <trkpt lat="24.909371341916067" lon="118.53745721571504">
        <ele>9.856622576713562</ele>
        <time>2024-10-29T14:22:16Z</time>
      </trkpt>
      <trkpt lat="24.909403257907442" lon="118.53739036848451">
        <ele>9.879080581478775</ele>
        <time>2024-10-29T14:22:19Z</time>
      </trkpt>
      <trkpt lat="24.909477996799612" lon="118.53711884517436">
        <ele>9.830214391462505</ele>
        <time>2024-10-29T14:22:28Z</time>
      </trkpt>
      <trkpt lat="24.90953309368365" lon="118.53677570289675">
        <ele>9.991727377288043</ele>
        <time>2024-10-29T14:22:37Z</time>
      </trkpt>
      <trkpt lat="24.909542060465206" lon="118.53668792803191">
        <ele>9.915664795786142</ele>
        <time>2024-10-29T14:22:40Z</time>
      </trkpt>
      <trkpt lat="24.90961815748445" lon="118.53635516045837">
        <ele>10.354419675655663</ele>
        <time>2024-10-29T14:22:49Z</time>
      </trkpt>
      <trkpt lat="24.909642466848652" lon="118.53605589591233">
        <ele>11.117628883570433</ele>
        <time>2024-10-29T14:22:58Z</time>
      </trkpt>
      <trkpt lat="24.909673757347335" lon="118.53585475000921">
        <ele>10.359209198504686</ele>
        <time>2024-10-29T14:23:04Z</time>
      </trkpt>
      <trkpt lat="24.90967483513739" lon="118.53574948650828">
        <ele>10.693680840544403</ele>
        <time>2024-10-29T14:23:07Z</time>
      </trkpt>
      <trkpt lat="24.90970672389557" lon="118.53553785683555">
        <ele>9.925797164440155</ele>
        <time>2024-10-29T14:23:13Z</time>
      </trkpt>
      <trkpt lat="24.909736880250673" lon="118.53543490666365">
        <ele>10.875183476135135</ele>
        <time>2024-10-29T14:23:16Z</time>
      </trkpt>
      <trkpt lat="24.90978589619894" lon="118.53513338907723">
        <ele>10.208478478714824</ele>
        <time>2024-10-29T14:23:25Z</time>
      </trkpt>
      <trkpt lat="24.90979901221849" lon="118.53494069989816">
        <ele>8.991596805863082</ele>
        <time>2024-10-29T14:23:31Z</time>
      </trkpt>
      <trkpt lat="24.909783817620347" lon="118.53476715402965">
        <ele>9.15490253828466</ele>
        <time>2024-10-29T14:23:37Z</time>
      </trkpt>
      <trkpt lat="24.90982367683501" lon="118.53449245561019">
        <ele>8.40414448082447</ele>
        <time>2024-10-29T14:23:46Z</time>
      </trkpt>
      <trkpt lat="24.90987912917461" lon="118.53429561562783">
        <ele>6.88452588673681</ele>
        <time>2024-10-29T14:23:52Z</time>
      </trkpt>
      <trkpt lat="24.90991092897448" lon="118.534085449191">
        <ele>8.208340450190008</ele>
        <time>2024-10-29T14:23:58Z</time>
      </trkpt>
      <trkpt lat="24.909954077643633" lon="118.53399527908422">
        <ele>8.115474038757384</ele>
        <time>2024-10-29T14:24:01Z</time>
      </trkpt>
      <trkpt lat="24.910047958869143" lon="118.53395551498778">
        <ele>7.8645008048042655</ele>
        <time>2024-10-29T14:24:04Z</time>
      </trkpt>
      <trkpt lat="24.910394299425214" lon="118.53386174893612">
        <ele>9.537601162679493</ele>
        <time>2024-10-29T14:24:16Z</time>
      </trkpt>
      <trkpt lat="24.91066794477684" lon="118.53382721788017">
        <ele>10.045652035623789</ele>
        <time>2024-10-29T14:24:25Z</time>
      </trkpt>
      <trkpt lat="24.910953357256176" lon="118.53377502307943">
        <ele>9.967858636751771</ele>
        <time>2024-10-29T14:24:34Z</time>
      </trkpt>
      <trkpt lat="24.911129388314095" lon="118.53374449836998">
        <ele>10.611205737106502</ele>
        <time>2024-10-29T14:24:40Z</time>
      </trkpt>
      <trkpt lat="24.911486975107632" lon="118.5337599325203">
        <ele>10.260440962389112</ele>
        <time>2024-10-29T14:24:52Z</time>
      </trkpt>
      <trkpt lat="24.91176820256037" lon="118.53376440752908">
        <ele>10.423588282428682</ele>
        <time>2024-10-29T14:25:01Z</time>
      </trkpt>
      <trkpt lat="24.912054885244345" lon="118.53377564168848">
        <ele>10.405410549603403</ele>
        <time>2024-10-29T14:25:10Z</time>
      </trkpt>
      <trkpt lat="24.91215158270923" lon="118.53374732902131">
        <ele>9.54717630147934</ele>
        <time>2024-10-29T14:25:13Z</time>
      </trkpt>
      <trkpt lat="24.91243444462329" lon="118.53373179440224">
        <ele>10.504868398420513</ele>
        <time>2024-10-29T14:25:22Z</time>
      </trkpt>
      <trkpt lat="24.91270823254833" lon="118.533739385272">
        <ele>10.097499029710889</ele>
        <time>2024-10-29T14:25:31Z</time>
      </trkpt>
      <trkpt lat="24.91300049945959" lon="118.53378270345638">
        <ele>10.263299696147442</ele>
        <time>2024-10-29T14:25:40Z</time>
      </trkpt>
      <trkpt lat="24.91318062566309" lon="118.53384755510933">
        <ele>10.775446546263993</ele>
        <time>2024-10-29T14:25:46Z</time>
      </trkpt>
      <trkpt lat="24.913459001749153" lon="118.53389560629527">
        <ele>10.19483139552176</ele>
        <time>2024-10-29T14:25:55Z</time>
      </trkpt>
      <trkpt lat="24.913729168919758" lon="118.53395121863295">
        <ele>10.717135439626873</ele>
        <time>2024-10-29T14:26:04Z</time>
      </trkpt>
      <trkpt lat="24.914002007186504" lon="118.53395687191228">
        <ele>10.582765822298825</ele>
        <time>2024-10-29T14:26:13Z</time>
      </trkpt>
      <trkpt lat="24.91428935112979" lon="118.5340132348853">
        <ele>10.784951185807586</ele>
        <time>2024-10-29T14:26:22Z</time>
      </trkpt>
      <trkpt lat="24.91455592671735" lon="118.53405311467863">
        <ele>11.93646222166717</ele>
        <time>2024-10-29T14:26:31Z</time>
      </trkpt>
      <trkpt lat="24.914883262511527" lon="118.53412859180209">
        <ele>12.669947542250156</ele>
        <time>2024-10-29T14:26:43Z</time>
      </trkpt>
      <trkpt lat="24.915183695263455" lon="118.5341733508404">
        <ele>12.337926972657442</ele>
        <time>2024-10-29T14:26:52Z</time>
      </trkpt>
      <trkpt lat="24.915385673704517" lon="118.5341889297891">
        <ele>12.484682678245008</ele>
        <time>2024-10-29T14:26:58Z</time>
      </trkpt>
      <trkpt lat="24.91573047055606" lon="118.53424299208415">
        <ele>12.48497339617461</ele>
        <time>2024-10-29T14:27:10Z</time>
      </trkpt>
      <trkpt lat="24.915987633830294" lon="118.53429718954098">
        <ele>12.350651606917381</ele>
        <time>2024-10-29T14:27:19Z</time>
      </trkpt>
      <trkpt lat="24.91625737492288" lon="118.53434597012006">
        <ele>12.600624102167785</ele>
        <time>2024-10-29T14:27:28Z</time>
      </trkpt>
      <trkpt lat="24.916528365715084" lon="118.53440651725978">
        <ele>13.056341418996453</ele>
        <time>2024-10-29T14:27:37Z</time>
      </trkpt>
      <trkpt lat="24.916803977301907" lon="118.53446357775">
        <ele>14.159254621714354</ele>
        <time>2024-10-29T14:27:46Z</time>
      </trkpt>
      <trkpt lat="24.91688405218826" lon="118.53449111167733">
        <ele>14.20979178044945</ele>
        <time>2024-10-29T14:27:49Z</time>
      </trkpt>
      <trkpt lat="24.917230298110102" lon="118.53452104194255">
        <ele>14.449049917049706</ele>
        <time>2024-10-29T14:28:01Z</time>
      </trkpt>
      <trkpt lat="24.917508104215873" lon="118.5345895826713">
        <ele>14.800555082038045</ele>
        <time>2024-10-29T14:28:10Z</time>
      </trkpt>
      <trkpt lat="24.917780963839057" lon="118.53466663814964">
        <ele>15.058945724740624</ele>
        <time>2024-10-29T14:28:19Z</time>
      </trkpt>
      <trkpt lat="24.91805028587818" lon="118.53474382879251">
        <ele>14.646195278503</ele>
        <time>2024-10-29T14:28:28Z</time>
      </trkpt>
      <trkpt lat="24.918301639457123" lon="118.5348078826582">
        <ele>13.183568434789777</ele>
        <time>2024-10-29T14:28:37Z</time>
      </trkpt>
      <trkpt lat="24.918567451135406" lon="118.53493695624786">
        <ele>13.295109339989722</ele>
        <time>2024-10-29T14:28:46Z</time>
      </trkpt>
      <trkpt lat="24.918658503167332" lon="118.53511406924842">
        <ele>12.223861270584166</ele>
        <time>2024-10-29T14:28:52Z</time>
      </trkpt>
      <trkpt lat="24.91866820022192" lon="118.5352126438023">
        <ele>10.6246670614928</ele>
        <time>2024-10-29T14:28:55Z</time>
      </trkpt>
      <trkpt lat="24.918580531795538" lon="118.53549239849855">
        <ele>10.095703731290996</ele>
        <time>2024-10-29T14:29:04Z</time>
      </trkpt>
      <trkpt lat="24.91844237041778" lon="118.53586177469673">
        <ele>9.635134208016098</ele>
        <time>2024-10-29T14:29:16Z</time>
      </trkpt>
      <trkpt lat="24.918396427014677" lon="118.53605531872046">
        <ele>9.526447808369994</ele>
        <time>2024-10-29T14:29:22Z</time>
      </trkpt>
      <trkpt lat="24.91823370342166" lon="118.53631142075506">
        <ele>10.13696714490652</ele>
        <time>2024-10-29T14:29:31Z</time>
      </trkpt>
      <trkpt lat="24.918133405849403" lon="118.53660132590461">
        <ele>9.754015571437776</ele>
        <time>2024-10-29T14:29:40Z</time>
      </trkpt>
      <trkpt lat="24.91800114377215" lon="118.5369688212809">
        <ele>9.670126921497285</ele>
        <time>2024-10-29T14:29:53Z</time>
      </trkpt>
      <trkpt lat="24.917956355492006" lon="118.53714145453179">
        <ele>9.823726270347834</ele>
        <time>2024-10-29T14:29:59Z</time>
      </trkpt>
      <trkpt lat="24.917807303294413" lon="118.53732101230648">
        <ele>9.878227449953556</ele>
        <time>2024-10-29T14:30:05Z</time>
      </trkpt>
      <trkpt lat="24.917786460571627" lon="118.53744310058809">
        <ele>10.058675003238022</ele>
        <time>2024-10-29T14:30:08Z</time>
      </trkpt>
      <trkpt lat="24.91770983925215" lon="118.53764336353184">
        <ele>10.05082374624908</ele>
        <time>2024-10-29T14:30:14Z</time>
      </trkpt>
      <trkpt lat="24.91761744090609" lon="118.53783905321603">
        <ele>10.962033337913454</ele>
        <time>2024-10-29T14:30:20Z</time>
      </trkpt>
      <trkpt lat="24.917560761296567" lon="118.538039868933">
        <ele>10.116545801982284</ele>
        <time>2024-10-29T14:30:26Z</time>
      </trkpt>
      <trkpt lat="24.917376535525396" lon="118.53838443948482">
        <ele>9.88681035488844</ele>
        <time>2024-10-29T14:30:39Z</time>
      </trkpt>
      <trkpt lat="24.91729529804455" lon="118.53862517854718">
        <ele>10.251252169720829</ele>
        <time>2024-10-29T14:30:47Z</time>
      </trkpt>
      <trkpt lat="24.917226387442827" lon="118.53872581730649">
        <ele>10.70877269282937</ele>
        <time>2024-10-29T14:30:50Z</time>
      </trkpt>
      <trkpt lat="24.91709566768442" lon="118.53900106556145">
        <ele>9.998648065142334</ele>
        <time>2024-10-29T14:30:59Z</time>
      </trkpt>
      <trkpt lat="24.917069932126747" lon="118.5392254025278">
        <ele>10.083443663083017</ele>
        <time>2024-10-29T14:31:05Z</time>
      </trkpt>
      <trkpt lat="24.91699435387926" lon="118.53942188418884">
        <ele>9.57413475587964</ele>
        <time>2024-10-29T14:31:11Z</time>
      </trkpt>
      <trkpt lat="24.916972031847813" lon="118.53952950480745">
        <ele>10.04425572231412</ele>
        <time>2024-10-29T14:31:14Z</time>
      </trkpt>
      <trkpt lat="24.916791806386527" lon="118.53978964107525">
        <ele>10.27768333349377</ele>
        <time>2024-10-29T14:31:23Z</time>
      </trkpt>
      <trkpt lat="24.916648188860812" lon="118.54003925456765">
        <ele>10.173441604711115</ele>
        <time>2024-10-29T14:31:32Z</time>
      </trkpt>
      <trkpt lat="24.91657685254428" lon="118.54021867190352">
        <ele>10.195941623300314</ele>
        <time>2024-10-29T14:31:38Z</time>
      </trkpt>
      <trkpt lat="24.9165870192778" lon="118.54032090231941">
        <ele>11.321483802050352</ele>
        <time>2024-10-29T14:31:41Z</time>
      </trkpt>
      <trkpt lat="24.916526417250488" lon="118.54063922792201">
        <ele>11.85241817869246</ele>
        <time>2024-10-29T14:31:50Z</time>
      </trkpt>
      <trkpt lat="24.916509087913013" lon="118.54095472354307">
        <ele>12.26252403203398</ele>
        <time>2024-10-29T14:31:59Z</time>
      </trkpt>
      <trkpt lat="24.916544866355505" lon="118.54134579270259">
        <ele>11.872690523974597</ele>
        <time>2024-10-29T14:32:11Z</time>
      </trkpt>
      <trkpt lat="24.916652359263203" lon="118.541619699746">
        <ele>12.467847268097103</ele>
        <time>2024-10-29T14:32:20Z</time>
      </trkpt>
      <trkpt lat="24.916647532585348" lon="118.54171926610412">
        <ele>12.1538916984573</ele>
        <time>2024-10-29T14:32:23Z</time>
      </trkpt>
      <trkpt lat="24.916561589343985" lon="118.54191288124768">
        <ele>12.559332359582186</ele>
        <time>2024-10-29T14:32:29Z</time>
      </trkpt>
      <trkpt lat="24.91649130012564" lon="118.5419789172676">
        <ele>11.334200692363083</ele>
        <time>2024-10-29T14:32:32Z</time>
      </trkpt>
      <trkpt lat="24.916199769471152" lon="118.5420781728074">
        <ele>12.277871306985617</ele>
        <time>2024-10-29T14:32:41Z</time>
      </trkpt>
      <trkpt lat="24.91607098624619" lon="118.54212079313105">
        <ele>12.343026413582265</ele>
        <time>2024-10-29T14:32:45Z</time>
      </trkpt>
      <trkpt lat="24.91573416469247" lon="118.54229538874868">
        <ele>11.870170783251524</ele>
        <time>2024-10-29T14:32:56Z</time>
      </trkpt>
      <trkpt lat="24.9154732157419" lon="118.54240019817505">
        <ele>12.438269261270761</ele>
        <time>2024-10-29T14:33:05Z</time>
      </trkpt>
      <trkpt lat="24.915280219012" lon="118.54244073997502">
        <ele>12.579876020550728</ele>
        <time>2024-10-29T14:33:11Z</time>
      </trkpt>
      <trkpt lat="24.915102963377535" lon="118.54244424712866">
        <ele>12.141149380244315</ele>
        <time>2024-10-29T14:33:17Z</time>
      </trkpt>
      <trkpt lat="24.914754606564067" lon="118.54254371739768">
        <ele>10.423570603132248</ele>
        <time>2024-10-29T14:33:29Z</time>
      </trkpt>
      <trkpt lat="24.914505618376346" lon="118.54261277875081">
        <ele>9.923214208334684</ele>
        <time>2024-10-29T14:33:38Z</time>
      </trkpt>
      <trkpt lat="24.914391023929152" lon="118.54260959116564">
        <ele>10.370094901882112</ele>
        <time>2024-10-29T14:33:41Z</time>
      </trkpt>
      <trkpt lat="24.91411592943778" lon="118.54270832085327">
        <ele>9.625234059989452</ele>
        <time>2024-10-29T14:33:50Z</time>
      </trkpt>
      <trkpt lat="24.914025504532944" lon="118.54272311322491">
        <ele>9.675940544344485</ele>
        <time>2024-10-29T14:33:53Z</time>
      </trkpt>
      <trkpt lat="24.913860331039015" lon="118.54271182603838">
        <ele>8.804231664165854</ele>
        <time>2024-10-29T14:33:59Z</time>
      </trkpt>
      <trkpt lat="24.913531019493703" lon="118.54278531256041">
        <ele>8.228844222612679</ele>
        <time>2024-10-29T14:34:11Z</time>
      </trkpt>
      <trkpt lat="24.913262598143604" lon="118.54281584541249">
        <ele>7.860550427809358</ele>
        <time>2024-10-29T14:34:20Z</time>
      </trkpt>
      <trkpt lat="24.912917155634865" lon="118.54291879532266">
        <ele>7.83958778437227</ele>
        <time>2024-10-29T14:34:32Z</time>
      </trkpt>
      <trkpt lat="24.912643508432808" lon="118.54299519605945">
        <ele>8.549608919769526</ele>
        <time>2024-10-29T14:34:41Z</time>
      </trkpt>
      <trkpt lat="24.9123654238537" lon="118.5430898096592">
        <ele>8.22209138609469</ele>
        <time>2024-10-29T14:34:51Z</time>
      </trkpt>
      <trkpt lat="24.912075897404158" lon="118.54318666774714">
        <ele>7.879174690693617</ele>
        <time>2024-10-29T14:35:01Z</time>
      </trkpt>
      <trkpt lat="24.911791877936356" lon="118.54323186443304">
        <ele>8.046966291032732</ele>
        <time>2024-10-29T14:35:11Z</time>
      </trkpt>
      <trkpt lat="24.911515624600813" lon="118.54328393035249">
        <ele>8.25935231987387</ele>
        <time>2024-10-29T14:35:20Z</time>
      </trkpt>
      <trkpt lat="24.911238910861396" lon="118.54332302420042">
        <ele>8.03513967525214</ele>
        <time>2024-10-29T14:35:29Z</time>
      </trkpt>
      <trkpt lat="24.911046097238998" lon="118.54336471978779">
        <ele>7.307838471606374</ele>
        <time>2024-10-29T14:35:35Z</time>
      </trkpt>
      <trkpt lat="24.91083101078805" lon="118.54336277686674">
        <ele>7.5278759021312</ele>
        <time>2024-10-29T14:35:41Z</time>
      </trkpt>
      <trkpt lat="24.910634534330843" lon="118.54338139220292">
        <ele>7.222264995798469</ele>
        <time>2024-10-29T14:35:47Z</time>
      </trkpt>
      <trkpt lat="24.91047026873649" lon="118.54337136856203">
        <ele>7.356179976835847</ele>
        <time>2024-10-29T14:35:53Z</time>
      </trkpt>
      <trkpt lat="24.910268854087462" lon="118.54341956045609">
        <ele>7.282693633809686</ele>
        <time>2024-10-29T14:35:59Z</time>
      </trkpt>
      <trkpt lat="24.909995292843945" lon="118.54343583195671">
        <ele>7.478498854674399</ele>
        <time>2024-10-29T14:36:08Z</time>
      </trkpt>
      <trkpt lat="24.909777728473262" lon="118.54341228445071">
        <ele>7.152965280227363</ele>
        <time>2024-10-29T14:36:14Z</time>
      </trkpt>
      <trkpt lat="24.909460708738152" lon="118.5434176440797">
        <ele>7.635951971635222</ele>
        <time>2024-10-29T14:36:26Z</time>
      </trkpt>
      <trkpt lat="24.909429131755253" lon="118.5433515354578">
        <ele>7.535185942426324</ele>
        <time>2024-10-29T14:36:29Z</time>
      </trkpt>
      <trkpt lat="24.909331028325113" lon="118.5433950924108">
        <ele>7.45368158724159</ele>
        <time>2024-10-29T14:36:32Z</time>
      </trkpt>
      <trkpt lat="24.908971827002627" lon="118.5433962306986">
        <ele>7.182932987809181</ele>
        <time>2024-10-29T14:36:44Z</time>
      </trkpt>
      <trkpt lat="24.908662613812933" lon="118.54338106081453">
        <ele>7.638560676947236</ele>
        <time>2024-10-29T14:36:53Z</time>
      </trkpt>
      <trkpt lat="24.908332264900217" lon="118.54340255992587">
        <ele>7.7688545770943165</ele>
        <time>2024-10-29T14:37:03Z</time>
      </trkpt>
      <trkpt lat="24.908032369959486" lon="118.54343306641445">
        <ele>7.7977216793224216</ele>
        <time>2024-10-29T14:37:13Z</time>
      </trkpt>
      <trkpt lat="24.907846021839514" lon="118.54344314247177">
        <ele>7.828473196364939</ele>
        <time>2024-10-29T14:37:19Z</time>
      </trkpt>
      <trkpt lat="24.907662160299463" lon="118.54340776130866">
        <ele>7.690243594348431</ele>
        <time>2024-10-29T14:37:25Z</time>
      </trkpt>
      <trkpt lat="24.907562115606613" lon="118.54336315573602">
        <ele>7.814712705090642</ele>
        <time>2024-10-29T14:37:28Z</time>
      </trkpt>
      <trkpt lat="24.90750283456421" lon="118.54329266028492">
        <ele>8.069800421595573</ele>
        <time>2024-10-29T14:37:31Z</time>
      </trkpt>
      <trkpt lat="24.907501987533486" lon="118.54319519933298">
        <ele>8.31333630811423</ele>
        <time>2024-10-29T14:37:34Z</time>
      </trkpt>
      <trkpt lat="24.907627030510874" lon="118.54290727411598">
        <ele>7.346515005454421</ele>
        <time>2024-10-29T14:37:43Z</time>
      </trkpt>
      <trkpt lat="24.907712005544614" lon="118.54270790437718">
        <ele>7.758318964391947</ele>
        <time>2024-10-29T14:37:49Z</time>
      </trkpt>
      <trkpt lat="24.90776837747091" lon="118.54248112237377">
        <ele>8.314306752756238</ele>
        <time>2024-10-29T14:37:55Z</time>
      </trkpt>
      <trkpt lat="24.907938739438755" lon="118.54214177110568">
        <ele>7.713453463278711</ele>
        <time>2024-10-29T14:38:07Z</time>
      </trkpt>
      <trkpt lat="24.908045973629054" lon="118.54184348930792">
        <ele>8.183457244187593</ele>
        <time>2024-10-29T14:38:16Z</time>
      </trkpt>
      <trkpt lat="24.90818479002966" lon="118.54155562669233">
        <ele>9.304068083874881</ele>
        <time>2024-10-29T14:38:25Z</time>
      </trkpt>
      <trkpt lat="24.908275771549413" lon="118.54126122722184">
        <ele>8.476040228269994</ele>
        <time>2024-10-29T14:38:34Z</time>
      </trkpt>
      <trkpt lat="24.90840364877633" lon="118.54096746711427">
        <ele>8.440952566452324</ele>
        <time>2024-10-29T14:38:43Z</time>
      </trkpt>
      <trkpt lat="24.908455366539904" lon="118.54084645035299">
        <ele>8.233610096387565</ele>
        <time>2024-10-29T14:38:46Z</time>
      </trkpt>
      <trkpt lat="24.908525534443417" lon="118.54075512388957">
        <ele>7.7953344359993935</ele>
        <time>2024-10-29T14:38:49Z</time>
      </trkpt>
      <trkpt lat="24.908535983021316" lon="118.54064594468826">
        <ele>8.220783974975348</ele>
        <time>2024-10-29T14:38:52Z</time>
      </trkpt>
      <trkpt lat="24.90860577388112" lon="118.5404599954049">
        <ele>8.288949803449214</ele>
        <time>2024-10-29T14:38:58Z</time>
      </trkpt>
      <trkpt lat="24.908694033665004" lon="118.54011493016291">
        <ele>7.686760226264596</ele>
        <time>2024-10-29T14:39:08Z</time>
      </trkpt>
      <trkpt lat="24.90880567904728" lon="118.53978166966318">
        <ele>7.521351004950702</ele>
        <time>2024-10-29T14:39:19Z</time>
      </trkpt>
      <trkpt lat="24.908897836119475" lon="118.53946408915246">
        <ele>7.836897857487202</ele>
        <time>2024-10-29T14:39:28Z</time>
      </trkpt>
      <trkpt lat="24.908912126997812" lon="118.53936973657571">
        <ele>7.794594418257475</ele>
        <time>2024-10-29T14:39:31Z</time>
      </trkpt>
      <trkpt lat="24.90894994146977" lon="118.53928133567018">
        <ele>7.991334277205169</ele>
        <time>2024-10-29T14:39:34Z</time>
      </trkpt>
      <trkpt lat="24.90903464197609" lon="118.53890570018933">
        <ele>7.68402561545372</ele>
        <time>2024-10-29T14:39:46Z</time>
      </trkpt>
      <trkpt lat="24.909101843997693" lon="118.5386020665067">
        <ele>7.625174943357706</ele>
        <time>2024-10-29T14:39:55Z</time>
      </trkpt>
      <trkpt lat="24.909166144762423" lon="118.53830615338451">
        <ele>7.791504786349833</ele>
        <time>2024-10-29T14:40:04Z</time>
      </trkpt>
      <trkpt lat="24.909224484639008" lon="118.53797228366805">
        <ele>7.794211823493242</ele>
        <time>2024-10-29T14:40:16Z</time>
      </trkpt>
      <trkpt lat="24.909310702775397" lon="118.53766583692217">
        <ele>8.562964852899313</ele>
        <time>2024-10-29T14:40:25Z</time>
      </trkpt>
      <trkpt lat="24.909354313652347" lon="118.53755922419096">
        <ele>8.878170908428729</ele>
        <time>2024-10-29T14:40:28Z</time>
      </trkpt>
      <trkpt lat="24.909391187065786" lon="118.53717674529486">
        <ele>9.87864982150495</ele>
        <time>2024-10-29T14:40:40Z</time>
      </trkpt>
      <trkpt lat="24.90948300456474" lon="118.53684665299235">
        <ele>10.274259069934487</ele>
        <time>2024-10-29T14:40:49Z</time>
      </trkpt>
      <trkpt lat="24.909554529239323" lon="118.5364654233898">
        <ele>9.930967363528907</ele>
        <time>2024-10-29T14:41:01Z</time>
      </trkpt>
      <trkpt lat="24.909607944643216" lon="118.53611851762831">
        <ele>10.577304570004344</ele>
        <time>2024-10-29T14:41:11Z</time>
      </trkpt>
      <trkpt lat="24.909662974002977" lon="118.53574870143598">
        <ele>9.964440408162773</ele>
        <time>2024-10-29T14:41:22Z</time>
      </trkpt>
      <trkpt lat="24.909684767714" lon="118.53553159038992">
        <ele>9.450734377838671</ele>
        <time>2024-10-29T14:41:28Z</time>
      </trkpt>
      <trkpt lat="24.909742235474102" lon="118.53521725909286">
        <ele>9.633662444539368</ele>
        <time>2024-10-29T14:41:37Z</time>
      </trkpt>
      <trkpt lat="24.909771786934073" lon="118.53490926138954">
        <ele>8.33495164103806</ele>
        <time>2024-10-29T14:41:46Z</time>
      </trkpt>
      <trkpt lat="24.90981298266074" lon="118.53461093884826">
        <ele>7.937176396138966</ele>
        <time>2024-10-29T14:41:55Z</time>
      </trkpt>
      <trkpt lat="24.909842272130042" lon="118.5343017836101">
        <ele>7.288870147429407</ele>
        <time>2024-10-29T14:42:04Z</time>
      </trkpt>
      <trkpt lat="24.90990108098516" lon="118.53399010992327">
        <ele>7.704962894320488</ele>
        <time>2024-10-29T14:42:13Z</time>
      </trkpt>
      <trkpt lat="24.909948687884132" lon="118.53390634657686">
        <ele>7.854402951896191</ele>
        <time>2024-10-29T14:42:16Z</time>
      </trkpt>
      <trkpt lat="24.910025526794847" lon="118.53384438867882">
        <ele>8.269449954852462</ele>
        <time>2024-10-29T14:42:19Z</time>
      </trkpt>
      <trkpt lat="24.910297250983373" lon="118.53377705254704">
        <ele>9.309977864846587</ele>
        <time>2024-10-29T14:42:28Z</time>
      </trkpt>
      <trkpt lat="24.910579614506233" lon="118.53374438491569">
        <ele>10.051624177955091</ele>
        <time>2024-10-29T14:42:37Z</time>
      </trkpt>
      <trkpt lat="24.910858447914393" lon="118.53375672178318">
        <ele>10.539617566391826</ele>
        <time>2024-10-29T14:42:46Z</time>
      </trkpt>
      <trkpt lat="24.9109481737695" lon="118.53376789471024">
        <ele>9.682947278022766</ele>
        <time>2024-10-29T14:42:49Z</time>
      </trkpt>
      <trkpt lat="24.911227877924325" lon="118.53376217148734">
        <ele>10.190572573803365</ele>
        <time>2024-10-29T14:42:58Z</time>
      </trkpt>
      <trkpt lat="24.91151143910105" lon="118.53375796523235">
        <ele>10.249846374616027</ele>
        <time>2024-10-29T14:43:07Z</time>
      </trkpt>
      <trkpt lat="24.911835881727324" lon="118.53374632857525">
        <ele>10.66504417732358</ele>
        <time>2024-10-29T14:43:18Z</time>
      </trkpt>
      <trkpt lat="24.91197074568456" lon="118.5337536995162">
        <ele>10.256052667275071</ele>
        <time>2024-10-29T14:43:22Z</time>
      </trkpt>
      <trkpt lat="24.912102536690576" lon="118.53373358014979">
        <ele>10.129887145012617</ele>
        <time>2024-10-29T14:43:26Z</time>
      </trkpt>
      <trkpt lat="24.912344288907832" lon="118.53372183253929">
        <ele>9.952983167022467</ele>
        <time>2024-10-29T14:43:34Z</time>
      </trkpt>
      <trkpt lat="24.91270173077376" lon="118.5337435477158">
        <ele>9.995075369253755</ele>
        <time>2024-10-29T14:43:46Z</time>
      </trkpt>
      <trkpt lat="24.912942788205747" lon="118.5337674263746">
        <ele>10.570674093440175</ele>
        <time>2024-10-29T14:43:54Z</time>
      </trkpt>
      <trkpt lat="24.91317417755431" lon="118.53384290825589">
        <ele>10.175596110522747</ele>
        <time>2024-10-29T14:44:02Z</time>
      </trkpt>
      <trkpt lat="24.91352635909136" lon="118.53390516481967">
        <ele>8.791884062811732</ele>
        <time>2024-10-29T14:44:14Z</time>
      </trkpt>
      <trkpt lat="24.913871761309053" lon="118.53395743549105">
        <ele>10.638857872225344</ele>
        <time>2024-10-29T14:44:25Z</time>
      </trkpt>
      <trkpt lat="24.914163025126964" lon="118.53398487027735">
        <ele>10.8802884016186</ele>
        <time>2024-10-29T14:44:34Z</time>
      </trkpt>
      <trkpt lat="24.91443089285466" lon="118.53403278376055">
        <ele>11.250588284805417</ele>
        <time>2024-10-29T14:44:43Z</time>
      </trkpt>
      <trkpt lat="24.9147605010914" lon="118.53409535019848">
        <ele>12.66297465376556</ele>
        <time>2024-10-29T14:44:55Z</time>
      </trkpt>
      <trkpt lat="24.9148478860345" lon="118.53411802523584">
        <ele>12.967891075648367</ele>
        <time>2024-10-29T14:44:58Z</time>
      </trkpt>
      <trkpt lat="24.914954296392896" lon="118.53412173176672">
        <ele>12.538741611875594</ele>
        <time>2024-10-29T14:45:01Z</time>
      </trkpt>
      <trkpt lat="24.915042677998116" lon="118.53414318420869">
        <ele>12.456703402101994</ele>
        <time>2024-10-29T14:45:04Z</time>
      </trkpt>
      <trkpt lat="24.915332225303207" lon="118.53415987954482">
        <ele>12.307703665457666</ele>
        <time>2024-10-29T14:45:13Z</time>
      </trkpt>
      <trkpt lat="24.915638479347965" lon="118.5342182016705">
        <ele>13.188832306303084</ele>
        <time>2024-10-29T14:45:23Z</time>
      </trkpt>
      <trkpt lat="24.915906543017464" lon="118.53427403067552">
        <ele>12.818275251425803</ele>
        <time>2024-10-29T14:45:32Z</time>
      </trkpt>
      <trkpt lat="24.91618346693639" lon="118.53432930765429">
        <ele>12.8886707611382</ele>
        <time>2024-10-29T14:45:41Z</time>
      </trkpt>
      <trkpt lat="24.916533887620936" lon="118.53438008286226">
        <ele>13.066786339506507</ele>
        <time>2024-10-29T14:45:53Z</time>
      </trkpt>
      <trkpt lat="24.916884426155057" lon="118.53445858729933">
        <ele>14.511901783756912</ele>
        <time>2024-10-29T14:46:05Z</time>
      </trkpt>
      <trkpt lat="24.91717230166821" lon="118.5345064585232">
        <ele>15.07852307613939</ele>
        <time>2024-10-29T14:46:14Z</time>
      </trkpt>
      <trkpt lat="24.91744742921673" lon="118.53456535599744">
        <ele>14.789818204008043</ele>
        <time>2024-10-29T14:46:23Z</time>
      </trkpt>
      <trkpt lat="24.917718691016375" lon="118.53464485941333">
        <ele>14.772209383547306</ele>
        <time>2024-10-29T14:46:32Z</time>
      </trkpt>
      <trkpt lat="24.918008182485323" lon="118.53471835545305">
        <ele>13.953779092989862</ele>
        <time>2024-10-29T14:46:41Z</time>
      </trkpt>
      <trkpt lat="24.918348670856187" lon="118.5348003358327">
        <ele>12.489139190874994</ele>
        <time>2024-10-29T14:46:53Z</time>
      </trkpt>
      <trkpt lat="24.918531577600408" lon="118.53488166484536">
        <ele>11.829518074169755</ele>
        <time>2024-10-29T14:46:59Z</time>
      </trkpt>
      <trkpt lat="24.91859920259766" lon="118.53495172233998">
        <ele>12.022394191473722</ele>
        <time>2024-10-29T14:47:02Z</time>
      </trkpt>
      <trkpt lat="24.918648859935505" lon="118.53503442799429">
        <ele>11.782499250024557</ele>
        <time>2024-10-29T14:47:05Z</time>
      </trkpt>
      <trkpt lat="24.918670575056147" lon="118.53513146784888">
        <ele>11.575652839615941</ele>
        <time>2024-10-29T14:47:08Z</time>
      </trkpt>
      <trkpt lat="24.91866504288759" lon="118.53523233643685">
        <ele>11.485715283080935</ele>
        <time>2024-10-29T14:47:11Z</time>
      </trkpt>
      <trkpt lat="24.918559635605565" lon="118.53552229096604">
        <ele>10.07833986915648</ele>
        <time>2024-10-29T14:47:20Z</time>
      </trkpt>
      <trkpt lat="24.918440740778635" lon="118.53587577461697">
        <ele>10.827699516899884</ele>
        <time>2024-10-29T14:47:31Z</time>
      </trkpt>
      <trkpt lat="24.91833599884245" lon="118.53613919536714">
        <ele>10.228140156716108</ele>
        <time>2024-10-29T14:47:40Z</time>
      </trkpt>
      <trkpt lat="24.918271741289097" lon="118.53622311017176">
        <ele>10.146204239688814</ele>
        <time>2024-10-29T14:47:43Z</time>
      </trkpt>
      <trkpt lat="24.918153409480478" lon="118.53649765857365">
        <ele>9.91620394680649</ele>
        <time>2024-10-29T14:47:52Z</time>
      </trkpt>
      <trkpt lat="24.9180134950926" lon="118.53685055698672">
        <ele>10.122594912536442</ele>
        <time>2024-10-29T14:48:04Z</time>
      </trkpt>
      <trkpt lat="24.917939601724637" lon="118.53703998232828">
        <ele>9.74778061453253</ele>
        <time>2024-10-29T14:48:10Z</time>
      </trkpt>
      <trkpt lat="24.917879382354585" lon="118.537111368055">
        <ele>9.962056053802371</ele>
        <time>2024-10-29T14:48:13Z</time>
      </trkpt>
      <trkpt lat="24.917844319457924" lon="118.53721215976826">
        <ele>9.889648955315351</ele>
        <time>2024-10-29T14:48:16Z</time>
      </trkpt>
      <trkpt lat="24.9177875283683" lon="118.53730916815559">
        <ele>9.97863757610321</ele>
        <time>2024-10-29T14:48:19Z</time>
      </trkpt>
      <trkpt lat="24.917756377845933" lon="118.53740415230284">
        <ele>10.179295112378895</ele>
        <time>2024-10-29T14:48:22Z</time>
      </trkpt>
      <trkpt lat="24.917661116297815" lon="118.5375631762598">
        <ele>10.05822998099029</ele>
        <time>2024-10-29T14:48:28Z</time>
      </trkpt>
      <trkpt lat="24.917604024452295" lon="118.53777950128871">
        <ele>10.05532939825207</ele>
        <time>2024-10-29T14:48:34Z</time>
      </trkpt>
      <trkpt lat="24.91755565099866" lon="118.53786701933059">
        <ele>10.375748982653022</ele>
        <time>2024-10-29T14:48:37Z</time>
      </trkpt>
      <trkpt lat="24.91749304977129" lon="118.53804561164675">
        <ele>9.873225279152393</ele>
        <time>2024-10-29T14:48:43Z</time>
      </trkpt>
      <trkpt lat="24.917397477256017" lon="118.5382368400975">
        <ele>9.98759522754699</ele>
        <time>2024-10-29T14:48:49Z</time>
      </trkpt>
      <trkpt lat="24.91738406809088" lon="118.53842038103744">
        <ele>10.078789397142828</ele>
        <time>2024-10-29T14:48:55Z</time>
      </trkpt>
      <trkpt lat="24.91736344156686" lon="118.53851368700705">
        <ele>10.048445721156895</ele>
        <time>2024-10-29T14:48:58Z</time>
      </trkpt>
      <trkpt lat="24.91730308525314" lon="118.538600954187">
        <ele>9.673450821079314</ele>
        <time>2024-10-29T14:49:01Z</time>
      </trkpt>
      <trkpt lat="24.91722957948166" lon="118.53880456872467">
        <ele>10.160706982947886</ele>
        <time>2024-10-29T14:49:07Z</time>
      </trkpt>
      <trkpt lat="24.917148336952227" lon="118.53897821590917">
        <ele>9.924092567525804</ele>
        <time>2024-10-29T14:49:13Z</time>
      </trkpt>
      <trkpt lat="24.917120509465317" lon="118.53909566817232">
        <ele>8.975331611931324</ele>
        <time>2024-10-29T14:49:16Z</time>
      </trkpt>
      <trkpt lat="24.917122552856863" lon="118.53918999177047">
        <ele>9.667936962097883</ele>
        <time>2024-10-29T14:49:19Z</time>
      </trkpt>
      <trkpt lat="24.91699503468188" lon="118.53948145118926">
        <ele>9.908749266527593</ele>
        <time>2024-10-29T14:49:28Z</time>
      </trkpt>
      <trkpt lat="24.916950142081664" lon="118.53961627175806">
        <ele>9.527265961281955</ele>
        <time>2024-10-29T14:49:32Z</time>
      </trkpt>
      <trkpt lat="24.91686038238463" lon="118.53970162843933">
        <ele>10.398180019110441</ele>
        <time>2024-10-29T14:49:35Z</time>
      </trkpt>
      <trkpt lat="24.916806111689468" lon="118.53977949267846">
        <ele>10.053065739572048</ele>
        <time>2024-10-29T14:49:38Z</time>
      </trkpt>
      <trkpt lat="24.916767436857754" lon="118.53987912271036">
        <ele>10.141701416112483</ele>
        <time>2024-10-29T14:49:41Z</time>
      </trkpt>
      <trkpt lat="24.916643561209813" lon="118.54005086001399">
        <ele>10.27627659868449</ele>
        <time>2024-10-29T14:49:47Z</time>
      </trkpt>
      <trkpt lat="24.916565140441723" lon="118.54023847351667">
        <ele>9.790829566307366</ele>
        <time>2024-10-29T14:49:54Z</time>
      </trkpt>
      <trkpt lat="24.916508989989236" lon="118.5404567172963">
        <ele>11.247079480439425</ele>
        <time>2024-10-29T14:50:00Z</time>
      </trkpt>
      <trkpt lat="24.91648615640289" lon="118.54080391628952">
        <ele>12.412709316238761</ele>
        <time>2024-10-29T14:50:09Z</time>
      </trkpt>
      <trkpt lat="24.91647976886287" lon="118.54090621545559">
        <ele>12.482954022474587</ele>
        <time>2024-10-29T14:50:12Z</time>
      </trkpt>
      <trkpt lat="24.916571732216518" lon="118.54126529294405">
        <ele>11.713411789387465</ele>
        <time>2024-10-29T14:50:24Z</time>
      </trkpt>
      <trkpt lat="24.916620460843248" lon="118.54134698289691">
        <ele>12.088970802724361</ele>
        <time>2024-10-29T14:50:27Z</time>
      </trkpt>
      <trkpt lat="24.91666678329553" lon="118.54153624748746">
        <ele>12.513372923247516</ele>
        <time>2024-10-29T14:50:33Z</time>
      </trkpt>
      <trkpt lat="24.916673228060358" lon="118.54163560742371">
        <ele>11.86655222531408</ele>
        <time>2024-10-29T14:50:36Z</time>
      </trkpt>
      <trkpt lat="24.91663559861815" lon="118.54174060930293">
        <ele>12.138515231199563</ele>
        <time>2024-10-29T14:50:39Z</time>
      </trkpt>
      <trkpt lat="24.916542440536155" lon="118.54193474019455">
        <ele>12.68585964012891</ele>
        <time>2024-10-29T14:50:45Z</time>
      </trkpt>
      <trkpt lat="24.916374204393733" lon="118.54201040325195">
        <ele>12.053769846446812</ele>
        <time>2024-10-29T14:50:51Z</time>
      </trkpt>
      <trkpt lat="24.916097107014338" lon="118.54209353325122">
        <ele>12.08441684115678</ele>
        <time>2024-10-29T14:51:00Z</time>
      </trkpt>
      <trkpt lat="24.915821767684932" lon="118.54226161334606">
        <ele>12.066278613172472</ele>
        <time>2024-10-29T14:51:09Z</time>
      </trkpt>
      <trkpt lat="24.91573368903267" lon="118.54232464319286">
        <ele>12.177187428809702</ele>
        <time>2024-10-29T14:51:12Z</time>
      </trkpt>
      <trkpt lat="24.915440146776007" lon="118.54244322427076">
        <ele>12.941305598244071</ele>
        <time>2024-10-29T14:51:21Z</time>
      </trkpt>
      <trkpt lat="24.915345265692753" lon="118.54248369960585">
        <ele>13.236661659553647</ele>
        <time>2024-10-29T14:51:24Z</time>
      </trkpt>
    </trkseg>
  </trk>
</gpx>