<?xml version="1.0" encoding="UTF-8"?>
<gpx xmlns="http://www.topografix.com/GPX/1/1" xmlns:gpxtpx="http://www.garmin.com/xmlschemas/TrackPointExtension/v1" xmlns:xsi="http://www.w3.org/2001/XMLSchema-instance" xsi:schemaLocation="http://www.topografix.com/GPX/1/1 http://www.topografix.com/GPX/1/1/gpx.xsd" version="1.1" creator="gpx.py -- https://github.com/tkrajina/gpxpy">
  <trk>
    <name>gpx from keep</name>
    <type>Run</type>
    <trkseg>
      <trkpt lat="24.911200679412893" lon="118.53735758854961">
        <ele>33.3587681929491</ele>
        <time>2023-10-13T14:03:49Z</time>
      </trkpt>
      <trkpt lat="24.91128268886986" lon="118.53736660704642">
        <ele>32.19572793024587</ele>
        <time>2023-10-13T14:03:52Z</time>
      </trkpt>
      <trkpt lat="24.911317825370737" lon="118.53742776862758">
        <ele>31.02698219898755</ele>
        <time>2023-10-13T14:03:55Z</time>
      </trkpt>
      <trkpt lat="24.91117858223731" lon="118.53774763395926">
        <ele>32.79941825626222</ele>
        <time>2023-10-13T14:04:07Z</time>
      </trkpt>
      <trkpt lat="24.911071310741566" lon="118.53805846942008">
        <ele>34.40056929681168</ele>
        <time>2023-10-13T14:04:19Z</time>
      </trkpt>
      <trkpt lat="24.910967708293647" lon="118.53822592124524">
        <ele>35.04080185525303</ele>
        <time>2023-10-13T14:04:28Z</time>
      </trkpt>
      <trkpt lat="24.910849358284615" lon="118.53850366472237">
        <ele>35.803884301161276</ele>
        <time>2023-10-13T14:04:40Z</time>
      </trkpt>
      <trkpt lat="24.91080945967723" lon="118.53854577873761">
        <ele>35.12071535940767</ele>
        <time>2023-10-13T14:04:43Z</time>
      </trkpt>
      <trkpt lat="24.910747491108815" lon="118.53855580953005">
        <ele>35.2871603302049</ele>
        <time>2023-10-13T14:04:46Z</time>
      </trkpt>
      <trkpt lat="24.910465404841275" lon="118.5385006835242">
        <ele>35.57223161681277</ele>
        <time>2023-10-13T14:04:58Z</time>
      </trkpt>
      <trkpt lat="24.910394348509467" lon="118.53847161162871">
        <ele>35.084136591956046</ele>
        <time>2023-10-13T14:05:01Z</time>
      </trkpt>
      <trkpt lat="24.91005029811361" lon="118.5384285215983">
        <ele>36.44803850564184</ele>
        <time>2023-10-13T14:05:13Z</time>
      </trkpt>
      <trkpt lat="24.90975314963962" lon="118.53834532206436">
        <ele>35.8617030268854</ele>
        <time>2023-10-13T14:05:25Z</time>
      </trkpt>
      <trkpt lat="24.909541281990506" lon="118.53839045626097">
        <ele>34.44098726118089</ele>
        <time>2023-10-13T14:05:37Z</time>
      </trkpt>
      <trkpt lat="24.909329242840407" lon="118.53836039141778">
        <ele>33.641076778348264</ele>
        <time>2023-10-13T14:05:46Z</time>
      </trkpt>
      <trkpt lat="24.909220065760707" lon="118.53827617592668">
        <ele>32.51357698556255</ele>
        <time>2023-10-13T14:05:52Z</time>
      </trkpt>
      <trkpt lat="24.909169027042832" lon="118.53825612632644">
        <ele>32.31896638316686</ele>
        <time>2023-10-13T14:05:55Z</time>
      </trkpt>
      <trkpt lat="24.909243265996903" lon="118.53792824999904">
        <ele>25.985851594187228</ele>
        <time>2023-10-13T14:06:10Z</time>
      </trkpt>
      <trkpt lat="24.90931846903683" lon="118.53758633220293">
        <ele>21.667466477464735</ele>
        <time>2023-10-13T14:06:25Z</time>
      </trkpt>
      <trkpt lat="24.909360721731556" lon="118.53726546911294">
        <ele>17.772460941447214</ele>
        <time>2023-10-13T14:06:40Z</time>
      </trkpt>
      <trkpt lat="24.90937254817103" lon="118.53719126886027">
        <ele>18.003362270712177</ele>
        <time>2023-10-13T14:06:43Z</time>
      </trkpt>
      <trkpt lat="24.909364367909617" lon="118.53711305901126">
        <ele>18.247779991199742</ele>
        <time>2023-10-13T14:06:46Z</time>
      </trkpt>
      <trkpt lat="24.909410718068635" lon="118.53683630948852">
        <ele>23.134846624076896</ele>
        <time>2023-10-13T14:06:55Z</time>
      </trkpt>
      <trkpt lat="24.909440496595927" lon="118.53674305533808">
        <ele>25.88947494182203</ele>
        <time>2023-10-13T14:06:58Z</time>
      </trkpt>
      <trkpt lat="24.909497369396693" lon="118.53669191300976">
        <ele>24.181945772632407</ele>
        <time>2023-10-13T14:07:01Z</time>
      </trkpt>
      <trkpt lat="24.90950468142477" lon="118.53639811581189">
        <ele>27.732080498673966</ele>
        <time>2023-10-13T14:07:13Z</time>
      </trkpt>
      <trkpt lat="24.909571890475814" lon="118.53606520476083">
        <ele>25.128839637264463</ele>
        <time>2023-10-13T14:07:28Z</time>
      </trkpt>
      <trkpt lat="24.909625029352256" lon="118.53570321116605">
        <ele>22.906907858287433</ele>
        <time>2023-10-13T14:07:43Z</time>
      </trkpt>
      <trkpt lat="24.90967251477417" lon="118.53548861892156">
        <ele>21.580165311995675</ele>
        <time>2023-10-13T14:07:52Z</time>
      </trkpt>
      <trkpt lat="24.9097096590844" lon="118.53513063035277">
        <ele>20.523940004199165</ele>
        <time>2023-10-13T14:08:07Z</time>
      </trkpt>
      <trkpt lat="24.90971718225923" lon="118.53493107832799">
        <ele>19.143702247164995</ele>
        <time>2023-10-13T14:08:16Z</time>
      </trkpt>
      <trkpt lat="24.909813176102247" lon="118.53493407995737">
        <ele>19.84698204097617</ele>
        <time>2023-10-13T14:08:22Z</time>
      </trkpt>
      <trkpt lat="24.910100425604945" lon="118.535055395408">
        <ele>21.387956493107204</ele>
        <time>2023-10-13T14:08:37Z</time>
      </trkpt>
      <trkpt lat="24.91039373346204" lon="118.53520177908709">
        <ele>22.894720544769573</ele>
        <time>2023-10-13T14:08:52Z</time>
      </trkpt>
      <trkpt lat="24.910571858930318" lon="118.53526494082685">
        <ele>25.0286416139761</ele>
        <time>2023-10-13T14:09:01Z</time>
      </trkpt>
      <trkpt lat="24.910814127728194" lon="118.53539227460683">
        <ele>25.779039517454898</ele>
        <time>2023-10-13T14:09:13Z</time>
      </trkpt>
      <trkpt lat="24.911004172671927" lon="118.53542234411006">
        <ele>26.49768673735049</ele>
        <time>2023-10-13T14:09:22Z</time>
      </trkpt>
      <trkpt lat="24.911062238327187" lon="118.53545342554284">
        <ele>25.87543055974154</ele>
        <time>2023-10-13T14:09:25Z</time>
      </trkpt>
      <trkpt lat="24.911113238364386" lon="118.53545643025711">
        <ele>25.891139321011654</ele>
        <time>2023-10-13T14:09:28Z</time>
      </trkpt>
      <trkpt lat="24.911411543706276" lon="118.53560281158865">
        <ele>26.567600050986094</ele>
        <time>2023-10-13T14:09:43Z</time>
      </trkpt>
      <trkpt lat="24.911706825112553" lon="118.53573916492768">
        <ele>25.613670653486583</ele>
        <time>2023-10-13T14:09:58Z</time>
      </trkpt>
      <trkpt lat="24.91189796190787" lon="118.5358083410698">
        <ele>26.305867392728764</ele>
        <time>2023-10-13T14:10:07Z</time>
      </trkpt>
      <trkpt lat="24.912094029263027" lon="118.5358484371607">
        <ele>25.998461055432674</ele>
        <time>2023-10-13T14:10:16Z</time>
      </trkpt>
      <trkpt lat="24.912369357267515" lon="118.53600384276822">
        <ele>23.431507048357624</ele>
        <time>2023-10-13T14:10:31Z</time>
      </trkpt>
      <trkpt lat="24.912419418755036" lon="118.5360329186648">
        <ele>23.578726847660988</ele>
        <time>2023-10-13T14:10:34Z</time>
      </trkpt>
      <trkpt lat="24.912426542818423" lon="118.53608606317924">
        <ele>23.48060390487421</ele>
        <time>2023-10-13T14:10:37Z</time>
      </trkpt>
      <trkpt lat="24.91230328501792" lon="118.5363949125397">
        <ele>22.491506108523126</ele>
        <time>2023-10-13T14:10:52Z</time>
      </trkpt>
      <trkpt lat="24.912228713074626" lon="118.53657340212196">
        <ele>21.161719687604744</ele>
        <time>2023-10-13T14:11:01Z</time>
      </trkpt>
      <trkpt lat="24.912139915181235" lon="118.53665462836534">
        <ele>21.34573741039362</ele>
        <time>2023-10-13T14:11:07Z</time>
      </trkpt>
      <trkpt lat="24.91194846548394" lon="118.53687924904875">
        <ele>24.61369614093012</ele>
        <time>2023-10-13T14:11:22Z</time>
      </trkpt>
      <trkpt lat="24.91191315063647" lon="118.53717204055366">
        <ele>24.63618677740688</ele>
        <time>2023-10-13T14:11:34Z</time>
      </trkpt>
      <trkpt lat="24.91177387999858" lon="118.53747887388195">
        <ele>22.677261321265377</ele>
        <time>2023-10-13T14:11:49Z</time>
      </trkpt>
      <trkpt lat="24.911642614499222" lon="118.53778971400428">
        <ele>22.734763008636264</ele>
        <time>2023-10-13T14:12:04Z</time>
      </trkpt>
      <trkpt lat="24.911576063527317" lon="118.53798122891052">
        <ele>22.40336568301422</ele>
        <time>2023-10-13T14:12:13Z</time>
      </trkpt>
      <trkpt lat="24.911429623382" lon="118.53821686512566">
        <ele>24.594639723160356</ele>
        <time>2023-10-13T14:12:25Z</time>
      </trkpt>
      <trkpt lat="24.91134219380353" lon="118.53846151908625">
        <ele>25.336239230574385</ele>
        <time>2023-10-13T14:12:37Z</time>
      </trkpt>
      <trkpt lat="24.91123174729729" lon="118.5386981513478">
        <ele>24.060893452496867</ele>
        <time>2023-10-13T14:12:49Z</time>
      </trkpt>
      <trkpt lat="24.911190871312986" lon="118.53875029153859">
        <ele>23.048849158458022</ele>
        <time>2023-10-13T14:12:52Z</time>
      </trkpt>
      <trkpt lat="24.911134883654" lon="118.53875230071944">
        <ele>22.63104776576035</ele>
        <time>2023-10-13T14:12:55Z</time>
      </trkpt>
      <trkpt lat="24.910834704632084" lon="118.53865506536168">
        <ele>19.95207473183367</ele>
        <time>2023-10-13T14:13:10Z</time>
      </trkpt>
      <trkpt lat="24.91056957514928" lon="118.53858189074337">
        <ele>18.951809255536354</ele>
        <time>2023-10-13T14:13:22Z</time>
      </trkpt>
      <trkpt lat="24.9103104195437" lon="118.53849768637363">
        <ele>19.3118242941148</ele>
        <time>2023-10-13T14:13:34Z</time>
      </trkpt>
      <trkpt lat="24.910108338024866" lon="118.53844957323751">
        <ele>18.162103391576334</ele>
        <time>2023-10-13T14:13:43Z</time>
      </trkpt>
      <trkpt lat="24.909900158948428" lon="118.53835834633355">
        <ele>18.975083835454495</ele>
        <time>2023-10-13T14:13:52Z</time>
      </trkpt>
      <trkpt lat="24.90959322446866" lon="118.53836839426052">
        <ele>18.87782504335005</ele>
        <time>2023-10-13T14:14:07Z</time>
      </trkpt>
      <trkpt lat="24.909466251255054" lon="118.53837241372277">
        <ele>19.32175442447671</ele>
        <time>2023-10-13T14:14:13Z</time>
      </trkpt>
      <trkpt lat="24.90927119371121" lon="118.53833532909071">
        <ele>21.778517469027488</ele>
        <time>2023-10-13T14:14:22Z</time>
      </trkpt>
      <trkpt lat="24.909182075616034" lon="118.53827818388827">
        <ele>21.50543611433909</ele>
        <time>2023-10-13T14:14:28Z</time>
      </trkpt>
      <trkpt lat="24.909157973594358" lon="118.5382320632901">
        <ele>22.097031419851692</ele>
        <time>2023-10-13T14:14:31Z</time>
      </trkpt>
      <trkpt lat="24.909250244316937" lon="118.53791922548149">
        <ele>19.57127136566653</ele>
        <time>2023-10-13T14:14:46Z</time>
      </trkpt>
      <trkpt lat="24.909323431352828" lon="118.53757028893678">
        <ele>19.229907744886525</ele>
        <time>2023-10-13T14:15:01Z</time>
      </trkpt>
      <trkpt lat="24.909330867464178" lon="118.53732663544062">
        <ele>19.031311733304282</ele>
        <time>2023-10-13T14:15:13Z</time>
      </trkpt>
      <trkpt lat="24.90936172159269" lon="118.53726546904325">
        <ele>18.25498640820856</ele>
        <time>2023-10-13T14:15:16Z</time>
      </trkpt>
      <trkpt lat="24.909375529160936" lon="118.537183247081">
        <ele>17.179913492052197</ele>
        <time>2023-10-13T14:15:19Z</time>
      </trkpt>
      <trkpt lat="24.9094261730776" lon="118.53703283866484">
        <ele>16.603637476443676</ele>
        <time>2023-10-13T14:15:25Z</time>
      </trkpt>
      <trkpt lat="24.909472492151615" lon="118.53674305310791">
        <ele>17.526390953363002</ele>
        <time>2023-10-13T14:15:37Z</time>
      </trkpt>
      <trkpt lat="24.909512173013095" lon="118.53660868660114">
        <ele>16.287621165198523</ele>
        <time>2023-10-13T14:15:43Z</time>
      </trkpt>
      <trkpt lat="24.909527755723342" lon="118.53643120408339">
        <ele>14.456616807252281</ele>
        <time>2023-10-13T14:15:52Z</time>
      </trkpt>
      <trkpt lat="24.90956240305309" lon="118.53628279827196">
        <ele>13.794476479998005</ele>
        <time>2023-10-13T14:15:58Z</time>
      </trkpt>
      <trkpt lat="24.909557239007118" lon="118.53621260756962">
        <ele>14.029155925550949</ele>
        <time>2023-10-13T14:16:01Z</time>
      </trkpt>
      <trkpt lat="24.90960153919484" lon="118.53591780015417">
        <ele>16.624480867384676</ele>
        <time>2023-10-13T14:16:13Z</time>
      </trkpt>
      <trkpt lat="24.909660713600363" lon="118.5355718483501">
        <ele>15.01187688611124</ele>
        <time>2023-10-13T14:16:28Z</time>
      </trkpt>
      <trkpt lat="24.90968798894619" lon="118.53526801075348">
        <ele>15.433756646029996</ele>
        <time>2023-10-13T14:16:41Z</time>
      </trkpt>
      <trkpt lat="24.909733165674748" lon="118.53492506056418">
        <ele>14.383229907612016</ele>
        <time>2023-10-13T14:16:56Z</time>
      </trkpt>
      <trkpt lat="24.909783118030912" lon="118.53490800990127">
        <ele>14.441815804950643</ele>
        <time>2023-10-13T14:16:59Z</time>
      </trkpt>
      <trkpt lat="24.909944311017863" lon="118.53499824831981">
        <ele>17.510796139283055</ele>
        <time>2023-10-13T14:17:08Z</time>
      </trkpt>
      <trkpt lat="24.910226558588086" lon="118.5351185610874">
        <ele>19.599115833017105</ele>
        <time>2023-10-13T14:17:23Z</time>
      </trkpt>
      <trkpt lat="24.910521811055446" lon="118.53524188074991">
        <ele>21.473076838907335</ele>
        <time>2023-10-13T14:17:38Z</time>
      </trkpt>
      <trkpt lat="24.910812113728248" lon="118.53538625819243">
        <ele>21.643698997983577</ele>
        <time>2023-10-13T14:17:53Z</time>
      </trkpt>
      <trkpt lat="24.910875162071047" lon="118.53541032000784">
        <ele>21.61262607166659</ele>
        <time>2023-10-13T14:17:56Z</time>
      </trkpt>
      <trkpt lat="24.91100317756836" lon="118.53542434969542">
        <ele>22.8292566292162</ele>
        <time>2023-10-13T14:18:02Z</time>
      </trkpt>
      <trkpt lat="24.911170282734147" lon="118.53547848692153">
        <ele>22.986888348235272</ele>
        <time>2023-10-13T14:18:11Z</time>
      </trkpt>
      <trkpt lat="24.911462595928082" lon="118.53562787681354">
        <ele>24.845747453168936</ele>
        <time>2023-10-13T14:18:26Z</time>
      </trkpt>
      <trkpt lat="24.91169984740725" lon="118.535748190137">
        <ele>23.02599252169861</ele>
        <time>2023-10-13T14:18:38Z</time>
      </trkpt>
      <trkpt lat="24.911956963158897" lon="118.53581234793447">
        <ele>21.95718482764955</ele>
        <time>2023-10-13T14:18:50Z</time>
      </trkpt>
      <trkpt lat="24.91219513580493" lon="118.53589956997737">
        <ele>22.429692636512574</ele>
        <time>2023-10-13T14:19:02Z</time>
      </trkpt>
      <trkpt lat="24.912409410707973" lon="118.5360289084144">
        <ele>21.922409590607465</ele>
        <time>2023-10-13T14:19:14Z</time>
      </trkpt>
      <trkpt lat="24.91242552173087" lon="118.53607703863278">
        <ele>22.019677086475003</ele>
        <time>2023-10-13T14:19:17Z</time>
      </trkpt>
      <trkpt lat="24.912301205416767" lon="118.53636082003561">
        <ele>21.95362129808023</ele>
        <time>2023-10-13T14:19:29Z</time>
      </trkpt>
      <trkpt lat="24.912155973803383" lon="118.53668069783126">
        <ele>20.712583394463177</ele>
        <time>2023-10-13T14:19:44Z</time>
      </trkpt>
      <trkpt lat="24.912058338104238" lon="118.53683111139523">
        <ele>19.270829111792732</ele>
        <time>2023-10-13T14:19:53Z</time>
      </trkpt>
      <trkpt lat="24.911918096464788" lon="118.53714897816799">
        <ele>18.199845875734475</ele>
        <time>2023-10-13T14:20:08Z</time>
      </trkpt>
      <trkpt lat="24.911790794271305" lon="118.53744277597984">
        <ele>19.273765781413086</ele>
        <time>2023-10-13T14:20:23Z</time>
      </trkpt>
      <trkpt lat="24.911646547079783" lon="118.53776063614009">
        <ele>19.776079754077713</ele>
        <time>2023-10-13T14:20:38Z</time>
      </trkpt>
      <trkpt lat="24.91154215560114" lon="118.5380193326359">
        <ele>19.97049250837166</ele>
        <time>2023-10-13T14:20:50Z</time>
      </trkpt>
      <trkpt lat="24.911431586435203" lon="118.53820082243021">
        <ele>21.69959011386214</ele>
        <time>2023-10-13T14:20:59Z</time>
      </trkpt>
      <trkpt lat="24.911372999833574" lon="118.53837829680086">
        <ele>22.75925349917814</ele>
        <time>2023-10-13T14:21:08Z</time>
      </trkpt>
      <trkpt lat="24.91121172504205" lon="118.53868712367667">
        <ele>22.910975074965872</ele>
        <time>2023-10-13T14:21:23Z</time>
      </trkpt>
      <trkpt lat="24.911172039898386" lon="118.53882348549226">
        <ele>21.855915668208397</ele>
        <time>2023-10-13T14:21:29Z</time>
      </trkpt>
    </trkseg>
  </trk>
</gpx>