<?xml version="1.0" encoding="UTF-8"?>
<gpx xmlns="http://www.topografix.com/GPX/1/1" xmlns:gpxtpx="http://www.garmin.com/xmlschemas/TrackPointExtension/v1" xmlns:xsi="http://www.w3.org/2001/XMLSchema-instance" xsi:schemaLocation="http://www.topografix.com/GPX/1/1 http://www.topografix.com/GPX/1/1/gpx.xsd" version="1.1" creator="gpx.py -- https://github.com/tkrajina/gpxpy">
  <trk>
    <name>gpx from keep</name>
    <type>Run</type>
    <trkseg>
      <trkpt lat="24.911320648799858" lon="118.53735156404528">
        <ele>22.4219970703125</ele>
        <time>2025-10-17T12:59:52Z</time>
      </trkpt>
      <trkpt lat="24.91129686303883" lon="118.53744281040338">
        <ele>25.06488037109375</ele>
        <time>2025-10-17T12:59:55Z</time>
      </trkpt>
      <trkpt lat="24.911128513063446" lon="118.53771454910435">
        <ele>21.0308837890625</ele>
        <time>2025-10-17T13:00:04Z</time>
      </trkpt>
      <trkpt lat="24.910970088075402" lon="118.53795520175258">
        <ele>16.56903076171875</ele>
        <time>2025-10-17T13:00:13Z</time>
      </trkpt>
      <trkpt lat="24.910829844301663" lon="118.53827706642754">
        <ele>16.40966796875</ele>
        <time>2025-10-17T13:00:22Z</time>
      </trkpt>
      <trkpt lat="24.910757222662813" lon="118.53843849886468">
        <ele>14.841552734375</ele>
        <time>2025-10-17T13:00:28Z</time>
      </trkpt>
      <trkpt lat="24.91078749922847" lon="118.53856182262611">
        <ele>17.76861572265625</ele>
        <time>2025-10-17T13:00:31Z</time>
      </trkpt>
      <trkpt lat="24.91087965281733" lon="118.53863500934847">
        <ele>17.8768310546875</ele>
        <time>2025-10-17T13:00:34Z</time>
      </trkpt>
      <trkpt lat="24.91108375195819" lon="118.53869114316207">
        <ele>19.2940673828125</ele>
        <time>2025-10-17T13:00:40Z</time>
      </trkpt>
      <trkpt lat="24.91119788171028" lon="118.53875530425107">
        <ele>19.701416015625</ele>
        <time>2025-10-17T13:00:43Z</time>
      </trkpt>
      <trkpt lat="24.9111921234274" lon="118.53886158429528">
        <ele>20.09820556640625</ele>
        <time>2025-10-17T13:00:46Z</time>
      </trkpt>
      <trkpt lat="24.9110939796705" lon="118.53923456925877">
        <ele>17.587158203125</ele>
        <time>2025-10-17T13:00:58Z</time>
      </trkpt>
      <trkpt lat="24.911042478508765" lon="118.53945314368042">
        <ele>19.51641845703125</ele>
        <time>2025-10-17T13:01:04Z</time>
      </trkpt>
      <trkpt lat="24.910944968719786" lon="118.53966570390847">
        <ele>16.40594482421875</ele>
        <time>2025-10-17T13:01:13Z</time>
      </trkpt>
      <trkpt lat="24.910906511878977" lon="118.53990633110402">
        <ele>20.6014404296875</ele>
        <time>2025-10-17T13:01:19Z</time>
      </trkpt>
      <trkpt lat="24.910901224500506" lon="118.54022615823393">
        <ele>22.21514892578125</ele>
        <time>2025-10-17T13:01:28Z</time>
      </trkpt>
      <trkpt lat="24.91081990221108" lon="118.54052693793535">
        <ele>25.409912109375</ele>
        <time>2025-10-17T13:01:37Z</time>
      </trkpt>
      <trkpt lat="24.910736546303426" lon="118.54081367849948">
        <ele>26.856689453125</ele>
        <time>2025-10-17T13:01:46Z</time>
      </trkpt>
      <trkpt lat="24.91071004125475" lon="118.54103725110517">
        <ele>27.42889404296875</ele>
        <time>2025-10-17T13:01:52Z</time>
      </trkpt>
      <trkpt lat="24.910735875299277" lon="118.5414202226296">
        <ele>28.05133056640625</ele>
        <time>2025-10-17T13:02:04Z</time>
      </trkpt>
      <trkpt lat="24.910706411694527" lon="118.54163315213104">
        <ele>30.09619140625</ele>
        <time>2025-10-17T13:02:10Z</time>
      </trkpt>
      <trkpt lat="24.91057405610482" lon="118.54195358011324">
        <ele>31.70074462890625</ele>
        <time>2025-10-17T13:02:19Z</time>
      </trkpt>
      <trkpt lat="24.910481402483168" lon="118.54210797422556">
        <ele>29.1873779296875</ele>
        <time>2025-10-17T13:02:25Z</time>
      </trkpt>
      <trkpt lat="24.910408081526185" lon="118.54241875691002">
        <ele>31.13739013671875</ele>
        <time>2025-10-17T13:02:34Z</time>
      </trkpt>
      <trkpt lat="24.910311711196112" lon="118.54270648018206">
        <ele>28.41607666015625</ele>
        <time>2025-10-17T13:02:43Z</time>
      </trkpt>
      <trkpt lat="24.91026889912065" lon="118.54279169476878">
        <ele>28.215576171875</ele>
        <time>2025-10-17T13:02:46Z</time>
      </trkpt>
      <trkpt lat="24.910211506893113" lon="118.54307339630333">
        <ele>26.98480224609375</ele>
        <time>2025-10-17T13:02:55Z</time>
      </trkpt>
      <trkpt lat="24.910235688675314" lon="118.54316060995879">
        <ele>26.0118408203125</ele>
        <time>2025-10-17T13:02:58Z</time>
      </trkpt>
      <trkpt lat="24.91021888650882" lon="118.54325283851843">
        <ele>24.13623046875</ele>
        <time>2025-10-17T13:03:01Z</time>
      </trkpt>
      <trkpt lat="24.910252062256387" lon="118.54333804600387">
        <ele>24.31195068359375</ele>
        <time>2025-10-17T13:03:04Z</time>
      </trkpt>
      <trkpt lat="24.910340122085817" lon="118.54337212371519">
        <ele>26.2874755859375</ele>
        <time>2025-10-17T13:03:07Z</time>
      </trkpt>
      <trkpt lat="24.91062402537233" lon="118.5433450373895">
        <ele>25.3963623046875</ele>
        <time>2025-10-17T13:03:16Z</time>
      </trkpt>
      <trkpt lat="24.91089991488748" lon="118.54331093432022">
        <ele>19.1058349609375</ele>
        <time>2025-10-17T13:03:25Z</time>
      </trkpt>
      <trkpt lat="24.911240767713284" lon="118.54326379458588">
        <ele>19.0714111328125</ele>
        <time>2025-10-17T13:03:37Z</time>
      </trkpt>
      <trkpt lat="24.911601581541483" lon="118.54319961135771">
        <ele>17.0970458984375</ele>
        <time>2025-10-17T13:03:49Z</time>
      </trkpt>
      <trkpt lat="24.911947350490646" lon="118.54311337456681">
        <ele>14.68603515625</ele>
        <time>2025-10-17T13:04:01Z</time>
      </trkpt>
      <trkpt lat="24.912220165555" lon="118.54304418469309">
        <ele>14.0296630859375</ele>
        <time>2025-10-17T13:04:10Z</time>
      </trkpt>
      <trkpt lat="24.912529941158635" lon="118.54295895236325">
        <ele>15.4498291015625</ele>
        <time>2025-10-17T13:04:19Z</time>
      </trkpt>
      <trkpt lat="24.912806689049958" lon="118.54285868477311">
        <ele>15.10101318359375</ele>
        <time>2025-10-17T13:04:28Z</time>
      </trkpt>
      <trkpt lat="24.913090482683458" lon="118.5427804710534">
        <ele>16.351806640625</ele>
        <time>2025-10-17T13:04:37Z</time>
      </trkpt>
      <trkpt lat="24.913400349563155" lon="118.54273834494498">
        <ele>16.93017578125</ele>
        <time>2025-10-17T13:04:46Z</time>
      </trkpt>
      <trkpt lat="24.913690154872004" lon="118.54266614539725">
        <ele>19.1650390625</ele>
        <time>2025-10-17T13:04:55Z</time>
      </trkpt>
      <trkpt lat="24.91392493332671" lon="118.54257790954185">
        <ele>19.4454345703125</ele>
        <time>2025-10-17T13:05:04Z</time>
      </trkpt>
      <trkpt lat="24.913960861746176" lon="118.54254682964006">
        <ele>19.22021484375</ele>
        <time>2025-10-17T13:05:07Z</time>
      </trkpt>
      <trkpt lat="24.91426564941172" lon="118.54246761100964">
        <ele>23.82598876953125</ele>
        <time>2025-10-17T13:05:16Z</time>
      </trkpt>
      <trkpt lat="24.914532437849473" lon="118.54238638977331">
        <ele>24.71246337890625</ele>
        <time>2025-10-17T13:05:25Z</time>
      </trkpt>
      <trkpt lat="24.914807240023762" lon="118.54231218527029">
        <ele>23.21551513671875</ele>
        <time>2025-10-17T13:05:34Z</time>
      </trkpt>
      <trkpt lat="24.915135036752023" lon="118.54223897937474">
        <ele>22.03448486328125</ele>
        <time>2025-10-17T13:05:43Z</time>
      </trkpt>
      <trkpt lat="24.915409784502828" lon="118.54213971163475">
        <ele>20.91302490234375</ele>
        <time>2025-10-17T13:05:52Z</time>
      </trkpt>
      <trkpt lat="24.915707565489686" lon="118.54205748469502">
        <ele>22.9879150390625</ele>
        <time>2025-10-17T13:06:01Z</time>
      </trkpt>
      <trkpt lat="24.915994373775266" lon="118.54198728849">
        <ele>22.08416748046875</ele>
        <time>2025-10-17T13:06:10Z</time>
      </trkpt>
      <trkpt lat="24.916256124630927" lon="118.541889023215">
        <ele>20.83856201171875</ele>
        <time>2025-10-17T13:06:19Z</time>
      </trkpt>
      <trkpt lat="24.916410903158802" lon="118.5417967801754">
        <ele>22.0184326171875</ele>
        <time>2025-10-17T13:06:25Z</time>
      </trkpt>
      <trkpt lat="24.916435901834497" lon="118.5417977809614">
        <ele>22.92926025390625</ele>
        <time>2025-10-17T13:07:01Z</time>
      </trkpt>
      <trkpt lat="24.916503829284856" lon="118.54176870295221">
        <ele>23.1624755859375</ele>
        <time>2025-10-17T13:07:04Z</time>
      </trkpt>
      <trkpt lat="24.916710717678228" lon="118.54173059247739">
        <ele>24.63616943359375</ele>
        <time>2025-10-17T13:07:10Z</time>
      </trkpt>
      <trkpt lat="24.916805717435643" lon="118.54173660103635">
        <ele>24.55694580078125</ele>
        <time>2025-10-17T13:07:13Z</time>
      </trkpt>
      <trkpt lat="24.91700677411155" lon="118.54177568562876">
        <ele>25.77044677734375</ele>
        <time>2025-10-17T13:07:19Z</time>
      </trkpt>
      <trkpt lat="24.91731760660415" lon="118.54171851987523">
        <ele>27.5201416015625</ele>
        <time>2025-10-17T13:07:28Z</time>
      </trkpt>
      <trkpt lat="24.917627469599367" lon="118.54167538950202">
        <ele>29.21649169921875</ele>
        <time>2025-10-17T13:07:37Z</time>
      </trkpt>
      <trkpt lat="24.917917461633404" lon="118.54169040727322">
        <ele>26.31353759765625</ele>
        <time>2025-10-17T13:07:46Z</time>
      </trkpt>
      <trkpt lat="24.91811545783508" lon="118.54170142132092">
        <ele>28.73712158203125</ele>
        <time>2025-10-17T13:07:52Z</time>
      </trkpt>
      <trkpt lat="24.91830752230997" lon="118.54174351417758">
        <ele>29.8577880859375</ele>
        <time>2025-10-17T13:07:58Z</time>
      </trkpt>
      <trkpt lat="24.918596494852515" lon="118.54174950922815">
        <ele>24.828857421875</ele>
        <time>2025-10-17T13:08:07Z</time>
      </trkpt>
      <trkpt lat="24.918894444373773" lon="118.54174547837019">
        <ele>25.6756591796875</ele>
        <time>2025-10-17T13:08:16Z</time>
      </trkpt>
      <trkpt lat="24.919189431275456" lon="118.54175849069742">
        <ele>27.0086669921875</ele>
        <time>2025-10-17T13:08:25Z</time>
      </trkpt>
      <trkpt lat="24.919484333346894" lon="118.54173240442606">
        <ele>27.72412109375</ele>
        <time>2025-10-17T13:08:34Z</time>
      </trkpt>
      <trkpt lat="24.919771238683506" lon="118.54170732121489">
        <ele>25.57867431640625</ele>
        <time>2025-10-17T13:08:43Z</time>
      </trkpt>
      <trkpt lat="24.9200401443382" lon="118.5416812367017">
        <ele>24.95703125</ele>
        <time>2025-10-17T13:08:52Z</time>
      </trkpt>
      <trkpt lat="24.920217106429703" lon="118.54167520919395">
        <ele>24.4873046875</ele>
        <time>2025-10-17T13:08:58Z</time>
      </trkpt>
      <trkpt lat="24.92038497393589" lon="118.54162507090201">
        <ele>26.3841552734375</ele>
        <time>2025-10-17T13:09:04Z</time>
      </trkpt>
      <trkpt lat="24.920430967477408" lon="118.54162506769941">
        <ele>26.81396484375</ele>
        <time>2025-10-17T13:09:28Z</time>
      </trkpt>
      <trkpt lat="24.92064797404526" lon="118.54164209564482">
        <ele>24.357177734375</ele>
        <time>2025-10-17T13:09:34Z</time>
      </trkpt>
      <trkpt lat="24.92073804851646" lon="118.54168219063727">
        <ele>24.00567626953125</ele>
        <time>2025-10-17T13:09:37Z</time>
      </trkpt>
      <trkpt lat="24.9210450728686" lon="118.54171324769662">
        <ele>28.15045166015625</ele>
        <time>2025-10-17T13:09:46Z</time>
      </trkpt>
      <trkpt lat="24.921370020679188" lon="118.54171021748076">
        <ele>30.37371826171875</ele>
        <time>2025-10-17T13:09:55Z</time>
      </trkpt>
      <trkpt lat="24.921566999523737" lon="118.54171321135382">
        <ele>32.43798828125</ele>
        <time>2025-10-17T13:10:01Z</time>
      </trkpt>
      <trkpt lat="24.921702002308617" lon="118.54172322724801">
        <ele>36.80328369140625</ele>
        <time>2025-10-17T13:10:34Z</time>
      </trkpt>
      <trkpt lat="24.92183199056263" lon="118.54172622578426">
        <ele>32.66217041015625</ele>
        <time>2025-10-17T13:10:40Z</time>
      </trkpt>
      <trkpt lat="24.922144083693567" lon="118.54178936331448">
        <ele>31.205078125</ele>
        <time>2025-10-17T13:10:49Z</time>
      </trkpt>
      <trkpt lat="24.922449136402026" lon="118.54183345321337">
        <ele>30.4998779296875</ele>
        <time>2025-10-17T13:10:58Z</time>
      </trkpt>
      <trkpt lat="24.922747239929286" lon="118.54190060154977">
        <ele>28.760498046875</ele>
        <time>2025-10-17T13:11:07Z</time>
      </trkpt>
      <trkpt lat="24.923049383903695" lon="118.54198679730429">
        <ele>30.6015625</ele>
        <time>2025-10-17T13:11:16Z</time>
      </trkpt>
      <trkpt lat="24.92325646306731" lon="118.54203690879697">
        <ele>31.06927490234375</ele>
        <time>2025-10-17T13:11:22Z</time>
      </trkpt>
      <trkpt lat="24.923448639402316" lon="118.54213113186904">
        <ele>32.83770751953125</ele>
        <time>2025-10-17T13:11:28Z</time>
      </trkpt>
      <trkpt lat="24.923729833117207" lon="118.5422393835387">
        <ele>35.076171875</ele>
        <time>2025-10-17T13:11:37Z</time>
      </trkpt>
      <trkpt lat="24.92398909413483" lon="118.54237771142645">
        <ele>36.05206298828125</ele>
        <time>2025-10-17T13:11:46Z</time>
      </trkpt>
      <trkpt lat="24.924257396185542" lon="118.54253608791521">
        <ele>38.49114990234375</ele>
        <time>2025-10-17T13:11:55Z</time>
      </trkpt>
      <trkpt lat="24.9245107273275" lon="118.54270749686802">
        <ele>39.730224609375</ele>
        <time>2025-10-17T13:12:04Z</time>
      </trkpt>
      <trkpt lat="24.924744075219127" lon="118.54288592346558">
        <ele>37.7010498046875</ele>
        <time>2025-10-17T13:12:13Z</time>
      </trkpt>
      <trkpt lat="24.92499142216172" lon="118.54306535032914">
        <ele>38.6419677734375</ele>
        <time>2025-10-17T13:12:22Z</time>
      </trkpt>
      <trkpt lat="24.925150661425103" lon="118.5431886436687">
        <ele>36.6060791015625</ele>
        <time>2025-10-17T13:12:28Z</time>
      </trkpt>
      <trkpt lat="24.925292961927326" lon="118.54334000667588">
        <ele>35.60894775390625</ele>
        <time>2025-10-17T13:12:34Z</time>
      </trkpt>
      <trkpt lat="24.92537107806922" lon="118.5434001491667">
        <ele>35.675048828125</ele>
        <time>2025-10-17T13:12:37Z</time>
      </trkpt>
      <trkpt lat="24.925459122835075" lon="118.54342720955955">
        <ele>34.93865966796875</ele>
        <time>2025-10-17T13:12:40Z</time>
      </trkpt>
      <trkpt lat="24.925514294895102" lon="118.54351241495158">
        <ele>34.6383056640625</ele>
        <time>2025-10-17T13:12:43Z</time>
      </trkpt>
      <trkpt lat="24.925547501463644" lon="118.54361265843121">
        <ele>34.7532958984375</ele>
        <time>2025-10-17T13:12:46Z</time>
      </trkpt>
      <trkpt lat="24.925731002178644" lon="118.54386325840734">
        <ele>32.97650146484375</ele>
        <time>2025-10-17T13:12:55Z</time>
      </trkpt>
      <trkpt lat="24.925911501111006" lon="118.54411385611608">
        <ele>31.82373046875</ele>
        <time>2025-10-17T13:13:04Z</time>
      </trkpt>
      <trkpt lat="24.926085021738455" lon="118.5443754785105">
        <ele>31.04541015625</ele>
        <time>2025-10-17T13:13:13Z</time>
      </trkpt>
      <trkpt lat="24.926248553800097" lon="118.54464311337196">
        <ele>30.7401123046875</ele>
        <time>2025-10-17T13:13:22Z</time>
      </trkpt>
      <trkpt lat="24.926395141446328" lon="118.54493781145806">
        <ele>30.58184814453125</ele>
        <time>2025-10-17T13:13:31Z</time>
      </trkpt>
      <trkpt lat="24.926561696482977" lon="118.54521947358576">
        <ele>30.712158203125</ele>
        <time>2025-10-17T13:13:40Z</time>
      </trkpt>
      <trkpt lat="24.926720257981742" lon="118.54550514260227">
        <ele>29.2073974609375</ele>
        <time>2025-10-17T13:13:49Z</time>
      </trkpt>
      <trkpt lat="24.926878806382682" lon="118.54578579648182">
        <ele>28.0950927734375</ele>
        <time>2025-10-17T13:13:58Z</time>
      </trkpt>
      <trkpt lat="24.927052315429382" lon="118.5460494060452">
        <ele>25.78375244140625</ele>
        <time>2025-10-17T13:14:07Z</time>
      </trkpt>
      <trkpt lat="24.927228815493567" lon="118.5463100055329">
        <ele>27.49237060546875</ele>
        <time>2025-10-17T13:14:16Z</time>
      </trkpt>
      <trkpt lat="24.9272869743538" lon="118.54639319619872">
        <ele>27.6424560546875</ele>
        <time>2025-10-17T13:14:19Z</time>
      </trkpt>
      <trkpt lat="24.9272869743538" lon="118.54639319619872">
        <ele>27.6424560546875</ele>
        <time>2025-10-17T13:14:22Z</time>
      </trkpt>
      <trkpt lat="24.927306319044227" lon="118.54656659978806">
        <ele>27.4510498046875</ele>
        <time>2025-10-17T13:15:01Z</time>
      </trkpt>
      <trkpt lat="24.927154440689947" lon="118.54661672715605">
        <ele>27.32745361328125</ele>
        <time>2025-10-17T13:15:07Z</time>
      </trkpt>
      <trkpt lat="24.927167440858153" lon="118.54661772858687">
        <ele>27.96002197265625</ele>
        <time>2025-10-17T13:15:46Z</time>
      </trkpt>
      <trkpt lat="24.927119503699284" lon="118.54664579728518">
        <ele>27.32891845703125</ele>
        <time>2025-10-17T13:15:49Z</time>
      </trkpt>
      <trkpt lat="24.927010525087127" lon="118.54664881186652">
        <ele>25.1171875</ele>
        <time>2025-10-17T13:15:52Z</time>
      </trkpt>
      <trkpt lat="24.926811914614973" lon="118.54633008147687">
        <ele>23.360107421875</ele>
        <time>2025-10-17T13:16:01Z</time>
      </trkpt>
      <trkpt lat="24.92664226192854" lon="118.54599430480474">
        <ele>22.7764892578125</ele>
        <time>2025-10-17T13:16:10Z</time>
      </trkpt>
      <trkpt lat="24.926454591399658" lon="118.5456505058111">
        <ele>26.13616943359375</ele>
        <time>2025-10-17T13:16:22Z</time>
      </trkpt>
      <trkpt lat="24.926258085894457" lon="118.5453888983633">
        <ele>25.90789794921875</ele>
        <time>2025-10-17T13:16:31Z</time>
      </trkpt>
      <trkpt lat="24.926080593762357" lon="118.54513630839406">
        <ele>28.6175537109375</ele>
        <time>2025-10-17T13:16:40Z</time>
      </trkpt>
      <trkpt lat="24.92592009281974" lon="118.54488170987">
        <ele>27.43115234375</ele>
        <time>2025-10-17T13:16:49Z</time>
      </trkpt>
      <trkpt lat="24.92575150768054" lon="118.54458701265614">
        <ele>27.187255859375</ele>
        <time>2025-10-17T13:16:58Z</time>
      </trkpt>
      <trkpt lat="24.925691331227505" lon="118.54449780154798">
        <ele>27.90093994140625</ele>
        <time>2025-10-17T13:17:01Z</time>
      </trkpt>
      <trkpt lat="24.92565112876409" lon="118.54439756206236">
        <ele>27.196044921875</ele>
        <time>2025-10-17T13:17:04Z</time>
      </trkpt>
      <trkpt lat="24.92545363681767" lon="118.54414797078701">
        <ele>27.91497802734375</ele>
        <time>2025-10-17T13:17:13Z</time>
      </trkpt>
      <trkpt lat="24.925241140586607" lon="118.5438963732001">
        <ele>29.056640625</ele>
        <time>2025-10-17T13:17:22Z</time>
      </trkpt>
      <trkpt lat="24.925090793600255" lon="118.54372095523044">
        <ele>30.42962646484375</ele>
        <time>2025-10-17T13:17:28Z</time>
      </trkpt>
      <trkpt lat="24.92503960471615" lon="118.54362773061821">
        <ele>31.53961181640625</ele>
        <time>2025-10-17T13:17:31Z</time>
      </trkpt>
      <trkpt lat="24.924809235605725" lon="118.5434372794277">
        <ele>33.56451416015625</ele>
        <time>2025-10-17T13:17:40Z</time>
      </trkpt>
      <trkpt lat="24.924583843287376" lon="118.54323680176488">
        <ele>36.2484130859375</ele>
        <time>2025-10-17T13:17:50Z</time>
      </trkpt>
      <trkpt lat="24.92433957788528" lon="118.54309547001122">
        <ele>37.21405029296875</ele>
        <time>2025-10-17T13:17:59Z</time>
      </trkpt>
      <trkpt lat="24.92409233353908" lon="118.54296416250212">
        <ele>34.19769287109375</ele>
        <time>2025-10-17T13:18:08Z</time>
      </trkpt>
      <trkpt lat="24.923835002326765" lon="118.54279175304701">
        <ele>32.076171875</ele>
        <time>2025-10-17T13:18:17Z</time>
      </trkpt>
      <trkpt lat="24.923568737826255" lon="118.54265042037972">
        <ele>33.31671142578125</ele>
        <time>2025-10-17T13:18:26Z</time>
      </trkpt>
      <trkpt lat="24.923278531864455" lon="118.54253515356802">
        <ele>33.7598876953125</ele>
        <time>2025-10-17T13:18:35Z</time>
      </trkpt>
      <trkpt lat="24.922997313410715" lon="118.54241487310462">
        <ele>34.388916015625</ele>
        <time>2025-10-17T13:18:44Z</time>
      </trkpt>
      <trkpt lat="24.92280914819358" lon="118.54232566331329">
        <ele>32.18792724609375</ele>
        <time>2025-10-17T13:18:50Z</time>
      </trkpt>
      <trkpt lat="24.92250502491072" lon="118.54224849140118">
        <ele>33.4593505859375</ele>
        <time>2025-10-17T13:18:59Z</time>
      </trkpt>
      <trkpt lat="24.92219701426969" lon="118.54222345010665">
        <ele>34.832275390625</ele>
        <time>2025-10-17T13:19:08Z</time>
      </trkpt>
      <trkpt lat="24.921876003264437" lon="118.54219740718207">
        <ele>33.3760986328125</ele>
        <time>2025-10-17T13:19:17Z</time>
      </trkpt>
      <trkpt lat="24.92154901898957" lon="118.5421833947893">
        <ele>37.26507568359375</ele>
        <time>2025-10-17T13:19:26Z</time>
      </trkpt>
      <trkpt lat="24.921233022347458" lon="118.5421643690627">
        <ele>36.57391357421875</ele>
        <time>2025-10-17T13:19:35Z</time>
      </trkpt>
      <trkpt lat="24.920920057675268" lon="118.54216038080256">
        <ele>36.285400390625</ele>
        <time>2025-10-17T13:19:44Z</time>
      </trkpt>
      <trkpt lat="24.920815061618963" lon="118.54215537554977">
        <ele>36.25286865234375</ele>
        <time>2025-10-17T13:19:47Z</time>
      </trkpt>
      <trkpt lat="24.920815061618963" lon="118.54215537554977">
        <ele>36.25286865234375</ele>
        <time>2025-10-17T13:19:49Z</time>
      </trkpt>
      <trkpt lat="24.92066428364422" lon="118.54224861955798">
        <ele>30.4246826171875</ele>
        <time>2025-10-17T13:20:11Z</time>
      </trkpt>
      <trkpt lat="24.92057030547507" lon="118.5422526361367">
        <ele>31.9234619140625</ele>
        <time>2025-10-17T13:20:14Z</time>
      </trkpt>
      <trkpt lat="24.920462262372066" lon="118.54222557590393">
        <ele>31.51348876953125</ele>
        <time>2025-10-17T13:20:17Z</time>
      </trkpt>
      <trkpt lat="24.920356149841496" lon="118.5421664351369">
        <ele>30.60723876953125</ele>
        <time>2025-10-17T13:20:20Z</time>
      </trkpt>
      <trkpt lat="24.920246093967187" lon="118.54213335987433">
        <ele>29.81707763671875</ele>
        <time>2025-10-17T13:20:23Z</time>
      </trkpt>
      <trkpt lat="24.919906107098953" lon="118.54211734332351">
        <ele>32.5638427734375</ele>
        <time>2025-10-17T13:20:32Z</time>
      </trkpt>
      <trkpt lat="24.919588147397015" lon="118.54211536043165">
        <ele>31.68890380859375</ele>
        <time>2025-10-17T13:20:41Z</time>
      </trkpt>
      <trkpt lat="24.919275191305964" lon="118.54211538221952">
        <ele>32.4879150390625</ele>
        <time>2025-10-17T13:20:50Z</time>
      </trkpt>
      <trkpt lat="24.918961109871336" lon="118.54205725819814">
        <ele>32.659912109375</ele>
        <time>2025-10-17T13:20:59Z</time>
      </trkpt>
      <trkpt lat="24.91862715020685" lon="118.54205427389871">
        <ele>34.314208984375</ele>
        <time>2025-10-17T13:21:08Z</time>
      </trkpt>
      <trkpt lat="24.918348176326372" lon="118.54204827822059">
        <ele>33.92578125</ele>
        <time>2025-10-17T13:21:17Z</time>
      </trkpt>
      <trkpt lat="24.91812314939981" lon="118.54202122592017">
        <ele>27.429443359375</ele>
        <time>2025-10-17T13:21:23Z</time>
      </trkpt>
      <trkpt lat="24.917901273589816" lon="118.54206434959585">
        <ele>26.27178955078125</ele>
        <time>2025-10-17T13:21:29Z</time>
      </trkpt>
      <trkpt lat="24.9175905247443" lon="118.5421606125988">
        <ele>30.552734375</ele>
        <time>2025-10-17T13:21:38Z</time>
      </trkpt>
      <trkpt lat="24.917484559034687" lon="118.54216964258563">
        <ele>28.523193359375</ele>
        <time>2025-10-17T13:21:41Z</time>
      </trkpt>
      <trkpt lat="24.917298768594716" lon="118.54225486890455">
        <ele>31.13018798828125</ele>
        <time>2025-10-17T13:21:47Z</time>
      </trkpt>
      <trkpt lat="24.917105843072743" lon="118.54227693751788">
        <ele>34.636962890625</ele>
        <time>2025-10-17T13:21:53Z</time>
      </trkpt>
      <trkpt lat="24.91703691957549" lon="118.54230802004247">
        <ele>34.96917724609375</ele>
        <time>2025-10-17T13:21:56Z</time>
      </trkpt>
      <trkpt lat="24.91705197351277" lon="118.54233408415604">
        <ele>36.560302734375</ele>
        <time>2025-10-17T13:22:44Z</time>
      </trkpt>
      <trkpt lat="24.916786127053786" lon="118.54238823791277">
        <ele>36.33489990234375</ele>
        <time>2025-10-17T13:22:53Z</time>
      </trkpt>
      <trkpt lat="24.916669134814676" lon="118.54238423604158">
        <ele>33.56976318359375</ele>
        <time>2025-10-17T13:22:56Z</time>
      </trkpt>
      <trkpt lat="24.916555090465813" lon="118.54235617385945">
        <ele>33.99896240234375</ele>
        <time>2025-10-17T13:22:59Z</time>
      </trkpt>
      <trkpt lat="24.9164551001487" lon="118.54235417580976">
        <ele>37.2354736328125</ele>
        <time>2025-10-17T13:23:02Z</time>
      </trkpt>
      <trkpt lat="24.916186303544347" lon="118.54243138728346">
        <ele>30.994384765625</ele>
        <time>2025-10-17T13:23:11Z</time>
      </trkpt>
      <trkpt lat="24.915873519324762" lon="118.54251160908437">
        <ele>33.11834716796875</ele>
        <time>2025-10-17T13:23:20Z</time>
      </trkpt>
      <trkpt lat="24.915543647086654" lon="118.54254972697103">
        <ele>36.1484375</ele>
        <time>2025-10-17T13:23:29Z</time>
      </trkpt>
      <trkpt lat="24.915217866475178" lon="118.54263095180153">
        <ele>39.27703857421875</ele>
        <time>2025-10-17T13:23:38Z</time>
      </trkpt>
      <trkpt lat="24.91508695338944" lon="118.5426630407065">
        <ele>37.75762939453125</ele>
        <time>2025-10-17T13:23:41Z</time>
      </trkpt>
      <trkpt lat="24.914882956164796" lon="118.54265102498643">
        <ele>29.369873046875</ele>
        <time>2025-10-17T13:23:47Z</time>
      </trkpt>
      <trkpt lat="24.914765032663592" lon="118.5426791029932">
        <ele>29.0682373046875</ele>
        <time>2025-10-17T13:23:53Z</time>
      </trkpt>
      <trkpt lat="24.91466314544883" lon="118.54272522468857">
        <ele>31.07177734375</ele>
        <time>2025-10-17T13:23:56Z</time>
      </trkpt>
      <trkpt lat="24.914409330728414" lon="118.54279541659223">
        <ele>35.860107421875</ele>
        <time>2025-10-17T13:24:02Z</time>
      </trkpt>
      <trkpt lat="24.91410559756485" lon="118.54290069872975">
        <ele>35.0621337890625</ele>
        <time>2025-10-17T13:24:11Z</time>
      </trkpt>
      <trkpt lat="24.91402882166758" lon="118.54300095224296">
        <ele>36.35888671875</ele>
        <time>2025-10-17T13:24:14Z</time>
      </trkpt>
      <trkpt lat="24.913969782993753" lon="118.54297890178752">
        <ele>33.64605712890625</ele>
        <time>2025-10-17T13:24:17Z</time>
      </trkpt>
      <trkpt lat="24.91395250783736" lon="118.54284858018042">
        <ele>31.06182861328125</ele>
        <time>2025-10-17T13:24:20Z</time>
      </trkpt>
      <trkpt lat="24.913973250346686" lon="118.54272928266353">
        <ele>29.111328125</ele>
        <time>2025-10-17T13:24:23Z</time>
      </trkpt>
      <trkpt lat="24.913949024387406" lon="118.54262201766089">
        <ele>28.6717529296875</ele>
        <time>2025-10-17T13:24:26Z</time>
      </trkpt>
      <trkpt lat="24.913676199686442" lon="118.54268619621631">
        <ele>26.405029296875</ele>
        <time>2025-10-17T13:24:35Z</time>
      </trkpt>
      <trkpt lat="24.913358462423457" lon="118.54278847230977">
        <ele>26.6239013671875</ele>
        <time>2025-10-17T13:24:44Z</time>
      </trkpt>
      <trkpt lat="24.91305666915262" lon="118.54286568477323">
        <ele>31.408447265625</ele>
        <time>2025-10-17T13:24:53Z</time>
      </trkpt>
      <trkpt lat="24.912744926125697" lon="118.5429659547718">
        <ele>28.26434326171875</ele>
        <time>2025-10-17T13:25:02Z</time>
      </trkpt>
      <trkpt lat="24.912414172606564" lon="118.5430602108368">
        <ele>28.444580078125</ele>
        <time>2025-10-17T13:25:11Z</time>
      </trkpt>
      <trkpt lat="24.91209539157193" lon="118.54314243603366">
        <ele>30.45404052734375</ele>
        <time>2025-10-17T13:25:20Z</time>
      </trkpt>
      <trkpt lat="24.911776561425608" lon="118.5432016041265">
        <ele>27.208251953125</ele>
        <time>2025-10-17T13:25:29Z</time>
      </trkpt>
      <trkpt lat="24.911460713741672" lon="118.54325275211659">
        <ele>28.15875244140625</ele>
        <time>2025-10-17T13:25:38Z</time>
      </trkpt>
      <trkpt lat="24.911356789771833" lon="118.54328183095657">
        <ele>27.12664794921875</ele>
        <time>2025-10-17T13:25:41Z</time>
      </trkpt>
      <trkpt lat="24.91108487854324" lon="118.54330590911292">
        <ele>25.67144775390625</ele>
        <time>2025-10-17T13:25:50Z</time>
      </trkpt>
      <trkpt lat="24.91076905183377" lon="118.54336708154679">
        <ele>31.19244384765625</ele>
        <time>2025-10-17T13:25:59Z</time>
      </trkpt>
      <trkpt lat="24.910675162348927" lon="118.54341320144377">
        <ele>32.333251953125</ele>
        <time>2025-10-17T13:26:02Z</time>
      </trkpt>
      <trkpt lat="24.910357198098176" lon="118.5434092137109">
        <ele>34.27001953125</ele>
        <time>2025-10-17T13:26:11Z</time>
      </trkpt>
      <trkpt lat="24.91032402680322" lon="118.54332601139633">
        <ele>33.60052490234375</ele>
        <time>2025-10-17T13:26:14Z</time>
      </trkpt>
      <trkpt lat="24.910368848670043" lon="118.54324480832489">
        <ele>34.9775390625</ele>
        <time>2025-10-17T13:26:17Z</time>
      </trkpt>
      <trkpt lat="24.9103426248865" lon="118.5431375456189">
        <ele>36.223388671875</ele>
        <time>2025-10-17T13:26:20Z</time>
      </trkpt>
      <trkpt lat="24.910341418534518" lon="118.54304030550668">
        <ele>34.686279296875</ele>
        <time>2025-10-17T13:26:23Z</time>
      </trkpt>
      <trkpt lat="24.910432668666477" lon="118.54269444186842">
        <ele>28.806396484375</ele>
        <time>2025-10-17T13:26:32Z</time>
      </trkpt>
      <trkpt lat="24.910502908979318" lon="118.54234456503266">
        <ele>39.062255859375</ele>
        <time>2025-10-17T13:26:41Z</time>
      </trkpt>
      <trkpt lat="24.910527413386447" lon="118.54211599113668">
        <ele>38.5860595703125</ele>
        <time>2025-10-17T13:26:47Z</time>
      </trkpt>
    </trkseg>
  </trk>
</gpx>