<?xml version="1.0" encoding="UTF-8"?>
<gpx xmlns="http://www.topografix.com/GPX/1/1" xmlns:gpxtpx="http://www.garmin.com/xmlschemas/TrackPointExtension/v1" xmlns:xsi="http://www.w3.org/2001/XMLSchema-instance" xsi:schemaLocation="http://www.topografix.com/GPX/1/1 http://www.topografix.com/GPX/1/1/gpx.xsd" version="1.1" creator="gpx.py -- https://github.com/tkrajina/gpxpy">
  <trk>
    <name>gpx from keep</name>
    <type>Run</type>
    <trkseg>
      <trkpt lat="24.910770474566352" lon="118.53857047588332">
        <ele>10.387720325961709</ele>
        <time>2024-09-17T13:59:25Z</time>
      </trkpt>
      <trkpt lat="24.91063879000681" lon="118.53856442035675">
        <ele>10.228264779783785</ele>
        <time>2024-09-17T13:59:31Z</time>
      </trkpt>
      <trkpt lat="24.91036582602125" lon="118.53846630263041">
        <ele>10.637323809787631</ele>
        <time>2024-09-17T13:59:40Z</time>
      </trkpt>
      <trkpt lat="24.910261766148903" lon="118.53848253362855">
        <ele>9.356609248556197</ele>
        <time>2024-09-17T13:59:43Z</time>
      </trkpt>
      <trkpt lat="24.910161901530113" lon="118.53842537265312">
        <ele>9.051990871317685</ele>
        <time>2024-09-17T13:59:46Z</time>
      </trkpt>
      <trkpt lat="24.909847778491148" lon="118.53834580723854">
        <ele>10.067307947203517</ele>
        <time>2024-09-17T13:59:55Z</time>
      </trkpt>
      <trkpt lat="24.9095361697989" lon="118.53838078300495">
        <ele>10.307071260176599</ele>
        <time>2024-09-17T14:00:04Z</time>
      </trkpt>
      <trkpt lat="24.909315350682576" lon="118.53838683521113">
        <ele>8.861740115098655</ele>
        <time>2024-09-17T14:00:10Z</time>
      </trkpt>
      <trkpt lat="24.90913439894358" lon="118.5382918814817">
        <ele>8.208314060233533</ele>
        <time>2024-09-17T14:00:16Z</time>
      </trkpt>
      <trkpt lat="24.90915892496459" lon="118.53816019055299">
        <ele>8.871844064444304</ele>
        <time>2024-09-17T14:00:19Z</time>
      </trkpt>
      <trkpt lat="24.909288624238464" lon="118.53783671494189">
        <ele>8.65829436480999</ele>
        <time>2024-09-17T14:00:28Z</time>
      </trkpt>
      <trkpt lat="24.909321722955458" lon="118.53762292163896">
        <ele>9.858945293352008</ele>
        <time>2024-09-17T14:00:34Z</time>
      </trkpt>
      <trkpt lat="24.90940406579872" lon="118.5373218419062">
        <ele>10.534912831149995</ele>
        <time>2024-09-17T14:00:43Z</time>
      </trkpt>
      <trkpt lat="24.90947250495063" lon="118.53700247803822">
        <ele>10.65008307993412</ele>
        <time>2024-09-17T14:00:52Z</time>
      </trkpt>
      <trkpt lat="24.909537072930142" lon="118.53680814748263">
        <ele>10.679113435558975</ele>
        <time>2024-09-17T14:01:01Z</time>
      </trkpt>
      <trkpt lat="24.90955875102397" lon="118.53658845506801">
        <ele>10.700889373198152</ele>
        <time>2024-09-17T14:01:07Z</time>
      </trkpt>
      <trkpt lat="24.909602462042596" lon="118.5364864272303">
        <ele>10.928530954755843</ele>
        <time>2024-09-17T14:01:10Z</time>
      </trkpt>
      <trkpt lat="24.909636122152648" lon="118.53635374680015">
        <ele>11.27418180834502</ele>
        <time>2024-09-17T14:01:14Z</time>
      </trkpt>
      <trkpt lat="24.90962893765033" lon="118.53621522361097">
        <ele>10.91095466259867</ele>
        <time>2024-09-17T14:01:18Z</time>
      </trkpt>
      <trkpt lat="24.909660814328" lon="118.53591039748171">
        <ele>10.386613812297583</ele>
        <time>2024-09-17T14:01:26Z</time>
      </trkpt>
      <trkpt lat="24.909690479252934" lon="118.53559116651316">
        <ele>7.467103997245431</ele>
        <time>2024-09-17T14:01:35Z</time>
      </trkpt>
      <trkpt lat="24.90973401060962" lon="118.5352928469341">
        <ele>4.02680448628962</ele>
        <time>2024-09-17T14:01:44Z</time>
      </trkpt>
      <trkpt lat="24.909762479882612" lon="118.53496597712805">
        <ele>9.873047866858542</ele>
        <time>2024-09-17T14:01:53Z</time>
      </trkpt>
      <trkpt lat="24.90981665309747" lon="118.53464265949918">
        <ele>7.770922145806253</ele>
        <time>2024-09-17T14:02:02Z</time>
      </trkpt>
      <trkpt lat="24.90981394952107" lon="118.53452991591244">
        <ele>7.498539259657264</ele>
        <time>2024-09-17T14:02:05Z</time>
      </trkpt>
      <trkpt lat="24.909863343678435" lon="118.53421407803312">
        <ele>8.191613923758268</ele>
        <time>2024-09-17T14:02:14Z</time>
      </trkpt>
      <trkpt lat="24.90992517742689" lon="118.53391240119538">
        <ele>8.440963692963123</ele>
        <time>2024-09-17T14:02:23Z</time>
      </trkpt>
      <trkpt lat="24.909993462687925" lon="118.53383030771327">
        <ele>8.325150169432163</ele>
        <time>2024-09-17T14:02:26Z</time>
      </trkpt>
      <trkpt lat="24.910070096955625" lon="118.5337704116074">
        <ele>9.288253927603364</ele>
        <time>2024-09-17T14:02:29Z</time>
      </trkpt>
      <trkpt lat="24.910387773221007" lon="118.53370490025591">
        <ele>9.938830176368356</ele>
        <time>2024-09-17T14:02:41Z</time>
      </trkpt>
      <trkpt lat="24.910555257005072" lon="118.53368957407042">
        <ele>10.858225625008345</ele>
        <time>2024-09-17T14:02:47Z</time>
      </trkpt>
      <trkpt lat="24.910822449024497" lon="118.53375340918231">
        <ele>10.020878459326923</ele>
        <time>2024-09-17T14:02:56Z</time>
      </trkpt>
      <trkpt lat="24.91109789615087" lon="118.5337507275578">
        <ele>9.88493800535798</ele>
        <time>2024-09-17T14:03:05Z</time>
      </trkpt>
      <trkpt lat="24.911396159588303" lon="118.53375546246559">
        <ele>10.59098793938756</ele>
        <time>2024-09-17T14:03:14Z</time>
      </trkpt>
      <trkpt lat="24.911782585883643" lon="118.53376230071967">
        <ele>11.315585921518505</ele>
        <time>2024-09-17T14:03:26Z</time>
      </trkpt>
      <trkpt lat="24.911991237823404" lon="118.53377433434994">
        <ele>9.350825716741383</ele>
        <time>2024-09-17T14:03:33Z</time>
      </trkpt>
      <trkpt lat="24.912273849971967" lon="118.53376221324355">
        <ele>10.073072049766779</ele>
        <time>2024-09-17T14:03:42Z</time>
      </trkpt>
      <trkpt lat="24.91245366916936" lon="118.53373322941293">
        <ele>10.883664401248097</ele>
        <time>2024-09-17T14:03:48Z</time>
      </trkpt>
      <trkpt lat="24.9127294504564" lon="118.53374512475483">
        <ele>10.856510907411575</ele>
        <time>2024-09-17T14:03:57Z</time>
      </trkpt>
      <trkpt lat="24.9128968451303" lon="118.53376247817864">
        <ele>11.28085102327168</ele>
        <time>2024-09-17T14:04:03Z</time>
      </trkpt>
      <trkpt lat="24.913070926074273" lon="118.5338446205321">
        <ele>10.95066692121327</ele>
        <time>2024-09-17T14:04:09Z</time>
      </trkpt>
      <trkpt lat="24.91342067051838" lon="118.53388313492093">
        <ele>10.621419358998537</ele>
        <time>2024-09-17T14:04:21Z</time>
      </trkpt>
      <trkpt lat="24.91370642407278" lon="118.5339207690864">
        <ele>10.189307876862586</ele>
        <time>2024-09-17T14:04:30Z</time>
      </trkpt>
      <trkpt lat="24.91404959802359" lon="118.53395864683002">
        <ele>11.168677275069058</ele>
        <time>2024-09-17T14:04:42Z</time>
      </trkpt>
      <trkpt lat="24.91432057770888" lon="118.53399273293857">
        <ele>11.868230652064085</ele>
        <time>2024-09-17T14:04:51Z</time>
      </trkpt>
      <trkpt lat="24.914639688550373" lon="118.53403979770873">
        <ele>12.590403974056244</ele>
        <time>2024-09-17T14:05:03Z</time>
      </trkpt>
      <trkpt lat="24.914733141185238" lon="118.53405923509294">
        <ele>12.472092866897583</ele>
        <time>2024-09-17T14:05:06Z</time>
      </trkpt>
      <trkpt lat="24.915001231880243" lon="118.53412049689105">
        <ele>13.362825150601566</ele>
        <time>2024-09-17T14:05:15Z</time>
      </trkpt>
      <trkpt lat="24.915314287492713" lon="118.53416824553567">
        <ele>13.470545191317797</ele>
        <time>2024-09-17T14:05:25Z</time>
      </trkpt>
      <trkpt lat="24.91565841363884" lon="118.53421397684696">
        <ele>13.522277937270701</ele>
        <time>2024-09-17T14:05:36Z</time>
      </trkpt>
      <trkpt lat="24.916001514093917" lon="118.53428958551986">
        <ele>12.710615931078792</ele>
        <time>2024-09-17T14:05:48Z</time>
      </trkpt>
      <trkpt lat="24.916269313965703" lon="118.53433747386882">
        <ele>12.90600889082998</ele>
        <time>2024-09-17T14:05:57Z</time>
      </trkpt>
      <trkpt lat="24.91652551152992" lon="118.53439212155585">
        <ele>13.51379487477243</ele>
        <time>2024-09-17T14:06:06Z</time>
      </trkpt>
      <trkpt lat="24.916814540264376" lon="118.53442345510038">
        <ele>14.668876894749701</ele>
        <time>2024-09-17T14:06:15Z</time>
      </trkpt>
      <trkpt lat="24.91717844173542" lon="118.53446427252767">
        <ele>14.906775279901922</ele>
        <time>2024-09-17T14:06:27Z</time>
      </trkpt>
      <trkpt lat="24.91744945276152" lon="118.53452569429996">
        <ele>14.673997805453837</ele>
        <time>2024-09-17T14:06:36Z</time>
      </trkpt>
      <trkpt lat="24.917786717808234" lon="118.53463173638433">
        <ele>14.465039516799152</ele>
        <time>2024-09-17T14:06:48Z</time>
      </trkpt>
      <trkpt lat="24.918052819914255" lon="118.53471419922037">
        <ele>14.297763525508344</ele>
        <time>2024-09-17T14:06:57Z</time>
      </trkpt>
      <trkpt lat="24.918376801225644" lon="118.53480499932064">
        <ele>14.713838431984186</ele>
        <time>2024-09-17T14:07:09Z</time>
      </trkpt>
      <trkpt lat="24.918546623714178" lon="118.53491992605905">
        <ele>13.104789501056075</ele>
        <time>2024-09-17T14:07:15Z</time>
      </trkpt>
      <trkpt lat="24.918614615871316" lon="118.53499237463977">
        <ele>12.095615497790277</ele>
        <time>2024-09-17T14:07:18Z</time>
      </trkpt>
      <trkpt lat="24.918671091510102" lon="118.53516262186216">
        <ele>11.05864363629371</ele>
        <time>2024-09-17T14:07:24Z</time>
      </trkpt>
      <trkpt lat="24.91864005284376" lon="118.53535004869592">
        <ele>10.319655508734286</ele>
        <time>2024-09-17T14:07:30Z</time>
      </trkpt>
      <trkpt lat="24.918503361415436" lon="118.5357141948623">
        <ele>10.410196878015995</ele>
        <time>2024-09-17T14:07:42Z</time>
      </trkpt>
      <trkpt lat="24.918414954038298" lon="118.53597486250742">
        <ele>10.752493228763342</ele>
        <time>2024-09-17T14:07:51Z</time>
      </trkpt>
      <trkpt lat="24.91827103191571" lon="118.53622290054655">
        <ele>9.888488915748894</ele>
        <time>2024-09-17T14:08:00Z</time>
      </trkpt>
      <trkpt lat="24.918151425062696" lon="118.53651290971354">
        <ele>10.580693579278886</ele>
        <time>2024-09-17T14:08:09Z</time>
      </trkpt>
      <trkpt lat="24.918013100963336" lon="118.53682047121559">
        <ele>9.850485428236425</ele>
        <time>2024-09-17T14:08:21Z</time>
      </trkpt>
      <trkpt lat="24.91798508797716" lon="118.53690061502593">
        <ele>9.421500287950039</ele>
        <time>2024-09-17T14:08:24Z</time>
      </trkpt>
      <trkpt lat="24.91782044869495" lon="118.53715201006436">
        <ele>9.848150288686156</ele>
        <time>2024-09-17T14:08:33Z</time>
      </trkpt>
      <trkpt lat="24.917747088986502" lon="118.53733812446528">
        <ele>10.203588012605906</ele>
        <time>2024-09-17T14:08:39Z</time>
      </trkpt>
      <trkpt lat="24.917692876841947" lon="118.53742404433184">
        <ele>10.0670949453488</ele>
        <time>2024-09-17T14:08:42Z</time>
      </trkpt>
      <trkpt lat="24.917639487569666" lon="118.53760178608772">
        <ele>10.777257117442787</ele>
        <time>2024-09-17T14:08:48Z</time>
      </trkpt>
      <trkpt lat="24.91751598800652" lon="118.53786712064668">
        <ele>10.033882135525346</ele>
        <time>2024-09-17T14:08:57Z</time>
      </trkpt>
      <trkpt lat="24.917398829643496" lon="118.53816853192343">
        <ele>10.54777711443603</ele>
        <time>2024-09-17T14:09:06Z</time>
      </trkpt>
      <trkpt lat="24.917304462271332" lon="118.53848189900174">
        <ele>10.10294402949512</ele>
        <time>2024-09-17T14:09:15Z</time>
      </trkpt>
      <trkpt lat="24.917253431896807" lon="118.53857547471833">
        <ele>11.143538353964686</ele>
        <time>2024-09-17T14:09:18Z</time>
      </trkpt>
      <trkpt lat="24.917245050381627" lon="118.53871539582639">
        <ele>10.034819046966732</ele>
        <time>2024-09-17T14:09:21Z</time>
      </trkpt>
      <trkpt lat="24.917165193431828" lon="118.53889008036035">
        <ele>9.815506011247635</ele>
        <time>2024-09-17T14:09:27Z</time>
      </trkpt>
      <trkpt lat="24.917042523864207" lon="118.53924290513504">
        <ele>10.096701124683022</ele>
        <time>2024-09-17T14:09:39Z</time>
      </trkpt>
      <trkpt lat="24.917026743830395" lon="118.53933380038502">
        <ele>10.179088688455522</ele>
        <time>2024-09-17T14:09:42Z</time>
      </trkpt>
      <trkpt lat="24.91695213070471" lon="118.53951562272239">
        <ele>10.29204894695431</ele>
        <time>2024-09-17T14:09:48Z</time>
      </trkpt>
      <trkpt lat="24.916901632746313" lon="118.53960078293355">
        <ele>10.164124770089984</ele>
        <time>2024-09-17T14:09:51Z</time>
      </trkpt>
      <trkpt lat="24.916819349022443" lon="118.53966922500486">
        <ele>10.633434134535491</ele>
        <time>2024-09-17T14:09:54Z</time>
      </trkpt>
      <trkpt lat="24.916658291053537" lon="118.53991686819253">
        <ele>9.372166161425412</ele>
        <time>2024-09-17T14:10:03Z</time>
      </trkpt>
      <trkpt lat="24.916578936583676" lon="118.54008235061461">
        <ele>10.075157552957535</ele>
        <time>2024-09-17T14:10:09Z</time>
      </trkpt>
      <trkpt lat="24.916502793497365" lon="118.54037539461952">
        <ele>11.466174273751676</ele>
        <time>2024-09-17T14:10:18Z</time>
      </trkpt>
      <trkpt lat="24.9164721443445" lon="118.54071107406307">
        <ele>12.989167897962034</ele>
        <time>2024-09-17T14:10:27Z</time>
      </trkpt>
      <trkpt lat="24.916472289232946" lon="118.54090616062894">
        <ele>12.211135263554752</ele>
        <time>2024-09-17T14:10:33Z</time>
      </trkpt>
      <trkpt lat="24.916520539056492" lon="118.54118622015437">
        <ele>13.288048489019275</ele>
        <time>2024-09-17T14:10:42Z</time>
      </trkpt>
      <trkpt lat="24.916626640714064" lon="118.54155787682531">
        <ele>12.153170542791486</ele>
        <time>2024-09-17T14:10:54Z</time>
      </trkpt>
      <trkpt lat="24.91662527297668" lon="118.54164978161924">
        <ele>12.268352894112468</ele>
        <time>2024-09-17T14:10:57Z</time>
      </trkpt>
      <trkpt lat="24.916569142476778" lon="118.54185442256586">
        <ele>12.199021006934345</ele>
        <time>2024-09-17T14:11:03Z</time>
      </trkpt>
      <trkpt lat="24.9165133926703" lon="118.54192674184296">
        <ele>12.02584483847022</ele>
        <time>2024-09-17T14:11:06Z</time>
      </trkpt>
      <trkpt lat="24.916417908850626" lon="118.54194395993719">
        <ele>11.94027425441891</ele>
        <time>2024-09-17T14:11:09Z</time>
      </trkpt>
      <trkpt lat="24.91615433798959" lon="118.5420792004944">
        <ele>12.379838476888835</ele>
        <time>2024-09-17T14:11:18Z</time>
      </trkpt>
      <trkpt lat="24.915867562047023" lon="118.54223048815548">
        <ele>12.654548759572208</ele>
        <time>2024-09-17T14:11:27Z</time>
      </trkpt>
      <trkpt lat="24.915576304790946" lon="118.54235634316953">
        <ele>12.89160019904375</ele>
        <time>2024-09-17T14:11:36Z</time>
      </trkpt>
      <trkpt lat="24.915307345544722" lon="118.54243913674522">
        <ele>12.908070663921535</ele>
        <time>2024-09-17T14:11:45Z</time>
      </trkpt>
      <trkpt lat="24.91505643386069" lon="118.54245969891348">
        <ele>11.895976742729545</ele>
        <time>2024-09-17T14:11:54Z</time>
      </trkpt>
      <trkpt lat="24.914807690358636" lon="118.54250546404049">
        <ele>10.677494519390166</ele>
        <time>2024-09-17T14:12:03Z</time>
      </trkpt>
      <trkpt lat="24.914729961284383" lon="118.5425358250742">
        <ele>10.388436425477266</ele>
        <time>2024-09-17T14:12:06Z</time>
      </trkpt>
      <trkpt lat="24.914567712716448" lon="118.54253538270649">
        <ele>10.38590191770345</ele>
        <time>2024-09-17T14:12:12Z</time>
      </trkpt>
      <trkpt lat="24.914505390425504" lon="118.54246946275333">
        <ele>9.882098343223333</ele>
        <time>2024-09-17T14:12:15Z</time>
      </trkpt>
      <trkpt lat="24.914435782636176" lon="118.54245775898855">
        <ele>10.024793724529445</ele>
        <time>2024-09-17T14:12:18Z</time>
      </trkpt>
      <trkpt lat="24.91435935026362" lon="118.54249935384074">
        <ele>9.85931274946779</ele>
        <time>2024-09-17T14:12:21Z</time>
      </trkpt>
      <trkpt lat="24.914037252234476" lon="118.54255105583886">
        <ele>9.985679649747908</ele>
        <time>2024-09-17T14:12:33Z</time>
      </trkpt>
      <trkpt lat="24.913954700317408" lon="118.54256982131318">
        <ele>10.007328315638006</ele>
        <time>2024-09-17T14:12:36Z</time>
      </trkpt>
      <trkpt lat="24.91378312712116" lon="118.54266511721457">
        <ele>9.074107319116592</ele>
        <time>2024-09-17T14:12:42Z</time>
      </trkpt>
      <trkpt lat="24.91359659034701" lon="118.5427192261053">
        <ele>9.062740554101765</ele>
        <time>2024-09-17T14:12:48Z</time>
      </trkpt>
      <trkpt lat="24.91351426090562" lon="118.54276580186549">
        <ele>8.5023612389341</ele>
        <time>2024-09-17T14:12:51Z</time>
      </trkpt>
      <trkpt lat="24.91323609427513" lon="118.54280928690106">
        <ele>8.150078074075282</ele>
        <time>2024-09-17T14:13:00Z</time>
      </trkpt>
      <trkpt lat="24.912900227869393" lon="118.54288578059155">
        <ele>7.800497670657933</ele>
        <time>2024-09-17T14:13:12Z</time>
      </trkpt>
      <trkpt lat="24.9126219110863" lon="118.54295567821467">
        <ele>8.945973659865558</ele>
        <time>2024-09-17T14:13:21Z</time>
      </trkpt>
      <trkpt lat="24.912296039919497" lon="118.5430710249343">
        <ele>8.67595917545259</ele>
        <time>2024-09-17T14:13:33Z</time>
      </trkpt>
      <trkpt lat="24.912035942101525" lon="118.54315684546009">
        <ele>7.653321173042059</ele>
        <time>2024-09-17T14:13:42Z</time>
      </trkpt>
      <trkpt lat="24.911875795220563" lon="118.5431974191047">
        <ele>8.165242013521492</ele>
        <time>2024-09-17T14:13:48Z</time>
      </trkpt>
      <trkpt lat="24.911701471609163" lon="118.54320965119439">
        <ele>8.704243462532759</ele>
        <time>2024-09-17T14:13:54Z</time>
      </trkpt>
      <trkpt lat="24.911367511543407" lon="118.54328337118805">
        <ele>8.464181362651289</ele>
        <time>2024-09-17T14:14:06Z</time>
      </trkpt>
      <trkpt lat="24.910991610217124" lon="118.54333333629005">
        <ele>8.137211945839226</ele>
        <time>2024-09-17T14:14:18Z</time>
      </trkpt>
      <trkpt lat="24.910698327231106" lon="118.54334467024958">
        <ele>7.880122635513544</ele>
        <time>2024-09-17T14:14:27Z</time>
      </trkpt>
      <trkpt lat="24.91044463995617" lon="118.54334009136623">
        <ele>8.018490767106414</ele>
        <time>2024-09-17T14:14:36Z</time>
      </trkpt>
      <trkpt lat="24.91024937622413" lon="118.54339527395567">
        <ele>7.61962023191154</ele>
        <time>2024-09-17T14:14:42Z</time>
      </trkpt>
      <trkpt lat="24.910071923002768" lon="118.54341271102153">
        <ele>7.871723932214081</ele>
        <time>2024-09-17T14:14:48Z</time>
      </trkpt>
      <trkpt lat="24.909766471709933" lon="118.5433978460821">
        <ele>8.250183762051165</ele>
        <time>2024-09-17T14:14:57Z</time>
      </trkpt>
      <trkpt lat="24.90948959960658" lon="118.54339729303311">
        <ele>8.211114391684532</ele>
        <time>2024-09-17T14:15:06Z</time>
      </trkpt>
      <trkpt lat="24.909218140171813" lon="118.54337064223981">
        <ele>7.72631473466754</ele>
        <time>2024-09-17T14:15:15Z</time>
      </trkpt>
      <trkpt lat="24.908860219846154" lon="118.54333597272272">
        <ele>7.746000996790826</ele>
        <time>2024-09-17T14:15:27Z</time>
      </trkpt>
      <trkpt lat="24.90850288511885" lon="118.54335862249982">
        <ele>8.18890003208071</ele>
        <time>2024-09-17T14:15:39Z</time>
      </trkpt>
      <trkpt lat="24.908231238018814" lon="118.54336640190151">
        <ele>7.705778391100466</ele>
        <time>2024-09-17T14:15:48Z</time>
      </trkpt>
      <trkpt lat="24.907894505470285" lon="118.5433690875124">
        <ele>8.256591202691197</ele>
        <time>2024-09-17T14:16:00Z</time>
      </trkpt>
      <trkpt lat="24.907633712108467" lon="118.54332243625892">
        <ele>7.849467523396015</ele>
        <time>2024-09-17T14:16:09Z</time>
      </trkpt>
      <trkpt lat="24.907557442319256" lon="118.5432778863617">
        <ele>8.103506318293512</ele>
        <time>2024-09-17T14:16:12Z</time>
      </trkpt>
      <trkpt lat="24.90750705439161" lon="118.54320941097558">
        <ele>8.207027946598828</ele>
        <time>2024-09-17T14:16:15Z</time>
      </trkpt>
      <trkpt lat="24.907509728966556" lon="118.5431224240552">
        <ele>7.75271999835968</ele>
        <time>2024-09-17T14:16:18Z</time>
      </trkpt>
      <trkpt lat="24.907535367017722" lon="118.54302479101463">
        <ele>7.61089379619807</ele>
        <time>2024-09-17T14:16:21Z</time>
      </trkpt>
      <trkpt lat="24.907577957666582" lon="118.54294176403158">
        <ele>7.592527159489691</ele>
        <time>2024-09-17T14:16:24Z</time>
      </trkpt>
      <trkpt lat="24.907600723098575" lon="118.5428477188395">
        <ele>7.810138368047774</ele>
        <time>2024-09-17T14:16:27Z</time>
      </trkpt>
      <trkpt lat="24.907721509302725" lon="118.54257638158685">
        <ele>8.084860928356647</ele>
        <time>2024-09-17T14:16:36Z</time>
      </trkpt>
      <trkpt lat="24.90783979376864" lon="118.54221413143998">
        <ele>7.820355779491365</ele>
        <time>2024-09-17T14:16:48Z</time>
      </trkpt>
      <trkpt lat="24.90788890510565" lon="118.54204396457321">
        <ele>8.551638742908835</ele>
        <time>2024-09-17T14:16:54Z</time>
      </trkpt>
      <trkpt lat="24.907980571624343" lon="118.54187315490239">
        <ele>8.759171651676297</ele>
        <time>2024-09-17T14:17:00Z</time>
      </trkpt>
      <trkpt lat="24.90804350610985" lon="118.54169368526416">
        <ele>9.526690875180066</ele>
        <time>2024-09-17T14:17:06Z</time>
      </trkpt>
      <trkpt lat="24.908070605571368" lon="118.54155509713563">
        <ele>10.305941060185432</ele>
        <time>2024-09-17T14:17:12Z</time>
      </trkpt>
      <trkpt lat="24.908069494488483" lon="118.54148234706376">
        <ele>10.997727855108678</ele>
        <time>2024-09-17T14:17:15Z</time>
      </trkpt>
      <trkpt lat="24.908159178638346" lon="118.54114018746142">
        <ele>10.191945767961442</ele>
        <time>2024-09-17T14:17:24Z</time>
      </trkpt>
      <trkpt lat="24.908285477983842" lon="118.54091972086903">
        <ele>9.476167809218168</ele>
        <time>2024-09-17T14:17:30Z</time>
      </trkpt>
      <trkpt lat="24.908423230745612" lon="118.54061911153873">
        <ele>8.823090192861855</ele>
        <time>2024-09-17T14:17:39Z</time>
      </trkpt>
      <trkpt lat="24.908548725624975" lon="118.5403417122055">
        <ele>8.2226124946028</ele>
        <time>2024-09-17T14:17:48Z</time>
      </trkpt>
      <trkpt lat="24.90861987781606" lon="118.54012606079867">
        <ele>8.515411959961057</ele>
        <time>2024-09-17T14:17:54Z</time>
      </trkpt>
      <trkpt lat="24.9086520615495" lon="118.53990226251365">
        <ele>7.7757545951753855</ele>
        <time>2024-09-17T14:18:00Z</time>
      </trkpt>
      <trkpt lat="24.908733026584173" lon="118.53958647312143">
        <ele>7.775382140651345</ele>
        <time>2024-09-17T14:18:09Z</time>
      </trkpt>
      <trkpt lat="24.908832772218673" lon="118.5392534508393">
        <ele>7.936523671261966</ele>
        <time>2024-09-17T14:18:21Z</time>
      </trkpt>
      <trkpt lat="24.908937720196104" lon="118.53890974696046">
        <ele>7.832423289306462</ele>
        <time>2024-09-17T14:18:33Z</time>
      </trkpt>
      <trkpt lat="24.90903193149678" lon="118.53851408958963">
        <ele>7.868237279355526</ele>
        <time>2024-09-17T14:18:45Z</time>
      </trkpt>
      <trkpt lat="24.909074902429207" lon="118.53830928798348">
        <ele>7.703162295743823</ele>
        <time>2024-09-17T14:18:51Z</time>
      </trkpt>
      <trkpt lat="24.909179534884256" lon="118.53794064314562">
        <ele>8.309974355623126</ele>
        <time>2024-09-17T14:19:03Z</time>
      </trkpt>
      <trkpt lat="24.909261542737486" lon="118.53763729647608">
        <ele>8.30655649676919</ele>
        <time>2024-09-17T14:19:12Z</time>
      </trkpt>
      <trkpt lat="24.90932218563495" lon="118.53733720618759">
        <ele>10.279464568011463</ele>
        <time>2024-09-17T14:19:21Z</time>
      </trkpt>
      <trkpt lat="24.90936126027658" lon="118.5370581052947">
        <ele>10.369145205244422</ele>
        <time>2024-09-17T14:19:30Z</time>
      </trkpt>
      <trkpt lat="24.909447020079913" lon="118.53677558547295">
        <ele>10.452072424814105</ele>
        <time>2024-09-17T14:19:39Z</time>
      </trkpt>
      <trkpt lat="24.909523664493676" lon="118.53648831720788">
        <ele>10.951749393716455</ele>
        <time>2024-09-17T14:19:48Z</time>
      </trkpt>
      <trkpt lat="24.909579606171615" lon="118.53628543008209">
        <ele>10.332549682818353</ele>
        <time>2024-09-17T14:19:54Z</time>
      </trkpt>
      <trkpt lat="24.909597875946364" lon="118.5359970199652">
        <ele>10.920758499763906</ele>
        <time>2024-09-17T14:20:03Z</time>
      </trkpt>
      <trkpt lat="24.90959984641015" lon="118.53569472920375">
        <ele>10.692877762019634</ele>
        <time>2024-09-17T14:20:12Z</time>
      </trkpt>
      <trkpt lat="24.9096486558466" lon="118.53549871661265">
        <ele>10.277111723087728</ele>
        <time>2024-09-17T14:20:18Z</time>
      </trkpt>
      <trkpt lat="24.909710046094638" lon="118.53530894452805">
        <ele>9.95143539365381</ele>
        <time>2024-09-17T14:20:24Z</time>
      </trkpt>
      <trkpt lat="24.909733822653216" lon="118.53501232092079">
        <ele>9.045656815171242</ele>
        <time>2024-09-17T14:20:33Z</time>
      </trkpt>
      <trkpt lat="24.909786365143955" lon="118.5346286228252">
        <ele>8.1884476095438</ele>
        <time>2024-09-17T14:20:45Z</time>
      </trkpt>
      <trkpt lat="24.909811327800885" lon="118.53444581521104">
        <ele>7.7222546730190516</ele>
        <time>2024-09-17T14:20:51Z</time>
      </trkpt>
      <trkpt lat="24.90981482299965" lon="118.5342248261325">
        <ele>8.13966304808855</ele>
        <time>2024-09-17T14:20:57Z</time>
      </trkpt>
      <trkpt lat="24.90986075369949" lon="118.53392354233286">
        <ele>7.52938241045922</ele>
        <time>2024-09-17T14:21:06Z</time>
      </trkpt>
      <trkpt lat="24.90990978234712" lon="118.53384267578642">
        <ele>7.479889551177621</ele>
        <time>2024-09-17T14:21:09Z</time>
      </trkpt>
      <trkpt lat="24.909973140165455" lon="118.5337799988282">
        <ele>8.060685221105814</ele>
        <time>2024-09-17T14:21:12Z</time>
      </trkpt>
      <trkpt lat="24.910059494003185" lon="118.53375164480504">
        <ele>9.136875330470502</ele>
        <time>2024-09-17T14:21:15Z</time>
      </trkpt>
      <trkpt lat="24.91029238101929" lon="118.53375933297605">
        <ele>9.613317553885281</ele>
        <time>2024-09-17T14:21:24Z</time>
      </trkpt>
      <trkpt lat="24.91037981101392" lon="118.53374641296791">
        <ele>9.81536397524178</ele>
        <time>2024-09-17T14:21:27Z</time>
      </trkpt>
      <trkpt lat="24.910456784661836" lon="118.53376861187611">
        <ele>10.397155575454235</ele>
        <time>2024-09-17T14:21:30Z</time>
      </trkpt>
      <trkpt lat="24.91062997291338" lon="118.53378434236684">
        <ele>10.172994542866945</ele>
        <time>2024-09-17T14:21:36Z</time>
      </trkpt>
      <trkpt lat="24.91094373204133" lon="118.53375836600328">
        <ele>10.13476939033717</ele>
        <time>2024-09-17T14:21:45Z</time>
      </trkpt>
      <trkpt lat="24.911220144548846" lon="118.53374481029002">
        <ele>10.575662897899747</ele>
        <time>2024-09-17T14:21:54Z</time>
      </trkpt>
      <trkpt lat="24.911506567036163" lon="118.53373609288617">
        <ele>10.024518488906324</ele>
        <time>2024-09-17T14:22:03Z</time>
      </trkpt>
      <trkpt lat="24.9117876190316" lon="118.53374016663149">
        <ele>10.306863410398364</ele>
        <time>2024-09-17T14:22:12Z</time>
      </trkpt>
      <trkpt lat="24.912069391675644" lon="118.53374667119685">
        <ele>10.616440911777318</ele>
        <time>2024-09-17T14:22:21Z</time>
      </trkpt>
      <trkpt lat="24.91234449947441" lon="118.53372869331855">
        <ele>10.580030455254018</ele>
        <time>2024-09-17T14:22:30Z</time>
      </trkpt>
      <trkpt lat="24.91262153426953" lon="118.53372481108624">
        <ele>10.365910474210978</ele>
        <time>2024-09-17T14:22:39Z</time>
      </trkpt>
      <trkpt lat="24.912896321043302" lon="118.53373650592523">
        <ele>10.75707826204598</ele>
        <time>2024-09-17T14:22:48Z</time>
      </trkpt>
      <trkpt lat="24.913162092201357" lon="118.5338172783398">
        <ele>10.49155698902905</ele>
        <time>2024-09-17T14:22:57Z</time>
      </trkpt>
      <trkpt lat="24.913515208354294" lon="118.53387359147588">
        <ele>10.633603184483945</ele>
        <time>2024-09-17T14:23:09Z</time>
      </trkpt>
      <trkpt lat="24.91367918995767" lon="118.53391729257515">
        <ele>10.177742212079465</ele>
        <time>2024-09-17T14:23:15Z</time>
      </trkpt>
      <trkpt lat="24.91395021913689" lon="118.53393745736302">
        <ele>10.962756774388254</ele>
        <time>2024-09-17T14:23:24Z</time>
      </trkpt>
      <trkpt lat="24.91422753298604" lon="118.5339732426704">
        <ele>10.697585418820381</ele>
        <time>2024-09-17T14:23:33Z</time>
      </trkpt>
      <trkpt lat="24.914497354893793" lon="118.53403700374793">
        <ele>11.773964742198586</ele>
        <time>2024-09-17T14:23:42Z</time>
      </trkpt>
      <trkpt lat="24.91484898269952" lon="118.53406650654405">
        <ele>13.073216043412685</ele>
        <time>2024-09-17T14:23:54Z</time>
      </trkpt>
      <trkpt lat="24.915122267039145" lon="118.53410918142377">
        <ele>13.496508630923927</ele>
        <time>2024-09-17T14:24:03Z</time>
      </trkpt>
      <trkpt lat="24.915305998628636" lon="118.53412500928728">
        <ele>12.923340303823352</ele>
        <time>2024-09-17T14:24:09Z</time>
      </trkpt>
    </trkseg>
  </trk>
</gpx>