<?xml version="1.0" encoding="UTF-8"?>
<gpx xmlns="http://www.topografix.com/GPX/1/1" xmlns:gpxtpx="http://www.garmin.com/xmlschemas/TrackPointExtension/v1" xmlns:xsi="http://www.w3.org/2001/XMLSchema-instance" xsi:schemaLocation="http://www.topografix.com/GPX/1/1 http://www.topografix.com/GPX/1/1/gpx.xsd" version="1.1" creator="gpx.py -- https://github.com/tkrajina/gpxpy">
  <trk>
    <name>gpx from keep</name>
    <type>Run</type>
    <trkseg>
      <trkpt lat="24.91124616907156" lon="118.53870941937838">
        <ele>9.592097744345665</ele>
        <time>2024-12-26T13:13:02Z</time>
      </trkpt>
      <trkpt lat="24.91129010172993" lon="118.5385146892935">
        <ele>9.355390024371445</ele>
        <time>2024-12-26T13:13:08Z</time>
      </trkpt>
      <trkpt lat="24.911363319697575" lon="118.53835410792654">
        <ele>9.943611942231655</ele>
        <time>2024-12-26T13:13:14Z</time>
      </trkpt>
      <trkpt lat="24.91139209925023" lon="118.53825207851398">
        <ele>9.869146493263543</ele>
        <time>2024-12-26T13:13:17Z</time>
      </trkpt>
      <trkpt lat="24.911452180627126" lon="118.53816086982576">
        <ele>10.15280298423022</ele>
        <time>2024-12-26T13:13:20Z</time>
      </trkpt>
      <trkpt lat="24.911546324302467" lon="118.53793505933284">
        <ele>10.74702466931194</ele>
        <time>2024-12-26T13:13:26Z</time>
      </trkpt>
      <trkpt lat="24.911691261242563" lon="118.53772526021923">
        <ele>9.506393722258508</ele>
        <time>2024-12-26T13:13:32Z</time>
      </trkpt>
      <trkpt lat="24.911844127801857" lon="118.53740123234148">
        <ele>10.261946241371334</ele>
        <time>2024-12-26T13:13:41Z</time>
      </trkpt>
      <trkpt lat="24.911881193651723" lon="118.5372888715012">
        <ele>10.555374031886458</ele>
        <time>2024-12-26T13:13:44Z</time>
      </trkpt>
      <trkpt lat="24.911877119441712" lon="118.53718277768542">
        <ele>10.304982023313642</ele>
        <time>2024-12-26T13:13:47Z</time>
      </trkpt>
      <trkpt lat="24.91189898141964" lon="118.53707484995343">
        <ele>10.184731239452958</ele>
        <time>2024-12-26T13:13:50Z</time>
      </trkpt>
      <trkpt lat="24.911958825607552" lon="118.53697439803528">
        <ele>10.173263089731336</ele>
        <time>2024-12-26T13:13:53Z</time>
      </trkpt>
      <trkpt lat="24.911993092516347" lon="118.53685204271667">
        <ele>10.470664201304317</ele>
        <time>2024-12-26T13:13:56Z</time>
      </trkpt>
      <trkpt lat="24.91219816913277" lon="118.53656876980162">
        <ele>10.02864776365459</ele>
        <time>2024-12-26T13:14:05Z</time>
      </trkpt>
      <trkpt lat="24.912358856201266" lon="118.53625472870887">
        <ele>10.114706246182323</ele>
        <time>2024-12-26T13:14:14Z</time>
      </trkpt>
      <trkpt lat="24.912402485720904" lon="118.53614326038212">
        <ele>10.302894058637321</ele>
        <time>2024-12-26T13:14:17Z</time>
      </trkpt>
      <trkpt lat="24.912486899443493" lon="118.53608360987">
        <ele>10.535588930360973</ele>
        <time>2024-12-26T13:14:20Z</time>
      </trkpt>
      <trkpt lat="24.912577331053456" lon="118.536141163432">
        <ele>9.815470287576318</ele>
        <time>2024-12-26T13:14:23Z</time>
      </trkpt>
      <trkpt lat="24.912859281460108" lon="118.53622629307472">
        <ele>10.548394427634776</ele>
        <time>2024-12-26T13:14:32Z</time>
      </trkpt>
      <trkpt lat="24.913103151629066" lon="118.53635593876831">
        <ele>11.906545754522085</ele>
        <time>2024-12-26T13:14:40Z</time>
      </trkpt>
      <trkpt lat="24.913370177096898" lon="118.53641978317101">
        <ele>11.759563864208758</ele>
        <time>2024-12-26T13:14:48Z</time>
      </trkpt>
      <trkpt lat="24.913654507393638" lon="118.53653863435491">
        <ele>13.269947941415012</ele>
        <time>2024-12-26T13:14:56Z</time>
      </trkpt>
      <trkpt lat="24.913888666854668" lon="118.53666229030264">
        <ele>12.902831717394292</ele>
        <time>2024-12-26T13:15:04Z</time>
      </trkpt>
      <trkpt lat="24.91400525653258" lon="118.53667749724643">
        <ele>13.064462316222489</ele>
        <time>2024-12-26T13:15:07Z</time>
      </trkpt>
      <trkpt lat="24.914288440200405" lon="118.5368077098075">
        <ele>13.048538965173066</ele>
        <time>2024-12-26T13:15:16Z</time>
      </trkpt>
      <trkpt lat="24.91459412183946" lon="118.53698176511128">
        <ele>12.942415442317724</ele>
        <time>2024-12-26T13:15:28Z</time>
      </trkpt>
      <trkpt lat="24.91480361793948" lon="118.53699545003647">
        <ele>14.886597434058785</ele>
        <time>2024-12-26T13:15:34Z</time>
      </trkpt>
      <trkpt lat="24.915019572084393" lon="118.53707304190077">
        <ele>15.65056336298585</ele>
        <time>2024-12-26T13:15:43Z</time>
      </trkpt>
      <trkpt lat="24.915073815064567" lon="118.53702360652022">
        <ele>15.460219887085259</ele>
        <time>2024-12-26T13:15:46Z</time>
      </trkpt>
      <trkpt lat="24.915059689978445" lon="118.53664459428074">
        <ele>14.705226253718138</ele>
        <time>2024-12-26T13:15:58Z</time>
      </trkpt>
      <trkpt lat="24.915057719949644" lon="118.53632899222616">
        <ele>15.19636457040906</ele>
        <time>2024-12-26T13:16:07Z</time>
      </trkpt>
      <trkpt lat="24.915041378642872" lon="118.5360060962439">
        <ele>14.799757834523916</ele>
        <time>2024-12-26T13:16:16Z</time>
      </trkpt>
      <trkpt lat="24.915038714547862" lon="118.53568403386952">
        <ele>13.694925151765347</ele>
        <time>2024-12-26T13:16:25Z</time>
      </trkpt>
      <trkpt lat="24.91504011604096" lon="118.53535381034538">
        <ele>11.015462849289179</ele>
        <time>2024-12-26T13:16:34Z</time>
      </trkpt>
      <trkpt lat="24.915075328773188" lon="118.53513065957249">
        <ele>10.954315931536257</ele>
        <time>2024-12-26T13:16:40Z</time>
      </trkpt>
      <trkpt lat="24.915162387100604" lon="118.53485036284114">
        <ele>11.893840138800442</ele>
        <time>2024-12-26T13:16:48Z</time>
      </trkpt>
      <trkpt lat="24.915276489824986" lon="118.53459494925092">
        <ele>12.294297569431365</ele>
        <time>2024-12-26T13:16:56Z</time>
      </trkpt>
      <trkpt lat="24.91540262801615" lon="118.53434378789242">
        <ele>13.24291461519897</ele>
        <time>2024-12-26T13:17:04Z</time>
      </trkpt>
      <trkpt lat="24.91548645254698" lon="118.53423415543821">
        <ele>13.826402937062085</ele>
        <time>2024-12-26T13:17:08Z</time>
      </trkpt>
      <trkpt lat="24.915598824241133" lon="118.53419672251015">
        <ele>13.223260551691055</ele>
        <time>2024-12-26T13:17:12Z</time>
      </trkpt>
      <trkpt lat="24.91596318731975" lon="118.53426566152889">
        <ele>13.104691893793643</ele>
        <time>2024-12-26T13:17:24Z</time>
      </trkpt>
      <trkpt lat="24.916240473590328" lon="118.53432948366158">
        <ele>12.612132991664112</ele>
        <time>2024-12-26T13:17:33Z</time>
      </trkpt>
      <trkpt lat="24.916441461383684" lon="118.53435329676229">
        <ele>12.776806509122252</ele>
        <time>2024-12-26T13:17:39Z</time>
      </trkpt>
      <trkpt lat="24.916503338830132" lon="118.53439567399248">
        <ele>12.904339700005949</ele>
        <time>2024-12-26T13:17:42Z</time>
      </trkpt>
      <trkpt lat="24.916616284807052" lon="118.53438522683344">
        <ele>13.672341445460916</ele>
        <time>2024-12-26T13:17:45Z</time>
      </trkpt>
      <trkpt lat="24.916715009235165" lon="118.53439872809965">
        <ele>14.122451740317047</ele>
        <time>2024-12-26T13:17:48Z</time>
      </trkpt>
      <trkpt lat="24.91700269139128" lon="118.53446187832172">
        <ele>14.634892023168504</ele>
        <time>2024-12-26T13:17:57Z</time>
      </trkpt>
      <trkpt lat="24.917274650072038" lon="118.53452293732032">
        <ele>14.914095686748624</ele>
        <time>2024-12-26T13:18:06Z</time>
      </trkpt>
      <trkpt lat="24.917572331802926" lon="118.53458780049422">
        <ele>14.791220692917705</ele>
        <time>2024-12-26T13:18:15Z</time>
      </trkpt>
      <trkpt lat="24.917860672827683" lon="118.53466305050844">
        <ele>14.64078026637435</ele>
        <time>2024-12-26T13:18:24Z</time>
      </trkpt>
      <trkpt lat="24.91812711151259" lon="118.5347186458932">
        <ele>14.062640873715281</ele>
        <time>2024-12-26T13:18:33Z</time>
      </trkpt>
      <trkpt lat="24.91841799158531" lon="118.53479812568045">
        <ele>13.074244196526706</ele>
        <time>2024-12-26T13:18:42Z</time>
      </trkpt>
      <trkpt lat="24.918502049800246" lon="118.53484091901821">
        <ele>12.7844302020967</ele>
        <time>2024-12-26T13:18:45Z</time>
      </trkpt>
      <trkpt lat="24.918585233659506" lon="118.5349402789362">
        <ele>12.91167317610234</ele>
        <time>2024-12-26T13:18:49Z</time>
      </trkpt>
      <trkpt lat="24.918636835646815" lon="118.53507291109237">
        <ele>12.876486774533987</ele>
        <time>2024-12-26T13:18:53Z</time>
      </trkpt>
      <trkpt lat="24.918630929174494" lon="118.53521279720029">
        <ele>12.042884233407676</ele>
        <time>2024-12-26T13:18:57Z</time>
      </trkpt>
      <trkpt lat="24.918468977414914" lon="118.53560767342938">
        <ele>10.530187415890396</ele>
        <time>2024-12-26T13:19:09Z</time>
      </trkpt>
      <trkpt lat="24.91843981953562" lon="118.53574447021302">
        <ele>10.363080604933202</ele>
        <time>2024-12-26T13:19:13Z</time>
      </trkpt>
      <trkpt lat="24.91833704607089" lon="118.53599409728177">
        <ele>10.394656701944768</ele>
        <time>2024-12-26T13:19:21Z</time>
      </trkpt>
      <trkpt lat="24.918216887490736" lon="118.53621293443294">
        <ele>10.177642990835011</ele>
        <time>2024-12-26T13:19:28Z</time>
      </trkpt>
      <trkpt lat="24.918108869443408" lon="118.53647150801038">
        <ele>10.064331348985434</ele>
        <time>2024-12-26T13:19:36Z</time>
      </trkpt>
      <trkpt lat="24.918053754913867" lon="118.53666388602285">
        <ele>9.557441878132522</ele>
        <time>2024-12-26T13:19:42Z</time>
      </trkpt>
      <trkpt lat="24.917881550199215" lon="118.53701514635569">
        <ele>9.813947330228984</ele>
        <time>2024-12-26T13:19:54Z</time>
      </trkpt>
      <trkpt lat="24.91776937368971" lon="118.53720300930128">
        <ele>9.804899060167372</ele>
        <time>2024-12-26T13:20:00Z</time>
      </trkpt>
      <trkpt lat="24.917736141670893" lon="118.53729598985916">
        <ele>10.34436349477619</ele>
        <time>2024-12-26T13:20:03Z</time>
      </trkpt>
      <trkpt lat="24.917683051131792" lon="118.53737137577396">
        <ele>10.218083160929382</ele>
        <time>2024-12-26T13:20:06Z</time>
      </trkpt>
      <trkpt lat="24.9176051062778" lon="118.53755633752627">
        <ele>9.975866875611246</ele>
        <time>2024-12-26T13:20:12Z</time>
      </trkpt>
      <trkpt lat="24.917545049697992" lon="118.5376475363269">
        <ele>9.86877457704395</ele>
        <time>2024-12-26T13:20:15Z</time>
      </trkpt>
      <trkpt lat="24.917421936046654" lon="118.53797223203136">
        <ele>9.799492627382278</ele>
        <time>2024-12-26T13:20:24Z</time>
      </trkpt>
      <trkpt lat="24.9173304158434" lon="118.53817994177399">
        <ele>10.080063642933965</ele>
        <time>2024-12-26T13:20:30Z</time>
      </trkpt>
      <trkpt lat="24.917281826077524" lon="118.53825324124756">
        <ele>10.249486977234483</ele>
        <time>2024-12-26T13:20:33Z</time>
      </trkpt>
      <trkpt lat="24.917255812540386" lon="118.5383377054778">
        <ele>9.589241082780063</ele>
        <time>2024-12-26T13:20:36Z</time>
      </trkpt>
      <trkpt lat="24.917218033855377" lon="118.53854769046728">
        <ele>9.6822529155761</ele>
        <time>2024-12-26T13:20:42Z</time>
      </trkpt>
      <trkpt lat="24.917141133077436" lon="118.53873568911415">
        <ele>10.22155332006514</ele>
        <time>2024-12-26T13:20:48Z</time>
      </trkpt>
      <trkpt lat="24.917125400523076" lon="118.53884081783073">
        <ele>10.31009351555258</ele>
        <time>2024-12-26T13:20:51Z</time>
      </trkpt>
      <trkpt lat="24.917007378960434" lon="118.53913055837195">
        <ele>10.23446655459702</ele>
        <time>2024-12-26T13:20:59Z</time>
      </trkpt>
      <trkpt lat="24.916853861326715" lon="118.53937233405664">
        <ele>9.920584032312036</ele>
        <time>2024-12-26T13:21:07Z</time>
      </trkpt>
      <trkpt lat="24.91680268549118" lon="118.53949390653769">
        <ele>9.97718479577452</ele>
        <time>2024-12-26T13:21:11Z</time>
      </trkpt>
      <trkpt lat="24.916733231506964" lon="118.53960249133023">
        <ele>9.974244087934494</ele>
        <time>2024-12-26T13:21:15Z</time>
      </trkpt>
      <trkpt lat="24.916623348322183" lon="118.53989348715321">
        <ele>11.26582961063832</ele>
        <time>2024-12-26T13:21:23Z</time>
      </trkpt>
      <trkpt lat="24.9165265931979" lon="118.54017172413847">
        <ele>10.610326647758484</ele>
        <time>2024-12-26T13:21:31Z</time>
      </trkpt>
      <trkpt lat="24.91642654241616" lon="118.54047753167173">
        <ele>12.861390540376306</ele>
        <time>2024-12-26T13:21:39Z</time>
      </trkpt>
      <trkpt lat="24.916326967802306" lon="118.54079019733243">
        <ele>13.617891118861735</ele>
        <time>2024-12-26T13:21:48Z</time>
      </trkpt>
      <trkpt lat="24.916285579838792" lon="118.5410065270028">
        <ele>12.098745236173272</ele>
        <time>2024-12-26T13:21:54Z</time>
      </trkpt>
      <trkpt lat="24.91630735661777" lon="118.54122846369074">
        <ele>12.327546176500618</ele>
        <time>2024-12-26T13:22:00Z</time>
      </trkpt>
      <trkpt lat="24.91630382447298" lon="118.54133652515331">
        <ele>12.667873636819422</ele>
        <time>2024-12-26T13:22:03Z</time>
      </trkpt>
      <trkpt lat="24.916355491784792" lon="118.54156367131037">
        <ele>12.630095706321299</ele>
        <time>2024-12-26T13:22:09Z</time>
      </trkpt>
      <trkpt lat="24.916368754914707" lon="118.54176733147906">
        <ele>12.903659122996032</ele>
        <time>2024-12-26T13:22:15Z</time>
      </trkpt>
      <trkpt lat="24.916320317033648" lon="118.5418625194988">
        <ele>13.15557840373367</ele>
        <time>2024-12-26T13:22:18Z</time>
      </trkpt>
      <trkpt lat="24.916236916602134" lon="118.54189196434267">
        <ele>13.1697390768677</ele>
        <time>2024-12-26T13:22:21Z</time>
      </trkpt>
      <trkpt lat="24.91615413563027" lon="118.54194807847774">
        <ele>13.35776397306472</ele>
        <time>2024-12-26T13:22:24Z</time>
      </trkpt>
      <trkpt lat="24.916082037435434" lon="118.54202236318936">
        <ele>13.142298572696745</ele>
        <time>2024-12-26T13:22:27Z</time>
      </trkpt>
      <trkpt lat="24.91588978372274" lon="118.54207069931024">
        <ele>12.76735620200634</ele>
        <time>2024-12-26T13:22:33Z</time>
      </trkpt>
      <trkpt lat="24.915787791427654" lon="118.54207544314211">
        <ele>12.687756918370724</ele>
        <time>2024-12-26T13:22:36Z</time>
      </trkpt>
      <trkpt lat="24.915701269417788" lon="118.54212033676343">
        <ele>12.716374287381768</ele>
        <time>2024-12-26T13:22:39Z</time>
      </trkpt>
      <trkpt lat="24.91538586421062" lon="118.54217153239507">
        <ele>12.49802406784147</ele>
        <time>2024-12-26T13:22:48Z</time>
      </trkpt>
      <trkpt lat="24.915183886057356" lon="118.54226378551814">
        <ele>11.966389411129057</ele>
        <time>2024-12-26T13:22:54Z</time>
      </trkpt>
      <trkpt lat="24.91484456579338" lon="118.54239395413077">
        <ele>11.636905567720532</ele>
        <time>2024-12-26T13:23:05Z</time>
      </trkpt>
      <trkpt lat="24.9144952686967" lon="118.54249012944706">
        <ele>10.334928799420595</ele>
        <time>2024-12-26T13:23:17Z</time>
      </trkpt>
      <trkpt lat="24.91423457760504" lon="118.54254144116852">
        <ele>10.78328749909997</ele>
        <time>2024-12-26T13:23:25Z</time>
      </trkpt>
      <trkpt lat="24.91397429039896" lon="118.54257168198005">
        <ele>9.65127350576222</ele>
        <time>2024-12-26T13:23:33Z</time>
      </trkpt>
      <trkpt lat="24.913609887939902" lon="118.54269065535992">
        <ele>8.84648316539824</ele>
        <time>2024-12-26T13:23:45Z</time>
      </trkpt>
      <trkpt lat="24.913408389685543" lon="118.5427207233486">
        <ele>8.727177182212472</ele>
        <time>2024-12-26T13:23:51Z</time>
      </trkpt>
      <trkpt lat="24.913308740762073" lon="118.54275493869447">
        <ele>9.248345046304166</ele>
        <time>2024-12-26T13:23:54Z</time>
      </trkpt>
      <trkpt lat="24.913019336836317" lon="118.54280836625688">
        <ele>8.207962117157876</ele>
        <time>2024-12-26T13:24:03Z</time>
      </trkpt>
      <trkpt lat="24.91273293582997" lon="118.54288437200546">
        <ele>8.799871007911861</ele>
        <time>2024-12-26T13:24:12Z</time>
      </trkpt>
      <trkpt lat="24.9124521106817" lon="118.54297794474242">
        <ele>9.333594631403685</ele>
        <time>2024-12-26T13:24:21Z</time>
      </trkpt>
      <trkpt lat="24.912183340893712" lon="118.54304641875547">
        <ele>8.38014769461006</ele>
        <time>2024-12-26T13:24:30Z</time>
      </trkpt>
      <trkpt lat="24.91200476784077" lon="118.54312054140833">
        <ele>7.999311958439648</ele>
        <time>2024-12-26T13:24:36Z</time>
      </trkpt>
      <trkpt lat="24.911737440438145" lon="118.54317773225571">
        <ele>8.850925645790994</ele>
        <time>2024-12-26T13:24:45Z</time>
      </trkpt>
      <trkpt lat="24.911468693257568" lon="118.54324092396038">
        <ele>8.46782749146223</ele>
        <time>2024-12-26T13:24:54Z</time>
      </trkpt>
      <trkpt lat="24.911369446374295" lon="118.54323737948674">
        <ele>8.859477913938463</ele>
        <time>2024-12-26T13:24:57Z</time>
      </trkpt>
      <trkpt lat="24.911083284385672" lon="118.54330187505713">
        <ele>8.743685202673078</ele>
        <time>2024-12-26T13:25:06Z</time>
      </trkpt>
      <trkpt lat="24.9109808139708" lon="118.54331695838715">
        <ele>8.926295609213412</ele>
        <time>2024-12-26T13:25:09Z</time>
      </trkpt>
      <trkpt lat="24.910875218930812" lon="118.54329734062868">
        <ele>8.216816664673388</ele>
        <time>2024-12-26T13:25:12Z</time>
      </trkpt>
      <trkpt lat="24.91066532337687" lon="118.54332600084511">
        <ele>8.716242426075041</ele>
        <time>2024-12-26T13:25:18Z</time>
      </trkpt>
      <trkpt lat="24.910366815485997" lon="118.54334366509697">
        <ele>7.959516353905201</ele>
        <time>2024-12-26T13:25:27Z</time>
      </trkpt>
      <trkpt lat="24.910289997870496" lon="118.54331839057416">
        <ele>7.979905850253999</ele>
        <time>2024-12-26T13:25:30Z</time>
      </trkpt>
      <trkpt lat="24.910299696900864" lon="118.54313668863318">
        <ele>7.710784757509828</ele>
        <time>2024-12-26T13:25:36Z</time>
      </trkpt>
      <trkpt lat="24.910263695491622" lon="118.54303862689807">
        <ele>7.746215863153338</ele>
        <time>2024-12-26T13:25:39Z</time>
      </trkpt>
      <trkpt lat="24.910269689172296" lon="118.54292925563264">
        <ele>7.4271706361323595</ele>
        <time>2024-12-26T13:25:42Z</time>
      </trkpt>
      <trkpt lat="24.910321963384312" lon="118.54271660994466">
        <ele>7.887531643733382</ele>
        <time>2024-12-26T13:25:48Z</time>
      </trkpt>
      <trkpt lat="24.91032443183198" lon="118.54238059956944">
        <ele>7.708169401623309</ele>
        <time>2024-12-26T13:25:57Z</time>
      </trkpt>
      <trkpt lat="24.91033052422101" lon="118.5420657718436">
        <ele>8.038517074659467</ele>
        <time>2024-12-26T13:26:06Z</time>
      </trkpt>
      <trkpt lat="24.910355141093813" lon="118.54187356398295">
        <ele>8.538051065988839</ele>
        <time>2024-12-26T13:26:12Z</time>
      </trkpt>
      <trkpt lat="24.91034919689484" lon="118.54176442145508">
        <ele>8.17705070413649</ele>
        <time>2024-12-26T13:26:15Z</time>
      </trkpt>
      <trkpt lat="24.910299626771337" lon="118.54163124868118">
        <ele>8.00091547332704</ele>
        <time>2024-12-26T13:26:18Z</time>
      </trkpt>
      <trkpt lat="24.910282933303638" lon="118.54126656779859">
        <ele>7.897651645354927</ele>
        <time>2024-12-26T13:26:27Z</time>
      </trkpt>
      <trkpt lat="24.910258031666142" lon="118.54112585605398">
        <ele>7.929706837981939</ele>
        <time>2024-12-26T13:26:30Z</time>
      </trkpt>
      <trkpt lat="24.91030498909009" lon="118.54098739391674">
        <ele>8.495783674530685</ele>
        <time>2024-12-26T13:26:33Z</time>
      </trkpt>
      <trkpt lat="24.91037437689709" lon="118.54086209283788">
        <ele>8.622228309512138</ele>
        <time>2024-12-26T13:26:36Z</time>
      </trkpt>
      <trkpt lat="24.910467088022546" lon="118.54078684734276">
        <ele>8.026946881785989</ele>
        <time>2024-12-26T13:26:39Z</time>
      </trkpt>
      <trkpt lat="24.910560951483877" lon="118.5406671727971">
        <ele>8.380297179333866</ele>
        <time>2024-12-26T13:26:43Z</time>
      </trkpt>
      <trkpt lat="24.91064357370308" lon="118.5406040664671">
        <ele>8.627916134893894</ele>
        <time>2024-12-26T13:26:46Z</time>
      </trkpt>
      <trkpt lat="24.910728819836482" lon="118.54040548485895">
        <ele>7.269630704075098</ele>
        <time>2024-12-26T13:26:52Z</time>
      </trkpt>
      <trkpt lat="24.91079367623036" lon="118.54030686634066">
        <ele>7.703428605571389</ele>
        <time>2024-12-26T13:26:55Z</time>
      </trkpt>
      <trkpt lat="24.910893495723283" lon="118.54000704169262">
        <ele>7.616512656211853</ele>
        <time>2024-12-26T13:27:04Z</time>
      </trkpt>
      <trkpt lat="24.91098210513142" lon="118.5397173974968">
        <ele>7.193425274454057</ele>
        <time>2024-12-26T13:27:13Z</time>
      </trkpt>
      <trkpt lat="24.911047991520586" lon="118.53952339639156">
        <ele>7.608853250741959</ele>
        <time>2024-12-26T13:27:19Z</time>
      </trkpt>
      <trkpt lat="24.911065667314844" lon="118.53942440946817">
        <ele>7.99363849312067</ele>
        <time>2024-12-26T13:27:22Z</time>
      </trkpt>
      <trkpt lat="24.911161676868176" lon="118.53912640320554">
        <ele>7.382450740784407</ele>
        <time>2024-12-26T13:27:31Z</time>
      </trkpt>
      <trkpt lat="24.91119683648399" lon="118.5390361493375">
        <ele>7.660215323790908</ele>
        <time>2024-12-26T13:27:34Z</time>
      </trkpt>
      <trkpt lat="24.911227351722925" lon="118.53871464045248">
        <ele>8.23843689262867</ele>
        <time>2024-12-26T13:27:43Z</time>
      </trkpt>
      <trkpt lat="24.91137559977973" lon="118.53834599753677">
        <ele>9.94323193654418</ele>
        <time>2024-12-26T13:27:55Z</time>
      </trkpt>
      <trkpt lat="24.911418814864295" lon="118.53824129802854">
        <ele>9.942760708741844</ele>
        <time>2024-12-26T13:27:58Z</time>
      </trkpt>
      <trkpt lat="24.911491178511938" lon="118.5381453080896">
        <ele>10.310869192704558</ele>
        <time>2024-12-26T13:28:01Z</time>
      </trkpt>
      <trkpt lat="24.911628530161845" lon="118.53783017357026">
        <ele>10.294935652054846</ele>
        <time>2024-12-26T13:28:10Z</time>
      </trkpt>
      <trkpt lat="24.911685271853326" lon="118.5377390580409">
        <ele>10.271806124597788</ele>
        <time>2024-12-26T13:28:13Z</time>
      </trkpt>
      <trkpt lat="24.911811680839165" lon="118.53744737686442">
        <ele>10.382278985343874</ele>
        <time>2024-12-26T13:28:22Z</time>
      </trkpt>
      <trkpt lat="24.91189169008228" lon="118.53725988641352">
        <ele>10.252861331216991</ele>
        <time>2024-12-26T13:28:28Z</time>
      </trkpt>
      <trkpt lat="24.911902992376213" lon="118.53715342689613">
        <ele>10.344127455726266</ele>
        <time>2024-12-26T13:28:31Z</time>
      </trkpt>
      <trkpt lat="24.912046174764143" lon="118.53682204871697">
        <ele>10.552157362923026</ele>
        <time>2024-12-26T13:28:41Z</time>
      </trkpt>
      <trkpt lat="24.91215330907657" lon="118.53662702268035">
        <ele>10.376781268045306</ele>
        <time>2024-12-26T13:28:47Z</time>
      </trkpt>
      <trkpt lat="24.91221617267792" lon="118.53655010322272">
        <ele>10.29293557163328</ele>
        <time>2024-12-26T13:28:50Z</time>
      </trkpt>
      <trkpt lat="24.912357014755724" lon="118.53625068596126">
        <ele>9.75791101064533</ele>
        <time>2024-12-26T13:28:59Z</time>
      </trkpt>
      <trkpt lat="24.912403699886227" lon="118.53615750287705">
        <ele>9.876333295367658</ele>
        <time>2024-12-26T13:29:02Z</time>
      </trkpt>
      <trkpt lat="24.912418240741186" lon="118.53605322688696">
        <ele>10.648808181285858</ele>
        <time>2024-12-26T13:29:05Z</time>
      </trkpt>
      <trkpt lat="24.91238157962153" lon="118.53596859652399">
        <ele>10.705870220437646</ele>
        <time>2024-12-26T13:29:08Z</time>
      </trkpt>
      <trkpt lat="24.912243577485928" lon="118.53585216663268">
        <ele>9.721568708308041</ele>
        <time>2024-12-26T13:29:14Z</time>
      </trkpt>
      <trkpt lat="24.91216161973664" lon="118.53580836553604">
        <ele>9.43749328237027</ele>
        <time>2024-12-26T13:29:17Z</time>
      </trkpt>
      <trkpt lat="24.912158685429894" lon="118.53573532442442">
        <ele>10.67769099213183</ele>
        <time>2024-12-26T13:29:20Z</time>
      </trkpt>
      <trkpt lat="24.912312119623703" lon="118.53546568856973">
        <ele>10.586370079778135</ele>
        <time>2024-12-26T13:29:29Z</time>
      </trkpt>
      <trkpt lat="24.91242570554411" lon="118.53517556793919">
        <ele>10.086610012687743</ele>
        <time>2024-12-26T13:29:38Z</time>
      </trkpt>
      <trkpt lat="24.912568885270883" lon="118.53487426698344">
        <ele>10.041391368955374</ele>
        <time>2024-12-26T13:29:47Z</time>
      </trkpt>
      <trkpt lat="24.91270752570188" lon="118.53458518915683">
        <ele>9.846922177821398</ele>
        <time>2024-12-26T13:29:56Z</time>
      </trkpt>
      <trkpt lat="24.912827625261666" lon="118.53435465942437">
        <ele>9.965620517730713</ele>
        <time>2024-12-26T13:30:03Z</time>
      </trkpt>
      <trkpt lat="24.9129330146411" lon="118.53405414072816">
        <ele>10.746089078485966</ele>
        <time>2024-12-26T13:30:12Z</time>
      </trkpt>
      <trkpt lat="24.91298415933741" lon="118.53395947230781">
        <ele>10.62642202153802</ele>
        <time>2024-12-26T13:30:15Z</time>
      </trkpt>
      <trkpt lat="24.913046633924438" lon="118.5338850316762">
        <ele>10.497292094863951</ele>
        <time>2024-12-26T13:30:18Z</time>
      </trkpt>
      <trkpt lat="24.91322057814223" lon="118.53385351088049">
        <ele>10.015033709816635</ele>
        <time>2024-12-26T13:30:24Z</time>
      </trkpt>
      <trkpt lat="24.91361299070298" lon="118.53384939866386">
        <ele>10.152064075693488</ele>
        <time>2024-12-26T13:30:37Z</time>
      </trkpt>
      <trkpt lat="24.913698493620917" lon="118.5338963324188">
        <ele>9.744546446017921</ele>
        <time>2024-12-26T13:30:40Z</time>
      </trkpt>
      <trkpt lat="24.913818446357407" lon="118.53392385712439">
        <ele>10.98095871694386</ele>
        <time>2024-12-26T13:30:44Z</time>
      </trkpt>
      <trkpt lat="24.914011004049254" lon="118.5339252200981">
        <ele>10.804164678789675</ele>
        <time>2024-12-26T13:30:50Z</time>
      </trkpt>
      <trkpt lat="24.914314026844142" lon="118.53396270162922">
        <ele>10.320522316731513</ele>
        <time>2024-12-26T13:30:59Z</time>
      </trkpt>
      <trkpt lat="24.91458936180515" lon="118.53401790173055">
        <ele>12.334843301214278</ele>
        <time>2024-12-26T13:31:08Z</time>
      </trkpt>
      <trkpt lat="24.914958804859964" lon="118.53408963950943">
        <ele>12.86018193140626</ele>
        <time>2024-12-26T13:31:20Z</time>
      </trkpt>
      <trkpt lat="24.915268181126503" lon="118.53414159420639">
        <ele>12.887461476027966</ele>
        <time>2024-12-26T13:31:29Z</time>
      </trkpt>
      <trkpt lat="24.91556956569138" lon="118.53418287569829">
        <ele>12.872629525139928</ele>
        <time>2024-12-26T13:31:38Z</time>
      </trkpt>
      <trkpt lat="24.915932836198962" lon="118.53423678060284">
        <ele>12.925223878584802</ele>
        <time>2024-12-26T13:31:50Z</time>
      </trkpt>
      <trkpt lat="24.916286340696022" lon="118.53432523419075">
        <ele>12.837054793722928</ele>
        <time>2024-12-26T13:32:02Z</time>
      </trkpt>
      <trkpt lat="24.916592989568905" lon="118.53438369655186">
        <ele>13.54412421490997</ele>
        <time>2024-12-26T13:32:11Z</time>
      </trkpt>
      <trkpt lat="24.916878378032134" lon="118.5344369888197">
        <ele>14.211211915127933</ele>
        <time>2024-12-26T13:32:20Z</time>
      </trkpt>
      <trkpt lat="24.917173416812005" lon="118.53450098333325">
        <ele>15.171568317338824</ele>
        <time>2024-12-26T13:32:29Z</time>
      </trkpt>
      <trkpt lat="24.917444765613375" lon="118.53454522880405">
        <ele>14.857069025747478</ele>
        <time>2024-12-26T13:32:38Z</time>
      </trkpt>
      <trkpt lat="24.917743824213755" lon="118.53462919434057">
        <ele>14.354670218192041</ele>
        <time>2024-12-26T13:32:47Z</time>
      </trkpt>
      <trkpt lat="24.918051762411" lon="118.53470306574934">
        <ele>14.54299877025187</ele>
        <time>2024-12-26T13:32:56Z</time>
      </trkpt>
      <trkpt lat="24.918347619634478" lon="118.53477376200885">
        <ele>13.295938800089061</ele>
        <time>2024-12-26T13:33:05Z</time>
      </trkpt>
      <trkpt lat="24.918527625948357" lon="118.53488271079874">
        <ele>12.141185697168112</ele>
        <time>2024-12-26T13:33:11Z</time>
      </trkpt>
      <trkpt lat="24.918590692408173" lon="118.53496611303548">
        <ele>12.2470763605088</ele>
        <time>2024-12-26T13:33:14Z</time>
      </trkpt>
      <trkpt lat="24.91862794665111" lon="118.53507432871928">
        <ele>12.04833052214235</ele>
        <time>2024-12-26T13:33:17Z</time>
      </trkpt>
      <trkpt lat="24.918634322308183" lon="118.53517918737673">
        <ele>12.02746990416199</ele>
        <time>2024-12-26T13:33:20Z</time>
      </trkpt>
      <trkpt lat="24.91853892576699" lon="118.53546756153543">
        <ele>10.98160301335156</ele>
        <time>2024-12-26T13:33:29Z</time>
      </trkpt>
      <trkpt lat="24.918429211802387" lon="118.5357607207218">
        <ele>10.234302152879536</ele>
        <time>2024-12-26T13:33:38Z</time>
      </trkpt>
      <trkpt lat="24.918347822719888" lon="118.53598653402359">
        <ele>10.071875154040754</ele>
        <time>2024-12-26T13:33:45Z</time>
      </trkpt>
      <trkpt lat="24.918202092015694" lon="118.536278997318">
        <ele>10.051077858544886</ele>
        <time>2024-12-26T13:33:54Z</time>
      </trkpt>
      <trkpt lat="24.918086276563074" lon="118.53657208691061">
        <ele>10.201177971437573</ele>
        <time>2024-12-26T13:34:03Z</time>
      </trkpt>
      <trkpt lat="24.9179740872851" lon="118.53681839649755">
        <ele>10.55782230105251</ele>
        <time>2024-12-26T13:34:12Z</time>
      </trkpt>
      <trkpt lat="24.917824204873334" lon="118.53709528301768">
        <ele>9.863621819764376</ele>
        <time>2024-12-26T13:34:21Z</time>
      </trkpt>
      <trkpt lat="24.91773012800274" lon="118.53724843728584">
        <ele>9.20138525776565</ele>
        <time>2024-12-26T13:34:27Z</time>
      </trkpt>
      <trkpt lat="24.917663075675556" lon="118.53744566561403">
        <ele>10.14982751943171</ele>
        <time>2024-12-26T13:34:33Z</time>
      </trkpt>
      <trkpt lat="24.91748020550314" lon="118.53773145470171">
        <ele>9.616835795342922</ele>
        <time>2024-12-26T13:34:45Z</time>
      </trkpt>
      <trkpt lat="24.917403357881586" lon="118.5380321985631">
        <ele>10.14500334020704</ele>
        <time>2024-12-26T13:34:54Z</time>
      </trkpt>
      <trkpt lat="24.917322975929544" lon="118.53818702257458">
        <ele>10.08560676407069</ele>
        <time>2024-12-26T13:35:00Z</time>
      </trkpt>
      <trkpt lat="24.917217471950313" lon="118.53849252576475">
        <ele>10.051022905856371</ele>
        <time>2024-12-26T13:35:09Z</time>
      </trkpt>
      <trkpt lat="24.917133088846057" lon="118.53884532705295">
        <ele>9.912508661858737</ele>
        <time>2024-12-26T13:35:18Z</time>
      </trkpt>
      <trkpt lat="24.917033483884904" lon="118.53920058160921">
        <ele>9.522408189252019</ele>
        <time>2024-12-26T13:35:27Z</time>
      </trkpt>
      <trkpt lat="24.91683936551765" lon="118.53951438004565">
        <ele>10.197132294997573</ele>
        <time>2024-12-26T13:35:37Z</time>
      </trkpt>
      <trkpt lat="24.916731509893015" lon="118.53971527296429">
        <ele>10.246089724823833</ele>
        <time>2024-12-26T13:35:43Z</time>
      </trkpt>
      <trkpt lat="24.916661201895483" lon="118.53980649829667">
        <ele>9.830297257751226</ele>
        <time>2024-12-26T13:35:46Z</time>
      </trkpt>
      <trkpt lat="24.916556392688353" lon="118.54003202904039">
        <ele>10.25557401496917</ele>
        <time>2024-12-26T13:35:53Z</time>
      </trkpt>
      <trkpt lat="24.91648587550221" lon="118.54038479937947">
        <ele>10.931969032622874</ele>
        <time>2024-12-26T13:36:02Z</time>
      </trkpt>
      <trkpt lat="24.91638354149293" lon="118.54053692310049">
        <ele>12.931858291849494</ele>
        <time>2024-12-26T13:36:08Z</time>
      </trkpt>
      <trkpt lat="24.916344123052678" lon="118.54085597001841">
        <ele>11.934054994955659</ele>
        <time>2024-12-26T13:36:17Z</time>
      </trkpt>
      <trkpt lat="24.916314477861306" lon="118.54119040375113">
        <ele>11.85523434728384</ele>
        <time>2024-12-26T13:36:26Z</time>
      </trkpt>
      <trkpt lat="24.916354508386956" lon="118.5415353730976">
        <ele>12.81401801481843</ele>
        <time>2024-12-26T13:36:35Z</time>
      </trkpt>
      <trkpt lat="24.916387210093898" lon="118.54172723612008">
        <ele>11.5830291043967</ele>
        <time>2024-12-26T13:36:41Z</time>
      </trkpt>
      <trkpt lat="24.916349738993546" lon="118.54182310783708">
        <ele>13.273585367947817</ele>
        <time>2024-12-26T13:36:44Z</time>
      </trkpt>
      <trkpt lat="24.916262158046944" lon="118.54185595986529">
        <ele>12.485475102439523</ele>
        <time>2024-12-26T13:36:47Z</time>
      </trkpt>
      <trkpt lat="24.916111720063462" lon="118.54197801629917">
        <ele>13.164554739370942</ele>
        <time>2024-12-26T13:36:53Z</time>
      </trkpt>
      <trkpt lat="24.91602370798357" lon="118.54201997527863">
        <ele>12.12864314764738</ele>
        <time>2024-12-26T13:36:56Z</time>
      </trkpt>
      <trkpt lat="24.915697220465177" lon="118.54210244925297">
        <ele>12.21002029068768</ele>
        <time>2024-12-26T13:37:06Z</time>
      </trkpt>
      <trkpt lat="24.915492119467388" lon="118.54214447850909">
        <ele>12.123608398251235</ele>
        <time>2024-12-26T13:37:12Z</time>
      </trkpt>
      <trkpt lat="24.915196701218164" lon="118.54227473505713">
        <ele>12.413106575608253</ele>
        <time>2024-12-26T13:37:21Z</time>
      </trkpt>
      <trkpt lat="24.914919661660228" lon="118.54236379216097">
        <ele>11.738990854471922</ele>
        <time>2024-12-26T13:37:30Z</time>
      </trkpt>
      <trkpt lat="24.914867352338707" lon="118.54239445533236">
        <ele>11.283033826388419</ele>
        <time>2024-12-26T13:37:33Z</time>
      </trkpt>
      <trkpt lat="24.914734103700745" lon="118.54240865530616">
        <ele>10.682487630285323</ele>
        <time>2024-12-26T13:37:39Z</time>
      </trkpt>
      <trkpt lat="24.914641578551404" lon="118.54244678624124">
        <ele>10.305590965785086</ele>
        <time>2024-12-26T13:37:42Z</time>
      </trkpt>
      <trkpt lat="24.914536483656505" lon="118.54244782030895">
        <ele>10.207859160378575</ele>
        <time>2024-12-26T13:37:45Z</time>
      </trkpt>
      <trkpt lat="24.91443658901659" lon="118.54248483599059">
        <ele>10.269818563014269</ele>
        <time>2024-12-26T13:37:48Z</time>
      </trkpt>
      <trkpt lat="24.914330662653885" lon="118.54247519713135">
        <ele>10.291219177655876</ele>
        <time>2024-12-26T13:37:51Z</time>
      </trkpt>
      <trkpt lat="24.914211574385302" lon="118.54253597101653">
        <ele>10.024669055826962</ele>
        <time>2024-12-26T13:37:54Z</time>
      </trkpt>
      <trkpt lat="24.91390912113254" lon="118.542592161844">
        <ele>10.729940058663487</ele>
        <time>2024-12-26T13:38:03Z</time>
      </trkpt>
      <trkpt lat="24.913619854025303" lon="118.54268237154473">
        <ele>9.509215905331075</ele>
        <time>2024-12-26T13:38:12Z</time>
      </trkpt>
      <trkpt lat="24.913314461030627" lon="118.54275051425402">
        <ele>8.492704942822456</ele>
        <time>2024-12-26T13:38:21Z</time>
      </trkpt>
      <trkpt lat="24.91299725816111" lon="118.54278643720433">
        <ele>8.148995571769774</ele>
        <time>2024-12-26T13:38:31Z</time>
      </trkpt>
      <trkpt lat="24.912915683262565" lon="118.54283001916882">
        <ele>7.889881879091263</ele>
        <time>2024-12-26T13:38:34Z</time>
      </trkpt>
      <trkpt lat="24.91256157450467" lon="118.54293557019892">
        <ele>8.521343625150621</ele>
        <time>2024-12-26T13:38:46Z</time>
      </trkpt>
      <trkpt lat="24.912294006981696" lon="118.54302912166291">
        <ele>8.43758960813284</ele>
        <time>2024-12-26T13:38:55Z</time>
      </trkpt>
      <trkpt lat="24.91224660276094" lon="118.54305687692957">
        <ele>8.464317583478987</ele>
        <time>2024-12-26T13:38:58Z</time>
      </trkpt>
      <trkpt lat="24.91192943521672" lon="118.54316082785363">
        <ele>7.868073895573616</ele>
        <time>2024-12-26T13:39:10Z</time>
      </trkpt>
      <trkpt lat="24.91158578791086" lon="118.54320766838926">
        <ele>9.512774148024619</ele>
        <time>2024-12-26T13:39:20Z</time>
      </trkpt>
      <trkpt lat="24.911383923636375" lon="118.54322489446227">
        <ele>8.558028378523886</ele>
        <time>2024-12-26T13:39:26Z</time>
      </trkpt>
      <trkpt lat="24.911288224855106" lon="118.54326611658503">
        <ele>8.609242741949856</ele>
        <time>2024-12-26T13:39:29Z</time>
      </trkpt>
      <trkpt lat="24.911026814408395" lon="118.54331869179731">
        <ele>8.197874031960964</ele>
        <time>2024-12-26T13:39:36Z</time>
      </trkpt>
      <trkpt lat="24.91092040470329" lon="118.5432960216603">
        <ele>7.6945684207603335</ele>
        <time>2024-12-26T13:39:39Z</time>
      </trkpt>
      <trkpt lat="24.91070807106099" lon="118.54332070821124">
        <ele>8.42885612603277</ele>
        <time>2024-12-26T13:39:45Z</time>
      </trkpt>
      <trkpt lat="24.91049838923875" lon="118.54330253786627">
        <ele>7.474968805909157</ele>
        <time>2024-12-26T13:39:52Z</time>
      </trkpt>
      <trkpt lat="24.91032175395755" lon="118.54331481798157">
        <ele>8.226664970628917</ele>
        <time>2024-12-26T13:39:58Z</time>
      </trkpt>
      <trkpt lat="24.910333517159287" lon="118.54319401388734">
        <ele>7.013781487941742</ele>
        <time>2024-12-26T13:40:02Z</time>
      </trkpt>
      <trkpt lat="24.91032539978695" lon="118.54309854137439">
        <ele>6.917216206900775</ele>
        <time>2024-12-26T13:40:05Z</time>
      </trkpt>
      <trkpt lat="24.910281201721492" lon="118.54300954101544">
        <ele>7.015134651213884</ele>
        <time>2024-12-26T13:40:08Z</time>
      </trkpt>
      <trkpt lat="24.910288805199823" lon="118.54288988327608">
        <ele>6.815515320748091</ele>
        <time>2024-12-26T13:40:11Z</time>
      </trkpt>
      <trkpt lat="24.910339747955845" lon="118.54258034314574">
        <ele>8.586423349566758</ele>
        <time>2024-12-26T13:40:20Z</time>
      </trkpt>
      <trkpt lat="24.91030865604607" lon="118.54227568785004">
        <ele>7.725747803226113</ele>
        <time>2024-12-26T13:40:29Z</time>
      </trkpt>
      <trkpt lat="24.910344437105373" lon="118.54191822030312">
        <ele>8.44469407107681</ele>
        <time>2024-12-26T13:40:39Z</time>
      </trkpt>
      <trkpt lat="24.910314334837174" lon="118.5417169389302">
        <ele>8.400453131645918</ele>
        <time>2024-12-26T13:40:45Z</time>
      </trkpt>
      <trkpt lat="24.910255771474418" lon="118.54160350924612">
        <ele>7.987661302089691</ele>
        <time>2024-12-26T13:40:48Z</time>
      </trkpt>
      <trkpt lat="24.91016765731689" lon="118.54119558460914">
        <ele>8.098595533519983</ele>
        <time>2024-12-26T13:40:57Z</time>
      </trkpt>
      <trkpt lat="24.910157411404267" lon="118.54105988070691">
        <ele>8.074048994109035</ele>
        <time>2024-12-26T13:41:00Z</time>
      </trkpt>
      <trkpt lat="24.910265179139795" lon="118.5409161684675">
        <ele>8.009336872957647</ele>
        <time>2024-12-26T13:41:03Z</time>
      </trkpt>
      <trkpt lat="24.91042375035236" lon="118.54082738535416">
        <ele>8.050086943432689</ele>
        <time>2024-12-26T13:41:06Z</time>
      </trkpt>
      <trkpt lat="24.91066867346295" lon="118.54055377087091">
        <ele>7.74629588983953</ele>
        <time>2024-12-26T13:41:16Z</time>
      </trkpt>
      <trkpt lat="24.910786452821032" lon="118.54036428858946">
        <ele>7.808774854056537</ele>
        <time>2024-12-26T13:41:22Z</time>
      </trkpt>
      <trkpt lat="24.91087401840645" lon="118.54006569150604">
        <ele>7.818320988677442</ele>
        <time>2024-12-26T13:41:31Z</time>
      </trkpt>
      <trkpt lat="24.91097740004053" lon="118.53975704796719">
        <ele>7.541974087245762</ele>
        <time>2024-12-26T13:41:41Z</time>
      </trkpt>
      <trkpt lat="24.911046415197028" lon="118.53956943218807">
        <ele>7.226141904480755</ele>
        <time>2024-12-26T13:41:47Z</time>
      </trkpt>
      <trkpt lat="24.911105642202948" lon="118.53928090203532">
        <ele>7.631341757252812</ele>
        <time>2024-12-26T13:41:56Z</time>
      </trkpt>
      <trkpt lat="24.911172593352287" lon="118.53907685792838">
        <ele>7.715414904989302</ele>
        <time>2024-12-26T13:42:02Z</time>
      </trkpt>
      <trkpt lat="24.911238518864913" lon="118.53869908671057">
        <ele>8.243381200358272</ele>
        <time>2024-12-26T13:42:14Z</time>
      </trkpt>
      <trkpt lat="24.911310112718734" lon="118.53847027611397">
        <ele>9.72754855453968</ele>
        <time>2024-12-26T13:42:23Z</time>
      </trkpt>
      <trkpt lat="24.911321595559087" lon="118.5383757022103">
        <ele>9.524955278262496</ele>
        <time>2024-12-26T13:42:26Z</time>
      </trkpt>
      <trkpt lat="24.91148820373261" lon="118.53804343156155">
        <ele>10.095515148714185</ele>
        <time>2024-12-26T13:42:36Z</time>
      </trkpt>
      <trkpt lat="24.911541904502528" lon="118.53790909963112">
        <ele>10.64889818802476</ele>
        <time>2024-12-26T13:42:40Z</time>
      </trkpt>
      <trkpt lat="24.911685409082295" lon="118.53765266054734">
        <ele>10.539893790148199</ele>
        <time>2024-12-26T13:42:48Z</time>
      </trkpt>
      <trkpt lat="24.911818144462377" lon="118.53736015006535">
        <ele>10.08746123407036</ele>
        <time>2024-12-26T13:42:58Z</time>
      </trkpt>
      <trkpt lat="24.91186054699024" lon="118.53727709473004">
        <ele>9.349677037447691</ele>
        <time>2024-12-26T13:43:01Z</time>
      </trkpt>
      <trkpt lat="24.911912788129467" lon="118.53707150746223">
        <ele>9.975202674977481</ele>
        <time>2024-12-26T13:43:07Z</time>
      </trkpt>
      <trkpt lat="24.91205447135716" lon="118.53677917540436">
        <ele>10.138123747892678</ele>
        <time>2024-12-26T13:43:16Z</time>
      </trkpt>
      <trkpt lat="24.91216393344999" lon="118.53657425618404">
        <ele>10.443752926774323</ele>
        <time>2024-12-26T13:43:22Z</time>
      </trkpt>
      <trkpt lat="24.912221220090878" lon="118.53650789167116">
        <ele>9.570203023962677</ele>
        <time>2024-12-26T13:43:25Z</time>
      </trkpt>
      <trkpt lat="24.912364060493378" lon="118.53624300823753">
        <ele>10.190601723268628</ele>
        <time>2024-12-26T13:43:34Z</time>
      </trkpt>
      <trkpt lat="24.91242273071073" lon="118.53602429741305">
        <ele>9.990216943435371</ele>
        <time>2024-12-26T13:43:40Z</time>
      </trkpt>
      <trkpt lat="24.912351635447433" lon="118.53593974105401">
        <ele>9.864602715708315</ele>
        <time>2024-12-26T13:43:43Z</time>
      </trkpt>
      <trkpt lat="24.912214745390198" lon="118.53589078003384">
        <ele>9.569761761464179</ele>
        <time>2024-12-26T13:43:49Z</time>
      </trkpt>
      <trkpt lat="24.912131797277016" lon="118.53582857569262">
        <ele>9.405694807879627</ele>
        <time>2024-12-26T13:43:52Z</time>
      </trkpt>
      <trkpt lat="24.91212516621453" lon="118.5357408698652">
        <ele>10.332140372134745</ele>
        <time>2024-12-26T13:43:55Z</time>
      </trkpt>
      <trkpt lat="24.912175295553325" lon="118.53563096058598">
        <ele>10.059454182162881</ele>
        <time>2024-12-26T13:43:58Z</time>
      </trkpt>
      <trkpt lat="24.912255704605236" lon="118.53552234413576">
        <ele>10.171591628342867</ele>
        <time>2024-12-26T13:44:02Z</time>
      </trkpt>
      <trkpt lat="24.91241215908192" lon="118.53517426060311">
        <ele>10.002450230531394</ele>
        <time>2024-12-26T13:44:13Z</time>
      </trkpt>
      <trkpt lat="24.912559227922724" lon="118.53490179627897">
        <ele>10.120317016728222</ele>
        <time>2024-12-26T13:44:22Z</time>
      </trkpt>
      <trkpt lat="24.912706364702558" lon="118.53460234048048">
        <ele>9.917245610617101</ele>
        <time>2024-12-26T13:44:31Z</time>
      </trkpt>
      <trkpt lat="24.912801561412856" lon="118.53441266318481">
        <ele>9.755126251839101</ele>
        <time>2024-12-26T13:44:37Z</time>
      </trkpt>
      <trkpt lat="24.91286664122852" lon="118.53432643488624">
        <ele>10.351514102891088</ele>
        <time>2024-12-26T13:44:40Z</time>
      </trkpt>
      <trkpt lat="24.912934290833803" lon="118.5340329386993">
        <ele>9.974392147734761</ele>
        <time>2024-12-26T13:44:49Z</time>
      </trkpt>
      <trkpt lat="24.912970236544773" lon="118.53392921338379">
        <ele>10.641172987408936</ele>
        <time>2024-12-26T13:44:52Z</time>
      </trkpt>
      <trkpt lat="24.913042641169714" lon="118.53387767736508">
        <ele>11.247759227640927</ele>
        <time>2024-12-26T13:44:55Z</time>
      </trkpt>
      <trkpt lat="24.913381006539055" lon="118.5338681271784">
        <ele>9.912106721661985</ele>
        <time>2024-12-26T13:45:07Z</time>
      </trkpt>
      <trkpt lat="24.91357770711694" lon="118.53388124874992">
        <ele>10.281796925701201</ele>
        <time>2024-12-26T13:45:13Z</time>
      </trkpt>
      <trkpt lat="24.913863186877283" lon="118.53392625723015">
        <ele>10.960721871815622</ele>
        <time>2024-12-26T13:45:22Z</time>
      </trkpt>
      <trkpt lat="24.913958027326565" lon="118.53392384396673">
        <ele>11.045823216438293</ele>
        <time>2024-12-26T13:45:25Z</time>
      </trkpt>
      <trkpt lat="24.914236822707437" lon="118.533956033658">
        <ele>10.586886177770793</ele>
        <time>2024-12-26T13:45:34Z</time>
      </trkpt>
      <trkpt lat="24.91451983304971" lon="118.53401048397042">
        <ele>11.804750730283558</ele>
        <time>2024-12-26T13:45:46Z</time>
      </trkpt>
      <trkpt lat="24.914817194691565" lon="118.53407688083927">
        <ele>12.989697723649442</ele>
        <time>2024-12-26T13:45:58Z</time>
      </trkpt>
      <trkpt lat="24.91495159719866" lon="118.53408339326054">
        <ele>12.700577648356557</ele>
        <time>2024-12-26T13:46:01Z</time>
      </trkpt>
      <trkpt lat="24.915261848842828" lon="118.53414020851753">
        <ele>12.499445723369718</ele>
        <time>2024-12-26T13:46:08Z</time>
      </trkpt>
      <trkpt lat="24.915552672539977" lon="118.53417519439448">
        <ele>12.849784532561898</ele>
        <time>2024-12-26T13:46:16Z</time>
      </trkpt>
      <trkpt lat="24.915841682911577" lon="118.53422974372859">
        <ele>12.82552399393171</ele>
        <time>2024-12-26T13:46:25Z</time>
      </trkpt>
      <trkpt lat="24.9161420877738" lon="118.534283428893">
        <ele>12.756933244876564</ele>
        <time>2024-12-26T13:46:34Z</time>
      </trkpt>
      <trkpt lat="24.91642547147477" lon="118.53434476715054">
        <ele>12.874053453095257</ele>
        <time>2024-12-26T13:46:43Z</time>
      </trkpt>
      <trkpt lat="24.91671435034542" lon="118.53439638334285">
        <ele>14.035873778164387</ele>
        <time>2024-12-26T13:46:52Z</time>
      </trkpt>
      <trkpt lat="24.91700991224504" lon="118.53445000963791">
        <ele>14.739028261043131</ele>
        <time>2024-12-26T13:47:01Z</time>
      </trkpt>
      <trkpt lat="24.91730035651224" lon="118.53451009477259">
        <ele>14.919238545931876</ele>
        <time>2024-12-26T13:47:10Z</time>
      </trkpt>
      <trkpt lat="24.917598677059388" lon="118.53459168710732">
        <ele>14.550737743265927</ele>
        <time>2024-12-26T13:47:19Z</time>
      </trkpt>
      <trkpt lat="24.917881395890145" lon="118.5346862754471">
        <ele>14.444319241680205</ele>
        <time>2024-12-26T13:47:28Z</time>
      </trkpt>
      <trkpt lat="24.91814970527032" lon="118.53473944286073">
        <ele>14.440049166791141</ele>
        <time>2024-12-26T13:47:37Z</time>
      </trkpt>
      <trkpt lat="24.918439611571944" lon="118.53484875613198">
        <ele>13.117655730806291</ele>
        <time>2024-12-26T13:47:46Z</time>
      </trkpt>
      <trkpt lat="24.918521666905097" lon="118.53490888178857">
        <ele>12.970121745951474</ele>
        <time>2024-12-26T13:47:49Z</time>
      </trkpt>
      <trkpt lat="24.91858766612641" lon="118.53499529601898">
        <ele>12.257001349702477</ele>
        <time>2024-12-26T13:47:52Z</time>
      </trkpt>
      <trkpt lat="24.91862898421895" lon="118.53508682131505">
        <ele>11.846008789725602</ele>
        <time>2024-12-26T13:47:55Z</time>
      </trkpt>
      <trkpt lat="24.918634234368717" lon="118.53520043454208">
        <ele>11.9962665066123</ele>
        <time>2024-12-26T13:47:58Z</time>
      </trkpt>
      <trkpt lat="24.918617459728715" lon="118.53529632935397">
        <ele>10.84143858216703</ele>
        <time>2024-12-26T13:48:01Z</time>
      </trkpt>
      <trkpt lat="24.918496025608036" lon="118.53558121199673">
        <ele>10.630152110941708</ele>
        <time>2024-12-26T13:48:10Z</time>
      </trkpt>
      <trkpt lat="24.918390851122375" lon="118.53590283222162">
        <ele>10.222101334482431</ele>
        <time>2024-12-26T13:48:20Z</time>
      </trkpt>
      <trkpt lat="24.918269547472768" lon="118.53609439534031">
        <ele>10.241402827203274</ele>
        <time>2024-12-26T13:48:27Z</time>
      </trkpt>
      <trkpt lat="24.918144254314257" lon="118.53639158644756">
        <ele>10.228538540191948</ele>
        <time>2024-12-26T13:48:36Z</time>
      </trkpt>
      <trkpt lat="24.918047309656504" lon="118.53665042803503">
        <ele>9.77538009826094</ele>
        <time>2024-12-26T13:48:45Z</time>
      </trkpt>
      <trkpt lat="24.917960310472207" lon="118.53682623524448">
        <ele>10.163052472285926</ele>
        <time>2024-12-26T13:48:51Z</time>
      </trkpt>
      <trkpt lat="24.917903463628313" lon="118.53689119248608">
        <ele>9.566493899561465</ele>
        <time>2024-12-26T13:48:54Z</time>
      </trkpt>
      <trkpt lat="24.917737700449393" lon="118.53718443120047">
        <ele>9.719690995290875</ele>
        <time>2024-12-26T13:49:03Z</time>
      </trkpt>
      <trkpt lat="24.917680021365157" lon="118.53736891156245">
        <ele>10.030008909292519</ele>
        <time>2024-12-26T13:49:09Z</time>
      </trkpt>
      <trkpt lat="24.9176728470063" lon="118.53745684730583">
        <ele>9.559206310659647</ele>
        <time>2024-12-26T13:49:12Z</time>
      </trkpt>
      <trkpt lat="24.917505622528036" lon="118.53777091773438">
        <ele>9.995340622961521</ele>
        <time>2024-12-26T13:49:24Z</time>
      </trkpt>
      <trkpt lat="24.917403654776713" lon="118.53799956846606">
        <ele>9.706268954090774</ele>
        <time>2024-12-26T13:49:30Z</time>
      </trkpt>
      <trkpt lat="24.917376511477457" lon="118.5381307369696">
        <ele>10.395380861125886</ele>
        <time>2024-12-26T13:49:33Z</time>
      </trkpt>
      <trkpt lat="24.91732793321216" lon="118.5382168881103">
        <ele>9.517959251068532</ele>
        <time>2024-12-26T13:49:36Z</time>
      </trkpt>
      <trkpt lat="24.91724226318832" lon="118.53854184739981">
        <ele>10.260635296814144</ele>
        <time>2024-12-26T13:49:45Z</time>
      </trkpt>
      <trkpt lat="24.917160225877005" lon="118.53875069916027">
        <ele>10.217965549789369</ele>
        <time>2024-12-26T13:49:51Z</time>
      </trkpt>
      <trkpt lat="24.9171415854326" lon="118.53896298572324">
        <ele>9.750830254517496</ele>
        <time>2024-12-26T13:49:57Z</time>
      </trkpt>
      <trkpt lat="24.91707749783387" lon="118.53915416970423">
        <ele>10.434582877904177</ele>
        <time>2024-12-26T13:50:03Z</time>
      </trkpt>
      <trkpt lat="24.917028688202265" lon="118.53924703204001">
        <ele>9.508933427743614</ele>
        <time>2024-12-26T13:50:06Z</time>
      </trkpt>
      <trkpt lat="24.917031356793185" lon="118.53932614365337">
        <ele>8.912337552756071</ele>
        <time>2024-12-26T13:50:09Z</time>
      </trkpt>
      <trkpt lat="24.91691385112813" lon="118.53950387691928">
        <ele>9.7576569551602</ele>
        <time>2024-12-26T13:50:15Z</time>
      </trkpt>
      <trkpt lat="24.916665580040966" lon="118.53978653434203">
        <ele>10.112033093348145</ele>
        <time>2024-12-26T13:50:26Z</time>
      </trkpt>
      <trkpt lat="24.916581474019463" lon="118.53999250874409">
        <ele>10.227758945897222</ele>
        <time>2024-12-26T13:50:32Z</time>
      </trkpt>
      <trkpt lat="24.91656742378449" lon="118.54009281893032">
        <ele>11.035249969922006</ele>
        <time>2024-12-26T13:50:35Z</time>
      </trkpt>
      <trkpt lat="24.916525368006933" lon="118.54020411945277">
        <ele>11.094216879457235</ele>
        <time>2024-12-26T13:50:38Z</time>
      </trkpt>
      <trkpt lat="24.91650352167947" lon="118.54032301611952">
        <ele>10.991491112858057</ele>
        <time>2024-12-26T13:50:41Z</time>
      </trkpt>
      <trkpt lat="24.91636823200412" lon="118.54063166862835">
        <ele>12.874991287477314</ele>
        <time>2024-12-26T13:50:50Z</time>
      </trkpt>
      <trkpt lat="24.916333765957724" lon="118.54071640681512">
        <ele>11.682867847383022</ele>
        <time>2024-12-26T13:50:53Z</time>
      </trkpt>
      <trkpt lat="24.91630551939114" lon="118.54092771024882">
        <ele>11.939626567065716</ele>
        <time>2024-12-26T13:50:59Z</time>
      </trkpt>
      <trkpt lat="24.916308940602132" lon="118.54125907724116">
        <ele>10.303921367041767</ele>
        <time>2024-12-26T13:51:08Z</time>
      </trkpt>
      <trkpt lat="24.916363161755818" lon="118.54159100517809">
        <ele>12.163574619218707</ele>
        <time>2024-12-26T13:51:17Z</time>
      </trkpt>
      <trkpt lat="24.916368588410293" lon="118.54176653567261">
        <ele>12.956435444764793</ele>
        <time>2024-12-26T13:51:23Z</time>
      </trkpt>
      <trkpt lat="24.91631320321672" lon="118.54184713337432">
        <ele>13.36466003023088</ele>
        <time>2024-12-26T13:51:26Z</time>
      </trkpt>
      <trkpt lat="24.916228058763476" lon="118.54187611138846">
        <ele>12.32517609745264</ele>
        <time>2024-12-26T13:51:29Z</time>
      </trkpt>
      <trkpt lat="24.916083656869183" lon="118.54200702234137">
        <ele>12.521244895644486</ele>
        <time>2024-12-26T13:51:35Z</time>
      </trkpt>
      <trkpt lat="24.915998480035963" lon="118.54204235318676">
        <ele>12.014288276433945</ele>
        <time>2024-12-26T13:51:38Z</time>
      </trkpt>
      <trkpt lat="24.915807548175742" lon="118.54207075331472">
        <ele>12.429373557679355</ele>
        <time>2024-12-26T13:51:44Z</time>
      </trkpt>
      <trkpt lat="24.91552751887271" lon="118.54215990572126">
        <ele>12.369363998062909</ele>
        <time>2024-12-26T13:51:53Z</time>
      </trkpt>
      <trkpt lat="24.91541665108009" lon="118.54217482334974">
        <ele>12.999521592631936</ele>
        <time>2024-12-26T13:51:56Z</time>
      </trkpt>
      <trkpt lat="24.91519162935661" lon="118.54226597298558">
        <ele>12.569693831726909</ele>
        <time>2024-12-26T13:52:02Z</time>
      </trkpt>
      <trkpt lat="24.914907597744154" lon="118.54235670192473">
        <ele>11.559129464440048</ele>
        <time>2024-12-26T13:52:11Z</time>
      </trkpt>
      <trkpt lat="24.914819948775985" lon="118.54237590899963">
        <ele>11.052132250741124</ele>
        <time>2024-12-26T13:52:14Z</time>
      </trkpt>
      <trkpt lat="24.91474449917169" lon="118.5423732270365">
        <ele>10.576603749766946</ele>
        <time>2024-12-26T13:52:17Z</time>
      </trkpt>
      <trkpt lat="24.914554376664405" lon="118.54245458953112">
        <ele>10.299175570718944</ele>
        <time>2024-12-26T13:52:24Z</time>
      </trkpt>
      <trkpt lat="24.91445390246759" lon="118.54247894204309">
        <ele>11.054604823701084</ele>
        <time>2024-12-26T13:52:27Z</time>
      </trkpt>
      <trkpt lat="24.914267700861775" lon="118.54249473833413">
        <ele>9.967986234463751</ele>
        <time>2024-12-26T13:52:33Z</time>
      </trkpt>
      <trkpt lat="24.914030483063357" lon="118.54256359895099">
        <ele>10.595406620763242</ele>
        <time>2024-12-26T13:52:40Z</time>
      </trkpt>
      <trkpt lat="24.91374365088754" lon="118.54264138672254">
        <ele>9.814244694076478</ele>
        <time>2024-12-26T13:52:49Z</time>
      </trkpt>
      <trkpt lat="24.913469410495352" lon="118.54272184569882">
        <ele>9.042764008045197</ele>
        <time>2024-12-26T13:52:58Z</time>
      </trkpt>
      <trkpt lat="24.913177316179592" lon="118.54277785310761">
        <ele>7.965477164834738</ele>
        <time>2024-12-26T13:53:07Z</time>
      </trkpt>
      <trkpt lat="24.912815735700665" lon="118.54285772426864">
        <ele>9.378867435269058</ele>
        <time>2024-12-26T13:53:19Z</time>
      </trkpt>
      <trkpt lat="24.912530490675522" lon="118.54296863253846">
        <ele>8.847972231917083</ele>
        <time>2024-12-26T13:53:28Z</time>
      </trkpt>
      <trkpt lat="24.912183582287483" lon="118.54308382717491">
        <ele>8.999029899947345</ele>
        <time>2024-12-26T13:53:40Z</time>
      </trkpt>
      <trkpt lat="24.911897436720547" lon="118.54314988174997">
        <ele>7.940985636785626</ele>
        <time>2024-12-26T13:53:49Z</time>
      </trkpt>
      <trkpt lat="24.911630021023626" lon="118.54320693544804">
        <ele>8.700514948926866</ele>
        <time>2024-12-26T13:53:58Z</time>
      </trkpt>
      <trkpt lat="24.91144157438696" lon="118.54325486961099">
        <ele>8.678676267154515</ele>
        <time>2024-12-26T13:54:04Z</time>
      </trkpt>
      <trkpt lat="24.911165021712296" lon="118.54327893711537">
        <ele>8.072363146580756</ele>
        <time>2024-12-26T13:54:13Z</time>
      </trkpt>
      <trkpt lat="24.910868513044885" lon="118.54332471819856">
        <ele>7.328184339217842</ele>
        <time>2024-12-26T13:54:22Z</time>
      </trkpt>
      <trkpt lat="24.910662552154893" lon="118.54332651122165">
        <ele>7.443385120481253</ele>
        <time>2024-12-26T13:54:28Z</time>
      </trkpt>
      <trkpt lat="24.91053308250934" lon="118.54330770510637">
        <ele>7.535542732104659</ele>
        <time>2024-12-26T13:54:32Z</time>
      </trkpt>
      <trkpt lat="24.91032120739665" lon="118.54332436497147">
        <ele>7.559481813572347</ele>
        <time>2024-12-26T13:54:39Z</time>
      </trkpt>
      <trkpt lat="24.910276288093975" lon="118.54327023886876">
        <ele>7.321888049133122</ele>
        <time>2024-12-26T13:54:43Z</time>
      </trkpt>
      <trkpt lat="24.910284609837923" lon="118.54316755993968">
        <ele>7.207631190307438</ele>
        <time>2024-12-26T13:54:46Z</time>
      </trkpt>
      <trkpt lat="24.910249176342987" lon="118.54296954172628">
        <ele>7.329921419732273</ele>
        <time>2024-12-26T13:54:52Z</time>
      </trkpt>
      <trkpt lat="24.91029808879504" lon="118.54276621534504">
        <ele>7.2316106194630265</ele>
        <time>2024-12-26T13:54:58Z</time>
      </trkpt>
      <trkpt lat="24.91032088458071" lon="118.54235543004886">
        <ele>7.619372243992984</ele>
        <time>2024-12-26T13:55:10Z</time>
      </trkpt>
      <trkpt lat="24.910344454579466" lon="118.54223041430491">
        <ele>8.073611687868834</ele>
        <time>2024-12-26T13:55:13Z</time>
      </trkpt>
      <trkpt lat="24.910303091117953" lon="118.54209599960927">
        <ele>7.772726833820343</ele>
        <time>2024-12-26T13:55:16Z</time>
      </trkpt>
      <trkpt lat="24.91032203300349" lon="118.54198781813784">
        <ele>8.028314858675003</ele>
        <time>2024-12-26T13:55:19Z</time>
      </trkpt>
      <trkpt lat="24.910301018904516" lon="118.54187675716544">
        <ele>8.37428791821003</ele>
        <time>2024-12-26T13:55:22Z</time>
      </trkpt>
      <trkpt lat="24.91032189600679" lon="118.54168643872107">
        <ele>7.975433669053018</ele>
        <time>2024-12-26T13:55:28Z</time>
      </trkpt>
      <trkpt lat="24.910322126521834" lon="118.54132924939132">
        <ele>8.375657262280583</ele>
        <time>2024-12-26T13:55:37Z</time>
      </trkpt>
      <trkpt lat="24.910324201553525" lon="118.54107033766851">
        <ele>8.073678902350366</ele>
        <time>2024-12-26T13:55:43Z</time>
      </trkpt>
      <trkpt lat="24.910481216212748" lon="118.54082563235718">
        <ele>7.896728809922934</ele>
        <time>2024-12-26T13:55:49Z</time>
      </trkpt>
      <trkpt lat="24.910563261481794" lon="118.54072505315165">
        <ele>7.730989500880241</ele>
        <time>2024-12-26T13:55:52Z</time>
      </trkpt>
      <trkpt lat="24.910682595842363" lon="118.5406325287631">
        <ele>7.994168517179787</ele>
        <time>2024-12-26T13:55:58Z</time>
      </trkpt>
      <trkpt lat="24.91081735043549" lon="118.54035598249332">
        <ele>7.536530555225909</ele>
        <time>2024-12-26T13:56:07Z</time>
      </trkpt>
      <trkpt lat="24.910854061906203" lon="118.54016098155331">
        <ele>8.019954204559326</ele>
        <time>2024-12-26T13:56:13Z</time>
      </trkpt>
      <trkpt lat="24.910873792629626" lon="118.5399647734488">
        <ele>7.323713608086109</ele>
        <time>2024-12-26T13:56:19Z</time>
      </trkpt>
      <trkpt lat="24.91099725756481" lon="118.53969326546323">
        <ele>7.265536725521088</ele>
        <time>2024-12-26T13:56:28Z</time>
      </trkpt>
      <trkpt lat="24.911096824633194" lon="118.53929046057962">
        <ele>7.5496990187093616</ele>
        <time>2024-12-26T13:56:41Z</time>
      </trkpt>
      <trkpt lat="24.911156300468956" lon="118.53912777838488">
        <ele>7.878720158711076</ele>
        <time>2024-12-26T13:56:47Z</time>
      </trkpt>
      <trkpt lat="24.911195639829646" lon="118.53888067611919">
        <ele>7.217854322865605</ele>
        <time>2024-12-26T13:56:54Z</time>
      </trkpt>
      <trkpt lat="24.91130358164797" lon="118.538575358845">
        <ele>8.792383205145597</ele>
        <time>2024-12-26T13:57:03Z</time>
      </trkpt>
      <trkpt lat="24.911417648738627" lon="118.53830419736562">
        <ele>10.264268259517848</ele>
        <time>2024-12-26T13:57:12Z</time>
      </trkpt>
      <trkpt lat="24.91155466037757" lon="118.53798736003058">
        <ele>10.426731470040977</ele>
        <time>2024-12-26T13:57:21Z</time>
      </trkpt>
      <trkpt lat="24.911629704981472" lon="118.53778189022587">
        <ele>10.299538508057594</ele>
        <time>2024-12-26T13:57:27Z</time>
      </trkpt>
      <trkpt lat="24.911771960734008" lon="118.53748991353076">
        <ele>10.189563491381705</ele>
        <time>2024-12-26T13:57:36Z</time>
      </trkpt>
      <trkpt lat="24.911894486014877" lon="118.53720659380707">
        <ele>10.212774135172367</ele>
        <time>2024-12-26T13:57:45Z</time>
      </trkpt>
      <trkpt lat="24.91194610936652" lon="118.53700036486576">
        <ele>9.99364284798503</ele>
        <time>2024-12-26T13:57:51Z</time>
      </trkpt>
      <trkpt lat="24.912049542205107" lon="118.53680778402448">
        <ele>10.06080110464245</ele>
        <time>2024-12-26T13:57:57Z</time>
      </trkpt>
      <trkpt lat="24.91220145555955" lon="118.53652067389223">
        <ele>10.107141288928688</ele>
        <time>2024-12-26T13:58:06Z</time>
      </trkpt>
      <trkpt lat="24.912247990046367" lon="118.5364109696743">
        <ele>10.442623637616634</ele>
        <time>2024-12-26T13:58:09Z</time>
      </trkpt>
      <trkpt lat="24.91230978514996" lon="118.53633695378693">
        <ele>10.060382231138647</ele>
        <time>2024-12-26T13:58:12Z</time>
      </trkpt>
      <trkpt lat="24.912419748342028" lon="118.53605942558617">
        <ele>10.358167715370655</ele>
        <time>2024-12-26T13:58:21Z</time>
      </trkpt>
      <trkpt lat="24.912365819032495" lon="118.53611229778122">
        <ele>10.61275483854115</ele>
        <time>2024-12-26T13:58:27Z</time>
      </trkpt>
      <trkpt lat="24.912220772141062" lon="118.5364859806855">
        <ele>9.51998115889728</ele>
        <time>2024-12-26T13:58:39Z</time>
      </trkpt>
      <trkpt lat="24.912091273642123" lon="118.53669379841133">
        <ele>10.10125476680696</ele>
        <time>2024-12-26T13:58:46Z</time>
      </trkpt>
      <trkpt lat="24.911928503911238" lon="118.53705073079627">
        <ele>11.169762169010937</ele>
        <time>2024-12-26T13:58:56Z</time>
      </trkpt>
      <trkpt lat="24.911902343246588" lon="118.53715832348118">
        <ele>9.986519624479115</ele>
        <time>2024-12-26T13:58:59Z</time>
      </trkpt>
      <trkpt lat="24.911842806138406" lon="118.53727146356454">
        <ele>10.284253905527294</ele>
        <time>2024-12-26T13:59:02Z</time>
      </trkpt>
      <trkpt lat="24.911844242746902" lon="118.5373559445601">
        <ele>10.314226984977722</ele>
        <time>2024-12-26T13:59:05Z</time>
      </trkpt>
      <trkpt lat="24.91169426252621" lon="118.53765910906084">
        <ele>10.37217081617564</ele>
        <time>2024-12-26T13:59:14Z</time>
      </trkpt>
      <trkpt lat="24.911632253325177" lon="118.53777089761216">
        <ele>9.956608490087092</ele>
        <time>2024-12-26T13:59:17Z</time>
      </trkpt>
      <trkpt lat="24.911587595689443" lon="118.53796616151746">
        <ele>9.990913540124893</ele>
        <time>2024-12-26T13:59:23Z</time>
      </trkpt>
      <trkpt lat="24.911512728531303" lon="118.53813859978342">
        <ele>10.452321687713265</ele>
        <time>2024-12-26T13:59:29Z</time>
      </trkpt>
    </trkseg>
  </trk>
</gpx>