<?xml version="1.0" encoding="UTF-8"?>
<gpx xmlns="http://www.topografix.com/GPX/1/1" xmlns:gpxtpx="http://www.garmin.com/xmlschemas/TrackPointExtension/v1" xmlns:xsi="http://www.w3.org/2001/XMLSchema-instance" xsi:schemaLocation="http://www.topografix.com/GPX/1/1 http://www.topografix.com/GPX/1/1/gpx.xsd" version="1.1" creator="gpx.py -- https://github.com/tkrajina/gpxpy">
  <trk>
    <name>gpx from keep</name>
    <type>Run</type>
    <trkseg>
      <trkpt lat="24.9180872829786" lon="118.56700709452629">
        <ele>7.620274406857789</ele>
        <time>2024-11-21T14:05:34Z</time>
      </trkpt>
      <trkpt lat="24.918389105984808" lon="118.56707527380966">
        <ele>9.434237895533442</ele>
        <time>2024-11-21T14:05:46Z</time>
      </trkpt>
      <trkpt lat="24.918513657365907" lon="118.56712081062577">
        <ele>8.995020882226527</ele>
        <time>2024-11-21T14:05:50Z</time>
      </trkpt>
      <trkpt lat="24.918757601339493" lon="118.56731398589022">
        <ele>8.412789328955114</ele>
        <time>2024-11-21T14:05:59Z</time>
      </trkpt>
      <trkpt lat="24.91894358251673" lon="118.56738009762717">
        <ele>7.2466526217758656</ele>
        <time>2024-11-21T14:06:05Z</time>
      </trkpt>
      <trkpt lat="24.919025354559505" lon="118.56743929269378">
        <ele>6.723732459358871</ele>
        <time>2024-11-21T14:06:08Z</time>
      </trkpt>
      <trkpt lat="24.91920660386155" lon="118.56748728514653">
        <ele>6.932715590111911</ele>
        <time>2024-11-21T14:06:14Z</time>
      </trkpt>
      <trkpt lat="24.919303881126886" lon="118.56749545640912">
        <ele>6.574186521582305</ele>
        <time>2024-11-21T14:06:17Z</time>
      </trkpt>
      <trkpt lat="24.919616120295707" lon="118.56746959918226">
        <ele>7.565216677263379</ele>
        <time>2024-11-21T14:06:26Z</time>
      </trkpt>
      <trkpt lat="24.919822051662116" lon="118.56744305984574">
        <ele>8.198742323555052</ele>
        <time>2024-11-21T14:06:32Z</time>
      </trkpt>
      <trkpt lat="24.92009447439972" lon="118.56730621159411">
        <ele>7.48217464890331</ele>
        <time>2024-11-21T14:06:41Z</time>
      </trkpt>
      <trkpt lat="24.92027394230393" lon="118.5672501270328">
        <ele>6.620509577915072</ele>
        <time>2024-11-21T14:06:47Z</time>
      </trkpt>
      <trkpt lat="24.920598626220492" lon="118.56722504055402">
        <ele>6.924605983309448</ele>
        <time>2024-11-21T14:06:56Z</time>
      </trkpt>
      <trkpt lat="24.92092545796024" lon="118.567275997805">
        <ele>7.395134198479354</ele>
        <time>2024-11-21T14:07:05Z</time>
      </trkpt>
      <trkpt lat="24.921229206174367" lon="118.56737266723133">
        <ele>7.34826897457242</ele>
        <time>2024-11-21T14:07:14Z</time>
      </trkpt>
      <trkpt lat="24.92158037950433" lon="118.56750711456306">
        <ele>8.318369921296835</ele>
        <time>2024-11-21T14:07:26Z</time>
      </trkpt>
      <trkpt lat="24.921889336699763" lon="118.567511016635">
        <ele>7.660824288614094</ele>
        <time>2024-11-21T14:07:35Z</time>
      </trkpt>
      <trkpt lat="24.922098434252522" lon="118.56748536489386">
        <ele>7.670179968699813</ele>
        <time>2024-11-21T14:07:41Z</time>
      </trkpt>
      <trkpt lat="24.922396673213413" lon="118.56738430169725">
        <ele>8.830642049200833</ele>
        <time>2024-11-21T14:07:50Z</time>
      </trkpt>
      <trkpt lat="24.92267897466835" lon="118.56733944345018">
        <ele>8.477327348664403</ele>
        <time>2024-11-21T14:07:59Z</time>
      </trkpt>
      <trkpt lat="24.922869043611783" lon="118.56731160567794">
        <ele>7.419871180318296</ele>
        <time>2024-11-21T14:08:05Z</time>
      </trkpt>
      <trkpt lat="24.922948176340466" lon="118.56728284664362">
        <ele>8.075667249038815</ele>
        <time>2024-11-21T14:08:08Z</time>
      </trkpt>
      <trkpt lat="24.92303236680437" lon="118.56729035413662">
        <ele>8.846496898680925</ele>
        <time>2024-11-21T14:08:11Z</time>
      </trkpt>
      <trkpt lat="24.92333347128195" lon="118.56728551095448">
        <ele>9.638223621994257</ele>
        <time>2024-11-21T14:08:20Z</time>
      </trkpt>
      <trkpt lat="24.92361691358187" lon="118.56721633164774">
        <ele>9.497825640253723</ele>
        <time>2024-11-21T14:08:29Z</time>
      </trkpt>
      <trkpt lat="24.923722478456085" lon="118.56719690185761">
        <ele>9.659147100523114</ele>
        <time>2024-11-21T14:08:32Z</time>
      </trkpt>
      <trkpt lat="24.923817701968993" lon="118.56726607920854">
        <ele>9.657717189751565</ele>
        <time>2024-11-21T14:08:35Z</time>
      </trkpt>
      <trkpt lat="24.923907076153434" lon="118.56724310739399">
        <ele>9.704511366784573</ele>
        <time>2024-11-21T14:08:38Z</time>
      </trkpt>
      <trkpt lat="24.924014977454192" lon="118.56724588899844">
        <ele>10.154765475541353</ele>
        <time>2024-11-21T14:08:41Z</time>
      </trkpt>
      <trkpt lat="24.924104869873016" lon="118.56726914523792">
        <ele>10.092214352451265</ele>
        <time>2024-11-21T14:08:44Z</time>
      </trkpt>
      <trkpt lat="24.924299378208747" lon="118.56724796317069">
        <ele>9.383179979398847</ele>
        <time>2024-11-21T14:08:50Z</time>
      </trkpt>
      <trkpt lat="24.92448924049646" lon="118.5672476086199">
        <ele>9.444269586354494</ele>
        <time>2024-11-21T14:08:56Z</time>
      </trkpt>
      <trkpt lat="24.924685924449363" lon="118.5672044309035">
        <ele>10.054118194617331</ele>
        <time>2024-11-21T14:09:02Z</time>
      </trkpt>
      <trkpt lat="24.924914088267187" lon="118.56723410491166">
        <ele>9.426950019784272</ele>
        <time>2024-11-21T14:09:09Z</time>
      </trkpt>
      <trkpt lat="24.925007053511372" lon="118.56728636548837">
        <ele>9.603676690720022</ele>
        <time>2024-11-21T14:09:12Z</time>
      </trkpt>
      <trkpt lat="24.925024192347024" lon="118.56759405251937">
        <ele>10.575913364998996</ele>
        <time>2024-11-21T14:09:21Z</time>
      </trkpt>
      <trkpt lat="24.92497018285392" lon="118.56763364989641">
        <ele>9.373973972164094</ele>
        <time>2024-11-21T14:09:24Z</time>
      </trkpt>
      <trkpt lat="24.92502835709166" lon="118.56767976011514">
        <ele>8.987456243485212</ele>
        <time>2024-11-21T14:09:27Z</time>
      </trkpt>
      <trkpt lat="24.925050518842802" lon="118.56778211173985">
        <ele>8.924444605596364</ele>
        <time>2024-11-21T14:09:30Z</time>
      </trkpt>
      <trkpt lat="24.925046771306466" lon="118.56787501057507">
        <ele>8.467267008498311</ele>
        <time>2024-11-21T14:09:33Z</time>
      </trkpt>
      <trkpt lat="24.925177921482717" lon="118.56795250287608">
        <ele>8.94117469061166</ele>
        <time>2024-11-21T14:09:37Z</time>
      </trkpt>
      <trkpt lat="24.92542111367428" lon="118.56791893820255">
        <ele>9.03332974202931</ele>
        <time>2024-11-21T14:09:46Z</time>
      </trkpt>
      <trkpt lat="24.925692368927436" lon="118.56794179157075">
        <ele>9.394601787440479</ele>
        <time>2024-11-21T14:09:55Z</time>
      </trkpt>
      <trkpt lat="24.92599001573318" lon="118.56790627953069">
        <ele>9.568744037300348</ele>
        <time>2024-11-21T14:10:04Z</time>
      </trkpt>
      <trkpt lat="24.926255429735193" lon="118.56785843250432">
        <ele>9.844889985397458</ele>
        <time>2024-11-21T14:10:13Z</time>
      </trkpt>
      <trkpt lat="24.926339425088422" lon="118.56789795411015">
        <ele>8.781928126700222</ele>
        <time>2024-11-21T14:10:16Z</time>
      </trkpt>
      <trkpt lat="24.926423305104425" lon="118.56790725480637">
        <ele>8.455958679318428</ele>
        <time>2024-11-21T14:10:19Z</time>
      </trkpt>
      <trkpt lat="24.926523574806943" lon="118.56787521780987">
        <ele>9.505313388071954</ele>
        <time>2024-11-21T14:10:22Z</time>
      </trkpt>
      <trkpt lat="24.92661488120288" lon="118.56782081422332">
        <ele>9.918550633825362</ele>
        <time>2024-11-21T14:10:25Z</time>
      </trkpt>
      <trkpt lat="24.926708599860437" lon="118.56783881533347">
        <ele>9.64894493483007</ele>
        <time>2024-11-21T14:10:28Z</time>
      </trkpt>
      <trkpt lat="24.927003777329528" lon="118.56780747147718">
        <ele>7.902050387114286</ele>
        <time>2024-11-21T14:10:37Z</time>
      </trkpt>
      <trkpt lat="24.92730866058639" lon="118.56777338498551">
        <ele>9.34026748035103</ele>
        <time>2024-11-21T14:10:46Z</time>
      </trkpt>
      <trkpt lat="24.927504028543776" lon="118.56775320118689">
        <ele>8.839201563969254</ele>
        <time>2024-11-21T14:10:52Z</time>
      </trkpt>
      <trkpt lat="24.92760202038629" lon="118.56772757975997">
        <ele>9.571176302619278</ele>
        <time>2024-11-21T14:10:55Z</time>
      </trkpt>
      <trkpt lat="24.927794461075063" lon="118.56772375819165">
        <ele>9.806765549816191</ele>
        <time>2024-11-21T14:11:01Z</time>
      </trkpt>
      <trkpt lat="24.927877971976816" lon="118.56770745407466">
        <ele>9.983449889346957</ele>
        <time>2024-11-21T14:11:04Z</time>
      </trkpt>
      <trkpt lat="24.927971748829417" lon="118.5677267180817">
        <ele>10.01406208332628</ele>
        <time>2024-11-21T14:11:07Z</time>
      </trkpt>
      <trkpt lat="24.928261631079845" lon="118.56770838407941">
        <ele>10.15448827110231</ele>
        <time>2024-11-21T14:11:16Z</time>
      </trkpt>
      <trkpt lat="24.928458321264518" lon="118.56770312988884">
        <ele>10.445045239292085</ele>
        <time>2024-11-21T14:11:22Z</time>
      </trkpt>
      <trkpt lat="24.928534401278313" lon="118.56771520418084">
        <ele>9.811409139074385</ele>
        <time>2024-11-21T14:11:25Z</time>
      </trkpt>
      <trkpt lat="24.92882220128546" lon="118.56764317561095">
        <ele>10.612969701178372</ele>
        <time>2024-11-21T14:11:34Z</time>
      </trkpt>
      <trkpt lat="24.9291582196628" lon="118.56761214509979">
        <ele>10.90385072864592</ele>
        <time>2024-11-21T14:11:46Z</time>
      </trkpt>
      <trkpt lat="24.92944101439372" lon="118.56759659523406">
        <ele>10.45115639641881</ele>
        <time>2024-11-21T14:11:56Z</time>
      </trkpt>
      <trkpt lat="24.92971382716431" lon="118.5675588686954">
        <ele>10.69648231845349</ele>
        <time>2024-11-21T14:12:05Z</time>
      </trkpt>
      <trkpt lat="24.93001174018659" lon="118.5675488693771">
        <ele>10.743162109516561</ele>
        <time>2024-11-21T14:12:14Z</time>
      </trkpt>
      <trkpt lat="24.93029889441456" lon="118.56752568057814">
        <ele>11.115407419390976</ele>
        <time>2024-11-21T14:12:23Z</time>
      </trkpt>
      <trkpt lat="24.93057679108057" lon="118.5675068518527">
        <ele>10.908776072785258</ele>
        <time>2024-11-21T14:12:32Z</time>
      </trkpt>
      <trkpt lat="24.930671621591163" lon="118.56750554639233">
        <ele>10.555393856950104</ele>
        <time>2024-11-21T14:12:35Z</time>
      </trkpt>
      <trkpt lat="24.930950964420415" lon="118.5674382951535">
        <ele>10.562920931726694</ele>
        <time>2024-11-21T14:12:44Z</time>
      </trkpt>
      <trkpt lat="24.931317412962674" lon="118.56735321435809">
        <ele>11.412370599806309</ele>
        <time>2024-11-21T14:12:56Z</time>
      </trkpt>
      <trkpt lat="24.93152112772688" lon="118.56732162129765">
        <ele>11.300934071652591</ele>
        <time>2024-11-21T14:13:02Z</time>
      </trkpt>
      <trkpt lat="24.931862109104117" lon="118.56718764986977">
        <ele>12.657644323073328</ele>
        <time>2024-11-21T14:13:14Z</time>
      </trkpt>
      <trkpt lat="24.93213372506059" lon="118.56707721929976">
        <ele>12.353461465798318</ele>
        <time>2024-11-21T14:13:23Z</time>
      </trkpt>
      <trkpt lat="24.93246969148587" lon="118.56692301905285">
        <ele>12.361553953029215</ele>
        <time>2024-11-21T14:13:35Z</time>
      </trkpt>
      <trkpt lat="24.932723869047777" lon="118.56677964770276">
        <ele>11.99039807729423</ele>
        <time>2024-11-21T14:13:44Z</time>
      </trkpt>
      <trkpt lat="24.93300123271085" lon="118.56662236348043">
        <ele>12.64740514010191</ele>
        <time>2024-11-21T14:13:54Z</time>
      </trkpt>
      <trkpt lat="24.933260298391264" lon="118.56647346824064">
        <ele>12.416851258836687</ele>
        <time>2024-11-21T14:14:03Z</time>
      </trkpt>
      <trkpt lat="24.933508839165146" lon="118.56633948030733">
        <ele>12.803399197757244</ele>
        <time>2024-11-21T14:14:12Z</time>
      </trkpt>
      <trkpt lat="24.933666399308944" lon="118.5662350378248">
        <ele>12.56319413240999</ele>
        <time>2024-11-21T14:14:18Z</time>
      </trkpt>
      <trkpt lat="24.933914664108297" lon="118.5661056136451">
        <ele>13.037618294358253</ele>
        <time>2024-11-21T14:14:27Z</time>
      </trkpt>
      <trkpt lat="24.934166040961745" lon="118.56596667738779">
        <ele>12.905657518655062</ele>
        <time>2024-11-21T14:14:36Z</time>
      </trkpt>
      <trkpt lat="24.934253027293547" lon="118.56592428925481">
        <ele>12.957504875026643</ele>
        <time>2024-11-21T14:14:39Z</time>
      </trkpt>
      <trkpt lat="24.934392288235998" lon="118.56580352291583">
        <ele>13.224806275218725</ele>
        <time>2024-11-21T14:14:45Z</time>
      </trkpt>
      <trkpt lat="24.934555021335523" lon="118.5657446408028">
        <ele>12.6104570729658</ele>
        <time>2024-11-21T14:14:51Z</time>
      </trkpt>
      <trkpt lat="24.934648799480684" lon="118.56573070949557">
        <ele>13.722607789561152</ele>
        <time>2024-11-21T14:14:54Z</time>
      </trkpt>
      <trkpt lat="24.93490271838868" lon="118.56558982676006">
        <ele>14.128500957973301</ele>
        <time>2024-11-21T14:15:03Z</time>
      </trkpt>
      <trkpt lat="24.935155634318974" lon="118.5654528561164">
        <ele>12.510253322310746</ele>
        <time>2024-11-21T14:15:12Z</time>
      </trkpt>
      <trkpt lat="24.935397479647207" lon="118.56531588976159">
        <ele>12.456240768544376</ele>
        <time>2024-11-21T14:15:21Z</time>
      </trkpt>
      <trkpt lat="24.93565861984209" lon="118.56518189222632">
        <ele>12.044844155199826</ele>
        <time>2024-11-21T14:15:30Z</time>
      </trkpt>
      <trkpt lat="24.93589964051635" lon="118.56504277556319">
        <ele>12.06556104682386</ele>
        <time>2024-11-21T14:15:39Z</time>
      </trkpt>
      <trkpt lat="24.93614087309761" lon="118.56490502324839">
        <ele>12.211948348209262</ele>
        <time>2024-11-21T14:15:48Z</time>
      </trkpt>
      <trkpt lat="24.93623313727984" lon="118.5648516831009">
        <ele>13.161217025481164</ele>
        <time>2024-11-21T14:15:51Z</time>
      </trkpt>
      <trkpt lat="24.9362933974822" lon="118.56478903747139">
        <ele>13.120409975759685</ele>
        <time>2024-11-21T14:15:54Z</time>
      </trkpt>
      <trkpt lat="24.936549068972248" lon="118.56463616699055">
        <ele>12.796537212096155</ele>
        <time>2024-11-21T14:16:03Z</time>
      </trkpt>
      <trkpt lat="24.936638250669667" lon="118.56458655513443">
        <ele>12.85003656335175</ele>
        <time>2024-11-21T14:16:06Z</time>
      </trkpt>
      <trkpt lat="24.93686070665721" lon="118.56439651843434">
        <ele>12.482266856357455</ele>
        <time>2024-11-21T14:16:15Z</time>
      </trkpt>
      <trkpt lat="24.937092543346683" lon="118.56418004836398">
        <ele>12.702099020592868</ele>
        <time>2024-11-21T14:16:24Z</time>
      </trkpt>
      <trkpt lat="24.937299349526732" lon="118.56395472880658">
        <ele>12.589027794077992</ele>
        <time>2024-11-21T14:16:33Z</time>
      </trkpt>
      <trkpt lat="24.93743117324268" lon="118.56378607768721">
        <ele>12.471135691739619</ele>
        <time>2024-11-21T14:16:39Z</time>
      </trkpt>
      <trkpt lat="24.93753577328732" lon="118.56360666198646">
        <ele>12.224205524660647</ele>
        <time>2024-11-21T14:16:45Z</time>
      </trkpt>
      <trkpt lat="24.937606927077304" lon="118.56353397483794">
        <ele>12.690826611593366</ele>
        <time>2024-11-21T14:16:48Z</time>
      </trkpt>
      <trkpt lat="24.937657416266667" lon="118.56343371976213">
        <ele>12.207170630805194</ele>
        <time>2024-11-21T14:16:51Z</time>
      </trkpt>
      <trkpt lat="24.93783128671991" lon="118.56320005962742">
        <ele>12.1467708023265</ele>
        <time>2024-11-21T14:17:00Z</time>
      </trkpt>
      <trkpt lat="24.93802382420594" lon="118.5629657478212">
        <ele>12.789653047919273</ele>
        <time>2024-11-21T14:17:09Z</time>
      </trkpt>
      <trkpt lat="24.93818202855601" lon="118.56271980032318">
        <ele>12.569110628217459</ele>
        <time>2024-11-21T14:17:18Z</time>
      </trkpt>
      <trkpt lat="24.938352652751167" lon="118.56247346653994">
        <ele>12.40122548211366</ele>
        <time>2024-11-21T14:17:27Z</time>
      </trkpt>
      <trkpt lat="24.938507480695076" lon="118.56221471571337">
        <ele>12.19648369308561</ele>
        <time>2024-11-21T14:17:36Z</time>
      </trkpt>
      <trkpt lat="24.938693550576918" lon="118.56196385542286">
        <ele>12.076144113205373</ele>
        <time>2024-11-21T14:17:45Z</time>
      </trkpt>
      <trkpt lat="24.938862307637475" lon="118.56170973290935">
        <ele>12.062737992964685</ele>
        <time>2024-11-21T14:17:54Z</time>
      </trkpt>
      <trkpt lat="24.93911489301507" lon="118.56141909214448">
        <ele>12.058227646164596</ele>
        <time>2024-11-21T14:18:06Z</time>
      </trkpt>
      <trkpt lat="24.939375503245106" lon="118.56118002382586">
        <ele>12.023040327243507</ele>
        <time>2024-11-21T14:18:18Z</time>
      </trkpt>
      <trkpt lat="24.93951604227749" lon="118.56101757265118">
        <ele>12.150109395384789</ele>
        <time>2024-11-21T14:18:24Z</time>
      </trkpt>
      <trkpt lat="24.93968654306028" lon="118.56090747668841">
        <ele>12.440974569879472</ele>
        <time>2024-11-21T14:18:30Z</time>
      </trkpt>
      <trkpt lat="24.939912497395014" lon="118.56073116738851">
        <ele>12.991236139088869</ele>
        <time>2024-11-21T14:18:39Z</time>
      </trkpt>
      <trkpt lat="24.9401438470294" lon="118.56050795979147">
        <ele>12.80192013271153</ele>
        <time>2024-11-21T14:18:48Z</time>
      </trkpt>
      <trkpt lat="24.94040935735292" lon="118.56033977071924">
        <ele>11.838456431403756</ele>
        <time>2024-11-21T14:18:57Z</time>
      </trkpt>
      <trkpt lat="24.940671683307166" lon="118.56019880289855">
        <ele>12.169060339219868</ele>
        <time>2024-11-21T14:19:06Z</time>
      </trkpt>
      <trkpt lat="24.940926488898327" lon="118.56007868314275">
        <ele>12.493086445145309</ele>
        <time>2024-11-21T14:19:15Z</time>
      </trkpt>
      <trkpt lat="24.940998697421097" lon="118.56003552404661">
        <ele>12.520927197299898</ele>
        <time>2024-11-21T14:19:18Z</time>
      </trkpt>
      <trkpt lat="24.941272228288135" lon="118.55994319754518">
        <ele>11.964385806582868</ele>
        <time>2024-11-21T14:19:27Z</time>
      </trkpt>
      <trkpt lat="24.94155468780671" lon="118.55982618024183">
        <ele>11.663010567426682</ele>
        <time>2024-11-21T14:19:36Z</time>
      </trkpt>
      <trkpt lat="24.94181829866779" lon="118.55975803478474">
        <ele>12.479120397008955</ele>
        <time>2024-11-21T14:19:45Z</time>
      </trkpt>
      <trkpt lat="24.942003525574528" lon="118.55971042161462">
        <ele>11.616796703077853</ele>
        <time>2024-11-21T14:19:51Z</time>
      </trkpt>
      <trkpt lat="24.942249821688495" lon="118.55959729275399">
        <ele>12.366588833741844</ele>
        <time>2024-11-21T14:20:00Z</time>
      </trkpt>
      <trkpt lat="24.942607214020516" lon="118.55947401170722">
        <ele>12.780808995477855</ele>
        <time>2024-11-21T14:20:12Z</time>
      </trkpt>
      <trkpt lat="24.94287187544386" lon="118.55938041174758">
        <ele>12.371795743703842</ele>
        <time>2024-11-21T14:20:21Z</time>
      </trkpt>
      <trkpt lat="24.943169852398036" lon="118.5592901089318">
        <ele>11.415434807538986</ele>
        <time>2024-11-21T14:20:30Z</time>
      </trkpt>
      <trkpt lat="24.943255082703796" lon="118.55923365997856">
        <ele>11.998186654411256</ele>
        <time>2024-11-21T14:20:33Z</time>
      </trkpt>
      <trkpt lat="24.94335682479166" lon="118.55919703651354">
        <ele>11.798443602398038</ele>
        <time>2024-11-21T14:20:36Z</time>
      </trkpt>
      <trkpt lat="24.943520342585373" lon="118.5591012965304">
        <ele>12.559691545553505</ele>
        <time>2024-11-21T14:20:42Z</time>
      </trkpt>
      <trkpt lat="24.943778168042513" lon="118.55895879934896">
        <ele>11.925614803098142</ele>
        <time>2024-11-21T14:20:51Z</time>
      </trkpt>
      <trkpt lat="24.94387528804739" lon="118.55891947028704">
        <ele>11.676403063349426</ele>
        <time>2024-11-21T14:20:54Z</time>
      </trkpt>
      <trkpt lat="24.944122309950583" lon="118.55874838591765">
        <ele>12.905158731155097</ele>
        <time>2024-11-21T14:21:03Z</time>
      </trkpt>
      <trkpt lat="24.94434853091588" lon="118.55856370851659">
        <ele>12.187079182825983</ele>
        <time>2024-11-21T14:21:13Z</time>
      </trkpt>
      <trkpt lat="24.944591085844724" lon="118.5583763005921">
        <ele>11.739749987609684</ele>
        <time>2024-11-21T14:21:22Z</time>
      </trkpt>
      <trkpt lat="24.944749298680886" lon="118.5582284201233">
        <ele>12.089770811609924</ele>
        <time>2024-11-21T14:21:28Z</time>
      </trkpt>
      <trkpt lat="24.944974306676404" lon="118.5580662255617">
        <ele>11.55719968676567</ele>
        <time>2024-11-21T14:21:37Z</time>
      </trkpt>
      <trkpt lat="24.945178472422615" lon="118.55780965195297">
        <ele>13.499924527481198</ele>
        <time>2024-11-21T14:21:46Z</time>
      </trkpt>
      <trkpt lat="24.945374530652437" lon="118.5575672403089">
        <ele>14.858167338185012</ele>
        <time>2024-11-21T14:21:55Z</time>
      </trkpt>
      <trkpt lat="24.945561740689172" lon="118.55736212850387">
        <ele>13.943351794034243</ele>
        <time>2024-11-21T14:22:04Z</time>
      </trkpt>
      <trkpt lat="24.945728632755866" lon="118.55710566290287">
        <ele>13.9733108561486</ele>
        <time>2024-11-21T14:22:13Z</time>
      </trkpt>
      <trkpt lat="24.945917988906537" lon="118.55683752485712">
        <ele>14.082319085486233</ele>
        <time>2024-11-21T14:22:23Z</time>
      </trkpt>
      <trkpt lat="24.94606664774923" lon="118.55658326139842">
        <ele>13.919692028313875</ele>
        <time>2024-11-21T14:22:32Z</time>
      </trkpt>
      <trkpt lat="24.94610830086071" lon="118.55648912231365">
        <ele>14.216824613511562</ele>
        <time>2024-11-21T14:22:35Z</time>
      </trkpt>
      <trkpt lat="24.94629278667967" lon="118.55617652446396">
        <ele>13.239871334284544</ele>
        <time>2024-11-21T14:22:45Z</time>
      </trkpt>
      <trkpt lat="24.946380804572993" lon="118.55590429477373">
        <ele>12.080175772309303</ele>
        <time>2024-11-21T14:22:54Z</time>
      </trkpt>
      <trkpt lat="24.946549552027257" lon="118.55560092320825">
        <ele>11.01165780890733</ele>
        <time>2024-11-21T14:23:03Z</time>
      </trkpt>
      <trkpt lat="24.94668926434892" lon="118.55524665225478">
        <ele>10.289948278106749</ele>
        <time>2024-11-21T14:23:15Z</time>
      </trkpt>
      <trkpt lat="24.94676968087212" lon="118.55492931976255">
        <ele>10.941588929854333</ele>
        <time>2024-11-21T14:23:24Z</time>
      </trkpt>
      <trkpt lat="24.946838312346543" lon="118.55461726749643">
        <ele>11.924942129291594</ele>
        <time>2024-11-21T14:23:33Z</time>
      </trkpt>
      <trkpt lat="24.946889590740888" lon="118.55439917741535">
        <ele>12.994305135682225</ele>
        <time>2024-11-21T14:23:39Z</time>
      </trkpt>
      <trkpt lat="24.946918443607135" lon="118.5541213011821">
        <ele>13.99524144642055</ele>
        <time>2024-11-21T14:23:48Z</time>
      </trkpt>
      <trkpt lat="24.94694311326096" lon="118.55403981454818">
        <ele>13.728417182341218</ele>
        <time>2024-11-21T14:23:51Z</time>
      </trkpt>
      <trkpt lat="24.946934177592055" lon="118.55394262909269">
        <ele>13.409483786672354</ele>
        <time>2024-11-21T14:23:54Z</time>
      </trkpt>
      <trkpt lat="24.94698971530446" lon="118.5536131559712">
        <ele>13.07921579759568</ele>
        <time>2024-11-21T14:24:03Z</time>
      </trkpt>
      <trkpt lat="24.94705139750511" lon="118.55328849171438">
        <ele>13.058282832615077</ele>
        <time>2024-11-21T14:24:12Z</time>
      </trkpt>
      <trkpt lat="24.947091673327293" lon="118.55297159083477">
        <ele>12.303293095901608</ele>
        <time>2024-11-21T14:24:21Z</time>
      </trkpt>
      <trkpt lat="24.94708384460471" lon="118.5528657405285">
        <ele>11.89142958726734</ele>
        <time>2024-11-21T14:24:24Z</time>
      </trkpt>
      <trkpt lat="24.947111152893537" lon="118.5526639268708">
        <ele>11.919754549860954</ele>
        <time>2024-11-21T14:24:30Z</time>
      </trkpt>
      <trkpt lat="24.9471231003947" lon="118.55235857849173">
        <ele>12.218187909573317</ele>
        <time>2024-11-21T14:24:39Z</time>
      </trkpt>
      <trkpt lat="24.947139831607306" lon="118.55225142813474">
        <ele>12.098462470807135</ele>
        <time>2024-11-21T14:24:42Z</time>
      </trkpt>
      <trkpt lat="24.947159707526687" lon="118.55193920901058">
        <ele>12.14338317885995</ele>
        <time>2024-11-21T14:24:51Z</time>
      </trkpt>
      <trkpt lat="24.947177733891287" lon="118.55163254617217">
        <ele>12.06827578227967</ele>
        <time>2024-11-21T14:25:00Z</time>
      </trkpt>
      <trkpt lat="24.947204836630977" lon="118.55130840834302">
        <ele>10.868431024253368</ele>
        <time>2024-11-21T14:25:09Z</time>
      </trkpt>
      <trkpt lat="24.947234322471378" lon="118.55099720428574">
        <ele>11.040351037867367</ele>
        <time>2024-11-21T14:25:18Z</time>
      </trkpt>
      <trkpt lat="24.94725340213982" lon="118.55091283505381">
        <ele>10.429041483439505</ele>
        <time>2024-11-21T14:25:21Z</time>
      </trkpt>
      <trkpt lat="24.947253469846537" lon="118.55064461734028">
        <ele>10.345199128612876</ele>
        <time>2024-11-21T14:25:28Z</time>
      </trkpt>
      <trkpt lat="24.947294184404583" lon="118.55036037006114">
        <ele>10.630116417072713</ele>
        <time>2024-11-21T14:25:37Z</time>
      </trkpt>
      <trkpt lat="24.94730619069235" lon="118.5499910638817">
        <ele>11.283688833937049</ele>
        <time>2024-11-21T14:25:49Z</time>
      </trkpt>
      <trkpt lat="24.947338201098525" lon="118.54961999574643">
        <ele>10.692764034494758</ele>
        <time>2024-11-21T14:25:58Z</time>
      </trkpt>
      <trkpt lat="24.94736726281903" lon="118.54926518037877">
        <ele>9.40414908528328</ele>
        <time>2024-11-21T14:26:07Z</time>
      </trkpt>
      <trkpt lat="24.947383368387225" lon="118.54888467840799">
        <ele>9.962705225683749</ele>
        <time>2024-11-21T14:26:16Z</time>
      </trkpt>
      <trkpt lat="24.94738273915105" lon="118.54849340522665">
        <ele>10.429453495889902</ele>
        <time>2024-11-21T14:26:28Z</time>
      </trkpt>
      <trkpt lat="24.947418774325744" lon="118.5481384510146">
        <ele>11.378574227914214</ele>
        <time>2024-11-21T14:26:38Z</time>
      </trkpt>
      <trkpt lat="24.947446844619336" lon="118.54777264289083">
        <ele>11.200200554914773</ele>
        <time>2024-11-21T14:26:47Z</time>
      </trkpt>
      <trkpt lat="24.947480068465218" lon="118.54741528517994">
        <ele>11.972901716828346</ele>
        <time>2024-11-21T14:26:56Z</time>
      </trkpt>
      <trkpt lat="24.9475134184123" lon="118.54708200480543">
        <ele>12.67046202160418</ele>
        <time>2024-11-21T14:27:05Z</time>
      </trkpt>
      <trkpt lat="24.94754043973365" lon="118.54674810833724">
        <ele>12.711373772472143</ele>
        <time>2024-11-21T14:27:14Z</time>
      </trkpt>
      <trkpt lat="24.947560597901827" lon="118.54641993438916">
        <ele>12.552296341396868</ele>
        <time>2024-11-21T14:27:23Z</time>
      </trkpt>
      <trkpt lat="24.94758335755845" lon="118.54610304826313">
        <ele>13.279277290217578</ele>
        <time>2024-11-21T14:27:32Z</time>
      </trkpt>
      <trkpt lat="24.947616200284852" lon="118.54578982619026">
        <ele>13.578023272566497</ele>
        <time>2024-11-21T14:27:41Z</time>
      </trkpt>
      <trkpt lat="24.947646356442743" lon="118.54546148234152">
        <ele>12.75491451844573</ele>
        <time>2024-11-21T14:27:50Z</time>
      </trkpt>
      <trkpt lat="24.947670922361542" lon="118.54514196956958">
        <ele>12.653669201768935</ele>
        <time>2024-11-21T14:27:59Z</time>
      </trkpt>
      <trkpt lat="24.947693009354616" lon="118.54481851247031">
        <ele>13.246785922907293</ele>
        <time>2024-11-21T14:28:08Z</time>
      </trkpt>
      <trkpt lat="24.947708092752258" lon="118.5445019493441">
        <ele>13.092950158752501</ele>
        <time>2024-11-21T14:28:17Z</time>
      </trkpt>
      <trkpt lat="24.947724739931857" lon="118.54417280741045">
        <ele>12.835246345028281</ele>
        <time>2024-11-21T14:28:26Z</time>
      </trkpt>
      <trkpt lat="24.947730893800358" lon="118.54378144130867">
        <ele>13.788580680266023</ele>
        <time>2024-11-21T14:28:37Z</time>
      </trkpt>
      <trkpt lat="24.947735489574928" lon="118.54346400420287">
        <ele>14.155456283129752</ele>
        <time>2024-11-21T14:28:46Z</time>
      </trkpt>
      <trkpt lat="24.947731246268958" lon="118.54315204452905">
        <ele>14.062622376717627</ele>
        <time>2024-11-21T14:28:55Z</time>
      </trkpt>
      <trkpt lat="24.9477365391589" lon="118.54283745714635">
        <ele>14.095019693486392</ele>
        <time>2024-11-21T14:29:04Z</time>
      </trkpt>
      <trkpt lat="24.947727941626177" lon="118.54273477344914">
        <ele>12.963713743723929</ele>
        <time>2024-11-21T14:29:07Z</time>
      </trkpt>
      <trkpt lat="24.947707977603784" lon="118.54281745356323">
        <ele>11.795011362992227</ele>
        <time>2024-11-21T14:29:10Z</time>
      </trkpt>
      <trkpt lat="24.947731400882812" lon="118.54313313322216">
        <ele>13.04593382589519</ele>
        <time>2024-11-21T14:29:22Z</time>
      </trkpt>
      <trkpt lat="24.947719035641047" lon="118.54351029299603">
        <ele>13.1408023936674</ele>
        <time>2024-11-21T14:29:34Z</time>
      </trkpt>
      <trkpt lat="24.947713959666583" lon="118.54389473639363">
        <ele>13.364221263676882</ele>
        <time>2024-11-21T14:29:43Z</time>
      </trkpt>
      <trkpt lat="24.947704211335907" lon="118.5442620124747">
        <ele>13.416114096529782</ele>
        <time>2024-11-21T14:29:52Z</time>
      </trkpt>
      <trkpt lat="24.947690982608222" lon="118.5445935461224">
        <ele>12.215351738967001</ele>
        <time>2024-11-21T14:30:01Z</time>
      </trkpt>
      <trkpt lat="24.94767080631343" lon="118.54491848759284">
        <ele>12.643149298615754</ele>
        <time>2024-11-21T14:30:10Z</time>
      </trkpt>
      <trkpt lat="24.947644847165538" lon="118.54523487131233">
        <ele>12.469074048101902</ele>
        <time>2024-11-21T14:30:19Z</time>
      </trkpt>
      <trkpt lat="24.947623086592863" lon="118.54555480848151">
        <ele>12.365822142921388</ele>
        <time>2024-11-21T14:30:28Z</time>
      </trkpt>
      <trkpt lat="24.94760736889079" lon="118.54596936194524">
        <ele>12.757844123989344</ele>
        <time>2024-11-21T14:30:40Z</time>
      </trkpt>
      <trkpt lat="24.947573979550114" lon="118.54627972568036">
        <ele>13.41707920935005</ele>
        <time>2024-11-21T14:30:49Z</time>
      </trkpt>
      <trkpt lat="24.94755168407722" lon="118.54660382192156">
        <ele>13.435906105674803</ele>
        <time>2024-11-21T14:30:58Z</time>
      </trkpt>
      <trkpt lat="24.947532549985226" lon="118.54692291351776">
        <ele>12.970558258704841</ele>
        <time>2024-11-21T14:31:07Z</time>
      </trkpt>
      <trkpt lat="24.94750135596641" lon="118.54723036121919">
        <ele>12.749954367987812</ele>
        <time>2024-11-21T14:31:16Z</time>
      </trkpt>
      <trkpt lat="24.947468924481523" lon="118.54754579337047">
        <ele>12.081924569793046</ele>
        <time>2024-11-21T14:31:25Z</time>
      </trkpt>
      <trkpt lat="24.947446037498974" lon="118.54785904116952">
        <ele>12.38609779253602</ele>
        <time>2024-11-21T14:31:34Z</time>
      </trkpt>
      <trkpt lat="24.947410313799576" lon="118.54817801628435">
        <ele>11.029682806693017</ele>
        <time>2024-11-21T14:31:43Z</time>
      </trkpt>
      <trkpt lat="24.94736772657892" lon="118.54850800716946">
        <ele>10.54000249877572</ele>
        <time>2024-11-21T14:31:52Z</time>
      </trkpt>
      <trkpt lat="24.947375044776532" lon="118.54881786081653">
        <ele>10.446427108719945</ele>
        <time>2024-11-21T14:32:01Z</time>
      </trkpt>
      <trkpt lat="24.947358735383634" lon="118.54913858667061">
        <ele>9.920324331149459</ele>
        <time>2024-11-21T14:32:13Z</time>
      </trkpt>
      <trkpt lat="24.947323127326737" lon="118.54948166651684">
        <ele>9.003525156527758</ele>
        <time>2024-11-21T14:32:22Z</time>
      </trkpt>
      <trkpt lat="24.94730191342414" lon="118.54982473308812">
        <ele>10.141254553571343</ele>
        <time>2024-11-21T14:32:31Z</time>
      </trkpt>
      <trkpt lat="24.947265917231427" lon="118.55019046331394">
        <ele>10.29491442721337</ele>
        <time>2024-11-21T14:32:41Z</time>
      </trkpt>
      <trkpt lat="24.94723007223916" lon="118.55059581119124">
        <ele>9.77259882260114</ele>
        <time>2024-11-21T14:32:52Z</time>
      </trkpt>
      <trkpt lat="24.9472416264307" lon="118.5507039172224">
        <ele>9.872960976324975</ele>
        <time>2024-11-21T14:32:55Z</time>
      </trkpt>
      <trkpt lat="24.947217644642507" lon="118.55101326622578">
        <ele>9.650862531736493</ele>
        <time>2024-11-21T14:33:04Z</time>
      </trkpt>
      <trkpt lat="24.94719087811316" lon="118.55133589856513">
        <ele>9.32914665993303</ele>
        <time>2024-11-21T14:33:13Z</time>
      </trkpt>
      <trkpt lat="24.94718728156009" lon="118.55165369417139">
        <ele>10.040814845822752</ele>
        <time>2024-11-21T14:33:22Z</time>
      </trkpt>
      <trkpt lat="24.947159260285435" lon="118.55196207157655">
        <ele>11.346454937011003</ele>
        <time>2024-11-21T14:33:31Z</time>
      </trkpt>
      <trkpt lat="24.947130814931214" lon="118.5522673734523">
        <ele>11.981886515393853</ele>
        <time>2024-11-21T14:33:40Z</time>
      </trkpt>
      <trkpt lat="24.9471177501964" lon="118.55258310684845">
        <ele>12.640244263224304</ele>
        <time>2024-11-21T14:33:49Z</time>
      </trkpt>
      <trkpt lat="24.947104716226228" lon="118.55291486273948">
        <ele>12.311289160512388</ele>
        <time>2024-11-21T14:33:58Z</time>
      </trkpt>
      <trkpt lat="24.947065824266947" lon="118.5532204369001">
        <ele>11.882181806489825</ele>
        <time>2024-11-21T14:34:07Z</time>
      </trkpt>
      <trkpt lat="24.947033498888242" lon="118.55354255319551">
        <ele>12.248611127957702</ele>
        <time>2024-11-21T14:34:16Z</time>
      </trkpt>
      <trkpt lat="24.947023735704434" lon="118.55365344703291">
        <ele>12.753153305500746</ele>
        <time>2024-11-21T14:34:19Z</time>
      </trkpt>
      <trkpt lat="24.947048334366084" lon="118.55385890704376">
        <ele>11.93403936456889</ele>
        <time>2024-11-21T14:34:25Z</time>
      </trkpt>
      <trkpt lat="24.94694055261131" lon="118.55416793574568">
        <ele>13.578318319283426</ele>
        <time>2024-11-21T14:34:34Z</time>
      </trkpt>
      <trkpt lat="24.94684209722609" lon="118.55453481987198">
        <ele>13.292190964333713</ele>
        <time>2024-11-21T14:34:43Z</time>
      </trkpt>
      <trkpt lat="24.946782532505235" lon="118.55479641304323">
        <ele>12.680530056357384</ele>
        <time>2024-11-21T14:34:51Z</time>
      </trkpt>
      <trkpt lat="24.9467740828221" lon="118.55492763739628">
        <ele>11.474398384802043</ele>
        <time>2024-11-21T14:34:55Z</time>
      </trkpt>
      <trkpt lat="24.946702713145832" lon="118.55523779622163">
        <ele>10.18801457900554</ele>
        <time>2024-11-21T14:35:04Z</time>
      </trkpt>
      <trkpt lat="24.946562533287754" lon="118.55552842960951">
        <ele>10.30316358152777</ele>
        <time>2024-11-21T14:35:13Z</time>
      </trkpt>
      <trkpt lat="24.946515577196706" lon="118.55563954751248">
        <ele>10.802699971944094</ele>
        <time>2024-11-21T14:35:16Z</time>
      </trkpt>
      <trkpt lat="24.946456381032377" lon="118.55572872712266">
        <ele>10.476670164614916</ele>
        <time>2024-11-21T14:35:19Z</time>
      </trkpt>
      <trkpt lat="24.94633079439103" lon="118.55603932858332">
        <ele>11.70763544458896</ele>
        <time>2024-11-21T14:35:28Z</time>
      </trkpt>
      <trkpt lat="24.94625312406554" lon="118.55624488214484">
        <ele>12.943962093442678</ele>
        <time>2024-11-21T14:35:34Z</time>
      </trkpt>
      <trkpt lat="24.946102312047433" lon="118.55650091607735">
        <ele>13.505069893784821</ele>
        <time>2024-11-21T14:35:43Z</time>
      </trkpt>
      <trkpt lat="24.946033570071236" lon="118.55670638186528">
        <ele>13.984937604516745</ele>
        <time>2024-11-21T14:35:49Z</time>
      </trkpt>
      <trkpt lat="24.94585862356948" lon="118.55694381968004">
        <ele>13.937101230025291</ele>
        <time>2024-11-21T14:35:58Z</time>
      </trkpt>
      <trkpt lat="24.94565950372529" lon="118.55721693845275">
        <ele>14.109061940573156</ele>
        <time>2024-11-21T14:36:07Z</time>
      </trkpt>
      <trkpt lat="24.94548782335369" lon="118.55746676937679">
        <ele>14.079866885207593</ele>
        <time>2024-11-21T14:36:16Z</time>
      </trkpt>
      <trkpt lat="24.94528153296964" lon="118.55769994330458">
        <ele>14.5973308570683</ele>
        <time>2024-11-21T14:36:25Z</time>
      </trkpt>
      <trkpt lat="24.945066936500453" lon="118.55795816335552">
        <ele>13.736876882612705</ele>
        <time>2024-11-21T14:36:34Z</time>
      </trkpt>
      <trkpt lat="24.94485165551504" lon="118.558180261071">
        <ele>11.637817948125303</ele>
        <time>2024-11-21T14:36:43Z</time>
      </trkpt>
      <trkpt lat="24.944779104392452" lon="118.5582596685875">
        <ele>11.769048354588449</ele>
        <time>2024-11-21T14:36:46Z</time>
      </trkpt>
      <trkpt lat="24.944592144270658" lon="118.5584125186795">
        <ele>11.711709457449615</ele>
        <time>2024-11-21T14:36:53Z</time>
      </trkpt>
      <trkpt lat="24.944386558793184" lon="118.55867704055312">
        <ele>12.938391846604645</ele>
        <time>2024-11-21T14:37:03Z</time>
      </trkpt>
      <trkpt lat="24.944184640478525" lon="118.55876208018121">
        <ele>13.499557559378445</ele>
        <time>2024-11-21T14:37:09Z</time>
      </trkpt>
      <trkpt lat="24.944005326584385" lon="118.55887844016715">
        <ele>13.002845369279385</ele>
        <time>2024-11-21T14:37:15Z</time>
      </trkpt>
      <trkpt lat="24.9439000386184" lon="118.55891551230506">
        <ele>13.012770714238286</ele>
        <time>2024-11-21T14:37:18Z</time>
      </trkpt>
      <trkpt lat="24.94360842391581" lon="118.55908587749681">
        <ele>12.644613879732788</ele>
        <time>2024-11-21T14:37:27Z</time>
      </trkpt>
      <trkpt lat="24.943346739463863" lon="118.559224645063">
        <ele>12.862614468671381</ele>
        <time>2024-11-21T14:37:36Z</time>
      </trkpt>
      <trkpt lat="24.943068925311735" lon="118.55935627617406">
        <ele>12.811331178061664</ele>
        <time>2024-11-21T14:37:45Z</time>
      </trkpt>
      <trkpt lat="24.94281003413986" lon="118.55947377510984">
        <ele>13.246263955719769</ele>
        <time>2024-11-21T14:37:54Z</time>
      </trkpt>
      <trkpt lat="24.942534705991843" lon="118.55957023320136">
        <ele>13.36113850865513</ele>
        <time>2024-11-21T14:38:03Z</time>
      </trkpt>
      <trkpt lat="24.94236513556975" lon="118.55963466916964">
        <ele>13.67795865982771</ele>
        <time>2024-11-21T14:38:09Z</time>
      </trkpt>
      <trkpt lat="24.942157323601236" lon="118.55967786961894">
        <ele>13.966320123523474</ele>
        <time>2024-11-21T14:38:15Z</time>
      </trkpt>
      <trkpt lat="24.942067335151357" lon="118.55971151553888">
        <ele>13.321675069630146</ele>
        <time>2024-11-21T14:38:18Z</time>
      </trkpt>
      <trkpt lat="24.941956696702213" lon="118.5597298404553">
        <ele>14.240422176197171</ele>
        <time>2024-11-21T14:38:21Z</time>
      </trkpt>
      <trkpt lat="24.94165991919531" lon="118.55983681567075">
        <ele>13.072892671450973</ele>
        <time>2024-11-21T14:38:30Z</time>
      </trkpt>
      <trkpt lat="24.941374506985927" lon="118.55992526789166">
        <ele>12.406505154445767</ele>
        <time>2024-11-21T14:38:39Z</time>
      </trkpt>
      <trkpt lat="24.941100846333924" lon="118.56003325824707">
        <ele>12.04358484223485</ele>
        <time>2024-11-21T14:38:48Z</time>
      </trkpt>
      <trkpt lat="24.940797329286323" lon="118.5601715847921">
        <ele>12.670642605051398</ele>
        <time>2024-11-21T14:38:58Z</time>
      </trkpt>
      <trkpt lat="24.94070732978891" lon="118.56020188781744">
        <ele>12.280350878834724</ele>
        <time>2024-11-21T14:39:01Z</time>
      </trkpt>
      <trkpt lat="24.940387386538173" lon="118.56038009507027">
        <ele>13.353254678659141</ele>
        <time>2024-11-21T14:39:11Z</time>
      </trkpt>
      <trkpt lat="24.94014389865449" lon="118.56055238233427">
        <ele>12.558749712072313</ele>
        <time>2024-11-21T14:39:20Z</time>
      </trkpt>
      <trkpt lat="24.94000862674631" lon="118.56065145743358">
        <ele>12.870945179834962</ele>
        <time>2024-11-21T14:39:26Z</time>
      </trkpt>
      <trkpt lat="24.93994108595086" lon="118.56072252322895">
        <ele>13.268938108347356</ele>
        <time>2024-11-21T14:39:29Z</time>
      </trkpt>
      <trkpt lat="24.939701647299607" lon="118.56090422888603">
        <ele>13.405239555053413</ele>
        <time>2024-11-21T14:39:38Z</time>
      </trkpt>
      <trkpt lat="24.939392264611318" lon="118.56116893286148">
        <ele>12.63522439263761</ele>
        <time>2024-11-21T14:39:50Z</time>
      </trkpt>
      <trkpt lat="24.93915551152159" lon="118.56139517591629">
        <ele>12.595548561774194</ele>
        <time>2024-11-21T14:39:59Z</time>
      </trkpt>
      <trkpt lat="24.938952786033045" lon="118.56163343711451">
        <ele>12.6784289162606</ele>
        <time>2024-11-21T14:40:08Z</time>
      </trkpt>
      <trkpt lat="24.938899354129433" lon="118.56173377252316">
        <ele>12.248275517486036</ele>
        <time>2024-11-21T14:40:11Z</time>
      </trkpt>
      <trkpt lat="24.938680264979507" lon="118.56196754845847">
        <ele>12.81582511216402</ele>
        <time>2024-11-21T14:40:20Z</time>
      </trkpt>
      <trkpt lat="24.93854516344534" lon="118.56213791864889">
        <ele>13.188661060295999</ele>
        <time>2024-11-21T14:40:26Z</time>
      </trkpt>
      <trkpt lat="24.93846735163915" lon="118.56231888401601">
        <ele>12.485758519731462</ele>
        <time>2024-11-21T14:40:32Z</time>
      </trkpt>
      <trkpt lat="24.938302020001256" lon="118.56258314449435">
        <ele>12.152254676446319</ele>
        <time>2024-11-21T14:40:41Z</time>
      </trkpt>
      <trkpt lat="24.938139228550547" lon="118.56283406789456">
        <ele>12.163720653392375</ele>
        <time>2024-11-21T14:40:50Z</time>
      </trkpt>
      <trkpt lat="24.937935080326227" lon="118.5631182457999">
        <ele>12.347657795064151</ele>
        <time>2024-11-21T14:41:00Z</time>
      </trkpt>
      <trkpt lat="24.937760766156092" lon="118.56330461097659">
        <ele>13.270160506479442</ele>
        <time>2024-11-21T14:41:07Z</time>
      </trkpt>
      <trkpt lat="24.937578840861306" lon="118.56358026592146">
        <ele>13.191723077557981</ele>
        <time>2024-11-21T14:41:17Z</time>
      </trkpt>
      <trkpt lat="24.937382687254573" lon="118.56383564854113">
        <ele>12.579691867344081</ele>
        <time>2024-11-21T14:41:26Z</time>
      </trkpt>
      <trkpt lat="24.937188772356183" lon="118.56407285128877">
        <ele>12.08094338607043</ele>
        <time>2024-11-21T14:41:35Z</time>
      </trkpt>
      <trkpt lat="24.936963008510656" lon="118.5642978774557">
        <ele>12.243196126073599</ele>
        <time>2024-11-21T14:41:44Z</time>
      </trkpt>
      <trkpt lat="24.93680323185537" lon="118.56443944484667">
        <ele>12.143118020147085</ele>
        <time>2024-11-21T14:41:50Z</time>
      </trkpt>
      <trkpt lat="24.936542091594955" lon="118.56461292242719">
        <ele>11.64329985436052</ele>
        <time>2024-11-21T14:41:59Z</time>
      </trkpt>
      <trkpt lat="24.93630663039393" lon="118.56479068321049">
        <ele>11.93838511314243</ele>
        <time>2024-11-21T14:42:08Z</time>
      </trkpt>
      <trkpt lat="24.93622920482242" lon="118.56486823944786">
        <ele>11.602372878231108</ele>
        <time>2024-11-21T14:42:11Z</time>
      </trkpt>
      <trkpt lat="24.93594729563449" lon="118.56503144131653">
        <ele>11.97855160664767</ele>
        <time>2024-11-21T14:42:20Z</time>
      </trkpt>
      <trkpt lat="24.935760575972918" lon="118.56512947165314">
        <ele>12.26265777181834</ele>
        <time>2024-11-21T14:42:26Z</time>
      </trkpt>
      <trkpt lat="24.93548687835602" lon="118.56531902174063">
        <ele>11.578340946696699</ele>
        <time>2024-11-21T14:42:35Z</time>
      </trkpt>
      <trkpt lat="24.935205894768064" lon="118.5654609429274">
        <ele>12.001281499862671</ele>
        <time>2024-11-21T14:42:44Z</time>
      </trkpt>
      <trkpt lat="24.934934199431325" lon="118.56560795145772">
        <ele>12.659148735925555</ele>
        <time>2024-11-21T14:42:53Z</time>
      </trkpt>
      <trkpt lat="24.934688532248753" lon="118.56574560417631">
        <ele>12.141153052449226</ele>
        <time>2024-11-21T14:43:02Z</time>
      </trkpt>
      <trkpt lat="24.934599676701254" lon="118.56577793287978">
        <ele>12.516814016737044</ele>
        <time>2024-11-21T14:43:05Z</time>
      </trkpt>
      <trkpt lat="24.934395107153694" lon="118.5659180947506">
        <ele>13.227795047685504</ele>
        <time>2024-11-21T14:43:12Z</time>
      </trkpt>
      <trkpt lat="24.934139115385776" lon="118.5660706092178">
        <ele>13.348155029118061</ele>
        <time>2024-11-21T14:43:20Z</time>
      </trkpt>
      <trkpt lat="24.933848954044567" lon="118.56623314443577">
        <ele>13.126063393428922</ele>
        <time>2024-11-21T14:43:29Z</time>
      </trkpt>
      <trkpt lat="24.9335846850694" lon="118.56637995652156">
        <ele>12.1895596627146</ele>
        <time>2024-11-21T14:43:38Z</time>
      </trkpt>
      <trkpt lat="24.93330713046245" lon="118.56654411312827">
        <ele>12.86468521412462</ele>
        <time>2024-11-21T14:43:47Z</time>
      </trkpt>
      <trkpt lat="24.933041810543674" lon="118.56668832433841">
        <ele>13.102853829972446</ele>
        <time>2024-11-21T14:43:56Z</time>
      </trkpt>
      <trkpt lat="24.932763653764354" lon="118.5668462380826">
        <ele>12.962981327436864</ele>
        <time>2024-11-21T14:44:05Z</time>
      </trkpt>
      <trkpt lat="24.932483268345454" lon="118.56698904109433">
        <ele>13.020904920995235</ele>
        <time>2024-11-21T14:44:14Z</time>
      </trkpt>
      <trkpt lat="24.932202580043086" lon="118.56711771711923">
        <ele>12.849478415213525</ele>
        <time>2024-11-21T14:44:23Z</time>
      </trkpt>
      <trkpt lat="24.931906597689416" lon="118.5672424936897">
        <ele>12.092470893636346</ele>
        <time>2024-11-21T14:44:32Z</time>
      </trkpt>
      <trkpt lat="24.93162429372736" lon="118.56734517193654">
        <ele>12.528221670538187</ele>
        <time>2024-11-21T14:44:41Z</time>
      </trkpt>
      <trkpt lat="24.93131192958609" lon="118.56743106746231">
        <ele>11.825911444611847</ele>
        <time>2024-11-21T14:44:50Z</time>
      </trkpt>
      <trkpt lat="24.931026474168142" lon="118.56749431006472">
        <ele>12.247902908362448</ele>
        <time>2024-11-21T14:44:59Z</time>
      </trkpt>
      <trkpt lat="24.930721939063616" lon="118.56756906072746">
        <ele>10.575868107378483</ele>
        <time>2024-11-21T14:45:08Z</time>
      </trkpt>
      <trkpt lat="24.930439006797542" lon="118.56760236900367">
        <ele>9.696300600655377</ele>
        <time>2024-11-21T14:45:16Z</time>
      </trkpt>
      <trkpt lat="24.930036619866566" lon="118.56763538007247">
        <ele>9.724491331726313</ele>
        <time>2024-11-21T14:45:27Z</time>
      </trkpt>
      <trkpt lat="24.929727698059278" lon="118.56766090661883">
        <ele>10.059193855151534</ele>
        <time>2024-11-21T14:45:36Z</time>
      </trkpt>
      <trkpt lat="24.92941329894792" lon="118.56767398131235">
        <ele>9.126055613160133</ele>
        <time>2024-11-21T14:45:45Z</time>
      </trkpt>
      <trkpt lat="24.92910579420398" lon="118.56768637258789">
        <ele>10.19312482047826</ele>
        <time>2024-11-21T14:45:54Z</time>
      </trkpt>
      <trkpt lat="24.9287870167567" lon="118.56771261752849">
        <ele>9.839229395613074</ele>
        <time>2024-11-21T14:46:03Z</time>
      </trkpt>
      <trkpt lat="24.928564148469203" lon="118.56772047197272">
        <ele>9.70414172578603</ele>
        <time>2024-11-21T14:46:09Z</time>
      </trkpt>
      <trkpt lat="24.92835934620866" lon="118.56776854599818">
        <ele>10.265480323694646</ele>
        <time>2024-11-21T14:46:15Z</time>
      </trkpt>
      <trkpt lat="24.928046976833976" lon="118.567785799032">
        <ele>10.291875592432916</ele>
        <time>2024-11-21T14:46:24Z</time>
      </trkpt>
      <trkpt lat="24.92775663663649" lon="118.56778196855969">
        <ele>9.252305393107235</ele>
        <time>2024-11-21T14:46:33Z</time>
      </trkpt>
      <trkpt lat="24.9274423827393" lon="118.56783004112809">
        <ele>10.387990212999284</ele>
        <time>2024-11-21T14:46:42Z</time>
      </trkpt>
      <trkpt lat="24.92714188666662" lon="118.56786223712979">
        <ele>9.990969121456146</ele>
        <time>2024-11-21T14:46:51Z</time>
      </trkpt>
      <trkpt lat="24.926856955063737" lon="118.56787377077003">
        <ele>9.183715857565403</ele>
        <time>2024-11-21T14:47:00Z</time>
      </trkpt>
      <trkpt lat="24.926558650569152" lon="118.5678891201239">
        <ele>9.0849021198228</ele>
        <time>2024-11-21T14:47:09Z</time>
      </trkpt>
      <trkpt lat="24.926241276340647" lon="118.56794191626496">
        <ele>9.673343665897846</ele>
        <time>2024-11-21T14:47:19Z</time>
      </trkpt>
      <trkpt lat="24.92594391279173" lon="118.56795643184763">
        <ele>9.867809935472906</ele>
        <time>2024-11-21T14:47:27Z</time>
      </trkpt>
      <trkpt lat="24.925605113844647" lon="118.56799907054383">
        <ele>10.073032767511904</ele>
        <time>2024-11-21T14:47:37Z</time>
      </trkpt>
      <trkpt lat="24.92536564495584" lon="118.56801039924345">
        <ele>9.184279344044626</ele>
        <time>2024-11-21T14:47:46Z</time>
      </trkpt>
      <trkpt lat="24.925257784785657" lon="118.56801550340796">
        <ele>9.196982785128057</ele>
        <time>2024-11-21T14:47:49Z</time>
      </trkpt>
      <trkpt lat="24.925155374961054" lon="118.56796757479718">
        <ele>8.833569142967463</ele>
        <time>2024-11-21T14:47:52Z</time>
      </trkpt>
      <trkpt lat="24.925105186630667" lon="118.5678823048548">
        <ele>9.130286494269967</ele>
        <time>2024-11-21T14:47:55Z</time>
      </trkpt>
      <trkpt lat="24.92508468682638" lon="118.56779447193055">
        <ele>8.546702810563147</ele>
        <time>2024-11-21T14:47:58Z</time>
      </trkpt>
      <trkpt lat="24.92502408755277" lon="118.56768203713617">
        <ele>8.767354503273964</ele>
        <time>2024-11-21T14:48:01Z</time>
      </trkpt>
      <trkpt lat="24.92500959198191" lon="118.56761623232005">
        <ele>8.759451795369387</ele>
        <time>2024-11-21T14:48:04Z</time>
      </trkpt>
      <trkpt lat="24.925032170783048" lon="118.56750951506885">
        <ele>8.83499777968973</ele>
        <time>2024-11-21T14:48:07Z</time>
      </trkpt>
      <trkpt lat="24.92503172012231" lon="118.56739247433256">
        <ele>9.497712591663003</ele>
        <time>2024-11-21T14:48:10Z</time>
      </trkpt>
      <trkpt lat="24.92500497547716" lon="118.5672872244827">
        <ele>9.602756699547172</ele>
        <time>2024-11-21T14:48:13Z</time>
      </trkpt>
      <trkpt lat="24.9249270866507" lon="118.56723097934106">
        <ele>9.917514285072684</ele>
        <time>2024-11-21T14:48:16Z</time>
      </trkpt>
      <trkpt lat="24.92481642671536" lon="118.5672202970984">
        <ele>9.504960130900145</ele>
        <time>2024-11-21T14:48:19Z</time>
      </trkpt>
      <trkpt lat="24.924734330370555" lon="118.567192309577">
        <ele>9.528611535206437</ele>
        <time>2024-11-21T14:48:22Z</time>
      </trkpt>
      <trkpt lat="24.92464625457735" lon="118.5671381967236">
        <ele>9.735934507101774</ele>
        <time>2024-11-21T14:48:25Z</time>
      </trkpt>
      <trkpt lat="24.924486003311042" lon="118.56711679920393">
        <ele>9.623946842737496</ele>
        <time>2024-11-21T14:48:31Z</time>
      </trkpt>
      <trkpt lat="24.92440832602308" lon="118.56708531414199">
        <ele>9.641279773786664</ele>
        <time>2024-11-21T14:48:34Z</time>
      </trkpt>
      <trkpt lat="24.924104635131496" lon="118.5671343840575">
        <ele>9.338784686289728</ele>
        <time>2024-11-21T14:48:43Z</time>
      </trkpt>
      <trkpt lat="24.923793961044527" lon="118.56720758912041">
        <ele>9.996180150657892</ele>
        <time>2024-11-21T14:48:52Z</time>
      </trkpt>
      <trkpt lat="24.92349372058498" lon="118.56730226874348">
        <ele>9.86572106089443</ele>
        <time>2024-11-21T14:49:01Z</time>
      </trkpt>
      <trkpt lat="24.923188840837" lon="118.5673394073363">
        <ele>9.730697616003454</ele>
        <time>2024-11-21T14:49:10Z</time>
      </trkpt>
      <trkpt lat="24.922903618249194" lon="118.56735734838297">
        <ele>9.634351944550872</ele>
        <time>2024-11-21T14:49:19Z</time>
      </trkpt>
      <trkpt lat="24.92256806274159" lon="118.56737280754363">
        <ele>8.413825621828437</ele>
        <time>2024-11-21T14:49:29Z</time>
      </trkpt>
      <trkpt lat="24.92232808367175" lon="118.56744052025523">
        <ele>7.7043428821489215</ele>
        <time>2024-11-21T14:49:36Z</time>
      </trkpt>
      <trkpt lat="24.922044187431734" lon="118.5675003563024">
        <ele>7.998745055869222</ele>
        <time>2024-11-21T14:49:45Z</time>
      </trkpt>
      <trkpt lat="24.921767240566584" lon="118.56750680430748">
        <ele>7.298888682387769</ele>
        <time>2024-11-21T14:49:54Z</time>
      </trkpt>
      <trkpt lat="24.92158258965992" lon="118.56749534834346">
        <ele>7.5184551030397415</ele>
        <time>2024-11-21T14:50:00Z</time>
      </trkpt>
      <trkpt lat="24.92130095572249" lon="118.56743053853344">
        <ele>7.6496468260884285</ele>
        <time>2024-11-21T14:50:09Z</time>
      </trkpt>
      <trkpt lat="24.921023485859706" lon="118.5673267110125">
        <ele>7.3715761778876185</ele>
        <time>2024-11-21T14:50:18Z</time>
      </trkpt>
      <trkpt lat="24.920831326514723" lon="118.5672619093409">
        <ele>7.8398028910160065</ele>
        <time>2024-11-21T14:50:24Z</time>
      </trkpt>
      <trkpt lat="24.920551230479987" lon="118.567258937919">
        <ele>8.788880974054337</ele>
        <time>2024-11-21T14:50:33Z</time>
      </trkpt>
      <trkpt lat="24.920451282759178" lon="118.56729504953526">
        <ele>7.92026564758271</ele>
        <time>2024-11-21T14:50:36Z</time>
      </trkpt>
      <trkpt lat="24.920357333394854" lon="118.56730518868345">
        <ele>7.823290352709591</ele>
        <time>2024-11-21T14:50:39Z</time>
      </trkpt>
      <trkpt lat="24.920174788890222" lon="118.56736850929722">
        <ele>7.0946207428351045</ele>
        <time>2024-11-21T14:50:45Z</time>
      </trkpt>
      <trkpt lat="24.92008133415935" lon="118.56735950648873">
        <ele>7.507103843614459</ele>
        <time>2024-11-21T14:50:48Z</time>
      </trkpt>
      <trkpt lat="24.919815923767136" lon="118.56744786129813">
        <ele>7.72740943916142</ele>
        <time>2024-11-21T14:50:57Z</time>
      </trkpt>
      <trkpt lat="24.919497063984263" lon="118.56745332854324">
        <ele>7.631112202070653</ele>
        <time>2024-11-21T14:51:06Z</time>
      </trkpt>
      <trkpt lat="24.919213349882668" lon="118.56742002938434">
        <ele>7.4772895853966475</ele>
        <time>2024-11-21T14:51:15Z</time>
      </trkpt>
      <trkpt lat="24.91900103355401" lon="118.56734575686724">
        <ele>6.645961632952094</ele>
        <time>2024-11-21T14:51:21Z</time>
      </trkpt>
      <trkpt lat="24.91872806478591" lon="118.56720586961906">
        <ele>7.142131160013378</ele>
        <time>2024-11-21T14:51:30Z</time>
      </trkpt>
      <trkpt lat="24.918528211609598" lon="118.56707305168169">
        <ele>6.809323849156499</ele>
        <time>2024-11-21T14:51:37Z</time>
      </trkpt>
      <trkpt lat="24.91834446560633" lon="118.56701504023191">
        <ele>7.431194994598627</ele>
        <time>2024-11-21T14:51:43Z</time>
      </trkpt>
      <trkpt lat="24.918141102895706" lon="118.56702998819759">
        <ele>7.347196949645877</ele>
        <time>2024-11-21T14:51:49Z</time>
      </trkpt>
      <trkpt lat="24.918055062396526" lon="118.56701581098994">
        <ele>7.197144774720073</ele>
        <time>2024-11-21T14:51:52Z</time>
      </trkpt>
      <trkpt lat="24.917985266971904" lon="118.56693928593312">
        <ele>7.280865592882037</ele>
        <time>2024-11-21T14:51:55Z</time>
      </trkpt>
    </trkseg>
  </trk>
</gpx>