<?xml version="1.0" encoding="UTF-8"?>
<gpx xmlns="http://www.topografix.com/GPX/1/1" xmlns:gpxtpx="http://www.garmin.com/xmlschemas/TrackPointExtension/v1" xmlns:xsi="http://www.w3.org/2001/XMLSchema-instance" xsi:schemaLocation="http://www.topografix.com/GPX/1/1 http://www.topografix.com/GPX/1/1/gpx.xsd" version="1.1" creator="gpx.py -- https://github.com/tkrajina/gpxpy">
  <trk>
    <name>gpx from keep</name>
    <type>Ride</type>
    <trkseg>
      <trkpt lat="24.937670148210774" lon="118.57406531208093">
        <ele>13.340405464172363</ele>
        <time>2024-11-12T09:47:24Z</time>
      </trkpt>
      <trkpt lat="24.937633217903524" lon="118.57396542211363">
        <ele>12.545790514908731</ele>
        <time>2024-11-12T09:47:29Z</time>
      </trkpt>
      <trkpt lat="24.937582794226127" lon="118.57388154622018">
        <ele>12.535959885455668</ele>
        <time>2024-11-12T09:47:31Z</time>
      </trkpt>
      <trkpt lat="24.937420073586626" lon="118.57375741176111">
        <ele>12.508894330821931</ele>
        <time>2024-11-12T09:47:36Z</time>
      </trkpt>
      <trkpt lat="24.936971839432868" lon="118.57356493483964">
        <ele>12.856071806512773</ele>
        <time>2024-11-12T09:47:43Z</time>
      </trkpt>
      <trkpt lat="24.936874247847108" lon="118.57354459314283">
        <ele>13.66660346928984</ele>
        <time>2024-11-12T09:47:45Z</time>
      </trkpt>
      <trkpt lat="24.936678973815887" lon="118.57345654664442">
        <ele>15.265007523819804</ele>
        <time>2024-11-12T09:47:48Z</time>
      </trkpt>
      <trkpt lat="24.936615313311705" lon="118.57339581884743">
        <ele>14.71011526696384</ele>
        <time>2024-11-12T09:47:51Z</time>
      </trkpt>
      <trkpt lat="24.936417615889578" lon="118.57326856431555">
        <ele>14.738702611066401</ele>
        <time>2024-11-12T09:47:54Z</time>
      </trkpt>
      <trkpt lat="24.936331368296045" lon="118.57319539421373">
        <ele>14.9120101230219</ele>
        <time>2024-11-12T09:47:56Z</time>
      </trkpt>
      <trkpt lat="24.936166123853837" lon="118.57316632258105">
        <ele>13.877164121717215</ele>
        <time>2024-11-12T09:47:58Z</time>
      </trkpt>
      <trkpt lat="24.935867549825502" lon="118.57299029460458">
        <ele>15.301023229025304</ele>
        <time>2024-11-12T09:48:03Z</time>
      </trkpt>
      <trkpt lat="24.935736420628107" lon="118.57296147520472">
        <ele>15.67529180366546</ele>
        <time>2024-11-12T09:48:05Z</time>
      </trkpt>
      <trkpt lat="24.93555831707741" lon="118.57287981804001">
        <ele>15.771961333230138</ele>
        <time>2024-11-12T09:48:08Z</time>
      </trkpt>
      <trkpt lat="24.935479752765982" lon="118.57286557417285">
        <ele>14.959630163386464</ele>
        <time>2024-11-12T09:48:10Z</time>
      </trkpt>
      <trkpt lat="24.93542410575246" lon="118.57280623464287">
        <ele>15.66618185210973</ele>
        <time>2024-11-12T09:48:12Z</time>
      </trkpt>
      <trkpt lat="24.935300439263273" lon="118.57277313521563">
        <ele>15.123180926777422</ele>
        <time>2024-11-12T09:48:14Z</time>
      </trkpt>
      <trkpt lat="24.93522731546518" lon="118.5727180619384">
        <ele>14.526940252631903</ele>
        <time>2024-11-12T09:48:15Z</time>
      </trkpt>
      <trkpt lat="24.935103943064206" lon="118.57267666759243">
        <ele>15.041635727509856</ele>
        <time>2024-11-12T09:48:17Z</time>
      </trkpt>
      <trkpt lat="24.93500533462387" lon="118.57266402795543">
        <ele>14.448367774486542</ele>
        <time>2024-11-12T09:48:19Z</time>
      </trkpt>
      <trkpt lat="24.934942158958798" lon="118.5726116134841">
        <ele>14.224898341111839</ele>
        <time>2024-11-12T09:48:21Z</time>
      </trkpt>
      <trkpt lat="24.934844621262886" lon="118.5725827848306">
        <ele>15.53981337044388</ele>
        <time>2024-11-12T09:48:23Z</time>
      </trkpt>
      <trkpt lat="24.93440275029142" lon="118.57237339332794">
        <ele>14.227948714978993</ele>
        <time>2024-11-12T09:48:30Z</time>
      </trkpt>
      <trkpt lat="24.93431454610952" lon="118.57231641655409">
        <ele>14.909909100271761</ele>
        <time>2024-11-12T09:48:32Z</time>
      </trkpt>
      <trkpt lat="24.934211266173087" lon="118.57228000604869">
        <ele>14.781823976896703</ele>
        <time>2024-11-12T09:48:34Z</time>
      </trkpt>
      <trkpt lat="24.934140298937916" lon="118.5722003742795">
        <ele>14.977448183111846</ele>
        <time>2024-11-12T09:48:36Z</time>
      </trkpt>
      <trkpt lat="24.933954293848416" lon="118.57210835109905">
        <ele>14.919456757605076</ele>
        <time>2024-11-12T09:48:41Z</time>
      </trkpt>
      <trkpt lat="24.933860518569432" lon="118.57210458932356">
        <ele>14.898418497294188</ele>
        <time>2024-11-12T09:48:43Z</time>
      </trkpt>
      <trkpt lat="24.933649890602627" lon="118.57196505859186">
        <ele>15.067947797477245</ele>
        <time>2024-11-12T09:48:47Z</time>
      </trkpt>
      <trkpt lat="24.933452354536772" lon="118.57189546895829">
        <ele>13.637121947482228</ele>
        <time>2024-11-12T09:48:51Z</time>
      </trkpt>
      <trkpt lat="24.933332424478724" lon="118.57181297764438">
        <ele>14.225035478360951</ele>
        <time>2024-11-12T09:48:53Z</time>
      </trkpt>
      <trkpt lat="24.93316313967053" lon="118.57172617702062">
        <ele>13.556987293064594</ele>
        <time>2024-11-12T09:48:57Z</time>
      </trkpt>
      <trkpt lat="24.932708763951737" lon="118.57156721012748">
        <ele>12.785408635623753</ele>
        <time>2024-11-12T09:49:07Z</time>
      </trkpt>
      <trkpt lat="24.932339704365884" lon="118.57140114391582">
        <ele>13.190812896937132</ele>
        <time>2024-11-12T09:49:15Z</time>
      </trkpt>
      <trkpt lat="24.93225619106779" lon="118.5713211543363">
        <ele>13.606026629917324</ele>
        <time>2024-11-12T09:49:17Z</time>
      </trkpt>
      <trkpt lat="24.93205196471749" lon="118.57120384843986">
        <ele>13.3901671981439</ele>
        <time>2024-11-12T09:49:21Z</time>
      </trkpt>
      <trkpt lat="24.931897547247335" lon="118.5710867675043">
        <ele>12.613387249410152</ele>
        <time>2024-11-12T09:49:25Z</time>
      </trkpt>
      <trkpt lat="24.931707260612626" lon="118.570988491886">
        <ele>12.423323257826269</ele>
        <time>2024-11-12T09:49:30Z</time>
      </trkpt>
      <trkpt lat="24.931612449396983" lon="118.57096046345063">
        <ele>12.752042774111032</ele>
        <time>2024-11-12T09:49:33Z</time>
      </trkpt>
      <trkpt lat="24.931542162211745" lon="118.57087987594196">
        <ele>12.24600429367274</ele>
        <time>2024-11-12T09:49:35Z</time>
      </trkpt>
      <trkpt lat="24.93147589543031" lon="118.57084120887085">
        <ele>12.786998101510108</ele>
        <time>2024-11-12T09:49:37Z</time>
      </trkpt>
      <trkpt lat="24.931436570820292" lon="118.57074046589621">
        <ele>12.753712764009833</ele>
        <time>2024-11-12T09:49:40Z</time>
      </trkpt>
      <trkpt lat="24.93136989919023" lon="118.57070782614295">
        <ele>12.816964196972549</ele>
        <time>2024-11-12T09:49:44Z</time>
      </trkpt>
      <trkpt lat="24.93125905954276" lon="118.57054651214627">
        <ele>12.924490968696773</ele>
        <time>2024-11-12T09:49:51Z</time>
      </trkpt>
      <trkpt lat="24.93121080514618" lon="118.57037069891442">
        <ele>12.249716344289482</ele>
        <time>2024-11-12T09:49:55Z</time>
      </trkpt>
      <trkpt lat="24.930935121021605" lon="118.56990376570643">
        <ele>12.083780598826706</ele>
        <time>2024-11-12T09:50:05Z</time>
      </trkpt>
      <trkpt lat="24.930666519938296" lon="118.56952676557265">
        <ele>12.227175386622548</ele>
        <time>2024-11-12T09:50:13Z</time>
      </trkpt>
      <trkpt lat="24.93041621940244" lon="118.56912672106766">
        <ele>11.158818502910435</ele>
        <time>2024-11-12T09:50:21Z</time>
      </trkpt>
      <trkpt lat="24.930367608537846" lon="118.56901570950545">
        <ele>11.612994708120823</ele>
        <time>2024-11-12T09:50:23Z</time>
      </trkpt>
      <trkpt lat="24.930158714877752" lon="118.56867522134583">
        <ele>10.769300118088722</ele>
        <time>2024-11-12T09:50:29Z</time>
      </trkpt>
      <trkpt lat="24.930116890975885" lon="118.56856108973115">
        <ele>8.821926672011614</ele>
        <time>2024-11-12T09:50:31Z</time>
      </trkpt>
      <trkpt lat="24.930069687042202" lon="118.56823252755123">
        <ele>8.80548439733684</ele>
        <time>2024-11-12T09:50:37Z</time>
      </trkpt>
      <trkpt lat="24.93003446622777" lon="118.56814938911357">
        <ele>9.914765934459865</ele>
        <time>2024-11-12T09:50:39Z</time>
      </trkpt>
      <trkpt lat="24.92990970399929" lon="118.56801469426686">
        <ele>9.535511592403054</ele>
        <time>2024-11-12T09:50:43Z</time>
      </trkpt>
      <trkpt lat="24.929817954825676" lon="118.56794429989321">
        <ele>10.374472755938768</ele>
        <time>2024-11-12T09:50:45Z</time>
      </trkpt>
      <trkpt lat="24.92935321482787" lon="118.56793977419478">
        <ele>8.756488149054348</ele>
        <time>2024-11-12T09:50:53Z</time>
      </trkpt>
      <trkpt lat="24.92891948027825" lon="118.56800189517203">
        <ele>7.5566848227754235</ele>
        <time>2024-11-12T09:51:03Z</time>
      </trkpt>
      <trkpt lat="24.928434717673984" lon="118.56801199997021">
        <ele>7.262291927821934</ele>
        <time>2024-11-12T09:51:13Z</time>
      </trkpt>
      <trkpt lat="24.92828598026484" lon="118.56802772154968">
        <ele>7.52689700666815</ele>
        <time>2024-11-12T09:51:21Z</time>
      </trkpt>
      <trkpt lat="24.928216442619355" lon="118.56783302400828">
        <ele>9.414335143752396</ele>
        <time>2024-11-12T09:51:37Z</time>
      </trkpt>
      <trkpt lat="24.928140885714555" lon="118.56776436974265">
        <ele>9.246288078837097</ele>
        <time>2024-11-12T09:51:40Z</time>
      </trkpt>
      <trkpt lat="24.927764505110453" lon="118.56774554182212">
        <ele>9.393901308998466</ele>
        <time>2024-11-12T09:51:49Z</time>
      </trkpt>
      <trkpt lat="24.92733900554577" lon="118.56784176106407">
        <ele>10.967423183843493</ele>
        <time>2024-11-12T09:51:56Z</time>
      </trkpt>
      <trkpt lat="24.926847736593807" lon="118.56786279374286">
        <ele>9.137066399678588</ele>
        <time>2024-11-12T09:52:03Z</time>
      </trkpt>
      <trkpt lat="24.926375092385648" lon="118.56790565379205">
        <ele>10.207481259480119</ele>
        <time>2024-11-12T09:52:10Z</time>
      </trkpt>
      <trkpt lat="24.925844712953793" lon="118.56797320194144">
        <ele>9.786870494484901</ele>
        <time>2024-11-12T09:52:18Z</time>
      </trkpt>
      <trkpt lat="24.92571257068205" lon="118.56799403753324">
        <ele>9.98059206828475</ele>
        <time>2024-11-12T09:52:20Z</time>
      </trkpt>
      <trkpt lat="24.92543692459709" lon="118.56797049511819">
        <ele>9.273505446501076</ele>
        <time>2024-11-12T09:52:24Z</time>
      </trkpt>
      <trkpt lat="24.92500715900139" lon="118.56805297572484">
        <ele>9.909200748428702</ele>
        <time>2024-11-12T09:52:30Z</time>
      </trkpt>
      <trkpt lat="24.924547039642775" lon="118.56806766744886">
        <ele>9.374170385301113</ele>
        <time>2024-11-12T09:52:37Z</time>
      </trkpt>
      <trkpt lat="24.924419736971085" lon="118.56808673059712">
        <ele>10.285204123705626</ele>
        <time>2024-11-12T09:52:39Z</time>
      </trkpt>
      <trkpt lat="24.924135337258868" lon="118.56808449799829">
        <ele>9.901418237946928</ele>
        <time>2024-11-12T09:52:43Z</time>
      </trkpt>
      <trkpt lat="24.92357254110884" lon="118.56814196669909">
        <ele>9.379749331623316</ele>
        <time>2024-11-12T09:52:51Z</time>
      </trkpt>
      <trkpt lat="24.923088228583097" lon="118.5681727087047">
        <ele>9.393420714884996</ele>
        <time>2024-11-12T09:52:58Z</time>
      </trkpt>
      <trkpt lat="24.922693515559338" lon="118.56820707414639">
        <ele>9.34703273139894</ele>
        <time>2024-11-12T09:53:04Z</time>
      </trkpt>
      <trkpt lat="24.922564453232802" lon="118.5682348958081">
        <ele>8.63586756773293</ele>
        <time>2024-11-12T09:53:06Z</time>
      </trkpt>
      <trkpt lat="24.922139454879446" lon="118.5682808477689">
        <ele>8.147961623035371</ele>
        <time>2024-11-12T09:53:12Z</time>
      </trkpt>
      <trkpt lat="24.921991551092972" lon="118.56827891311839">
        <ele>8.417734400369227</ele>
        <time>2024-11-12T09:53:14Z</time>
      </trkpt>
      <trkpt lat="24.921854237024377" lon="118.5683033843581">
        <ele>7.496161283925176</ele>
        <time>2024-11-12T09:53:16Z</time>
      </trkpt>
      <trkpt lat="24.92156511388462" lon="118.56832430615245">
        <ele>7.908307233825326</ele>
        <time>2024-11-12T09:53:20Z</time>
      </trkpt>
      <trkpt lat="24.92128802525743" lon="118.56830424796028">
        <ele>7.039483210071921</ele>
        <time>2024-11-12T09:53:24Z</time>
      </trkpt>
      <trkpt lat="24.920904591019397" lon="118.56839717160712">
        <ele>7.702765830792487</ele>
        <time>2024-11-12T09:53:30Z</time>
      </trkpt>
      <trkpt lat="24.920340470373787" lon="118.56846786667734">
        <ele>7.057678470388055</ele>
        <time>2024-11-12T09:53:38Z</time>
      </trkpt>
      <trkpt lat="24.919870540258543" lon="118.56858247274337">
        <ele>7.108154464513063</ele>
        <time>2024-11-12T09:53:45Z</time>
      </trkpt>
      <trkpt lat="24.91979576391743" lon="118.56858969034272">
        <ele>6.889837319031358</ele>
        <time>2024-11-12T09:53:46Z</time>
      </trkpt>
      <trkpt lat="24.919312620456893" lon="118.5687458312229">
        <ele>10.121563265100121</ele>
        <time>2024-11-12T09:53:54Z</time>
      </trkpt>
      <trkpt lat="24.918832391401065" lon="118.56888176315076">
        <ele>9.04182138480246</ele>
        <time>2024-11-12T09:54:02Z</time>
      </trkpt>
      <trkpt lat="24.91836438045873" lon="118.56901325767362">
        <ele>9.952165412716568</ele>
        <time>2024-11-12T09:54:10Z</time>
      </trkpt>
      <trkpt lat="24.918251810595383" lon="118.56902441447102">
        <ele>10.581217711791396</ele>
        <time>2024-11-12T09:54:12Z</time>
      </trkpt>
      <trkpt lat="24.918131421072236" lon="118.56906621279661">
        <ele>11.160605398006737</ele>
        <time>2024-11-12T09:54:14Z</time>
      </trkpt>
      <trkpt lat="24.918028663894013" lon="118.56912320964578">
        <ele>11.310131031088531</ele>
        <time>2024-11-12T09:54:16Z</time>
      </trkpt>
      <trkpt lat="24.917914557062318" lon="118.56913116802303">
        <ele>10.546963102184236</ele>
        <time>2024-11-12T09:54:18Z</time>
      </trkpt>
      <trkpt lat="24.917799010959833" lon="118.56910902695661">
        <ele>9.741245626471937</ele>
        <time>2024-11-12T09:54:20Z</time>
      </trkpt>
      <trkpt lat="24.91760104704199" lon="118.56895932152406">
        <ele>9.82094002328813</ele>
        <time>2024-11-12T09:54:28Z</time>
      </trkpt>
      <trkpt lat="24.917580000881483" lon="118.56843212158317">
        <ele>9.952980098314583</ele>
        <time>2024-11-12T09:54:39Z</time>
      </trkpt>
      <trkpt lat="24.91761328123179" lon="118.5682905814519">
        <ele>9.525244040414691</ele>
        <time>2024-11-12T09:54:41Z</time>
      </trkpt>
      <trkpt lat="24.91762417277069" lon="118.56775456722018">
        <ele>10.801781728863716</ele>
        <time>2024-11-12T09:54:49Z</time>
      </trkpt>
      <trkpt lat="24.917655199320684" lon="118.5672487877242">
        <ele>9.640346660278738</ele>
        <time>2024-11-12T09:54:56Z</time>
      </trkpt>
      <trkpt lat="24.917695961341344" lon="118.56665928840181">
        <ele>8.435953081585467</ele>
        <time>2024-11-12T09:55:04Z</time>
      </trkpt>
      <trkpt lat="24.917717509675324" lon="118.56627583143418">
        <ele>7.859080757014453</ele>
        <time>2024-11-12T09:55:09Z</time>
      </trkpt>
      <trkpt lat="24.917734165737105" lon="118.56600709173614">
        <ele>8.877588657662272</ele>
        <time>2024-11-12T09:55:13Z</time>
      </trkpt>
      <trkpt lat="24.917676896512585" lon="118.56548880158395">
        <ele>9.27928299922496</ele>
        <time>2024-11-12T09:55:21Z</time>
      </trkpt>
      <trkpt lat="24.917594649138017" lon="118.56512158008586">
        <ele>9.299194984138012</ele>
        <time>2024-11-12T09:55:27Z</time>
      </trkpt>
      <trkpt lat="24.917576252372" lon="118.56493922797218">
        <ele>9.548836496658623</ele>
        <time>2024-11-12T09:55:33Z</time>
      </trkpt>
      <trkpt lat="24.917362484190136" lon="118.56443218517738">
        <ele>10.412491861730814</ele>
        <time>2024-11-12T09:55:47Z</time>
      </trkpt>
      <trkpt lat="24.91723722169235" lon="118.56423625998072">
        <ele>9.353102925233543</ele>
        <time>2024-11-12T09:55:53Z</time>
      </trkpt>
      <trkpt lat="24.9171742690913" lon="118.5641809236452">
        <ele>9.203782258555293</ele>
        <time>2024-11-12T09:55:57Z</time>
      </trkpt>
      <trkpt lat="24.91701500322539" lon="118.56389605444772">
        <ele>9.982987998053432</ele>
        <time>2024-11-12T09:56:05Z</time>
      </trkpt>
      <trkpt lat="24.916962033148284" lon="118.56382625811845">
        <ele>10.460409230552614</ele>
        <time>2024-11-12T09:56:07Z</time>
      </trkpt>
      <trkpt lat="24.916820541784496" lon="118.56371764037215">
        <ele>10.153825020417571</ele>
        <time>2024-11-12T09:56:11Z</time>
      </trkpt>
      <trkpt lat="24.91675425150449" lon="118.5636406420512">
        <ele>10.87384788878262</ele>
        <time>2024-11-12T09:56:14Z</time>
      </trkpt>
      <trkpt lat="24.916730805936396" lon="118.56354911674471">
        <ele>10.807675011456013</ele>
        <time>2024-11-12T09:56:17Z</time>
      </trkpt>
      <trkpt lat="24.91645349852722" lon="118.56314735218027">
        <ele>10.776291550137103</ele>
        <time>2024-11-12T09:56:27Z</time>
      </trkpt>
      <trkpt lat="24.9161690525471" lon="118.56275901321929">
        <ele>10.41152639966458</ele>
        <time>2024-11-12T09:56:35Z</time>
      </trkpt>
      <trkpt lat="24.915855004642335" lon="118.56231256111715">
        <ele>5.359445166774094</ele>
        <time>2024-11-12T09:56:43Z</time>
      </trkpt>
      <trkpt lat="24.915524080818496" lon="118.56184591089253">
        <ele>3.1075977021828294</ele>
        <time>2024-11-12T09:56:51Z</time>
      </trkpt>
      <trkpt lat="24.915238116446844" lon="118.56143289851771">
        <ele>3.430370396003127</ele>
        <time>2024-11-12T09:56:58Z</time>
      </trkpt>
      <trkpt lat="24.91494886940946" lon="118.56099904651495">
        <ele>3.4585781786590815</ele>
        <time>2024-11-12T09:57:09Z</time>
      </trkpt>
      <trkpt lat="24.914776154598194" lon="118.56067879331523">
        <ele>7.314653675071895</ele>
        <time>2024-11-12T09:57:24Z</time>
      </trkpt>
      <trkpt lat="24.914592321522466" lon="118.56043054984183">
        <ele>11.225153686478734</ele>
        <time>2024-11-12T09:57:33Z</time>
      </trkpt>
      <trkpt lat="24.914505736259724" lon="118.56023484252047">
        <ele>11.221569982357323</ele>
        <time>2024-11-12T09:57:36Z</time>
      </trkpt>
      <trkpt lat="24.914419589331043" lon="118.5600862840268">
        <ele>11.986482906155288</ele>
        <time>2024-11-12T09:57:43Z</time>
      </trkpt>
      <trkpt lat="24.914298963315307" lon="118.55996372633012">
        <ele>12.63790137320757</ele>
        <time>2024-11-12T09:57:48Z</time>
      </trkpt>
      <trkpt lat="24.914115058588262" lon="118.5596701399043">
        <ele>12.521470058709383</ele>
        <time>2024-11-12T09:57:54Z</time>
      </trkpt>
      <trkpt lat="24.91404355736903" lon="118.55958778061871">
        <ele>12.40177745744586</ele>
        <time>2024-11-12T09:57:56Z</time>
      </trkpt>
      <trkpt lat="24.91394602852163" lon="118.55942171897922">
        <ele>13.296926613897085</ele>
        <time>2024-11-12T09:58:00Z</time>
      </trkpt>
      <trkpt lat="24.913813545350656" lon="118.55927867333683">
        <ele>14.007739031687379</ele>
        <time>2024-11-12T09:58:06Z</time>
      </trkpt>
      <trkpt lat="24.913780186379764" lon="118.55919623245204">
        <ele>13.996859386563301</ele>
        <time>2024-11-12T09:58:09Z</time>
      </trkpt>
      <trkpt lat="24.91365754467627" lon="118.55910638216824">
        <ele>13.635731519199908</ele>
        <time>2024-11-12T09:58:13Z</time>
      </trkpt>
      <trkpt lat="24.91361047065716" lon="118.55893275255218">
        <ele>14.346199373714626</ele>
        <time>2024-11-12T09:58:17Z</time>
      </trkpt>
      <trkpt lat="24.913518656312664" lon="118.5587307169183">
        <ele>14.37127115111798</ele>
        <time>2024-11-12T09:58:22Z</time>
      </trkpt>
      <trkpt lat="24.913511342181607" lon="118.55863515092948">
        <ele>15.020767946727574</ele>
        <time>2024-11-12T09:58:24Z</time>
      </trkpt>
      <trkpt lat="24.913405917163836" lon="118.55835193423344">
        <ele>14.583827654831111</ele>
        <time>2024-11-12T09:58:30Z</time>
      </trkpt>
      <trkpt lat="24.913335646207507" lon="118.55837870774995">
        <ele>12.203027163632214</ele>
        <time>2024-11-12T09:58:48Z</time>
      </trkpt>
      <trkpt lat="24.91326584202378" lon="118.55832823990967">
        <ele>12.501897332258523</ele>
        <time>2024-11-12T09:59:33Z</time>
      </trkpt>
      <trkpt lat="24.913156841230265" lon="118.55818492641261">
        <ele>12.160217116586864</ele>
        <time>2024-11-12T09:59:43Z</time>
      </trkpt>
      <trkpt lat="24.91305694865406" lon="118.55792061701457">
        <ele>9.976578119210899</ele>
        <time>2024-11-12T09:59:59Z</time>
      </trkpt>
      <trkpt lat="24.91300475422079" lon="118.55783178869555">
        <ele>10.370711374096572</ele>
        <time>2024-11-12T10:00:02Z</time>
      </trkpt>
      <trkpt lat="24.912943155430735" lon="118.55777411747273">
        <ele>9.85641968715936</ele>
        <time>2024-11-12T10:00:06Z</time>
      </trkpt>
      <trkpt lat="24.912792435319705" lon="118.55743553803943">
        <ele>8.816683907061815</ele>
        <time>2024-11-12T10:00:15Z</time>
      </trkpt>
      <trkpt lat="24.912698785455188" lon="118.55716893707766">
        <ele>7.718406681902707</ele>
        <time>2024-11-12T10:00:21Z</time>
      </trkpt>
      <trkpt lat="24.912534062810355" lon="118.55676699110113">
        <ele>7.749789812602103</ele>
        <time>2024-11-12T10:00:29Z</time>
      </trkpt>
      <trkpt lat="24.91248202712193" lon="118.55654258023513">
        <ele>7.797932470217347</ele>
        <time>2024-11-12T10:00:33Z</time>
      </trkpt>
      <trkpt lat="24.912407595031546" lon="118.55634671508909">
        <ele>6.822927590459585</ele>
        <time>2024-11-12T10:00:43Z</time>
      </trkpt>
      <trkpt lat="24.912366544415054" lon="118.55617006469163">
        <ele>6.718530395068228</ele>
        <time>2024-11-12T10:00:48Z</time>
      </trkpt>
      <trkpt lat="24.91225732030257" lon="118.55597352657786">
        <ele>6.522124006412923</ele>
        <time>2024-11-12T10:00:53Z</time>
      </trkpt>
      <trkpt lat="24.912175344032498" lon="118.55574960724626">
        <ele>6.972447315230966</ele>
        <time>2024-11-12T10:00:57Z</time>
      </trkpt>
      <trkpt lat="24.912162894073585" lon="118.55565141553801">
        <ele>7.163893537595868</ele>
        <time>2024-11-12T10:00:59Z</time>
      </trkpt>
      <trkpt lat="24.912002784969115" lon="118.55532695386862">
        <ele>7.334503282792866</ele>
        <time>2024-11-12T10:01:05Z</time>
      </trkpt>
      <trkpt lat="24.911879777628595" lon="118.5551291230749">
        <ele>7.329313615337014</ele>
        <time>2024-11-12T10:01:09Z</time>
      </trkpt>
      <trkpt lat="24.911813930939033" lon="118.55496113189261">
        <ele>7.3924877708777785</ele>
        <time>2024-11-12T10:01:13Z</time>
      </trkpt>
      <trkpt lat="24.911770705173883" lon="118.55467485516233">
        <ele>7.475369676016271</ele>
        <time>2024-11-12T10:01:22Z</time>
      </trkpt>
      <trkpt lat="24.91172863581056" lon="118.55456756204843">
        <ele>7.474452089518309</ele>
        <time>2024-11-12T10:01:25Z</time>
      </trkpt>
      <trkpt lat="24.9115883805731" lon="118.55440945552299">
        <ele>7.831131500191987</ele>
        <time>2024-11-12T10:01:29Z</time>
      </trkpt>
      <trkpt lat="24.911406186764683" lon="118.55391062317241">
        <ele>7.861502130515873</ele>
        <time>2024-11-12T10:01:37Z</time>
      </trkpt>
      <trkpt lat="24.911222431119587" lon="118.55344127004193">
        <ele>7.229918582364917</ele>
        <time>2024-11-12T10:01:45Z</time>
      </trkpt>
      <trkpt lat="24.91110766203759" lon="118.55317409203663">
        <ele>7.5738120237365365</ele>
        <time>2024-11-12T10:01:51Z</time>
      </trkpt>
      <trkpt lat="24.911115418284876" lon="118.55296545135896">
        <ele>7.484750661067665</ele>
        <time>2024-11-12T10:01:57Z</time>
      </trkpt>
      <trkpt lat="24.911018249841916" lon="118.5526694583028">
        <ele>7.505139200016856</ele>
        <time>2024-11-12T10:02:06Z</time>
      </trkpt>
      <trkpt lat="24.91097241886876" lon="118.5525834145208">
        <ele>7.543435633182526</ele>
        <time>2024-11-12T10:02:09Z</time>
      </trkpt>
      <trkpt lat="24.910856884034313" lon="118.55248038242634">
        <ele>7.263060476630926</ele>
        <time>2024-11-12T10:02:15Z</time>
      </trkpt>
      <trkpt lat="24.910740160721645" lon="118.55222056192783">
        <ele>8.084821814671159</ele>
        <time>2024-11-12T10:02:22Z</time>
      </trkpt>
      <trkpt lat="24.91072688326762" lon="118.55212695869879">
        <ele>8.069623273797333</ele>
        <time>2024-11-12T10:02:24Z</time>
      </trkpt>
      <trkpt lat="24.910593110703704" lon="118.55182657072142">
        <ele>7.810491261072457</ele>
        <time>2024-11-12T10:02:30Z</time>
      </trkpt>
      <trkpt lat="24.910539845688408" lon="118.55164486123608">
        <ele>7.927806448191404</ele>
        <time>2024-11-12T10:02:33Z</time>
      </trkpt>
      <trkpt lat="24.910423521801317" lon="118.55141620268196">
        <ele>7.742140582762659</ele>
        <time>2024-11-12T10:02:37Z</time>
      </trkpt>
      <trkpt lat="24.910316042220433" lon="118.55126983289031">
        <ele>7.552197313867509</ele>
        <time>2024-11-12T10:02:41Z</time>
      </trkpt>
      <trkpt lat="24.910183914208773" lon="118.55096659193089">
        <ele>7.321803762577474</ele>
        <time>2024-11-12T10:02:47Z</time>
      </trkpt>
      <trkpt lat="24.910075388383255" lon="118.55060514073477">
        <ele>8.101996815763414</ele>
        <time>2024-11-12T10:02:53Z</time>
      </trkpt>
      <trkpt lat="24.910026736229067" lon="118.550520076045">
        <ele>8.158254421316087</ele>
        <time>2024-11-12T10:02:55Z</time>
      </trkpt>
      <trkpt lat="24.9099255552796" lon="118.55026689725162">
        <ele>7.939348797313869</ele>
        <time>2024-11-12T10:03:03Z</time>
      </trkpt>
      <trkpt lat="24.90985750736642" lon="118.55019224568896">
        <ele>7.798252660781145</ele>
        <time>2024-11-12T10:03:07Z</time>
      </trkpt>
      <trkpt lat="24.909663327421235" lon="118.54973369651479">
        <ele>7.99771495629102</ele>
        <time>2024-11-12T10:03:18Z</time>
      </trkpt>
      <trkpt lat="24.909618688008347" lon="118.54957054121718">
        <ele>7.921580338850617</ele>
        <time>2024-11-12T10:03:22Z</time>
      </trkpt>
      <trkpt lat="24.909540770072883" lon="118.54936816535402">
        <ele>7.716280519030988</ele>
        <time>2024-11-12T10:03:26Z</time>
      </trkpt>
      <trkpt lat="24.909407625380293" lon="118.54911988024219">
        <ele>8.136844927445054</ele>
        <time>2024-11-12T10:03:31Z</time>
      </trkpt>
      <trkpt lat="24.909215806847733" lon="118.54859703319507">
        <ele>8.458666845224798</ele>
        <time>2024-11-12T10:03:38Z</time>
      </trkpt>
      <trkpt lat="24.90903550265173" lon="118.5482464338698">
        <ele>8.423319450579584</ele>
        <time>2024-11-12T10:03:43Z</time>
      </trkpt>
      <trkpt lat="24.90893104471223" lon="118.5479137122941">
        <ele>7.676133552566171</ele>
        <time>2024-11-12T10:03:48Z</time>
      </trkpt>
      <trkpt lat="24.90873356329785" lon="118.54741871522931">
        <ele>7.606473222374916</ele>
        <time>2024-11-12T10:03:59Z</time>
      </trkpt>
      <trkpt lat="24.908633089257762" lon="118.54712157968002">
        <ele>7.446289814077318</ele>
        <time>2024-11-12T10:04:06Z</time>
      </trkpt>
      <trkpt lat="24.908576706660593" lon="118.54688877544453">
        <ele>7.239263945259154</ele>
        <time>2024-11-12T10:04:10Z</time>
      </trkpt>
      <trkpt lat="24.908517063234882" lon="118.54676592187121">
        <ele>7.4181801956146955</ele>
        <time>2024-11-12T10:04:12Z</time>
      </trkpt>
      <trkpt lat="24.908298805305815" lon="118.54625143277586">
        <ele>7.171688469126821</ele>
        <time>2024-11-12T10:04:20Z</time>
      </trkpt>
      <trkpt lat="24.908245469009728" lon="118.54613905720032">
        <ele>6.801600527018309</ele>
        <time>2024-11-12T10:04:22Z</time>
      </trkpt>
      <trkpt lat="24.908064146287426" lon="118.54558313825399">
        <ele>7.899695795960724</ele>
        <time>2024-11-12T10:04:32Z</time>
      </trkpt>
      <trkpt lat="24.907942035931804" lon="118.54512332105217">
        <ele>7.438884304836392</ele>
        <time>2024-11-12T10:04:40Z</time>
      </trkpt>
      <trkpt lat="24.907809815997293" lon="118.54480501687695">
        <ele>7.880071866326034</ele>
        <time>2024-11-12T10:04:46Z</time>
      </trkpt>
      <trkpt lat="24.90757094997873" lon="118.54432308383102">
        <ele>7.9853335451334715</ele>
        <time>2024-11-12T10:04:54Z</time>
      </trkpt>
      <trkpt lat="24.907525306354632" lon="118.54419717504987">
        <ele>7.684827797114849</ele>
        <time>2024-11-12T10:04:56Z</time>
      </trkpt>
      <trkpt lat="24.907505536401427" lon="118.54388944894009">
        <ele>6.900356391444802</ele>
        <time>2024-11-12T10:05:02Z</time>
      </trkpt>
      <trkpt lat="24.907457792338743" lon="118.54382578768436">
        <ele>7.32441561575979</ele>
        <time>2024-11-12T10:05:21Z</time>
      </trkpt>
      <trkpt lat="24.90745925314779" lon="118.54340560089278">
        <ele>7.521298530511558</ele>
        <time>2024-11-12T10:06:33Z</time>
      </trkpt>
      <trkpt lat="24.90748090115393" lon="118.54330978602403">
        <ele>7.415567831136286</ele>
        <time>2024-11-12T10:06:37Z</time>
      </trkpt>
      <trkpt lat="24.90747561892891" lon="118.54319699662663">
        <ele>7.508557854220271</ele>
        <time>2024-11-12T10:06:42Z</time>
      </trkpt>
      <trkpt lat="24.907672547235936" lon="118.54277219325694">
        <ele>7.357674007304013</ele>
        <time>2024-11-12T10:06:53Z</time>
      </trkpt>
      <trkpt lat="24.907788742109517" lon="118.54244684470864">
        <ele>7.832634444348514</ele>
        <time>2024-11-12T10:07:01Z</time>
      </trkpt>
      <trkpt lat="24.907976644982885" lon="118.5420124914863">
        <ele>7.83344329893589</ele>
        <time>2024-11-12T10:07:11Z</time>
      </trkpt>
      <trkpt lat="24.908149934587307" lon="118.54153613556996">
        <ele>8.91424727998674</ele>
        <time>2024-11-12T10:07:21Z</time>
      </trkpt>
      <trkpt lat="24.90834081630315" lon="118.54104886166711">
        <ele>8.30788651574403</ele>
        <time>2024-11-12T10:07:31Z</time>
      </trkpt>
      <trkpt lat="24.908472515151292" lon="118.5408176535277">
        <ele>7.615097437985241</ele>
        <time>2024-11-12T10:07:37Z</time>
      </trkpt>
      <trkpt lat="24.908510189688826" lon="118.54072041692675">
        <ele>8.082075726240873</ele>
        <time>2024-11-12T10:07:40Z</time>
      </trkpt>
      <trkpt lat="24.908567941998857" lon="118.54066820029668">
        <ele>8.357958156615496</ele>
        <time>2024-11-12T10:07:48Z</time>
      </trkpt>
      <trkpt lat="24.908612441820022" lon="118.5405763292481">
        <ele>8.346482426859438</ele>
        <time>2024-11-12T10:08:08Z</time>
      </trkpt>
    </trkseg>
  </trk>
</gpx>