<?xml version="1.0" encoding="UTF-8"?>
<gpx xmlns="http://www.topografix.com/GPX/1/1" xmlns:gpxtpx="http://www.garmin.com/xmlschemas/TrackPointExtension/v1" xmlns:xsi="http://www.w3.org/2001/XMLSchema-instance" xsi:schemaLocation="http://www.topografix.com/GPX/1/1 http://www.topografix.com/GPX/1/1/gpx.xsd" version="1.1" creator="gpx.py -- https://github.com/tkrajina/gpxpy">
  <trk>
    <name>gpx from keep</name>
    <type>Run</type>
    <trkseg>
      <trkpt lat="24.910672197596394" lon="118.53858410264253">
        <ele>9.714919373393059</ele>
        <time>2024-06-28T13:53:44Z</time>
      </trkpt>
      <trkpt lat="24.91059990161214" lon="118.538560472361">
        <ele>9.731858526356518</ele>
        <time>2024-06-28T13:53:50Z</time>
      </trkpt>
      <trkpt lat="24.91032659026033" lon="118.5385338544035">
        <ele>13.301981943659484</ele>
        <time>2024-06-28T13:53:56Z</time>
      </trkpt>
      <trkpt lat="24.910203958148056" lon="118.53850212767908">
        <ele>10.845892813056707</ele>
        <time>2024-06-28T13:53:59Z</time>
      </trkpt>
      <trkpt lat="24.909914106706587" lon="118.53848240266099">
        <ele>8.572923908941448</ele>
        <time>2024-06-28T13:54:08Z</time>
      </trkpt>
      <trkpt lat="24.90983282297448" lon="118.5384511794961">
        <ele>1.220570022240281</ele>
        <time>2024-06-28T13:54:11Z</time>
      </trkpt>
      <trkpt lat="24.909720895439378" lon="118.53847418101307">
        <ele>1.773777086287737</ele>
        <time>2024-06-28T13:54:14Z</time>
      </trkpt>
      <trkpt lat="24.909381967171655" lon="118.53845031905533">
        <ele>5.0011218301951885</ele>
        <time>2024-06-28T13:54:23Z</time>
      </trkpt>
      <trkpt lat="24.90919394719561" lon="118.53838815957559">
        <ele>7.267284584231675</ele>
        <time>2024-06-28T13:54:29Z</time>
      </trkpt>
      <trkpt lat="24.909268406240006" lon="118.53807585643685">
        <ele>6.36531076207757</ele>
        <time>2024-06-28T13:54:38Z</time>
      </trkpt>
      <trkpt lat="24.90934290502896" lon="118.53774460729154">
        <ele>8.176824661903083</ele>
        <time>2024-06-28T13:54:47Z</time>
      </trkpt>
      <trkpt lat="24.909383556918012" lon="118.53738352612585">
        <ele>9.354746117256582</ele>
        <time>2024-06-28T13:54:56Z</time>
      </trkpt>
      <trkpt lat="24.90949035786542" lon="118.53703035474905">
        <ele>9.705733844079077</ele>
        <time>2024-06-28T13:55:05Z</time>
      </trkpt>
      <trkpt lat="24.909399423958146" lon="118.5369862490966">
        <ele>9.323809187859297</ele>
        <time>2024-06-28T13:55:08Z</time>
      </trkpt>
      <trkpt lat="24.909384555919146" lon="118.53688813978468">
        <ele>9.835475778207183</ele>
        <time>2024-06-28T13:55:11Z</time>
      </trkpt>
      <trkpt lat="24.909471543217936" lon="118.53666698753888">
        <ele>10.075310016982257</ele>
        <time>2024-06-28T13:55:17Z</time>
      </trkpt>
      <trkpt lat="24.909488588306495" lon="118.53656566884123">
        <ele>10.000651541166008</ele>
        <time>2024-06-28T13:55:20Z</time>
      </trkpt>
      <trkpt lat="24.909530296446686" lon="118.53645708424393">
        <ele>10.124795102514327</ele>
        <time>2024-06-28T13:55:23Z</time>
      </trkpt>
      <trkpt lat="24.909537032778623" lon="118.53635075423132">
        <ele>10.11131847742945</ele>
        <time>2024-06-28T13:55:26Z</time>
      </trkpt>
      <trkpt lat="24.909597318838365" lon="118.53602031938382">
        <ele>9.963690528646111</ele>
        <time>2024-06-28T13:55:36Z</time>
      </trkpt>
      <trkpt lat="24.90960405100855" lon="118.53587042355686">
        <ele>10.388485892675817</ele>
        <time>2024-06-28T13:55:40Z</time>
      </trkpt>
      <trkpt lat="24.90966581879584" lon="118.53554351934598">
        <ele>9.394934574142098</ele>
        <time>2024-06-28T13:55:49Z</time>
      </trkpt>
      <trkpt lat="24.90972004974568" lon="118.53521669722213">
        <ele>9.027253882028162</ele>
        <time>2024-06-28T13:55:58Z</time>
      </trkpt>
      <trkpt lat="24.909732302307006" lon="118.53498774218865">
        <ele>8.643220477737486</ele>
        <time>2024-06-28T13:56:04Z</time>
      </trkpt>
      <trkpt lat="24.909752216903577" lon="118.53491663048888">
        <ele>7.779836378991604</ele>
        <time>2024-06-28T13:56:07Z</time>
      </trkpt>
      <trkpt lat="24.910035452772448" lon="118.53497037102954">
        <ele>8.578539572656155</ele>
        <time>2024-06-28T13:56:16Z</time>
      </trkpt>
      <trkpt lat="24.91022548129416" lon="118.53505629936457">
        <ele>9.44447032827884</ele>
        <time>2024-06-28T13:56:22Z</time>
      </trkpt>
      <trkpt lat="24.91051056904484" lon="118.53523672952386">
        <ele>9.773264507763088</ele>
        <time>2024-06-28T13:56:31Z</time>
      </trkpt>
      <trkpt lat="24.91062642611304" lon="118.53525015130617">
        <ele>10.468268802389503</ele>
        <time>2024-06-28T13:56:34Z</time>
      </trkpt>
      <trkpt lat="24.910736173464045" lon="118.53528744889677">
        <ele>10.497921098023653</ele>
        <time>2024-06-28T13:56:37Z</time>
      </trkpt>
      <trkpt lat="24.9109118798051" lon="118.5354085628138">
        <ele>10.358966002240777</ele>
        <time>2024-06-28T13:56:43Z</time>
      </trkpt>
      <trkpt lat="24.911010746810067" lon="118.53544840920046">
        <ele>10.21152994967997</ele>
        <time>2024-06-28T13:56:46Z</time>
      </trkpt>
      <trkpt lat="24.911229876311356" lon="118.53549665591866">
        <ele>11.210057987831533</ele>
        <time>2024-06-28T13:56:52Z</time>
      </trkpt>
      <trkpt lat="24.91149970288883" lon="118.53560070334775">
        <ele>10.041388276033103</ele>
        <time>2024-06-28T13:57:01Z</time>
      </trkpt>
      <trkpt lat="24.91167161726555" lon="118.53570220610638">
        <ele>9.842775270342827</ele>
        <time>2024-06-28T13:57:07Z</time>
      </trkpt>
      <trkpt lat="24.91182840896052" lon="118.53582398101794">
        <ele>10.845154698006809</ele>
        <time>2024-06-28T13:57:13Z</time>
      </trkpt>
      <trkpt lat="24.911924642577944" lon="118.53586213138932">
        <ele>9.845324469730258</ele>
        <time>2024-06-28T13:57:16Z</time>
      </trkpt>
      <trkpt lat="24.912046366686287" lon="118.53585818212419">
        <ele>10.15741727128625</ele>
        <time>2024-06-28T13:57:19Z</time>
      </trkpt>
      <trkpt lat="24.912349369772993" lon="118.53599972493835">
        <ele>10.392533204518259</ele>
        <time>2024-06-28T13:57:28Z</time>
      </trkpt>
      <trkpt lat="24.912430090242104" lon="118.5360601111056">
        <ele>10.578881232067943</ele>
        <time>2024-06-28T13:57:31Z</time>
      </trkpt>
      <trkpt lat="24.912704955813386" lon="118.53616442006113">
        <ele>9.626769782043993</ele>
        <time>2024-06-28T13:57:41Z</time>
      </trkpt>
      <trkpt lat="24.91279842223369" lon="118.53617485984428">
        <ele>9.375139716081321</ele>
        <time>2024-06-28T13:57:44Z</time>
      </trkpt>
      <trkpt lat="24.91305822678846" lon="118.53632428053254">
        <ele>11.813832551240921</ele>
        <time>2024-06-28T13:57:53Z</time>
      </trkpt>
      <trkpt lat="24.913134857876408" lon="118.5364245715659">
        <ele>11.73352029826492</ele>
        <time>2024-06-28T13:57:56Z</time>
      </trkpt>
      <trkpt lat="24.913425458228456" lon="118.53651515145863">
        <ele>12.269099722616374</ele>
        <time>2024-06-28T13:58:05Z</time>
      </trkpt>
      <trkpt lat="24.913634464251786" lon="118.53658003978495">
        <ele>13.086632420308888</ele>
        <time>2024-06-28T13:58:11Z</time>
      </trkpt>
      <trkpt lat="24.913728510234986" lon="118.53663039521273">
        <ele>12.835541661828756</ele>
        <time>2024-06-28T13:58:14Z</time>
      </trkpt>
      <trkpt lat="24.913804656507367" lon="118.53670879135062">
        <ele>13.316420673392713</ele>
        <time>2024-06-28T13:58:17Z</time>
      </trkpt>
      <trkpt lat="24.913901893149237" lon="118.53674067630465">
        <ele>13.017982305027544</ele>
        <time>2024-06-28T13:58:20Z</time>
      </trkpt>
      <trkpt lat="24.91406839890111" lon="118.53683660070337">
        <ele>12.781353233382106</ele>
        <time>2024-06-28T13:58:26Z</time>
      </trkpt>
      <trkpt lat="24.91418443814005" lon="118.53686300843344">
        <ele>12.699373436160386</ele>
        <time>2024-06-28T13:58:29Z</time>
      </trkpt>
      <trkpt lat="24.914453879747807" lon="118.53698365382532">
        <ele>13.120243097655475</ele>
        <time>2024-06-28T13:58:38Z</time>
      </trkpt>
      <trkpt lat="24.91452737394809" lon="118.53705306575652">
        <ele>12.959421494044363</ele>
        <time>2024-06-28T13:58:41Z</time>
      </trkpt>
      <trkpt lat="24.914642903966712" lon="118.53705725335298">
        <ele>13.495988436043262</ele>
        <time>2024-06-28T13:58:44Z</time>
      </trkpt>
      <trkpt lat="24.914742371347575" lon="118.53703491267255">
        <ele>14.195461479946971</ele>
        <time>2024-06-28T13:58:47Z</time>
      </trkpt>
      <trkpt lat="24.91483878684233" lon="118.53707783916192">
        <ele>14.788416754454374</ele>
        <time>2024-06-28T13:58:50Z</time>
      </trkpt>
      <trkpt lat="24.914926359813972" lon="118.53709018457553">
        <ele>15.559491427615285</ele>
        <time>2024-06-28T13:58:53Z</time>
      </trkpt>
      <trkpt lat="24.915017126571595" lon="118.53713339866304">
        <ele>15.365276786498725</ele>
        <time>2024-06-28T13:58:56Z</time>
      </trkpt>
      <trkpt lat="24.91515616727081" lon="118.53730653997366">
        <ele>14.31897134333849</ele>
        <time>2024-06-28T13:59:02Z</time>
      </trkpt>
      <trkpt lat="24.915304785290157" lon="118.5375629723126">
        <ele>16.22794951312244</ele>
        <time>2024-06-28T13:59:11Z</time>
      </trkpt>
      <trkpt lat="24.915361443576074" lon="118.53764884767645">
        <ele>14.587270691990852</ele>
        <time>2024-06-28T13:59:14Z</time>
      </trkpt>
      <trkpt lat="24.915494416033656" lon="118.53801696381286">
        <ele>14.888596454635262</ele>
        <time>2024-06-28T13:59:26Z</time>
      </trkpt>
      <trkpt lat="24.915596166159318" lon="118.53829703632096">
        <ele>15.53238686453551</ele>
        <time>2024-06-28T13:59:35Z</time>
      </trkpt>
      <trkpt lat="24.91562989889667" lon="118.53839874900903">
        <ele>15.63707784190774</ele>
        <time>2024-06-28T13:59:38Z</time>
      </trkpt>
      <trkpt lat="24.915683521692486" lon="118.53848948062942">
        <ele>16.06976779922843</ele>
        <time>2024-06-28T13:59:41Z</time>
      </trkpt>
      <trkpt lat="24.915790780337186" lon="118.53885536010982">
        <ele>15.14638247154653</ele>
        <time>2024-06-28T13:59:51Z</time>
      </trkpt>
      <trkpt lat="24.91581861389122" lon="118.53899626458004">
        <ele>15.556962456554174</ele>
        <time>2024-06-28T13:59:54Z</time>
      </trkpt>
      <trkpt lat="24.91593430820349" lon="118.53931563657787">
        <ele>14.125593049451709</ele>
        <time>2024-06-28T14:00:03Z</time>
      </trkpt>
      <trkpt lat="24.916003128678934" lon="118.53951272782439">
        <ele>13.756069790571928</ele>
        <time>2024-06-28T14:00:09Z</time>
      </trkpt>
      <trkpt lat="24.916065444662195" lon="118.53986468103909">
        <ele>12.900585141964257</ele>
        <time>2024-06-28T14:00:18Z</time>
      </trkpt>
      <trkpt lat="24.916138764657312" lon="118.54007855141023">
        <ele>12.195572133176029</ele>
        <time>2024-06-28T14:00:24Z</time>
      </trkpt>
      <trkpt lat="24.916148967606" lon="118.54018883886343">
        <ele>12.11794183216989</ele>
        <time>2024-06-28T14:00:27Z</time>
      </trkpt>
      <trkpt lat="24.916211865569743" lon="118.54039964662235">
        <ele>12.147209258750081</ele>
        <time>2024-06-28T14:00:33Z</time>
      </trkpt>
      <trkpt lat="24.91625917927005" lon="118.54049714982197">
        <ele>11.68043344002217</ele>
        <time>2024-06-28T14:00:36Z</time>
      </trkpt>
      <trkpt lat="24.916288225087516" lon="118.54072508062735">
        <ele>11.711656671948731</ele>
        <time>2024-06-28T14:00:42Z</time>
      </trkpt>
      <trkpt lat="24.91634506529928" lon="118.54092899728522">
        <ele>12.926345946267247</ele>
        <time>2024-06-28T14:00:48Z</time>
      </trkpt>
      <trkpt lat="24.916355296372032" lon="118.54104465337338">
        <ele>12.735399505123496</ele>
        <time>2024-06-28T14:00:51Z</time>
      </trkpt>
      <trkpt lat="24.916439043518828" lon="118.54137266310626">
        <ele>13.007383937947452</ele>
        <time>2024-06-28T14:01:00Z</time>
      </trkpt>
      <trkpt lat="24.916490683588574" lon="118.54157075168357">
        <ele>12.653717973269522</ele>
        <time>2024-06-28T14:01:06Z</time>
      </trkpt>
      <trkpt lat="24.916565534529244" lon="118.54178378269765">
        <ele>13.423094850964844</ele>
        <time>2024-06-28T14:01:12Z</time>
      </trkpt>
      <trkpt lat="24.916469029555998" lon="118.54188327619237">
        <ele>11.909304480068386</ele>
        <time>2024-06-28T14:01:15Z</time>
      </trkpt>
      <trkpt lat="24.916192339226335" lon="118.54199680814212">
        <ele>12.372014502063394</ele>
        <time>2024-06-28T14:01:21Z</time>
      </trkpt>
      <trkpt lat="24.91608341322232" lon="118.5420260710874">
        <ele>12.559576538391411</ele>
        <time>2024-06-28T14:01:24Z</time>
      </trkpt>
      <trkpt lat="24.915881615685425" lon="118.54211563243751">
        <ele>12.422638481482863</ele>
        <time>2024-06-28T14:01:30Z</time>
      </trkpt>
      <trkpt lat="24.91566124241724" lon="118.54218197021625">
        <ele>11.672808569855988</ele>
        <time>2024-06-28T14:01:36Z</time>
      </trkpt>
      <trkpt lat="24.91555037200575" lon="118.54224021210824">
        <ele>12.107226970605552</ele>
        <time>2024-06-28T14:01:39Z</time>
      </trkpt>
      <trkpt lat="24.915265256472473" lon="118.5423128387664">
        <ele>11.727740419097245</ele>
        <time>2024-06-28T14:01:48Z</time>
      </trkpt>
      <trkpt lat="24.91493031684004" lon="118.54242972257946">
        <ele>11.183272708207369</ele>
        <time>2024-06-28T14:01:58Z</time>
      </trkpt>
      <trkpt lat="24.914772519982566" lon="118.54249946132458">
        <ele>10.228515550494194</ele>
        <time>2024-06-28T14:02:04Z</time>
      </trkpt>
      <trkpt lat="24.91468572544083" lon="118.54249688101117">
        <ele>10.161328461952507</ele>
        <time>2024-06-28T14:02:07Z</time>
      </trkpt>
      <trkpt lat="24.914601139778753" lon="118.54253546921204">
        <ele>9.655120841227472</ele>
        <time>2024-06-28T14:02:10Z</time>
      </trkpt>
      <trkpt lat="24.914497618326745" lon="118.54252433303614">
        <ele>10.697469351813197</ele>
        <time>2024-06-28T14:02:13Z</time>
      </trkpt>
      <trkpt lat="24.914226933624917" lon="118.54258470467829">
        <ele>9.789710049517453</ele>
        <time>2024-06-28T14:02:22Z</time>
      </trkpt>
      <trkpt lat="24.913922502757636" lon="118.54268594847234">
        <ele>9.258222511038184</ele>
        <time>2024-06-28T14:02:31Z</time>
      </trkpt>
      <trkpt lat="24.913724999667497" lon="118.54273664615333">
        <ele>8.218729512766004</ele>
        <time>2024-06-28T14:02:37Z</time>
      </trkpt>
      <trkpt lat="24.91362749414464" lon="118.5427795325746">
        <ele>8.235315804369748</ele>
        <time>2024-06-28T14:02:40Z</time>
      </trkpt>
      <trkpt lat="24.91352519344" lon="118.54278199425978">
        <ele>7.995078016072512</ele>
        <time>2024-06-28T14:02:43Z</time>
      </trkpt>
    </trkseg>
  </trk>
</gpx>