<?xml version="1.0" encoding="UTF-8"?>
<gpx xmlns="http://www.topografix.com/GPX/1/1" xmlns:gpxtpx="http://www.garmin.com/xmlschemas/TrackPointExtension/v1" xmlns:xsi="http://www.w3.org/2001/XMLSchema-instance" xsi:schemaLocation="http://www.topografix.com/GPX/1/1 http://www.topografix.com/GPX/1/1/gpx.xsd" version="1.1" creator="gpx.py -- https://github.com/tkrajina/gpxpy">
  <trk>
    <name>gpx from keep</name>
    <type>Run</type>
    <trkseg>
      <trkpt lat="24.911137848695066" lon="118.5542513932206">
        <ele>20.59759521484375</ele>
        <time>2026-06-19T12:31:12Z</time>
      </trkpt>
      <trkpt lat="24.910983330970815" lon="118.55393677161742">
        <ele>19.804443359375</ele>
        <time>2026-06-19T12:31:21Z</time>
      </trkpt>
      <trkpt lat="24.9108608465105" lon="118.55364619220883">
        <ele>20.820068359375</ele>
        <time>2026-06-19T12:31:30Z</time>
      </trkpt>
      <trkpt lat="24.91076035739269" lon="118.55335660957347">
        <ele>21.8109130859375</ele>
        <time>2026-06-19T12:31:39Z</time>
      </trkpt>
      <trkpt lat="24.91072021262717" lon="118.55327043618799">
        <ele>22.15301513671875</ele>
        <time>2026-06-19T12:31:42Z</time>
      </trkpt>
      <trkpt lat="24.91064612837722" lon="118.5532163305425">
        <ele>23.0909423828125</ele>
        <time>2026-06-19T12:31:45Z</time>
      </trkpt>
      <trkpt lat="24.91061405395424" lon="118.55317124034711">
        <ele>21.630615234375</ele>
        <time>2026-06-19T12:31:48Z</time>
      </trkpt>
      <trkpt lat="24.910577774353403" lon="118.55300890940438">
        <ele>21.12579345703125</ele>
        <time>2026-06-19T12:31:54Z</time>
      </trkpt>
      <trkpt lat="24.910577774353403" lon="118.55300890940438">
        <ele>21.12579345703125</ele>
        <time>2026-06-19T12:31:57Z</time>
      </trkpt>
      <trkpt lat="24.910566701926864" lon="118.55296682353033">
        <ele>25.50335693359375</ele>
        <time>2026-06-19T12:32:30Z</time>
      </trkpt>
      <trkpt lat="24.91047650275539" lon="118.55284658181067">
        <ele>26.1248779296875</ele>
        <time>2026-06-19T12:32:36Z</time>
      </trkpt>
      <trkpt lat="24.910442309396462" lon="118.55273435216145">
        <ele>25.06103515625</ele>
        <time>2026-06-19T12:32:39Z</time>
      </trkpt>
      <trkpt lat="24.910457110505348" lon="118.55262312063654">
        <ele>26.3553466796875</ele>
        <time>2026-06-19T12:32:42Z</time>
      </trkpt>
      <trkpt lat="24.91043889970084" lon="118.55250287210269">
        <ele>25.6029052734375</ele>
        <time>2026-06-19T12:32:45Z</time>
      </trkpt>
      <trkpt lat="24.91025037217984" lon="118.55219223694421">
        <ele>24.5423583984375</ele>
        <time>2026-06-19T12:32:54Z</time>
      </trkpt>
      <trkpt lat="24.910114898450487" lon="118.55191766986994">
        <ele>22.4801025390625</ele>
        <time>2026-06-19T12:33:03Z</time>
      </trkpt>
      <trkpt lat="24.910065304589473" lon="118.55158497040148">
        <ele>26.93402099609375</ele>
        <time>2026-06-19T12:33:12Z</time>
      </trkpt>
      <trkpt lat="24.90990972665901" lon="118.55125527989871">
        <ele>28.25823974609375</ele>
        <time>2026-06-19T12:33:21Z</time>
      </trkpt>
      <trkpt lat="24.909815356722145" lon="118.55104583849612">
        <ele>27.49591064453125</ele>
        <time>2026-06-19T12:33:27Z</time>
      </trkpt>
      <trkpt lat="24.909757221410782" lon="118.55096767486764">
        <ele>26.628662109375</ele>
        <time>2026-06-19T12:33:30Z</time>
      </trkpt>
      <trkpt lat="24.909634673640536" lon="118.55066102306937">
        <ele>29.48681640625</ele>
        <time>2026-06-19T12:33:39Z</time>
      </trkpt>
      <trkpt lat="24.909567127664964" lon="118.55036137864964">
        <ele>33.904541015625</ele>
        <time>2026-06-19T12:33:48Z</time>
      </trkpt>
      <trkpt lat="24.90947158402293" lon="118.55006273451546">
        <ele>33.6497802734375</ele>
        <time>2026-06-19T12:33:57Z</time>
      </trkpt>
      <trkpt lat="24.90934101544264" lon="118.54975005815801">
        <ele>28.302490234375</ele>
        <time>2026-06-19T12:34:06Z</time>
      </trkpt>
      <trkpt lat="24.909218489480672" lon="118.54946243248878">
        <ele>28.4189453125</ele>
        <time>2026-06-19T12:34:15Z</time>
      </trkpt>
      <trkpt lat="24.909101965280463" lon="118.54917780957673">
        <ele>29.79071044921875</ele>
        <time>2026-06-19T12:34:24Z</time>
      </trkpt>
      <trkpt lat="24.908974408851662" lon="118.54887714816132">
        <ele>29.7957763671875</ele>
        <time>2026-06-19T12:34:33Z</time>
      </trkpt>
      <trkpt lat="24.908840820899318" lon="118.54856144955227">
        <ele>31.39630126953125</ele>
        <time>2026-06-19T12:34:42Z</time>
      </trkpt>
      <trkpt lat="24.908727216728295" lon="118.54824073403508">
        <ele>30.93365478515625</ele>
        <time>2026-06-19T12:34:51Z</time>
      </trkpt>
      <trkpt lat="24.908609710889262" lon="118.54797213303347">
        <ele>30.95703125</ele>
        <time>2026-06-19T12:35:00Z</time>
      </trkpt>
      <trkpt lat="24.908564631163404" lon="118.5479280358659">
        <ele>31.07672119140625</ele>
        <time>2026-06-19T12:35:06Z</time>
      </trkpt>
      <trkpt lat="24.90854849254988" lon="118.54785587268535">
        <ele>32.8785400390625</ele>
        <time>2026-06-19T12:35:21Z</time>
      </trkpt>
      <trkpt lat="24.908606384628275" lon="118.54780475215084">
        <ele>33.68865966796875</ele>
        <time>2026-06-19T12:35:24Z</time>
      </trkpt>
      <trkpt lat="24.9087981756117" lon="118.54771152608092">
        <ele>37.661376953125</ele>
        <time>2026-06-19T12:35:33Z</time>
      </trkpt>
      <trkpt lat="24.908845225991534" lon="118.54774058918925">
        <ele>35.6649169921875</ele>
        <time>2026-06-19T12:35:39Z</time>
      </trkpt>
      <trkpt lat="24.9088613198464" lon="118.54778970014685">
        <ele>34.09478759765625</ele>
        <time>2026-06-19T12:35:45Z</time>
      </trkpt>
      <trkpt lat="24.908901400490205" lon="118.54783379791587">
        <ele>28.8597412109375</ele>
        <time>2026-06-19T12:35:54Z</time>
      </trkpt>
      <trkpt lat="24.909018450805377" lon="118.54786786742783">
        <ele>26.55902099609375</ele>
        <time>2026-06-19T12:36:00Z</time>
      </trkpt>
      <trkpt lat="24.909339063204882" lon="118.54769244498596">
        <ele>32.55609130859375</ele>
        <time>2026-06-19T12:36:12Z</time>
      </trkpt>
      <trkpt lat="24.90951489926391" lon="118.54762127005009">
        <ele>33.41485595703125</ele>
        <time>2026-06-19T12:36:18Z</time>
      </trkpt>
      <trkpt lat="24.90978852051605" lon="118.54744785367613">
        <ele>30.97894287109375</ele>
        <time>2026-06-19T12:36:27Z</time>
      </trkpt>
      <trkpt lat="24.910033206006194" lon="118.54730550958405">
        <ele>30.3787841796875</ele>
        <time>2026-06-19T12:36:36Z</time>
      </trkpt>
      <trkpt lat="24.910295860474445" lon="118.54714913102843">
        <ele>31.0833740234375</ele>
        <time>2026-06-19T12:36:45Z</time>
      </trkpt>
      <trkpt lat="24.910551546830966" lon="118.54700878905074">
        <ele>38.13641357421875</ele>
        <time>2026-06-19T12:36:54Z</time>
      </trkpt>
      <trkpt lat="24.910848119034664" lon="118.5468143178383">
        <ele>36.53704833984375</ele>
        <time>2026-06-19T12:37:06Z</time>
      </trkpt>
      <trkpt lat="24.911096806625498" lon="118.54667497674423">
        <ele>35.26495361328125</ele>
        <time>2026-06-19T12:37:15Z</time>
      </trkpt>
      <trkpt lat="24.91114868528067" lon="118.54661784012335">
        <ele>33.94073486328125</ele>
        <time>2026-06-19T12:37:18Z</time>
      </trkpt>
      <trkpt lat="24.911338492467195" lon="118.54653463300149">
        <ele>32.4658203125</ele>
        <time>2026-06-19T12:37:24Z</time>
      </trkpt>
      <trkpt lat="24.911681058894153" lon="118.5463421594979">
        <ele>27.04632568359375</ele>
        <time>2026-06-19T12:37:36Z</time>
      </trkpt>
      <trkpt lat="24.911753897651437" lon="118.54626697836322">
        <ele>26.08660888671875</ele>
        <time>2026-06-19T12:37:39Z</time>
      </trkpt>
      <trkpt lat="24.911799438805794" lon="118.54604244796083">
        <ele>26.5147705078125</ele>
        <time>2026-06-19T12:37:45Z</time>
      </trkpt>
      <trkpt lat="24.911677865163448" lon="118.54575076841742">
        <ele>24.71771240234375</ele>
        <time>2026-06-19T12:37:54Z</time>
      </trkpt>
      <trkpt lat="24.911612474766212" lon="118.54555430762878">
        <ele>24.82666015625</ele>
        <time>2026-06-19T12:38:00Z</time>
      </trkpt>
      <trkpt lat="24.911632257421555" lon="118.54544905632466">
        <ele>25.83990478515625</ele>
        <time>2026-06-19T12:38:03Z</time>
      </trkpt>
      <trkpt lat="24.911620037987202" lon="118.5453407996389">
        <ele>25.2333984375</ele>
        <time>2026-06-19T12:38:06Z</time>
      </trkpt>
      <trkpt lat="24.91149945479034" lon="118.54504810936369">
        <ele>24.96600341796875</ele>
        <time>2026-06-19T12:38:15Z</time>
      </trkpt>
      <trkpt lat="24.911371848806166" lon="118.54474539203616">
        <ele>26.3114013671875</ele>
        <time>2026-06-19T12:38:24Z</time>
      </trkpt>
      <trkpt lat="24.911251292690995" lon="118.54446873353814">
        <ele>24.3145751953125</ele>
        <time>2026-06-19T12:38:33Z</time>
      </trkpt>
      <trkpt lat="24.911100595829733" lon="118.54412390857102">
        <ele>19.0003662109375</ele>
        <time>2026-06-19T12:38:45Z</time>
      </trkpt>
      <trkpt lat="24.911034160602146" lon="118.54391139597642">
        <ele>23.3184814453125</ele>
        <time>2026-06-19T12:38:51Z</time>
      </trkpt>
      <trkpt lat="24.91100174223903" lon="118.54370990620585">
        <ele>24.5999755859375</ele>
        <time>2026-06-19T12:38:57Z</time>
      </trkpt>
      <trkpt lat="24.910967658440324" lon="118.54366780556367">
        <ele>24.0001220703125</ele>
        <time>2026-06-19T12:39:00Z</time>
      </trkpt>
      <trkpt lat="24.910943583738067" lon="118.54363071643094">
        <ele>24.66632080078125</ele>
        <time>2026-06-19T12:39:42Z</time>
      </trkpt>
      <trkpt lat="24.91090641575798" lon="118.54354851757478">
        <ele>24.2705078125</ele>
        <time>2026-06-19T12:39:45Z</time>
      </trkpt>
      <trkpt lat="24.9107129960344" lon="118.54333701146841">
        <ele>22.7691650390625</ele>
        <time>2026-06-19T12:39:54Z</time>
      </trkpt>
      <trkpt lat="24.910622959779026" lon="118.5433139609919">
        <ele>24.01983642578125</ele>
        <time>2026-06-19T12:39:57Z</time>
      </trkpt>
      <trkpt lat="24.910343083522623" lon="118.54335407913003">
        <ele>23.7073974609375</ele>
        <time>2026-06-19T12:40:06Z</time>
      </trkpt>
      <trkpt lat="24.910249096590594" lon="118.543354085669">
        <ele>22.92626953125</ele>
        <time>2026-06-19T12:40:09Z</time>
      </trkpt>
      <trkpt lat="24.910211968133407" lon="118.54329093282495">
        <ele>23.4671630859375</ele>
        <time>2026-06-19T12:40:12Z</time>
      </trkpt>
      <trkpt lat="24.910268796731813" lon="118.54321373869263">
        <ele>23.15802001953125</ele>
        <time>2026-06-19T12:40:15Z</time>
      </trkpt>
      <trkpt lat="24.910263620978785" lon="118.54313053379438">
        <ele>23.5089111328125</ele>
        <time>2026-06-19T12:40:18Z</time>
      </trkpt>
    </trkseg>
  </trk>
</gpx>