<?xml version="1.0" encoding="UTF-8"?>
<gpx xmlns="http://www.topografix.com/GPX/1/1" xmlns:gpxtpx="http://www.garmin.com/xmlschemas/TrackPointExtension/v1" xmlns:xsi="http://www.w3.org/2001/XMLSchema-instance" xsi:schemaLocation="http://www.topografix.com/GPX/1/1 http://www.topografix.com/GPX/1/1/gpx.xsd" version="1.1" creator="gpx.py -- https://github.com/tkrajina/gpxpy">
  <trk>
    <name>gpx from keep</name>
    <type>Ride</type>
    <trkseg>
      <trkpt lat="24.922787838975864" lon="118.56496998724249">
        <ele>6.74715128261596</ele>
        <time>2024-11-26T14:20:46Z</time>
      </trkpt>
      <trkpt lat="24.922589242345847" lon="118.56488639053939">
        <ele>6.818417321890593</ele>
        <time>2024-11-26T14:20:55Z</time>
      </trkpt>
      <trkpt lat="24.922265019294695" lon="118.56466685524401">
        <ele>6.228597958572209</ele>
        <time>2024-11-26T14:21:05Z</time>
      </trkpt>
      <trkpt lat="24.92183324077381" lon="118.56446008252531">
        <ele>6.0438556876033545</ele>
        <time>2024-11-26T14:21:17Z</time>
      </trkpt>
      <trkpt lat="24.921349048320412" lon="118.56425110919186">
        <ele>7.05492375139147</ele>
        <time>2024-11-26T14:21:29Z</time>
      </trkpt>
      <trkpt lat="24.92110794862315" lon="118.56412904375696">
        <ele>6.786122071556747</ele>
        <time>2024-11-26T14:21:35Z</time>
      </trkpt>
      <trkpt lat="24.9207509859875" lon="118.56402772820832">
        <ele>7.503255660645664</ele>
        <time>2024-11-26T14:21:44Z</time>
      </trkpt>
      <trkpt lat="24.920281085002433" lon="118.56382784418544">
        <ele>6.436679760925472</ele>
        <time>2024-11-26T14:21:54Z</time>
      </trkpt>
      <trkpt lat="24.919848987587272" lon="118.56366361304504">
        <ele>6.851980157196522</ele>
        <time>2024-11-26T14:22:06Z</time>
      </trkpt>
      <trkpt lat="24.919539413841306" lon="118.56354184987124">
        <ele>7.6800935585051775</ele>
        <time>2024-11-26T14:22:16Z</time>
      </trkpt>
      <trkpt lat="24.919437593989507" lon="118.56352455865351">
        <ele>7.081903069280088</ele>
        <time>2024-11-26T14:22:20Z</time>
      </trkpt>
      <trkpt lat="24.919467726145434" lon="118.56359917331456">
        <ele>6.886827509850264</ele>
        <time>2024-11-26T14:22:27Z</time>
      </trkpt>
      <trkpt lat="24.919392593913056" lon="118.56366702783966">
        <ele>7.660834218375385</ele>
        <time>2024-11-26T14:22:30Z</time>
      </trkpt>
      <trkpt lat="24.919301554867275" lon="118.56366169063777">
        <ele>7.644765111617744</ele>
        <time>2024-11-26T14:22:32Z</time>
      </trkpt>
      <trkpt lat="24.919134016973896" lon="118.56355172513722">
        <ele>6.976923746056855</ele>
        <time>2024-11-26T14:22:36Z</time>
      </trkpt>
      <trkpt lat="24.91905201767644" lon="118.56353244794354">
        <ele>7.303089280612767</ele>
        <time>2024-11-26T14:22:38Z</time>
      </trkpt>
      <trkpt lat="24.918835398513256" lon="118.5635497315466">
        <ele>7.980087414383888</ele>
        <time>2024-11-26T14:22:43Z</time>
      </trkpt>
      <trkpt lat="24.918569319038347" lon="118.5636905113865">
        <ele>8.462630189023912</ele>
        <time>2024-11-26T14:22:50Z</time>
      </trkpt>
      <trkpt lat="24.91835414003672" lon="118.56388228544095">
        <ele>9.205783693119884</ele>
        <time>2024-11-26T14:22:56Z</time>
      </trkpt>
      <trkpt lat="24.918045124612586" lon="118.56387046618515">
        <ele>9.963292538188398</ele>
        <time>2024-11-26T14:23:02Z</time>
      </trkpt>
      <trkpt lat="24.917925117685634" lon="118.56381218654343">
        <ele>10.018044896423817</ele>
        <time>2024-11-26T14:23:04Z</time>
      </trkpt>
      <trkpt lat="24.917605448608636" lon="118.56355360129496">
        <ele>9.105496786534786</ele>
        <time>2024-11-26T14:23:12Z</time>
      </trkpt>
      <trkpt lat="24.91753986073483" lon="118.56351786019036">
        <ele>8.989350421354175</ele>
        <time>2024-11-26T14:23:14Z</time>
      </trkpt>
      <trkpt lat="24.917411783046546" lon="118.56339742056548">
        <ele>9.192783609963953</ele>
        <time>2024-11-26T14:23:19Z</time>
      </trkpt>
      <trkpt lat="24.91744998760872" lon="118.56347397612792">
        <ele>9.476537996903062</ele>
        <time>2024-11-26T14:23:27Z</time>
      </trkpt>
      <trkpt lat="24.91782051376349" lon="118.56376243641171">
        <ele>8.496966599486768</ele>
        <time>2024-11-26T14:23:39Z</time>
      </trkpt>
      <trkpt lat="24.918017461917" lon="118.563780303952">
        <ele>10.20103534962982</ele>
        <time>2024-11-26T14:23:45Z</time>
      </trkpt>
      <trkpt lat="24.918178568060142" lon="118.5636534871213">
        <ele>8.609734837897122</ele>
        <time>2024-11-26T14:23:50Z</time>
      </trkpt>
      <trkpt lat="24.91822861528467" lon="118.5635950918147">
        <ele>9.749912074767053</ele>
        <time>2024-11-26T14:23:52Z</time>
      </trkpt>
      <trkpt lat="24.918575877839444" lon="118.56347364510741">
        <ele>9.090632100589573</ele>
        <time>2024-11-26T14:24:00Z</time>
      </trkpt>
      <trkpt lat="24.918643460628243" lon="118.5634324893292">
        <ele>9.41958040278405</ele>
        <time>2024-11-26T14:24:02Z</time>
      </trkpt>
      <trkpt lat="24.918722637658664" lon="118.56343749599445">
        <ele>9.651297552511096</ele>
        <time>2024-11-26T14:24:04Z</time>
      </trkpt>
      <trkpt lat="24.919025181508154" lon="118.56353283383918">
        <ele>8.487717365846038</ele>
        <time>2024-11-26T14:24:10Z</time>
      </trkpt>
      <trkpt lat="24.919226744290544" lon="118.56362466242065">
        <ele>7.8480143919587135</ele>
        <time>2024-11-26T14:24:14Z</time>
      </trkpt>
      <trkpt lat="24.91939005308981" lon="118.56377714341738">
        <ele>8.228950251825154</ele>
        <time>2024-11-26T14:24:18Z</time>
      </trkpt>
      <trkpt lat="24.91948993985608" lon="118.56379629589723">
        <ele>7.872373010031879</ele>
        <time>2024-11-26T14:24:20Z</time>
      </trkpt>
      <trkpt lat="24.919567302350448" lon="118.56384709634149">
        <ele>7.839340248145163</ele>
        <time>2024-11-26T14:24:22Z</time>
      </trkpt>
      <trkpt lat="24.91964468977509" lon="118.5638636122323">
        <ele>7.894710232503712</ele>
        <time>2024-11-26T14:24:24Z</time>
      </trkpt>
      <trkpt lat="24.919740034204032" lon="118.56385902180757">
        <ele>7.890019501559436</ele>
        <time>2024-11-26T14:24:26Z</time>
      </trkpt>
      <trkpt lat="24.919822219154714" lon="118.56393294365029">
        <ele>7.6949896132573485</ele>
        <time>2024-11-26T14:24:28Z</time>
      </trkpt>
      <trkpt lat="24.9199046139234" lon="118.56394029621829">
        <ele>7.31734955124557</ele>
        <time>2024-11-26T14:24:32Z</time>
      </trkpt>
      <trkpt lat="24.91994032179412" lon="118.56384059610784">
        <ele>7.6378525868058205</ele>
        <time>2024-11-26T14:24:37Z</time>
      </trkpt>
      <trkpt lat="24.92000433978274" lon="118.56380207591515">
        <ele>7.790633365511894</ele>
        <time>2024-11-26T14:24:41Z</time>
      </trkpt>
      <trkpt lat="24.920158451848526" lon="118.56387197126321">
        <ele>6.674048681743443</ele>
        <time>2024-11-26T14:24:45Z</time>
      </trkpt>
      <trkpt lat="24.9202356587071" lon="118.56394223135344">
        <ele>7.537616356275976</ele>
        <time>2024-11-26T14:24:47Z</time>
      </trkpt>
      <trkpt lat="24.92044471892056" lon="118.56401571763939">
        <ele>7.863044135272503</ele>
        <time>2024-11-26T14:24:51Z</time>
      </trkpt>
      <trkpt lat="24.920544713049928" lon="118.56407170773899">
        <ele>6.958424115553498</ele>
        <time>2024-11-26T14:24:53Z</time>
      </trkpt>
      <trkpt lat="24.920911227992942" lon="118.56420127925867">
        <ele>8.981717554852366</ele>
        <time>2024-11-26T14:25:03Z</time>
      </trkpt>
      <trkpt lat="24.92115487917612" lon="118.5644318900603">
        <ele>9.305992734618485</ele>
        <time>2024-11-26T14:25:09Z</time>
      </trkpt>
      <trkpt lat="24.921211262269576" lon="118.56451078083968">
        <ele>9.328984420746565</ele>
        <time>2024-11-26T14:25:11Z</time>
      </trkpt>
      <trkpt lat="24.92127738754406" lon="118.56496421156866">
        <ele>9.199407441541553</ele>
        <time>2024-11-26T14:25:18Z</time>
      </trkpt>
      <trkpt lat="24.921295865207544" lon="118.56519442796623">
        <ele>9.289456168189645</ele>
        <time>2024-11-26T14:25:22Z</time>
      </trkpt>
      <trkpt lat="24.92129390183955" lon="118.56571779488942">
        <ele>8.788905811496079</ele>
        <time>2024-11-26T14:25:32Z</time>
      </trkpt>
      <trkpt lat="24.921302214394633" lon="118.56624932313946">
        <ele>7.79681652225554</ele>
        <time>2024-11-26T14:25:42Z</time>
      </trkpt>
      <trkpt lat="24.921294400311883" lon="118.56646909902204">
        <ele>7.91131656896323</ele>
        <time>2024-11-26T14:25:46Z</time>
      </trkpt>
      <trkpt lat="24.92127433119018" lon="118.5665799621565">
        <ele>7.791472936980426</ele>
        <time>2024-11-26T14:25:48Z</time>
      </trkpt>
      <trkpt lat="24.921273478702886" lon="118.56711806586716">
        <ele>7.6633612820878625</ele>
        <time>2024-11-26T14:25:58Z</time>
      </trkpt>
      <trkpt lat="24.92125007288887" lon="118.56721428140338">
        <ele>7.469661531969905</ele>
        <time>2024-11-26T14:26:00Z</time>
      </trkpt>
      <trkpt lat="24.921190175235022" lon="118.56727929441398">
        <ele>8.521555201150477</ele>
        <time>2024-11-26T14:26:02Z</time>
      </trkpt>
      <trkpt lat="24.921006316884775" lon="118.56721019486918">
        <ele>7.8180846609175205</ele>
        <time>2024-11-26T14:26:06Z</time>
      </trkpt>
      <trkpt lat="24.920820203448475" lon="118.56718794799676">
        <ele>7.988447302021086</ele>
        <time>2024-11-26T14:26:10Z</time>
      </trkpt>
      <trkpt lat="24.920623716948736" lon="118.56718956446086">
        <ele>8.062228322029114</ele>
        <time>2024-11-26T14:26:14Z</time>
      </trkpt>
      <trkpt lat="24.920174960144983" lon="118.56732863121351">
        <ele>8.425129191018641</ele>
        <time>2024-11-26T14:26:24Z</time>
      </trkpt>
      <trkpt lat="24.91990166058319" lon="118.56742594070616">
        <ele>8.400726137682796</ele>
        <time>2024-11-26T14:26:30Z</time>
      </trkpt>
      <trkpt lat="24.919623032317347" lon="118.56748033414581">
        <ele>7.883900756016374</ele>
        <time>2024-11-26T14:26:36Z</time>
      </trkpt>
      <trkpt lat="24.91914851030086" lon="118.56740841793457">
        <ele>7.790033617988229</ele>
        <time>2024-11-26T14:26:46Z</time>
      </trkpt>
      <trkpt lat="24.918854120478773" lon="118.56727023996979">
        <ele>7.814204530790448</ele>
        <time>2024-11-26T14:26:52Z</time>
      </trkpt>
      <trkpt lat="24.918490754172954" lon="118.56704471533425">
        <ele>7.262040628120303</ele>
        <time>2024-11-26T14:27:00Z</time>
      </trkpt>
      <trkpt lat="24.91799849100926" lon="118.56696937007223">
        <ele>7.438288425095379</ele>
        <time>2024-11-26T14:27:12Z</time>
      </trkpt>
      <trkpt lat="24.91773041282535" lon="118.5669631165881">
        <ele>7.641684640198946</ele>
        <time>2024-11-26T14:27:21Z</time>
      </trkpt>
      <trkpt lat="24.917680721092434" lon="118.5668648388942">
        <ele>7.677304080687463</ele>
        <time>2024-11-26T14:27:24Z</time>
      </trkpt>
      <trkpt lat="24.917663827727722" lon="118.56634914661952">
        <ele>8.55166145041585</ele>
        <time>2024-11-26T14:27:34Z</time>
      </trkpt>
      <trkpt lat="24.917677919064754" lon="118.56601895418866">
        <ele>9.5033817011863</ele>
        <time>2024-11-26T14:27:40Z</time>
      </trkpt>
      <trkpt lat="24.917616471023326" lon="118.56549870121954">
        <ele>9.671028576791286</ele>
        <time>2024-11-26T14:27:50Z</time>
      </trkpt>
      <trkpt lat="24.917553761471254" lon="118.56517736294145">
        <ele>9.723950293846428</ele>
        <time>2024-11-26T14:27:56Z</time>
      </trkpt>
      <trkpt lat="24.91736049310401" lon="118.56468394481075">
        <ele>9.151658257469535</ele>
        <time>2024-11-26T14:28:06Z</time>
      </trkpt>
      <trkpt lat="24.91712891769123" lon="118.56426510715139">
        <ele>9.127429330721498</ele>
        <time>2024-11-26T14:28:16Z</time>
      </trkpt>
      <trkpt lat="24.916940826519127" lon="118.56392563754547">
        <ele>9.486686293035746</ele>
        <time>2024-11-26T14:28:24Z</time>
      </trkpt>
      <trkpt lat="24.916771306122257" lon="118.56373272560049">
        <ele>9.441447172313929</ele>
        <time>2024-11-26T14:28:30Z</time>
      </trkpt>
      <trkpt lat="24.916489436293535" lon="118.5633139971715">
        <ele>10.118568859063089</ele>
        <time>2024-11-26T14:28:42Z</time>
      </trkpt>
      <trkpt lat="24.916225701659872" lon="118.5629206263203">
        <ele>10.026021203026175</ele>
        <time>2024-11-26T14:28:52Z</time>
      </trkpt>
      <trkpt lat="24.91594423425625" lon="118.56252145471639">
        <ele>6.9854065692052245</ele>
        <time>2024-11-26T14:29:02Z</time>
      </trkpt>
      <trkpt lat="24.91564391964893" lon="118.56210376709979">
        <ele>3.7422661781311035</ele>
        <time>2024-11-26T14:29:12Z</time>
      </trkpt>
      <trkpt lat="24.915387718715632" lon="118.5617168481923">
        <ele>3.7047375198453665</ele>
        <time>2024-11-26T14:29:20Z</time>
      </trkpt>
      <trkpt lat="24.91507212886294" lon="118.5612716540199">
        <ele>3.881129336543381</ele>
        <time>2024-11-26T14:29:30Z</time>
      </trkpt>
      <trkpt lat="24.91476822832104" lon="118.56078185877162">
        <ele>5.518998688086867</ele>
        <time>2024-11-26T14:29:42Z</time>
      </trkpt>
      <trkpt lat="24.914481355306222" lon="118.5604472251617">
        <ele>10.858240279369056</ele>
        <time>2024-11-26T14:29:56Z</time>
      </trkpt>
      <trkpt lat="24.91446069426809" lon="118.56035018973269">
        <ele>11.333869420923293</ele>
        <time>2024-11-26T14:29:57Z</time>
      </trkpt>
      <trkpt lat="24.91440123373223" lon="118.5602467279005">
        <ele>11.287422504276037</ele>
        <time>2024-11-26T14:29:59Z</time>
      </trkpt>
      <trkpt lat="24.91436362959944" lon="118.56014095926871">
        <ele>11.14860718138516</ele>
        <time>2024-11-26T14:30:02Z</time>
      </trkpt>
      <trkpt lat="24.914182726625754" lon="118.55983942172018">
        <ele>10.128714016638696</ele>
        <time>2024-11-26T14:30:12Z</time>
      </trkpt>
      <trkpt lat="24.913883356358163" lon="118.55948553268853">
        <ele>10.70303057692945</ele>
        <time>2024-11-26T14:30:20Z</time>
      </trkpt>
      <trkpt lat="24.91379996371088" lon="118.55941351452374">
        <ele>12.015339257195592</ele>
        <time>2024-11-26T14:30:22Z</time>
      </trkpt>
      <trkpt lat="24.913732764117295" lon="118.55931833958151">
        <ele>11.467841098085046</ele>
        <time>2024-11-26T14:30:24Z</time>
      </trkpt>
      <trkpt lat="24.913577905763805" lon="118.55917740485293">
        <ele>11.934746249578893</ele>
        <time>2024-11-26T14:30:28Z</time>
      </trkpt>
      <trkpt lat="24.913361361911925" lon="118.55882458463901">
        <ele>12.123513848520815</ele>
        <time>2024-11-26T14:30:36Z</time>
      </trkpt>
      <trkpt lat="24.913273062184803" lon="118.55856094891777">
        <ele>12.065701670013368</ele>
        <time>2024-11-26T14:30:44Z</time>
      </trkpt>
      <trkpt lat="24.913122628826176" lon="118.55832686275491">
        <ele>12.39439815748483</ele>
        <time>2024-11-26T14:30:52Z</time>
      </trkpt>
      <trkpt lat="24.913035932105277" lon="118.5582729773632">
        <ele>12.447959535755217</ele>
        <time>2024-11-26T14:30:56Z</time>
      </trkpt>
      <trkpt lat="24.913001509269005" lon="118.55820307113915">
        <ele>12.0967832012102</ele>
        <time>2024-11-26T14:30:58Z</time>
      </trkpt>
      <trkpt lat="24.912987252412055" lon="118.55810880020479">
        <ele>11.616300008259714</ele>
        <time>2024-11-26T14:31:00Z</time>
      </trkpt>
      <trkpt lat="24.91278773105892" lon="118.55760412501184">
        <ele>10.00808662828058</ele>
        <time>2024-11-26T14:31:14Z</time>
      </trkpt>
      <trkpt lat="24.912694571951217" lon="118.55741565959993">
        <ele>8.235354421660304</ele>
        <time>2024-11-26T14:31:19Z</time>
      </trkpt>
      <trkpt lat="24.912647038590613" lon="118.55735238749396">
        <ele>8.278199368156493</ele>
        <time>2024-11-26T14:31:21Z</time>
      </trkpt>
      <trkpt lat="24.91242129725409" lon="118.55684680772673">
        <ele>7.749504027888179</ele>
        <time>2024-11-26T14:31:33Z</time>
      </trkpt>
      <trkpt lat="24.912373800551244" lon="118.55665075217753">
        <ele>7.740844917483628</ele>
        <time>2024-11-26T14:31:37Z</time>
      </trkpt>
      <trkpt lat="24.912285282528078" lon="118.55644403670439">
        <ele>6.480119950138032</ele>
        <time>2024-11-26T14:31:41Z</time>
      </trkpt>
      <trkpt lat="24.91215261143422" lon="118.55628068190327">
        <ele>5.9454578049480915</ele>
        <time>2024-11-26T14:31:45Z</time>
      </trkpt>
      <trkpt lat="24.912112614674243" lon="118.55602434168533">
        <ele>6.2782550528645515</ele>
        <time>2024-11-26T14:31:49Z</time>
      </trkpt>
      <trkpt lat="24.91207606088936" lon="118.5559016411331">
        <ele>5.983822021633387</ele>
        <time>2024-11-26T14:31:51Z</time>
      </trkpt>
      <trkpt lat="24.912056189171544" lon="118.55576296920164">
        <ele>6.71618118789047</ele>
        <time>2024-11-26T14:31:53Z</time>
      </trkpt>
      <trkpt lat="24.91187058193742" lon="118.55532792213205">
        <ele>6.488473933190107</ele>
        <time>2024-11-26T14:32:01Z</time>
      </trkpt>
      <trkpt lat="24.911733446620396" lon="118.55502532745818">
        <ele>5.946246363222599</ele>
        <time>2024-11-26T14:32:07Z</time>
      </trkpt>
      <trkpt lat="24.91168248024473" lon="118.55480447541578">
        <ele>6.834212458692491</ele>
        <time>2024-11-26T14:32:11Z</time>
      </trkpt>
      <trkpt lat="24.911675290384455" lon="118.55471354300472">
        <ele>6.720277653075755</ele>
        <time>2024-11-26T14:32:13Z</time>
      </trkpt>
      <trkpt lat="24.911568440634802" lon="118.55452316574682">
        <ele>6.811188290826976</ele>
        <time>2024-11-26T14:32:19Z</time>
      </trkpt>
      <trkpt lat="24.911518724226035" lon="118.55446246422792">
        <ele>7.332036365754902</ele>
        <time>2024-11-26T14:32:21Z</time>
      </trkpt>
      <trkpt lat="24.91132905255203" lon="118.55399536399618">
        <ele>6.891170408576727</ele>
        <time>2024-11-26T14:32:32Z</time>
      </trkpt>
      <trkpt lat="24.911157514444305" lon="118.55352760041283">
        <ele>7.294815177097917</ele>
        <time>2024-11-26T14:32:42Z</time>
      </trkpt>
      <trkpt lat="24.91103012499048" lon="118.55322097749482">
        <ele>7.261662121862173</ele>
        <time>2024-11-26T14:32:48Z</time>
      </trkpt>
      <trkpt lat="24.91100129262269" lon="118.55304473168756">
        <ele>7.374375842511654</ele>
        <time>2024-11-26T14:32:53Z</time>
      </trkpt>
      <trkpt lat="24.911049794022723" lon="118.55297901601442">
        <ele>6.785307304933667</ele>
        <time>2024-11-26T14:33:06Z</time>
      </trkpt>
      <trkpt lat="24.911062974667775" lon="118.55288507117434">
        <ele>7.845234567299485</ele>
        <time>2024-11-26T14:33:35Z</time>
      </trkpt>
      <trkpt lat="24.911049577026272" lon="118.55279825186967">
        <ele>7.917654365301132</ele>
        <time>2024-11-26T14:33:40Z</time>
      </trkpt>
      <trkpt lat="24.911004688551408" lon="118.55270128151568">
        <ele>7.285065308213234</ele>
        <time>2024-11-26T14:33:53Z</time>
      </trkpt>
      <trkpt lat="24.910944450913085" lon="118.55262032576375">
        <ele>7.373997014015913</ele>
        <time>2024-11-26T14:33:56Z</time>
      </trkpt>
      <trkpt lat="24.91092499942103" lon="118.55251748018142">
        <ele>7.578888629563153</ele>
        <time>2024-11-26T14:33:59Z</time>
      </trkpt>
      <trkpt lat="24.910854426990856" lon="118.55247307304272">
        <ele>7.189077714458108</ele>
        <time>2024-11-26T14:34:01Z</time>
      </trkpt>
      <trkpt lat="24.910790331990796" lon="118.55240899138">
        <ele>7.473494002595544</ele>
        <time>2024-11-26T14:34:03Z</time>
      </trkpt>
      <trkpt lat="24.910674733582738" lon="118.55213701793507">
        <ele>7.395754283294082</ele>
        <time>2024-11-26T14:34:09Z</time>
      </trkpt>
      <trkpt lat="24.910403925333675" lon="118.55168334983544">
        <ele>7.977337154559791</ele>
        <time>2024-11-26T14:34:19Z</time>
      </trkpt>
      <trkpt lat="24.91037647691452" lon="118.5516046259418">
        <ele>7.7541736690327525</ele>
        <time>2024-11-26T14:34:21Z</time>
      </trkpt>
      <trkpt lat="24.910236851813895" lon="118.55145447055745">
        <ele>7.84593007247895</ele>
        <time>2024-11-26T14:34:27Z</time>
      </trkpt>
      <trkpt lat="24.91017448948163" lon="118.55136160953427">
        <ele>7.952325686812401</ele>
        <time>2024-11-26T14:34:30Z</time>
      </trkpt>
      <trkpt lat="24.91004791311914" lon="118.55099576280224">
        <ele>7.678163583390415</ele>
        <time>2024-11-26T14:34:38Z</time>
      </trkpt>
      <trkpt lat="24.9099760790494" lon="118.55088564495361">
        <ele>7.945297542028129</ele>
        <time>2024-11-26T14:34:40Z</time>
      </trkpt>
      <trkpt lat="24.90986030330397" lon="118.55059951596199">
        <ele>7.4015888487920165</ele>
        <time>2024-11-26T14:34:46Z</time>
      </trkpt>
      <trkpt lat="24.90983997692152" lon="118.55050896197974">
        <ele>7.571244966238737</ele>
        <time>2024-11-26T14:34:48Z</time>
      </trkpt>
      <trkpt lat="24.909791071319002" lon="118.55042749608948">
        <ele>7.648290320299566</ele>
        <time>2024-11-26T14:34:50Z</time>
      </trkpt>
      <trkpt lat="24.909762559076196" lon="118.5503460084566">
        <ele>7.629319267347455</ele>
        <time>2024-11-26T14:34:52Z</time>
      </trkpt>
      <trkpt lat="24.909706634512556" lon="118.5500445420354">
        <ele>7.421976827085018</ele>
        <time>2024-11-26T14:34:58Z</time>
      </trkpt>
      <trkpt lat="24.909551266377115" lon="118.54978443313615">
        <ele>7.579948981292546</ele>
        <time>2024-11-26T14:35:04Z</time>
      </trkpt>
      <trkpt lat="24.90948730426371" lon="118.54959287254654">
        <ele>7.574604750610888</ele>
        <time>2024-11-26T14:35:08Z</time>
      </trkpt>
      <trkpt lat="24.90935595450946" lon="118.54934690071588">
        <ele>7.329154126346111</ele>
        <time>2024-11-26T14:35:14Z</time>
      </trkpt>
      <trkpt lat="24.90917764121982" lon="118.54885957177646">
        <ele>7.253057098016143</ele>
        <time>2024-11-26T14:35:24Z</time>
      </trkpt>
      <trkpt lat="24.90903794615557" lon="118.54858076659126">
        <ele>7.594461399130523</ele>
        <time>2024-11-26T14:35:30Z</time>
      </trkpt>
      <trkpt lat="24.90898973117055" lon="118.54837235543228">
        <ele>7.859731236472726</ele>
        <time>2024-11-26T14:35:34Z</time>
      </trkpt>
      <trkpt lat="24.908764493316273" lon="118.5479304591267">
        <ele>8.036263657733798</ele>
        <time>2024-11-26T14:35:44Z</time>
      </trkpt>
      <trkpt lat="24.90864693510948" lon="118.54763442087307">
        <ele>7.74146593734622</ele>
        <time>2024-11-26T14:35:50Z</time>
      </trkpt>
      <trkpt lat="24.908560234163076" lon="118.54732840693092">
        <ele>7.748893899843097</ele>
        <time>2024-11-26T14:35:56Z</time>
      </trkpt>
      <trkpt lat="24.90853832888677" lon="118.54709782312214">
        <ele>7.6011760625988245</ele>
        <time>2024-11-26T14:36:00Z</time>
      </trkpt>
      <trkpt lat="24.90844255330102" lon="118.54679265277613">
        <ele>7.047326651401818</ele>
        <time>2024-11-26T14:36:06Z</time>
      </trkpt>
      <trkpt lat="24.90824401327723" lon="118.54629419531562">
        <ele>7.418236053548753</ele>
        <time>2024-11-26T14:36:16Z</time>
      </trkpt>
      <trkpt lat="24.90804476335358" lon="118.54577631580244">
        <ele>8.344624045304954</ele>
        <time>2024-11-26T14:36:28Z</time>
      </trkpt>
      <trkpt lat="24.907991351278962" lon="118.54560131456864">
        <ele>8.17566531803459</ele>
        <time>2024-11-26T14:36:34Z</time>
      </trkpt>
      <trkpt lat="24.90802857394943" lon="118.54553245614923">
        <ele>8.236386432312429</ele>
        <time>2024-11-26T14:36:44Z</time>
      </trkpt>
      <trkpt lat="24.908001428731698" lon="118.54548663902663">
        <ele>8.226948236115277</ele>
        <time>2024-11-26T14:36:53Z</time>
      </trkpt>
    </trkseg>
  </trk>
</gpx>