<?xml version="1.0" encoding="UTF-8"?>
<gpx xmlns="http://www.topografix.com/GPX/1/1" xmlns:gpxtpx="http://www.garmin.com/xmlschemas/TrackPointExtension/v1" xmlns:xsi="http://www.w3.org/2001/XMLSchema-instance" xsi:schemaLocation="http://www.topografix.com/GPX/1/1 http://www.topografix.com/GPX/1/1/gpx.xsd" version="1.1" creator="gpx.py -- https://github.com/tkrajina/gpxpy">
  <trk>
    <name>gpx from keep</name>
    <type>Run</type>
    <trkseg>
      <trkpt lat="24.90937570029318" lon="118.53812576605907">
        <ele>25.241165215848998</ele>
        <time>2023-11-11T14:57:05Z</time>
      </trkpt>
      <trkpt lat="24.90944091608417" lon="118.53778786207593">
        <ele>25.033284956066222</ele>
        <time>2023-11-11T14:57:29Z</time>
      </trkpt>
      <trkpt lat="24.90946119470974" lon="118.53747602699437">
        <ele>26.74289913220764</ele>
        <time>2023-11-11T14:57:50Z</time>
      </trkpt>
      <trkpt lat="24.909491060848502" lon="118.5374198744313">
        <ele>26.108500926239486</ele>
        <time>2023-11-11T14:57:56Z</time>
      </trkpt>
      <trkpt lat="24.90951878102921" lon="118.53730055235405">
        <ele>26.386129153097155</ele>
        <time>2023-11-11T14:58:05Z</time>
      </trkpt>
      <trkpt lat="24.90958359321932" lon="118.53722334041528">
        <ele>25.991728473948747</ele>
        <time>2023-11-11T14:58:11Z</time>
      </trkpt>
      <trkpt lat="24.909584211676698" lon="118.53705889788776">
        <ele>27.87138711762151</ele>
        <time>2023-11-11T14:58:23Z</time>
      </trkpt>
      <trkpt lat="24.90950389653127" lon="118.53691852500022">
        <ele>29.808672776632</ele>
        <time>2023-11-11T14:58:35Z</time>
      </trkpt>
      <trkpt lat="24.90954410297294" lon="118.53658060829005">
        <ele>29.365014989100224</ele>
        <time>2023-11-11T14:58:56Z</time>
      </trkpt>
      <trkpt lat="24.909585719491723" lon="118.53641916736355">
        <ele>29.538869550642445</ele>
        <time>2023-11-11T14:59:05Z</time>
      </trkpt>
      <trkpt lat="24.909576596247028" lon="118.53636602360592">
        <ele>30.379187198518363</ele>
        <time>2023-11-11T14:59:08Z</time>
      </trkpt>
      <trkpt lat="24.909622935283352" lon="118.53608726138154">
        <ele>28.21380572181037</ele>
        <time>2023-11-11T14:59:26Z</time>
      </trkpt>
      <trkpt lat="24.909656306876073" lon="118.53582253579187">
        <ele>28.996330188552726</ele>
        <time>2023-11-11T14:59:41Z</time>
      </trkpt>
      <trkpt lat="24.909679421088164" lon="118.53544951094095">
        <ele>25.362767488282923</ele>
        <time>2023-11-11T15:00:05Z</time>
      </trkpt>
      <trkpt lat="24.909698710743704" lon="118.5351516892359">
        <ele>24.77620551241532</ele>
        <time>2023-11-11T15:00:23Z</time>
      </trkpt>
      <trkpt lat="24.909768120114908" lon="118.53490801094725">
        <ele>24.675823734910665</ele>
        <time>2023-11-11T15:00:41Z</time>
      </trkpt>
      <trkpt lat="24.909830118683345" lon="118.53491101494983">
        <ele>22.1601138471994</ele>
        <time>2023-11-11T15:00:48Z</time>
      </trkpt>
      <trkpt lat="24.91009842827268" lon="118.5350563983178">
        <ele>23.650993704550444</ele>
        <time>2023-11-11T15:01:09Z</time>
      </trkpt>
      <trkpt lat="24.910393666659928" lon="118.53517370164302">
        <ele>24.4204373301957</ele>
        <time>2023-11-11T15:01:33Z</time>
      </trkpt>
      <trkpt lat="24.91070802345334" lon="118.53534214401107">
        <ele>20.973492108301173</ele>
        <time>2023-11-11T15:01:57Z</time>
      </trkpt>
      <trkpt lat="24.910800134434627" lon="118.53539428110065">
        <ele>21.477509090087107</ele>
        <time>2023-11-11T15:02:03Z</time>
      </trkpt>
      <trkpt lat="24.911032202075052" lon="118.53543638076428">
        <ele>24.56696134408901</ele>
        <time>2023-11-11T15:02:21Z</time>
      </trkpt>
      <trkpt lat="24.911289420613823" lon="118.53554365768699">
        <ele>24.981756519819093</ele>
        <time>2023-11-11T15:02:39Z</time>
      </trkpt>
      <trkpt lat="24.911564674231403" lon="118.53566697695685">
        <ele>25.378304427609034</ele>
        <time>2023-11-11T15:03:00Z</time>
      </trkpt>
      <trkpt lat="24.911822972351725" lon="118.53580834629867">
        <ele>23.783547151226646</ele>
        <time>2023-11-11T15:03:18Z</time>
      </trkpt>
      <trkpt lat="24.912117111204562" lon="118.53588453428992">
        <ele>25.11413546409509</ele>
        <time>2023-11-11T15:03:36Z</time>
      </trkpt>
      <trkpt lat="24.91237739864466" lon="118.53602189148573">
        <ele>22.333857198403244</ele>
        <time>2023-11-11T15:03:54Z</time>
      </trkpt>
      <trkpt lat="24.912457500760542" lon="118.53607001725409">
        <ele>22.053844428686503</ele>
        <time>2023-11-11T15:04:00Z</time>
      </trkpt>
      <trkpt lat="24.912429700344273" lon="118.5361532461351">
        <ele>22.031910332591284</ele>
        <time>2023-11-11T15:04:06Z</time>
      </trkpt>
      <trkpt lat="24.91236092425686" lon="118.53624449947077">
        <ele>21.003266280342494</ele>
        <time>2023-11-11T15:04:12Z</time>
      </trkpt>
      <trkpt lat="24.912341331391563" lon="118.53641696981508">
        <ele>21.668380595026473</ele>
        <time>2023-11-11T15:04:24Z</time>
      </trkpt>
      <trkpt lat="24.912321470321118" lon="118.53647512910996">
        <ele>21.251571185298648</ele>
        <time>2023-11-11T15:04:27Z</time>
      </trkpt>
      <trkpt lat="24.912284557580634" lon="118.53651022691687">
        <ele>21.356505618097973</ele>
        <time>2023-11-11T15:04:30Z</time>
      </trkpt>
      <trkpt lat="24.912264722119012" lon="118.53657941591982">
        <ele>21.132121735253705</ele>
        <time>2023-11-11T15:04:33Z</time>
      </trkpt>
      <trkpt lat="24.912163000906208" lon="118.53669272991122">
        <ele>19.768844574842497</ele>
        <time>2023-11-11T15:04:42Z</time>
      </trkpt>
      <trkpt lat="24.91201662163607" lon="118.53695043643239">
        <ele>21.019307862190782</ele>
        <time>2023-11-11T15:05:00Z</time>
      </trkpt>
      <trkpt lat="24.91194796201636" lon="118.53709282495156">
        <ele>21.59520916616394</ele>
        <time>2023-11-11T15:05:09Z</time>
      </trkpt>
      <trkpt lat="24.91189739213687" lon="118.53727531925675">
        <ele>21.076132360363765</ele>
        <time>2023-11-11T15:05:21Z</time>
      </trkpt>
      <trkpt lat="24.911738157959338" lon="118.53759719308394">
        <ele>22.994000496988285</ele>
        <time>2023-11-11T15:05:42Z</time>
      </trkpt>
      <trkpt lat="24.91167554765438" lon="118.53776263947115">
        <ele>21.923279675254236</ele>
        <time>2023-11-11T15:05:54Z</time>
      </trkpt>
      <trkpt lat="24.91165874591639" lon="118.53784786796975">
        <ele>23.915402331782275</ele>
        <time>2023-11-11T15:06:00Z</time>
      </trkpt>
      <trkpt lat="24.911614857959872" lon="118.53789399394407">
        <ele>22.83629888702622</ele>
        <time>2023-11-11T15:06:03Z</time>
      </trkpt>
      <trkpt lat="24.91159006617638" lon="118.53798323327096">
        <ele>21.51332228547795</ele>
        <time>2023-11-11T15:06:09Z</time>
      </trkpt>
      <trkpt lat="24.91147955912435" lon="118.53819179514429">
        <ele>22.09521459954909</ele>
        <time>2023-11-11T15:06:21Z</time>
      </trkpt>
      <trkpt lat="24.911336395476376" lon="118.53854975261697">
        <ele>20.663681097782142</ele>
        <time>2023-11-11T15:06:45Z</time>
      </trkpt>
      <trkpt lat="24.911226829909534" lon="118.53873424678461">
        <ele>25.148807530878816</ele>
        <time>2023-11-11T15:06:57Z</time>
      </trkpt>
      <trkpt lat="24.91109285537996" lon="118.5387372640404">
        <ele>23.272205135952674</ele>
        <time>2023-11-11T15:07:06Z</time>
      </trkpt>
      <trkpt lat="24.910956801491977" lon="118.53870518899643">
        <ele>21.875147891912313</ele>
        <time>2023-11-11T15:07:15Z</time>
      </trkpt>
      <trkpt lat="24.9108456894368" lon="118.5386490487334">
        <ele>21.204938416999852</ele>
        <time>2023-11-11T15:07:24Z</time>
      </trkpt>
      <trkpt lat="24.910796561816284" lon="118.53858989609972">
        <ele>21.946927846072306</ele>
        <time>2023-11-11T15:07:30Z</time>
      </trkpt>
      <trkpt lat="24.910813438590925" lon="118.53853675462963">
        <ele>20.524120018501943</ele>
        <time>2023-11-11T15:07:33Z</time>
      </trkpt>
    </trkseg>
  </trk>
</gpx>