<?xml version="1.0" encoding="UTF-8"?>
<gpx xmlns="http://www.topografix.com/GPX/1/1" xmlns:gpxtpx="http://www.garmin.com/xmlschemas/TrackPointExtension/v1" xmlns:xsi="http://www.w3.org/2001/XMLSchema-instance" xsi:schemaLocation="http://www.topografix.com/GPX/1/1 http://www.topografix.com/GPX/1/1/gpx.xsd" version="1.1" creator="gpx.py -- https://github.com/tkrajina/gpxpy">
  <trk>
    <name>gpx from keep</name>
    <type>Run</type>
    <trkseg>
      <trkpt lat="24.91076935142825" lon="118.53855972321914">
        <ele>10.164013694040477</ele>
        <time>2024-07-13T13:56:22Z</time>
      </trkpt>
      <trkpt lat="24.910463055199017" lon="118.5384760323431">
        <ele>9.38420248683542</ele>
        <time>2024-07-13T13:56:34Z</time>
      </trkpt>
      <trkpt lat="24.910187876959817" lon="118.53842954783082">
        <ele>9.376492807641625</ele>
        <time>2024-07-13T13:56:42Z</time>
      </trkpt>
      <trkpt lat="24.910073079666844" lon="118.53839171424003">
        <ele>9.10273580159992</ele>
        <time>2024-07-13T13:56:46Z</time>
      </trkpt>
      <trkpt lat="24.909690448917992" lon="118.53840137724771">
        <ele>7.8842652486637235</ele>
        <time>2024-07-13T13:56:58Z</time>
      </trkpt>
      <trkpt lat="24.909312206744595" lon="118.53839054539363">
        <ele>7.481766248121858</ele>
        <time>2024-07-13T13:57:10Z</time>
      </trkpt>
      <trkpt lat="24.90921528061876" lon="118.53831511861803">
        <ele>8.887630973011255</ele>
        <time>2024-07-13T13:57:14Z</time>
      </trkpt>
      <trkpt lat="24.909252750225544" lon="118.53807927297954">
        <ele>8.162654387764633</ele>
        <time>2024-07-13T13:57:22Z</time>
      </trkpt>
      <trkpt lat="24.90934318051139" lon="118.53781588947716">
        <ele>8.143271091394126</ele>
        <time>2024-07-13T13:57:30Z</time>
      </trkpt>
      <trkpt lat="24.90937114978943" lon="118.53755136872425">
        <ele>9.149694570340216</ele>
        <time>2024-07-13T13:57:39Z</time>
      </trkpt>
      <trkpt lat="24.909419547909458" lon="118.53736032753812">
        <ele>10.03671879414469</ele>
        <time>2024-07-13T13:57:45Z</time>
      </trkpt>
      <trkpt lat="24.909492596294267" lon="118.53717933061282">
        <ele>9.486527140252292</ele>
        <time>2024-07-13T13:57:51Z</time>
      </trkpt>
      <trkpt lat="24.909523743943947" lon="118.53705673753362">
        <ele>9.159761403687298</ele>
        <time>2024-07-13T13:57:54Z</time>
      </trkpt>
      <trkpt lat="24.909454731766775" lon="118.53697297012786">
        <ele>9.423013342544436</ele>
        <time>2024-07-13T13:57:57Z</time>
      </trkpt>
      <trkpt lat="24.909420227060803" lon="118.53688972911935">
        <ele>10.254739255644381</ele>
        <time>2024-07-13T13:58:00Z</time>
      </trkpt>
      <trkpt lat="24.909530594857717" lon="118.53652566341366">
        <ele>10.404690629802644</ele>
        <time>2024-07-13T13:58:12Z</time>
      </trkpt>
      <trkpt lat="24.909566307361228" lon="118.53643286887213">
        <ele>9.87710393872112</ele>
        <time>2024-07-13T13:58:15Z</time>
      </trkpt>
      <trkpt lat="24.909579336907104" lon="118.53610304127227">
        <ele>10.054949822835624</ele>
        <time>2024-07-13T13:58:25Z</time>
      </trkpt>
      <trkpt lat="24.909638286172317" lon="118.53591180464002">
        <ele>10.365946792066097</ele>
        <time>2024-07-13T13:58:31Z</time>
      </trkpt>
      <trkpt lat="24.909667263845716" lon="118.53553569687661">
        <ele>9.865700495429337</ele>
        <time>2024-07-13T13:58:43Z</time>
      </trkpt>
      <trkpt lat="24.909687896311688" lon="118.535431968758">
        <ele>10.15968253556639</ele>
        <time>2024-07-13T13:58:46Z</time>
      </trkpt>
      <trkpt lat="24.909717708484102" lon="118.53513585082659">
        <ele>9.301967314444482</ele>
        <time>2024-07-13T13:58:55Z</time>
      </trkpt>
      <trkpt lat="24.90972076588345" lon="118.53492839066305">
        <ele>8.02542871516198</ele>
        <time>2024-07-13T13:59:01Z</time>
      </trkpt>
      <trkpt lat="24.909786467988237" lon="118.53488140384492">
        <ele>8.3009387049824</ele>
        <time>2024-07-13T13:59:04Z</time>
      </trkpt>
      <trkpt lat="24.91002743171163" lon="118.53499773986854">
        <ele>8.073663550429046</ele>
        <time>2024-07-13T13:59:13Z</time>
      </trkpt>
      <trkpt lat="24.9103500859012" lon="118.53509406756163">
        <ele>10.37740739248693</ele>
        <time>2024-07-13T13:59:25Z</time>
      </trkpt>
      <trkpt lat="24.910612113646117" lon="118.53518543107452">
        <ele>10.526143287308514</ele>
        <time>2024-07-13T13:59:34Z</time>
      </trkpt>
      <trkpt lat="24.910685957592094" lon="118.53521300624669">
        <ele>10.208047679625452</ele>
        <time>2024-07-13T13:59:37Z</time>
      </trkpt>
      <trkpt lat="24.910865489826342" lon="118.5353242913323">
        <ele>10.111723279580474</ele>
        <time>2024-07-13T13:59:43Z</time>
      </trkpt>
      <trkpt lat="24.91094799366449" lon="118.535349567838">
        <ele>9.884572256356478</ele>
        <time>2024-07-13T13:59:46Z</time>
      </trkpt>
      <trkpt lat="24.911034819593027" lon="118.53540473562214">
        <ele>10.590298878028989</ele>
        <time>2024-07-13T13:59:49Z</time>
      </trkpt>
      <trkpt lat="24.911297682666852" lon="118.5355037800853">
        <ele>9.762058191001415</ele>
        <time>2024-07-13T13:59:58Z</time>
      </trkpt>
      <trkpt lat="24.911533248788587" lon="118.53561372760424">
        <ele>9.977104554884136</ele>
        <time>2024-07-13T14:00:07Z</time>
      </trkpt>
      <trkpt lat="24.911609058521446" lon="118.53569107663179">
        <ele>9.862747184932232</ele>
        <time>2024-07-13T14:00:10Z</time>
      </trkpt>
      <trkpt lat="24.911869398926513" lon="118.53578752005245">
        <ele>10.460794646292925</ele>
        <time>2024-07-13T14:00:19Z</time>
      </trkpt>
      <trkpt lat="24.912056827583775" lon="118.53584848200506">
        <ele>9.62268949020654</ele>
        <time>2024-07-13T14:00:25Z</time>
      </trkpt>
      <trkpt lat="24.91236812355985" lon="118.53597874618261">
        <ele>9.840833152644336</ele>
        <time>2024-07-13T14:00:36Z</time>
      </trkpt>
      <trkpt lat="24.912526744071428" lon="118.53609444024">
        <ele>9.61232228204608</ele>
        <time>2024-07-13T14:00:43Z</time>
      </trkpt>
      <trkpt lat="24.91268931693091" lon="118.53614314146765">
        <ele>9.458851842209697</ele>
        <time>2024-07-13T14:00:49Z</time>
      </trkpt>
      <trkpt lat="24.912782544612075" lon="118.5361473070752">
        <ele>9.405345478095114</ele>
        <time>2024-07-13T14:00:52Z</time>
      </trkpt>
      <trkpt lat="24.912945922398446" lon="118.53623896445322">
        <ele>10.978297176770866</ele>
        <time>2024-07-13T14:00:58Z</time>
      </trkpt>
      <trkpt lat="24.91302177665799" lon="118.53625741173077">
        <ele>11.068517920561135</ele>
        <time>2024-07-13T14:01:01Z</time>
      </trkpt>
      <trkpt lat="24.91309674896117" lon="118.53629749617244">
        <ele>11.39461403619498</ele>
        <time>2024-07-13T14:01:04Z</time>
      </trkpt>
      <trkpt lat="24.913382336726702" lon="118.53634848911058">
        <ele>11.870343932881951</ele>
        <time>2024-07-13T14:01:13Z</time>
      </trkpt>
      <trkpt lat="24.91365420267117" lon="118.53645924153442">
        <ele>12.758463311009109</ele>
        <time>2024-07-13T14:01:22Z</time>
      </trkpt>
      <trkpt lat="24.91380972229416" lon="118.53659059091969">
        <ele>12.707843166776001</ele>
        <time>2024-07-13T14:01:28Z</time>
      </trkpt>
      <trkpt lat="24.914127001136812" lon="118.5367426100811">
        <ele>12.567744377069175</ele>
        <time>2024-07-13T14:01:40Z</time>
      </trkpt>
      <trkpt lat="24.914455354036864" lon="118.53685048888147">
        <ele>12.922575177624822</ele>
        <time>2024-07-13T14:01:52Z</time>
      </trkpt>
      <trkpt lat="24.914527981246117" lon="118.53690677284978">
        <ele>13.103128779679537</ele>
        <time>2024-07-13T14:01:55Z</time>
      </trkpt>
      <trkpt lat="24.91469089145977" lon="118.53698083704342">
        <ele>14.051872753538191</ele>
        <time>2024-07-13T14:02:01Z</time>
      </trkpt>
      <trkpt lat="24.91477401670053" lon="118.53696835572316">
        <ele>14.413514023646712</ele>
        <time>2024-07-13T14:02:04Z</time>
      </trkpt>
      <trkpt lat="24.914932566034686" lon="118.5370523568433">
        <ele>15.080389649607241</ele>
        <time>2024-07-13T14:02:10Z</time>
      </trkpt>
      <trkpt lat="24.91504935639642" lon="118.5371476695473">
        <ele>15.243710158392787</ele>
        <time>2024-07-13T14:02:16Z</time>
      </trkpt>
      <trkpt lat="24.9151065630939" lon="118.53724465691288">
        <ele>14.994374558329582</ele>
        <time>2024-07-13T14:02:19Z</time>
      </trkpt>
      <trkpt lat="24.91521519736641" lon="118.53752187145378">
        <ele>14.77965190447867</ele>
        <time>2024-07-13T14:02:28Z</time>
      </trkpt>
      <trkpt lat="24.915376435324745" lon="118.53781829302801">
        <ele>15.079792375676334</ele>
        <time>2024-07-13T14:02:38Z</time>
      </trkpt>
      <trkpt lat="24.91550788165011" lon="118.53813554465101">
        <ele>15.056420513428748</ele>
        <time>2024-07-13T14:02:49Z</time>
      </trkpt>
      <trkpt lat="24.91562541296183" lon="118.53848644586243">
        <ele>15.85010247118771</ele>
        <time>2024-07-13T14:03:01Z</time>
      </trkpt>
      <trkpt lat="24.91571801363063" lon="118.53879859195662">
        <ele>15.52213929593563</ele>
        <time>2024-07-13T14:03:10Z</time>
      </trkpt>
      <trkpt lat="24.91579522033826" lon="118.53909379529249">
        <ele>14.868528683669865</ele>
        <time>2024-07-13T14:03:19Z</time>
      </trkpt>
      <trkpt lat="24.915872219866063" lon="118.53929309452498">
        <ele>14.582548507489264</ele>
        <time>2024-07-13T14:03:25Z</time>
      </trkpt>
      <trkpt lat="24.915921264040715" lon="118.53950663059233">
        <ele>13.605308004654944</ele>
        <time>2024-07-13T14:03:31Z</time>
      </trkpt>
      <trkpt lat="24.91598523507209" lon="118.53983872189833">
        <ele>12.479366535320878</ele>
        <time>2024-07-13T14:03:41Z</time>
      </trkpt>
      <trkpt lat="24.916069808804743" lon="118.54014049862609">
        <ele>12.132110712118447</ele>
        <time>2024-07-13T14:03:50Z</time>
      </trkpt>
      <trkpt lat="24.916152894605045" lon="118.5404388580652">
        <ele>12.365353839471936</ele>
        <time>2024-07-13T14:03:59Z</time>
      </trkpt>
      <trkpt lat="24.91626560150201" lon="118.5407455311498">
        <ele>11.26174486335367</ele>
        <time>2024-07-13T14:04:08Z</time>
      </trkpt>
      <trkpt lat="24.91630802917304" lon="118.54093717333069">
        <ele>12.892986551858485</ele>
        <time>2024-07-13T14:04:14Z</time>
      </trkpt>
      <trkpt lat="24.916336991462234" lon="118.54124561584358">
        <ele>12.527926583774388</ele>
        <time>2024-07-13T14:04:23Z</time>
      </trkpt>
      <trkpt lat="24.916375190910315" lon="118.54155100748247">
        <ele>12.805427587591112</ele>
        <time>2024-07-13T14:04:32Z</time>
      </trkpt>
      <trkpt lat="24.91642353079238" lon="118.5417689978084">
        <ele>13.380026007071137</ele>
        <time>2024-07-13T14:04:39Z</time>
      </trkpt>
      <trkpt lat="24.9164006602756" lon="118.54190226332966">
        <ele>12.361366845667362</ele>
        <time>2024-07-13T14:04:43Z</time>
      </trkpt>
      <trkpt lat="24.916116685024054" lon="118.54196505361503">
        <ele>12.03469691798091</ele>
        <time>2024-07-13T14:04:51Z</time>
      </trkpt>
      <trkpt lat="24.915827731851685" lon="118.54205578538108">
        <ele>11.581187576055527</ele>
        <time>2024-07-13T14:05:00Z</time>
      </trkpt>
      <trkpt lat="24.915646620586728" lon="118.54213586452362">
        <ele>12.084284781478345</ele>
        <time>2024-07-13T14:05:06Z</time>
      </trkpt>
      <trkpt lat="24.91555716095714" lon="118.54219608078529">
        <ele>12.127336170524359</ele>
        <time>2024-07-13T14:05:09Z</time>
      </trkpt>
      <trkpt lat="24.915387500877998" lon="118.54225157171842">
        <ele>13.014061830937862</ele>
        <time>2024-07-13T14:05:15Z</time>
      </trkpt>
      <trkpt lat="24.915287352372008" lon="118.54226802972633">
        <ele>12.707958173006773</ele>
        <time>2024-07-13T14:05:18Z</time>
      </trkpt>
      <trkpt lat="24.915210784108325" lon="118.54232167212541">
        <ele>12.427536757662892</ele>
        <time>2024-07-13T14:05:21Z</time>
      </trkpt>
      <trkpt lat="24.915032540090316" lon="118.54239708600151">
        <ele>12.342315984889865</ele>
        <time>2024-07-13T14:05:27Z</time>
      </trkpt>
      <trkpt lat="24.914712626905118" lon="118.5424344975553">
        <ele>9.847226888872683</ele>
        <time>2024-07-13T14:05:39Z</time>
      </trkpt>
      <trkpt lat="24.914458554864723" lon="118.54249955750596">
        <ele>10.198238481767476</ele>
        <time>2024-07-13T14:05:48Z</time>
      </trkpt>
      <trkpt lat="24.914174964581992" lon="118.54250279897984">
        <ele>10.273751172237098</ele>
        <time>2024-07-13T14:05:57Z</time>
      </trkpt>
      <trkpt lat="24.91383279233486" lon="118.54262321693683">
        <ele>9.247692400589585</ele>
        <time>2024-07-13T14:06:09Z</time>
      </trkpt>
      <trkpt lat="24.913485737829326" lon="118.54272851263148">
        <ele>8.123255082406104</ele>
        <time>2024-07-13T14:06:21Z</time>
      </trkpt>
      <trkpt lat="24.913205839371532" lon="118.54276544772928">
        <ele>8.462925856932998</ele>
        <time>2024-07-13T14:06:30Z</time>
      </trkpt>
      <trkpt lat="24.91285345666698" lon="118.54285846311095">
        <ele>8.202984363771975</ele>
        <time>2024-07-13T14:06:42Z</time>
      </trkpt>
      <trkpt lat="24.912487335088834" lon="118.54298900933522">
        <ele>9.342702480964363</ele>
        <time>2024-07-13T14:06:54Z</time>
      </trkpt>
      <trkpt lat="24.912217248600452" lon="118.54304158229849">
        <ele>8.123926604166627</ele>
        <time>2024-07-13T14:07:03Z</time>
      </trkpt>
      <trkpt lat="24.9119455575715" lon="118.54312869428023">
        <ele>7.704354005865753</ele>
        <time>2024-07-13T14:07:12Z</time>
      </trkpt>
      <trkpt lat="24.911684042580326" lon="118.54319811423159">
        <ele>8.555215165950358</ele>
        <time>2024-07-13T14:07:21Z</time>
      </trkpt>
      <trkpt lat="24.911593411019332" lon="118.543202875077">
        <ele>8.714559391140938</ele>
        <time>2024-07-13T14:07:24Z</time>
      </trkpt>
      <trkpt lat="24.91142639528894" lon="118.54325014479421">
        <ele>8.847060868516564</ele>
        <time>2024-07-13T14:07:30Z</time>
      </trkpt>
      <trkpt lat="24.911144176086236" lon="118.54328017744942">
        <ele>8.5986208897084</ele>
        <time>2024-07-13T14:07:39Z</time>
      </trkpt>
      <trkpt lat="24.910836944738154" lon="118.54332811445883">
        <ele>8.196670500561595</ele>
        <time>2024-07-13T14:07:48Z</time>
      </trkpt>
      <trkpt lat="24.910558715506262" lon="118.5433553613877">
        <ele>7.663612378761172</ele>
        <time>2024-07-13T14:07:57Z</time>
      </trkpt>
      <trkpt lat="24.910387941686757" lon="118.54334518289036">
        <ele>7.107554852031171</ele>
        <time>2024-07-13T14:08:03Z</time>
      </trkpt>
      <trkpt lat="24.910185226304158" lon="118.54339345711828">
        <ele>7.683079998940229</ele>
        <time>2024-07-13T14:08:09Z</time>
      </trkpt>
      <trkpt lat="24.90988603209647" lon="118.54339332488172">
        <ele>7.096068809740245</ele>
        <time>2024-07-13T14:08:18Z</time>
      </trkpt>
      <trkpt lat="24.90968724500304" lon="118.54339126473658">
        <ele>6.979622036218643</ele>
        <time>2024-07-13T14:08:24Z</time>
      </trkpt>
      <trkpt lat="24.90950729076713" lon="118.54337048734662">
        <ele>7.564935187809169</ele>
        <time>2024-07-13T14:08:30Z</time>
      </trkpt>
      <trkpt lat="24.909152567888864" lon="118.54337543398768">
        <ele>7.633825768716633</ele>
        <time>2024-07-13T14:08:42Z</time>
      </trkpt>
      <trkpt lat="24.90905401053649" lon="118.54334952584405">
        <ele>7.6829578671604395</ele>
        <time>2024-07-13T14:08:45Z</time>
      </trkpt>
      <trkpt lat="24.90867000310756" lon="118.54334531115305">
        <ele>7.580620862543583</ele>
        <time>2024-07-13T14:08:56Z</time>
      </trkpt>
      <trkpt lat="24.908334652197667" lon="118.54337033246767">
        <ele>7.393410211429</ele>
        <time>2024-07-13T14:09:07Z</time>
      </trkpt>
      <trkpt lat="24.908248974497678" lon="118.54337558903313">
        <ele>7.583679908886552</ele>
        <time>2024-07-13T14:09:10Z</time>
      </trkpt>
      <trkpt lat="24.908172671181063" lon="118.54335834438888">
        <ele>8.131690268404782</ele>
        <time>2024-07-13T14:09:13Z</time>
      </trkpt>
      <trkpt lat="24.907914401163517" lon="118.54336573364066">
        <ele>7.475168342702091</ele>
        <time>2024-07-13T14:09:22Z</time>
      </trkpt>
      <trkpt lat="24.907728746413177" lon="118.54338836356614">
        <ele>7.411422420293093</ele>
        <time>2024-07-13T14:09:28Z</time>
      </trkpt>
      <trkpt lat="24.907633518610087" lon="118.54337583634941">
        <ele>7.918868621811271</ele>
        <time>2024-07-13T14:09:31Z</time>
      </trkpt>
      <trkpt lat="24.90754091483719" lon="118.54333276237136">
        <ele>7.729604967869818</ele>
        <time>2024-07-13T14:09:34Z</time>
      </trkpt>
      <trkpt lat="24.90746471113978" lon="118.5432739331202">
        <ele>8.084600928239524</ele>
        <time>2024-07-13T14:09:37Z</time>
      </trkpt>
      <trkpt lat="24.90744462080978" lon="118.54319188104323">
        <ele>8.29831819050014</ele>
        <time>2024-07-13T14:09:40Z</time>
      </trkpt>
      <trkpt lat="24.90754745550422" lon="118.54295078887722">
        <ele>7.697997631505132</ele>
        <time>2024-07-13T14:09:49Z</time>
      </trkpt>
      <trkpt lat="24.90760964909475" lon="118.54286726867124">
        <ele>7.424634920433164</ele>
        <time>2024-07-13T14:09:52Z</time>
      </trkpt>
      <trkpt lat="24.90774188508141" lon="118.5425912020086">
        <ele>7.663653197698295</ele>
        <time>2024-07-13T14:10:01Z</time>
      </trkpt>
      <trkpt lat="24.907863006479047" lon="118.54224223819674">
        <ele>8.262220945209265</ele>
        <time>2024-07-13T14:10:13Z</time>
      </trkpt>
      <trkpt lat="24.908022187225065" lon="118.54191148607154">
        <ele>8.144981937482953</ele>
        <time>2024-07-13T14:10:25Z</time>
      </trkpt>
      <trkpt lat="24.908122064050644" lon="118.54166657270831">
        <ele>9.219654654152691</ele>
        <time>2024-07-13T14:10:34Z</time>
      </trkpt>
      <trkpt lat="24.90818067082296" lon="118.54158304656265">
        <ele>9.618037563748658</ele>
        <time>2024-07-13T14:10:37Z</time>
      </trkpt>
      <trkpt lat="24.908218119172915" lon="118.5414219750504">
        <ele>9.40867305919528</ele>
        <time>2024-07-13T14:10:43Z</time>
      </trkpt>
      <trkpt lat="24.90840814314339" lon="118.54120423030265">
        <ele>8.8188406676054</ele>
        <time>2024-07-13T14:10:52Z</time>
      </trkpt>
      <trkpt lat="24.908457531968867" lon="118.54110194171109">
        <ele>7.935425899922848</ele>
        <time>2024-07-13T14:10:55Z</time>
      </trkpt>
      <trkpt lat="24.908499221965783" lon="118.54096069340169">
        <ele>8.071110104210675</ele>
        <time>2024-07-13T14:10:59Z</time>
      </trkpt>
      <trkpt lat="24.90857685787205" lon="118.54080108056108">
        <ele>7.840579723007977</ele>
        <time>2024-07-13T14:11:03Z</time>
      </trkpt>
      <trkpt lat="24.908695982477425" lon="118.54042291252588">
        <ele>8.217631805688143</ele>
        <time>2024-07-13T14:11:13Z</time>
      </trkpt>
      <trkpt lat="24.908742004236853" lon="118.540181104978">
        <ele>7.880494948476553</ele>
        <time>2024-07-13T14:11:19Z</time>
      </trkpt>
      <trkpt lat="24.908750665864616" lon="118.54004433751997">
        <ele>7.72341307066381</ele>
        <time>2024-07-13T14:11:22Z</time>
      </trkpt>
    </trkseg>
  </trk>
</gpx>