<?xml version="1.0" encoding="UTF-8"?>
<gpx xmlns="http://www.topografix.com/GPX/1/1" xmlns:gpxtpx="http://www.garmin.com/xmlschemas/TrackPointExtension/v1" xmlns:xsi="http://www.w3.org/2001/XMLSchema-instance" xsi:schemaLocation="http://www.topografix.com/GPX/1/1 http://www.topografix.com/GPX/1/1/gpx.xsd" version="1.1" creator="gpx.py -- https://github.com/tkrajina/gpxpy">
  <trk>
    <name>gpx from keep</name>
    <type>Ride</type>
    <trkseg>
      <trkpt lat="24.909110036553045" lon="118.53823278645545">
        <ele>7.725586850196123</ele>
        <time>2024-11-09T22:52:29Z</time>
      </trkpt>
      <trkpt lat="24.909015565395535" lon="118.53850716764724">
        <ele>7.867003628052771</ele>
        <time>2024-11-09T22:52:41Z</time>
      </trkpt>
      <trkpt lat="24.909022699644428" lon="118.53869163174623">
        <ele>8.029842361807823</ele>
        <time>2024-11-09T22:52:45Z</time>
      </trkpt>
      <trkpt lat="24.908986737337994" lon="118.53897281529134">
        <ele>7.728049878031015</ele>
        <time>2024-11-09T22:52:52Z</time>
      </trkpt>
      <trkpt lat="24.908991739277855" lon="118.53905732670717">
        <ele>7.499541976489127</ele>
        <time>2024-11-09T22:52:55Z</time>
      </trkpt>
      <trkpt lat="24.90883222242201" lon="118.53950979153643">
        <ele>7.58773292042315</ele>
        <time>2024-11-09T22:53:10Z</time>
      </trkpt>
      <trkpt lat="24.908732675537667" lon="118.53984199383488">
        <ele>8.097161394543946</ele>
        <time>2024-11-09T22:53:19Z</time>
      </trkpt>
      <trkpt lat="24.908725258423825" lon="118.53997018909646">
        <ele>8.328260474838316</ele>
        <time>2024-11-09T22:53:22Z</time>
      </trkpt>
      <trkpt lat="24.908686882839266" lon="118.54015517984728">
        <ele>7.896711545065045</ele>
        <time>2024-11-09T22:53:27Z</time>
      </trkpt>
      <trkpt lat="24.90859805821036" lon="118.54050983325709">
        <ele>7.748581984080374</ele>
        <time>2024-11-09T22:53:36Z</time>
      </trkpt>
      <trkpt lat="24.908570686755372" lon="118.54082314892106">
        <ele>7.043771070428193</ele>
        <time>2024-11-09T22:53:46Z</time>
      </trkpt>
      <trkpt lat="24.908354402067033" lon="118.5410968817033">
        <ele>7.530949668027461</ele>
        <time>2024-11-09T22:53:54Z</time>
      </trkpt>
      <trkpt lat="24.908297895792735" lon="118.54128183950556">
        <ele>7.763880326412618</ele>
        <time>2024-11-09T22:53:58Z</time>
      </trkpt>
      <trkpt lat="24.90827794241266" lon="118.5414994316246">
        <ele>7.799883239902556</ele>
        <time>2024-11-09T22:54:02Z</time>
      </trkpt>
      <trkpt lat="24.908122757880175" lon="118.54161499015677">
        <ele>8.363291842862964</ele>
        <time>2024-11-09T22:54:09Z</time>
      </trkpt>
      <trkpt lat="24.9080634873922" lon="118.54170334363789">
        <ele>8.994960147887468</ele>
        <time>2024-11-09T22:54:12Z</time>
      </trkpt>
      <trkpt lat="24.908044217009312" lon="118.54184150577443">
        <ele>8.863446360453963</ele>
        <time>2024-11-09T22:54:15Z</time>
      </trkpt>
      <trkpt lat="24.907933675287914" lon="118.54200054748652">
        <ele>8.276071213185787</ele>
        <time>2024-11-09T22:54:21Z</time>
      </trkpt>
      <trkpt lat="24.907780973553464" lon="118.54228128676279">
        <ele>7.569850309751928</ele>
        <time>2024-11-09T22:54:30Z</time>
      </trkpt>
      <trkpt lat="24.907758727630107" lon="118.54237987843027">
        <ele>7.15182935167104</ele>
        <time>2024-11-09T22:54:32Z</time>
      </trkpt>
      <trkpt lat="24.907633000723546" lon="118.54260758836624">
        <ele>8.103573315776885</ele>
        <time>2024-11-09T22:54:38Z</time>
      </trkpt>
      <trkpt lat="24.907575383648513" lon="118.5427432035426">
        <ele>8.031534723006189</ele>
        <time>2024-11-09T22:54:40Z</time>
      </trkpt>
      <trkpt lat="24.907491715734306" lon="118.54330416290573">
        <ele>7.992534038610756</ele>
        <time>2024-11-09T22:54:50Z</time>
      </trkpt>
      <trkpt lat="24.90749205867188" lon="118.5436672034989">
        <ele>7.797379835508764</ele>
        <time>2024-11-09T22:55:08Z</time>
      </trkpt>
      <trkpt lat="24.907515408489175" lon="118.54385525756403">
        <ele>7.9236897667869925</ele>
        <time>2024-11-09T22:55:13Z</time>
      </trkpt>
      <trkpt lat="24.907504655381736" lon="118.54404693499781">
        <ele>7.638904960826039</ele>
        <time>2024-11-09T22:55:17Z</time>
      </trkpt>
      <trkpt lat="24.907562919276952" lon="118.54431540993673">
        <ele>7.512417403049767</ele>
        <time>2024-11-09T22:55:23Z</time>
      </trkpt>
      <trkpt lat="24.907683990782886" lon="118.54461615677089">
        <ele>7.674215001054108</ele>
        <time>2024-11-09T22:55:29Z</time>
      </trkpt>
      <trkpt lat="24.907693874920138" lon="118.54471989006339">
        <ele>7.317794959060848</ele>
        <time>2024-11-09T22:55:31Z</time>
      </trkpt>
      <trkpt lat="24.907869812816543" lon="118.54508239876859">
        <ele>8.188146388158202</ele>
        <time>2024-11-09T22:55:39Z</time>
      </trkpt>
      <trkpt lat="24.907924331563184" lon="118.54528530986144">
        <ele>7.63497778493911</ele>
        <time>2024-11-09T22:55:43Z</time>
      </trkpt>
      <trkpt lat="24.908098747276714" lon="118.54575018171906">
        <ele>7.774871872738004</ele>
        <time>2024-11-09T22:55:51Z</time>
      </trkpt>
      <trkpt lat="24.90823802172949" lon="118.54618386349732">
        <ele>8.284608781337738</ele>
        <time>2024-11-09T22:55:59Z</time>
      </trkpt>
      <trkpt lat="24.908332103794677" lon="118.5463778098014">
        <ele>8.206538200378418</ele>
        <time>2024-11-09T22:56:03Z</time>
      </trkpt>
      <trkpt lat="24.908537001023944" lon="118.54690079629198">
        <ele>8.06448226235807</ele>
        <time>2024-11-09T22:56:14Z</time>
      </trkpt>
      <trkpt lat="24.908624380570586" lon="118.54719073331854">
        <ele>7.695692114531994</ele>
        <time>2024-11-09T22:56:20Z</time>
      </trkpt>
      <trkpt lat="24.90864605464828" lon="118.54730994776212">
        <ele>7.864064857363701</ele>
        <time>2024-11-09T22:56:23Z</time>
      </trkpt>
      <trkpt lat="24.908762571944784" lon="118.54754382112861">
        <ele>7.63124929741025</ele>
        <time>2024-11-09T22:56:29Z</time>
      </trkpt>
      <trkpt lat="24.90879394557953" lon="118.54764319773419">
        <ele>7.819622821174562</ele>
        <time>2024-11-09T22:56:31Z</time>
      </trkpt>
      <trkpt lat="24.908887402863154" lon="118.5477951559787">
        <ele>7.992618593387306</ele>
        <time>2024-11-09T22:56:35Z</time>
      </trkpt>
      <trkpt lat="24.909002939960683" lon="118.54814784465546">
        <ele>7.7528562899678946</ele>
        <time>2024-11-09T22:56:42Z</time>
      </trkpt>
      <trkpt lat="24.90906165660939" lon="118.54822267970154">
        <ele>7.449978941120207</ele>
        <time>2024-11-09T22:56:44Z</time>
      </trkpt>
      <trkpt lat="24.909106786869394" lon="118.54832491380854">
        <ele>7.558689093217254</ele>
        <time>2024-11-09T22:56:46Z</time>
      </trkpt>
      <trkpt lat="24.90912001225635" lon="118.54844701861556">
        <ele>7.574628531001508</ele>
        <time>2024-11-09T22:56:48Z</time>
      </trkpt>
      <trkpt lat="24.909215421017368" lon="118.54867654317643">
        <ele>7.84066375810653</ele>
        <time>2024-11-09T22:56:52Z</time>
      </trkpt>
      <trkpt lat="24.909292890090885" lon="118.54889443161385">
        <ele>7.685391942039132</ele>
        <time>2024-11-09T22:56:56Z</time>
      </trkpt>
      <trkpt lat="24.909348137366504" lon="118.54898434995089">
        <ele>7.9570614118129015</ele>
        <time>2024-11-09T22:56:58Z</time>
      </trkpt>
      <trkpt lat="24.909419493762222" lon="118.54928705717101">
        <ele>7.526050828397274</ele>
        <time>2024-11-09T22:57:05Z</time>
      </trkpt>
      <trkpt lat="24.909500479766276" lon="118.5494885763">
        <ele>7.902664372697473</ele>
        <time>2024-11-09T22:57:09Z</time>
      </trkpt>
      <trkpt lat="24.90958984124988" lon="118.54981069550419">
        <ele>7.4876970164477825</ele>
        <time>2024-11-09T22:57:15Z</time>
      </trkpt>
      <trkpt lat="24.909771316019043" lon="118.5502696825235">
        <ele>7.773849090561271</ele>
        <time>2024-11-09T22:57:25Z</time>
      </trkpt>
      <trkpt lat="24.910021359075486" lon="118.55078602358772">
        <ele>7.727254585362971</ele>
        <time>2024-11-09T22:57:35Z</time>
      </trkpt>
      <trkpt lat="24.910026451471364" lon="118.55101040741674">
        <ele>7.65083603002131</ele>
        <time>2024-11-09T22:57:39Z</time>
      </trkpt>
      <trkpt lat="24.910047661818474" lon="118.55112590628147">
        <ele>7.301472119987011</ele>
        <time>2024-11-09T22:57:41Z</time>
      </trkpt>
      <trkpt lat="24.910262803768283" lon="118.55153372425269">
        <ele>8.285577721893787</ele>
        <time>2024-11-09T22:57:49Z</time>
      </trkpt>
      <trkpt lat="24.910336540074425" lon="118.55161138114784">
        <ele>7.486568813212216</ele>
        <time>2024-11-09T22:57:51Z</time>
      </trkpt>
      <trkpt lat="24.910567537741137" lon="118.55198573487267">
        <ele>7.969354442320764</ele>
        <time>2024-11-09T22:57:59Z</time>
      </trkpt>
      <trkpt lat="24.910655467106572" lon="118.55206957337305">
        <ele>7.550465118139982</ele>
        <time>2024-11-09T22:58:01Z</time>
      </trkpt>
      <trkpt lat="24.910748604691353" lon="118.5522451677144">
        <ele>7.66917777992785</ele>
        <time>2024-11-09T22:58:04Z</time>
      </trkpt>
      <trkpt lat="24.910819114622086" lon="118.55245779730086">
        <ele>7.3315694043412805</ele>
        <time>2024-11-09T22:58:08Z</time>
      </trkpt>
      <trkpt lat="24.91091574474417" lon="118.55259121147796">
        <ele>7.509961408562958</ele>
        <time>2024-11-09T22:58:13Z</time>
      </trkpt>
      <trkpt lat="24.910975801435956" lon="118.55264572131432">
        <ele>7.948380690999329</ele>
        <time>2024-11-09T22:58:27Z</time>
      </trkpt>
      <trkpt lat="24.911089448662544" lon="118.55289548583427">
        <ele>7.973037094809115</ele>
        <time>2024-11-09T22:58:33Z</time>
      </trkpt>
      <trkpt lat="24.911108102598334" lon="118.55303873138931">
        <ele>7.4309380035847425</ele>
        <time>2024-11-09T22:58:37Z</time>
      </trkpt>
      <trkpt lat="24.91108601532804" lon="118.55313313561867">
        <ele>7.651219827122986</ele>
        <time>2024-11-09T22:58:39Z</time>
      </trkpt>
      <trkpt lat="24.91118430485219" lon="118.55341818436555">
        <ele>7.447039124555886</ele>
        <time>2024-11-09T22:58:45Z</time>
      </trkpt>
      <trkpt lat="24.91132983312401" lon="118.553781260349">
        <ele>7.80894660949707</ele>
        <time>2024-11-09T22:58:53Z</time>
      </trkpt>
      <trkpt lat="24.91149550368768" lon="118.55422776815958">
        <ele>8.224554440006614</ele>
        <time>2024-11-09T22:59:02Z</time>
      </trkpt>
      <trkpt lat="24.91169013879149" lon="118.55462814709654">
        <ele>7.962573669850826</ele>
        <time>2024-11-09T22:59:10Z</time>
      </trkpt>
      <trkpt lat="24.911777354905" lon="118.55504883688283">
        <ele>7.82605239469558</ele>
        <time>2024-11-09T22:59:19Z</time>
      </trkpt>
      <trkpt lat="24.912037367396604" lon="118.55553231138039">
        <ele>7.476182640530169</ele>
        <time>2024-11-09T22:59:29Z</time>
      </trkpt>
      <trkpt lat="24.91220592135339" lon="118.55605978814187">
        <ele>7.561031963676214</ele>
        <time>2024-11-09T22:59:39Z</time>
      </trkpt>
      <trkpt lat="24.912390336167526" lon="118.55649484932776">
        <ele>6.438817830756307</ele>
        <time>2024-11-09T22:59:47Z</time>
      </trkpt>
      <trkpt lat="24.91245181965694" lon="118.55669648754572">
        <ele>6.65417986176908</ele>
        <time>2024-11-09T22:59:51Z</time>
      </trkpt>
      <trkpt lat="24.912549770799103" lon="118.55688225440745">
        <ele>7.37355774641037</ele>
        <time>2024-11-09T22:59:55Z</time>
      </trkpt>
      <trkpt lat="24.912625614455862" lon="118.55717514505847">
        <ele>7.3468596478924155</ele>
        <time>2024-11-09T23:00:01Z</time>
      </trkpt>
      <trkpt lat="24.91282278660073" lon="118.5575052321019">
        <ele>7.480922132730484</ele>
        <time>2024-11-09T23:00:07Z</time>
      </trkpt>
      <trkpt lat="24.912988092458374" lon="118.55791027920719">
        <ele>9.535855511203408</ele>
        <time>2024-11-09T23:00:15Z</time>
      </trkpt>
      <trkpt lat="24.913036825184875" lon="118.5579700621245">
        <ele>9.484144433401525</ele>
        <time>2024-11-09T23:00:17Z</time>
      </trkpt>
      <trkpt lat="24.913075918055142" lon="118.55814784280558">
        <ele>10.232954588718712</ele>
        <time>2024-11-09T23:00:24Z</time>
      </trkpt>
      <trkpt lat="24.913178279973014" lon="118.55815506972559">
        <ele>10.926793431863189</ele>
        <time>2024-11-09T23:01:36Z</time>
      </trkpt>
      <trkpt lat="24.91318902143899" lon="118.55823703097111">
        <ele>11.182086813263595</ele>
        <time>2024-11-09T23:01:41Z</time>
      </trkpt>
      <trkpt lat="24.91329184138293" lon="118.55838489536531">
        <ele>12.008782791905105</ele>
        <time>2024-11-09T23:01:48Z</time>
      </trkpt>
      <trkpt lat="24.91340474348746" lon="118.55862058777903">
        <ele>12.19981269352138</ele>
        <time>2024-11-09T23:01:54Z</time>
      </trkpt>
      <trkpt lat="24.913429943586276" lon="118.5587157448208">
        <ele>12.292550256475806</ele>
        <time>2024-11-09T23:01:56Z</time>
      </trkpt>
      <trkpt lat="24.91361955137863" lon="118.55902702227162">
        <ele>13.756785357370973</ele>
        <time>2024-11-09T23:02:04Z</time>
      </trkpt>
      <trkpt lat="24.913680253539734" lon="118.55908780824396">
        <ele>13.654083881527185</ele>
        <time>2024-11-09T23:02:06Z</time>
      </trkpt>
      <trkpt lat="24.913791251137056" lon="118.55914773439342">
        <ele>13.751509556546807</ele>
        <time>2024-11-09T23:02:11Z</time>
      </trkpt>
      <trkpt lat="24.91388629548472" lon="118.55938625897465">
        <ele>14.01970272604376</ele>
        <time>2024-11-09T23:02:14Z</time>
      </trkpt>
      <trkpt lat="24.913900162044317" lon="118.55952045643662">
        <ele>14.449357775971293</ele>
        <time>2024-11-09T23:02:15Z</time>
      </trkpt>
      <trkpt lat="24.913953771077768" lon="118.55964082095906">
        <ele>14.322174778208137</ele>
        <time>2024-11-09T23:02:17Z</time>
      </trkpt>
      <trkpt lat="24.91412009452465" lon="118.55991925638861">
        <ele>13.692116516642272</ele>
        <time>2024-11-09T23:02:23Z</time>
      </trkpt>
      <trkpt lat="24.914207717654655" lon="118.55996884069208">
        <ele>13.044393751770258</ele>
        <time>2024-11-09T23:02:25Z</time>
      </trkpt>
      <trkpt lat="24.914335664764796" lon="118.56010164701074">
        <ele>12.94871716760099</ele>
        <time>2024-11-09T23:02:29Z</time>
      </trkpt>
      <trkpt lat="24.914355939234145" lon="118.56018200092721">
        <ele>13.109892121516168</ele>
        <time>2024-11-09T23:02:30Z</time>
      </trkpt>
      <trkpt lat="24.914408470382007" lon="118.5602404262">
        <ele>13.258053447119892</ele>
        <time>2024-11-09T23:02:32Z</time>
      </trkpt>
      <trkpt lat="24.914489934319327" lon="118.56029802625748">
        <ele>13.241805559024215</ele>
        <time>2024-11-09T23:02:34Z</time>
      </trkpt>
      <trkpt lat="24.914539477508207" lon="118.5603631095513">
        <ele>13.12841488327831</ele>
        <time>2024-11-09T23:02:36Z</time>
      </trkpt>
      <trkpt lat="24.914602593175857" lon="118.56041211264241">
        <ele>13.380314216949046</ele>
        <time>2024-11-09T23:02:40Z</time>
      </trkpt>
      <trkpt lat="24.914761117951695" lon="118.56049194405597">
        <ele>12.839769635349512</ele>
        <time>2024-11-09T23:02:46Z</time>
      </trkpt>
      <trkpt lat="24.91479721436523" lon="118.56059228013503">
        <ele>12.815231922082603</ele>
        <time>2024-11-09T23:02:48Z</time>
      </trkpt>
      <trkpt lat="24.91481283452002" lon="118.56074533829394">
        <ele>12.500675115734339</ele>
        <time>2024-11-09T23:02:50Z</time>
      </trkpt>
      <trkpt lat="24.915077608258386" lon="118.56122392516217">
        <ele>6.098202363587916</ele>
        <time>2024-11-09T23:03:00Z</time>
      </trkpt>
      <trkpt lat="24.915394129445843" lon="118.56166772927057">
        <ele>3.8575638234615326</ele>
        <time>2024-11-09T23:03:10Z</time>
      </trkpt>
      <trkpt lat="24.915694479887552" lon="118.56210336502711">
        <ele>3.602704321965575</ele>
        <time>2024-11-09T23:03:20Z</time>
      </trkpt>
      <trkpt lat="24.91577732689658" lon="118.56219389230009">
        <ele>3.4376504896208644</ele>
        <time>2024-11-09T23:03:22Z</time>
      </trkpt>
      <trkpt lat="24.91606880499052" lon="118.56265697971949">
        <ele>3.5790660744532943</ele>
        <time>2024-11-09T23:03:32Z</time>
      </trkpt>
      <trkpt lat="24.916247100047528" lon="118.5629426995688">
        <ele>6.558143646456301</ele>
        <time>2024-11-09T23:03:38Z</time>
      </trkpt>
      <trkpt lat="24.916428464027742" lon="118.56319662635416">
        <ele>9.546410107053816</ele>
        <time>2024-11-09T23:03:44Z</time>
      </trkpt>
      <trkpt lat="24.916751825780434" lon="118.56362325823721">
        <ele>9.98546963185072</ele>
        <time>2024-11-09T23:03:55Z</time>
      </trkpt>
      <trkpt lat="24.91691569829952" lon="118.56380712171826">
        <ele>9.90572667773813</ele>
        <time>2024-11-09T23:03:59Z</time>
      </trkpt>
      <trkpt lat="24.916995207267945" lon="118.56387407257087">
        <ele>9.4041418870911</ele>
        <time>2024-11-09T23:04:01Z</time>
      </trkpt>
      <trkpt lat="24.917131890945683" lon="118.56407726092826">
        <ele>9.361102448776364</ele>
        <time>2024-11-09T23:04:05Z</time>
      </trkpt>
      <trkpt lat="24.91721666992621" lon="118.56431845912222">
        <ele>9.874797019176185</ele>
        <time>2024-11-09T23:04:09Z</time>
      </trkpt>
      <trkpt lat="24.917276650215086" lon="118.5644123144079">
        <ele>9.51443194039166</ele>
        <time>2024-11-09T23:04:11Z</time>
      </trkpt>
      <trkpt lat="24.917432626969873" lon="118.56474019742576">
        <ele>9.155989861115813</ele>
        <time>2024-11-09T23:04:17Z</time>
      </trkpt>
      <trkpt lat="24.917524965884578" lon="118.5649757951505">
        <ele>9.942836198955774</ele>
        <time>2024-11-09T23:04:21Z</time>
      </trkpt>
      <trkpt lat="24.91762601148098" lon="118.56545944512466">
        <ele>9.805282804183662</ele>
        <time>2024-11-09T23:04:29Z</time>
      </trkpt>
      <trkpt lat="24.91767435135316" lon="118.56583491872863">
        <ele>9.533445041626692</ele>
        <time>2024-11-09T23:04:35Z</time>
      </trkpt>
      <trkpt lat="24.91765625285429" lon="118.56634113314885">
        <ele>9.68781650159508</ele>
        <time>2024-11-09T23:04:43Z</time>
      </trkpt>
      <trkpt lat="24.91763367972988" lon="118.56683364330142">
        <ele>9.106089230626822</ele>
        <time>2024-11-09T23:04:51Z</time>
      </trkpt>
      <trkpt lat="24.917607589457976" lon="118.56706768962188">
        <ele>8.589630365371704</ele>
        <time>2024-11-09T23:04:55Z</time>
      </trkpt>
      <trkpt lat="24.91761105127257" lon="118.56751373840984">
        <ele>8.941491381265223</ele>
        <time>2024-11-09T23:05:03Z</time>
      </trkpt>
      <trkpt lat="24.917590742052855" lon="118.56762857241178">
        <ele>9.25173194333911</ele>
        <time>2024-11-09T23:05:05Z</time>
      </trkpt>
      <trkpt lat="24.917597139466658" lon="118.5678406487273">
        <ele>9.784498371183872</ele>
        <time>2024-11-09T23:05:09Z</time>
      </trkpt>
      <trkpt lat="24.91757930037548" lon="118.56804162291826">
        <ele>9.75627437978983</ele>
        <time>2024-11-09T23:05:13Z</time>
      </trkpt>
      <trkpt lat="24.91758202654397" lon="118.56825474081462">
        <ele>9.9390379935503</ele>
        <time>2024-11-09T23:05:17Z</time>
      </trkpt>
      <trkpt lat="24.917553519488543" lon="118.56833785204087">
        <ele>9.89266987517476</ele>
        <time>2024-11-09T23:05:19Z</time>
      </trkpt>
      <trkpt lat="24.9176173192606" lon="118.56853281248515">
        <ele>9.948324895463884</ele>
        <time>2024-11-09T23:05:24Z</time>
      </trkpt>
      <trkpt lat="24.917611826217833" lon="118.56881330374664">
        <ele>10.365204761736095</ele>
        <time>2024-11-09T23:05:31Z</time>
      </trkpt>
      <trkpt lat="24.917653602490677" lon="118.56893339890145">
        <ele>9.753027181141078</ele>
        <time>2024-11-09T23:05:34Z</time>
      </trkpt>
      <trkpt lat="24.917698758576037" lon="118.5690051784731">
        <ele>10.30767974164337</ele>
        <time>2024-11-09T23:05:36Z</time>
      </trkpt>
      <trkpt lat="24.91778934225875" lon="118.5690457302538">
        <ele>10.057662934996188</ele>
        <time>2024-11-09T23:05:39Z</time>
      </trkpt>
      <trkpt lat="24.91787385130987" lon="118.569117554531">
        <ele>10.150760528631508</ele>
        <time>2024-11-09T23:05:46Z</time>
      </trkpt>
      <trkpt lat="24.917909390522723" lon="118.56920036167566">
        <ele>9.816233021207154</ele>
        <time>2024-11-09T23:05:49Z</time>
      </trkpt>
      <trkpt lat="24.9179159444353" lon="118.56930281707447">
        <ele>10.216088822111487</ele>
        <time>2024-11-09T23:05:52Z</time>
      </trkpt>
      <trkpt lat="24.917974907955593" lon="118.56938895723546">
        <ele>9.813943492248654</ele>
        <time>2024-11-09T23:05:55Z</time>
      </trkpt>
      <trkpt lat="24.91808316227035" lon="118.5694225505338">
        <ele>10.356962564401329</ele>
        <time>2024-11-09T23:05:58Z</time>
      </trkpt>
      <trkpt lat="24.91836593567417" lon="118.56933250189832">
        <ele>10.05687458999455</ele>
        <time>2024-11-09T23:06:04Z</time>
      </trkpt>
      <trkpt lat="24.918469061480167" lon="118.56932407718855">
        <ele>10.068131401203573</ele>
        <time>2024-11-09T23:06:06Z</time>
      </trkpt>
      <trkpt lat="24.918791789068308" lon="118.56920348700011">
        <ele>9.640554499812424</ele>
        <time>2024-11-09T23:06:12Z</time>
      </trkpt>
      <trkpt lat="24.919225949185464" lon="118.56910149818434">
        <ele>9.568578580394387</ele>
        <time>2024-11-09T23:06:20Z</time>
      </trkpt>
      <trkpt lat="24.919547832474624" lon="118.56897072857888">
        <ele>9.962052841670811</ele>
        <time>2024-11-09T23:06:26Z</time>
      </trkpt>
      <trkpt lat="24.920001446370186" lon="118.56885830146683">
        <ele>9.400760296732187</ele>
        <time>2024-11-09T23:06:34Z</time>
      </trkpt>
      <trkpt lat="24.920428810412567" lon="118.56875948167864">
        <ele>9.000504759140313</ele>
        <time>2024-11-09T23:06:42Z</time>
      </trkpt>
      <trkpt lat="24.9205334432167" lon="118.56875020736081">
        <ele>9.318071492016315</ele>
        <time>2024-11-09T23:06:44Z</time>
      </trkpt>
      <trkpt lat="24.92074560891669" lon="118.56877703333342">
        <ele>8.666192744858563</ele>
        <time>2024-11-09T23:06:48Z</time>
      </trkpt>
      <trkpt lat="24.92105643813148" lon="118.56868082954608">
        <ele>9.141705446876585</ele>
        <time>2024-11-09T23:06:54Z</time>
      </trkpt>
      <trkpt lat="24.921479796270923" lon="118.56861453502665">
        <ele>10.1730385273695</ele>
        <time>2024-11-09T23:07:02Z</time>
      </trkpt>
      <trkpt lat="24.921690637627076" lon="118.56862238448896">
        <ele>9.937527996487916</ele>
        <time>2024-11-09T23:07:06Z</time>
      </trkpt>
      <trkpt lat="24.922130525244686" lon="118.5685684480524">
        <ele>9.94129032921046</ele>
        <time>2024-11-09T23:07:14Z</time>
      </trkpt>
      <trkpt lat="24.922327905580865" lon="118.56855513901235">
        <ele>9.216855438426137</ele>
        <time>2024-11-09T23:07:18Z</time>
      </trkpt>
      <trkpt lat="24.922428546620914" lon="118.56853114027163">
        <ele>9.349002653732896</ele>
        <time>2024-11-09T23:07:20Z</time>
      </trkpt>
      <trkpt lat="24.922957654148007" lon="118.5684802001971">
        <ele>10.232026726938784</ele>
        <time>2024-11-09T23:07:30Z</time>
      </trkpt>
      <trkpt lat="24.92337654048" lon="118.5684611237478">
        <ele>10.261670070700347</ele>
        <time>2024-11-09T23:07:38Z</time>
      </trkpt>
      <trkpt lat="24.92347951912369" lon="118.56847943519004">
        <ele>10.06254656612873</ele>
        <time>2024-11-09T23:07:40Z</time>
      </trkpt>
      <trkpt lat="24.92394451735348" lon="118.56842285471947">
        <ele>10.020899780094624</ele>
        <time>2024-11-09T23:07:48Z</time>
      </trkpt>
      <trkpt lat="24.924284382596408" lon="118.56838920177442">
        <ele>10.251301143318415</ele>
        <time>2024-11-09T23:07:54Z</time>
      </trkpt>
      <trkpt lat="24.924399415143498" lon="118.56839546928742">
        <ele>10.350757023319602</ele>
        <time>2024-11-09T23:07:56Z</time>
      </trkpt>
      <trkpt lat="24.92475462789387" lon="118.56832999411685">
        <ele>10.010356023907661</ele>
        <time>2024-11-09T23:08:02Z</time>
      </trkpt>
      <trkpt lat="24.92498316082124" lon="118.56833375662194">
        <ele>9.822705635800958</ele>
        <time>2024-11-09T23:08:06Z</time>
      </trkpt>
      <trkpt lat="24.92508864322142" lon="118.5683188356233">
        <ele>10.188584207557142</ele>
        <time>2024-11-09T23:08:08Z</time>
      </trkpt>
      <trkpt lat="24.925197951485085" lon="118.56834140250163">
        <ele>10.17756198067218</ele>
        <time>2024-11-09T23:08:10Z</time>
      </trkpt>
      <trkpt lat="24.925517904956376" lon="118.5682999283156">
        <ele>10.096544967032969</ele>
        <time>2024-11-09T23:08:16Z</time>
      </trkpt>
      <trkpt lat="24.925722571237117" lon="118.56825750486327">
        <ele>10.046127553097904</ele>
        <time>2024-11-09T23:08:20Z</time>
      </trkpt>
      <trkpt lat="24.92615428149204" lon="118.56820479665117">
        <ele>10.179059509187937</ele>
        <time>2024-11-09T23:08:28Z</time>
      </trkpt>
      <trkpt lat="24.926265514556928" lon="118.56818823863847">
        <ele>10.197120109573007</ele>
        <time>2024-11-09T23:08:30Z</time>
      </trkpt>
      <trkpt lat="24.926514746267703" lon="118.56818870448737">
        <ele>10.16955450642854</ele>
        <time>2024-11-09T23:08:34Z</time>
      </trkpt>
      <trkpt lat="24.926742534952297" lon="118.5681339028049">
        <ele>10.304002112708986</ele>
        <time>2024-11-09T23:08:38Z</time>
      </trkpt>
      <trkpt lat="24.92697485674634" lon="118.56813608814191">
        <ele>9.829756649211049</ele>
        <time>2024-11-09T23:08:42Z</time>
      </trkpt>
      <trkpt lat="24.927217247718083" lon="118.56815945129254">
        <ele>9.890872817486525</ele>
        <time>2024-11-09T23:08:46Z</time>
      </trkpt>
      <trkpt lat="24.927329061989138" lon="118.56815138720121">
        <ele>9.780014286749065</ele>
        <time>2024-11-09T23:08:48Z</time>
      </trkpt>
      <trkpt lat="24.927446706224607" lon="118.56810498054723">
        <ele>10.071621087379754</ele>
        <time>2024-11-09T23:08:50Z</time>
      </trkpt>
      <trkpt lat="24.927908632612397" lon="118.56808968034541">
        <ele>9.884585041552782</ele>
        <time>2024-11-09T23:08:58Z</time>
      </trkpt>
      <trkpt lat="24.92811058725818" lon="118.56805753438346">
        <ele>9.665849010460079</ele>
        <time>2024-11-09T23:09:02Z</time>
      </trkpt>
      <trkpt lat="24.928349392796342" lon="118.56801915144426">
        <ele>9.849083941429853</ele>
        <time>2024-11-09T23:09:06Z</time>
      </trkpt>
      <trkpt lat="24.92878647121642" lon="118.56800530729006">
        <ele>10.405398158356547</ele>
        <time>2024-11-09T23:09:14Z</time>
      </trkpt>
      <trkpt lat="24.929292871027048" lon="118.56794511866063">
        <ele>10.55427663680166</ele>
        <time>2024-11-09T23:09:24Z</time>
      </trkpt>
      <trkpt lat="24.929377096004085" lon="118.56794410011025">
        <ele>10.603395199403167</ele>
        <time>2024-11-09T23:09:26Z</time>
      </trkpt>
      <trkpt lat="24.929467948741298" lon="118.56791012690165">
        <ele>10.768194118514657</ele>
        <time>2024-11-09T23:09:28Z</time>
      </trkpt>
      <trkpt lat="24.929547882283483" lon="118.56793173269693">
        <ele>10.92132587917149</ele>
        <time>2024-11-09T23:09:30Z</time>
      </trkpt>
      <trkpt lat="24.929740733137432" lon="118.56791224055962">
        <ele>10.442920116707683</ele>
        <time>2024-11-09T23:09:34Z</time>
      </trkpt>
      <trkpt lat="24.929899101625622" lon="118.56801983907812">
        <ele>10.51865326333791</ele>
        <time>2024-11-09T23:09:38Z</time>
      </trkpt>
      <trkpt lat="24.92996865991572" lon="118.56810746857826">
        <ele>10.053946426138282</ele>
        <time>2024-11-09T23:09:41Z</time>
      </trkpt>
      <trkpt lat="24.930035436872522" lon="118.56828971164141">
        <ele>9.718137399293482</ele>
        <time>2024-11-09T23:09:45Z</time>
      </trkpt>
      <trkpt lat="24.930053144474552" lon="118.56852165768329">
        <ele>8.123221572488546</ele>
        <time>2024-11-09T23:09:49Z</time>
      </trkpt>
      <trkpt lat="24.930210125132433" lon="118.56893557278272">
        <ele>8.07442875392735</ele>
        <time>2024-11-09T23:09:57Z</time>
      </trkpt>
      <trkpt lat="24.930418567667473" lon="118.56924395221102">
        <ele>9.3167630052194</ele>
        <time>2024-11-09T23:10:03Z</time>
      </trkpt>
      <trkpt lat="24.930546199099627" lon="118.56946468246528">
        <ele>9.570469579659402</ele>
        <time>2024-11-09T23:10:07Z</time>
      </trkpt>
      <trkpt lat="24.930785218895473" lon="118.5698541818006">
        <ele>10.78378501534462</ele>
        <time>2024-11-09T23:10:15Z</time>
      </trkpt>
      <trkpt lat="24.93085870823202" lon="118.56994827148975">
        <ele>11.052753512747586</ele>
        <time>2024-11-09T23:10:17Z</time>
      </trkpt>
      <trkpt lat="24.93089703587869" lon="118.57005795783873">
        <ele>11.46335643529892</ele>
        <time>2024-11-09T23:10:19Z</time>
      </trkpt>
      <trkpt lat="24.93116672676992" lon="118.57045298937432">
        <ele>11.599179772660136</ele>
        <time>2024-11-09T23:10:27Z</time>
      </trkpt>
      <trkpt lat="24.931212716102294" lon="118.57056270245548">
        <ele>11.974311035126448</ele>
        <time>2024-11-09T23:10:29Z</time>
      </trkpt>
      <trkpt lat="24.931555036011932" lon="118.57098103369238">
        <ele>12.711502220481634</ele>
        <time>2024-11-09T23:10:39Z</time>
      </trkpt>
      <trkpt lat="24.931896760985826" lon="118.57125926856416">
        <ele>13.02844232134521</ele>
        <time>2024-11-09T23:10:47Z</time>
      </trkpt>
      <trkpt lat="24.932333644531536" lon="118.57156519265523">
        <ele>12.033399963751435</ele>
        <time>2024-11-09T23:10:57Z</time>
      </trkpt>
      <trkpt lat="24.932455682276856" lon="118.57161070007422">
        <ele>12.363861579447985</ele>
        <time>2024-11-09T23:10:59Z</time>
      </trkpt>
      <trkpt lat="24.93252141606173" lon="118.57166829934164">
        <ele>12.100330489687622</ele>
        <time>2024-11-09T23:11:01Z</time>
      </trkpt>
      <trkpt lat="24.932659770217786" lon="118.57169354476092">
        <ele>12.297292086295784</ele>
        <time>2024-11-09T23:11:03Z</time>
      </trkpt>
      <trkpt lat="24.93307389746191" lon="118.57187998053477">
        <ele>11.94807830825448</ele>
        <time>2024-11-09T23:11:11Z</time>
      </trkpt>
      <trkpt lat="24.933383069153404" lon="118.57203296856684">
        <ele>12.074918673373759</ele>
        <time>2024-11-09T23:11:17Z</time>
      </trkpt>
      <trkpt lat="24.9334806150665" lon="118.57205871005091">
        <ele>12.24368894007057</ele>
        <time>2024-11-09T23:11:19Z</time>
      </trkpt>
      <trkpt lat="24.933689480424558" lon="118.57216369607818">
        <ele>12.161871630698442</ele>
        <time>2024-11-09T23:11:23Z</time>
      </trkpt>
      <trkpt lat="24.93392064756375" lon="118.5722073538968">
        <ele>12.599765514954925</ele>
        <time>2024-11-09T23:11:27Z</time>
      </trkpt>
      <trkpt lat="24.93432218535191" lon="118.57242160000797">
        <ele>12.36151365749538</ele>
        <time>2024-11-09T23:11:35Z</time>
      </trkpt>
      <trkpt lat="24.93440963159889" lon="118.57247322256711">
        <ele>12.864793002605438</ele>
        <time>2024-11-09T23:11:37Z</time>
      </trkpt>
      <trkpt lat="24.93447950715808" lon="118.57254587350495">
        <ele>12.337504641152918</ele>
        <time>2024-11-09T23:11:39Z</time>
      </trkpt>
      <trkpt lat="24.934795732453143" lon="118.57269417295865">
        <ele>13.920842772349715</ele>
        <time>2024-11-09T23:11:45Z</time>
      </trkpt>
      <trkpt lat="24.934862758038083" lon="118.5727533937733">
        <ele>13.940078858286142</ele>
        <time>2024-11-09T23:11:47Z</time>
      </trkpt>
      <trkpt lat="24.935095737402193" lon="118.57277079716036">
        <ele>14.176542890258133</ele>
        <time>2024-11-09T23:11:51Z</time>
      </trkpt>
      <trkpt lat="24.935398667310558" lon="118.57291745479638">
        <ele>14.202104698866606</ele>
        <time>2024-11-09T23:11:57Z</time>
      </trkpt>
      <trkpt lat="24.935481114134355" lon="118.5729886531254">
        <ele>14.643934941850603</ele>
        <time>2024-11-09T23:11:59Z</time>
      </trkpt>
      <trkpt lat="24.935586160613166" lon="118.5730057436581">
        <ele>14.45722257066518</ele>
        <time>2024-11-09T23:12:01Z</time>
      </trkpt>
      <trkpt lat="24.935651520265935" lon="118.57310896717398">
        <ele>14.838195515796542</ele>
        <time>2024-11-09T23:12:03Z</time>
      </trkpt>
      <trkpt lat="24.935779697711705" lon="118.57311755518116">
        <ele>14.607651394791901</ele>
        <time>2024-11-09T23:12:05Z</time>
      </trkpt>
      <trkpt lat="24.93623055759019" lon="118.57338090003914">
        <ele>14.58253323379904</ele>
        <time>2024-11-09T23:12:15Z</time>
      </trkpt>
      <trkpt lat="24.936329307791116" lon="118.57343106183416">
        <ele>14.823163270018995</ele>
        <time>2024-11-09T23:12:17Z</time>
      </trkpt>
      <trkpt lat="24.936441225333017" lon="118.57345539151598">
        <ele>14.837458462454379</ele>
        <time>2024-11-09T23:12:19Z</time>
      </trkpt>
      <trkpt lat="24.936602961436584" lon="118.57358214383686">
        <ele>15.816092629916966</ele>
        <time>2024-11-09T23:12:23Z</time>
      </trkpt>
      <trkpt lat="24.936811924942585" lon="118.57363385700788">
        <ele>15.02610533311963</ele>
        <time>2024-11-09T23:12:27Z</time>
      </trkpt>
      <trkpt lat="24.936904523646326" lon="118.5736910600687">
        <ele>14.727677605114877</ele>
        <time>2024-11-09T23:12:29Z</time>
      </trkpt>
      <trkpt lat="24.937016400953098" lon="118.57368375567475">
        <ele>14.790904633700848</ele>
        <time>2024-11-09T23:12:31Z</time>
      </trkpt>
      <trkpt lat="24.937384694147134" lon="118.57380205831342">
        <ele>12.82758383732289</ele>
        <time>2024-11-09T23:12:39Z</time>
      </trkpt>
      <trkpt lat="24.937541643163794" lon="118.57393424762628">
        <ele>13.032368711195886</ele>
        <time>2024-11-09T23:12:43Z</time>
      </trkpt>
      <trkpt lat="24.937640374029176" lon="118.57396149028598">
        <ele>12.835026687942445</ele>
        <time>2024-11-09T23:12:45Z</time>
      </trkpt>
      <trkpt lat="24.93770450432004" lon="118.57405033873393">
        <ele>12.7705893907696</ele>
        <time>2024-11-09T23:12:47Z</time>
      </trkpt>
      <trkpt lat="24.937902077213682" lon="118.57412923344057">
        <ele>12.508243825286627</ele>
        <time>2024-11-09T23:12:51Z</time>
      </trkpt>
      <trkpt lat="24.938068017732576" lon="118.57422422168268">
        <ele>12.547459031455219</ele>
        <time>2024-11-09T23:12:55Z</time>
      </trkpt>
      <trkpt lat="24.93823167830677" lon="118.57428121454731">
        <ele>12.654081312008202</ele>
        <time>2024-11-09T23:13:00Z</time>
      </trkpt>
      <trkpt lat="24.938365799830564" lon="118.57438469113909">
        <ele>11.310368568636477</ele>
        <time>2024-11-09T23:13:08Z</time>
      </trkpt>
      <trkpt lat="24.938485121423543" lon="118.5744033793158">
        <ele>11.379384025000036</ele>
        <time>2024-11-09T23:13:10Z</time>
      </trkpt>
      <trkpt lat="24.93867308234392" lon="118.57445490323656">
        <ele>11.064526923000813</ele>
        <time>2024-11-09T23:13:14Z</time>
      </trkpt>
      <trkpt lat="24.938765861802583" lon="118.57449746981379">
        <ele>10.22201006859541</ele>
        <time>2024-11-09T23:13:16Z</time>
      </trkpt>
      <trkpt lat="24.938876108309326" lon="118.57452472923727">
        <ele>10.166244588792324</ele>
        <time>2024-11-09T23:13:18Z</time>
      </trkpt>
      <trkpt lat="24.938949105565857" lon="118.5745931981344">
        <ele>9.787757543846965</ele>
        <time>2024-11-09T23:13:20Z</time>
      </trkpt>
      <trkpt lat="24.939146323681044" lon="118.57467070005457">
        <ele>10.665022298693657</ele>
        <time>2024-11-09T23:13:24Z</time>
      </trkpt>
      <trkpt lat="24.93923044055126" lon="118.57471989818349">
        <ele>10.473055892623961</ele>
        <time>2024-11-09T23:13:26Z</time>
      </trkpt>
      <trkpt lat="24.939305155356568" lon="118.57479455953803">
        <ele>10.213086389005184</ele>
        <time>2024-11-09T23:13:28Z</time>
      </trkpt>
      <trkpt lat="24.939394771862055" lon="118.57483149641637">
        <ele>10.111365918070078</ele>
        <time>2024-11-09T23:13:30Z</time>
      </trkpt>
      <trkpt lat="24.93969009137437" lon="118.57484560231082">
        <ele>10.540987906046212</ele>
        <time>2024-11-09T23:13:36Z</time>
      </trkpt>
      <trkpt lat="24.93976913056849" lon="118.5748787146038">
        <ele>11.40932320524007</ele>
        <time>2024-11-09T23:13:38Z</time>
      </trkpt>
      <trkpt lat="24.93990243451796" lon="118.57484853145672">
        <ele>11.640488157980144</ele>
        <time>2024-11-09T23:13:40Z</time>
      </trkpt>
      <trkpt lat="24.93998276588376" lon="118.5747544325561">
        <ele>11.3960290690884</ele>
        <time>2024-11-09T23:13:42Z</time>
      </trkpt>
      <trkpt lat="24.940170577458755" lon="118.57463694582594">
        <ele>11.872929081320763</ele>
        <time>2024-11-09T23:13:46Z</time>
      </trkpt>
      <trkpt lat="24.9403976078173" lon="118.57460378514286">
        <ele>11.920719093643129</ele>
        <time>2024-11-09T23:13:52Z</time>
      </trkpt>
      <trkpt lat="24.940473324815464" lon="118.57454127200153">
        <ele>11.681940513662994</ele>
        <time>2024-11-09T23:13:55Z</time>
      </trkpt>
      <trkpt lat="24.940565827489593" lon="118.57454286407241">
        <ele>11.278987870551646</ele>
        <time>2024-11-09T23:13:59Z</time>
      </trkpt>
      <trkpt lat="24.94066625583507" lon="118.57469757294929">
        <ele>11.347399380989373</ele>
        <time>2024-11-09T23:14:03Z</time>
      </trkpt>
      <trkpt lat="24.940707073841708" lon="118.57478766533458">
        <ele>10.56069213617593</ele>
        <time>2024-11-09T23:14:05Z</time>
      </trkpt>
      <trkpt lat="24.940762560384137" lon="118.57484713762508">
        <ele>10.816858158446848</ele>
        <time>2024-11-09T23:14:07Z</time>
      </trkpt>
      <trkpt lat="24.94085188654632" lon="118.5749061003414">
        <ele>10.830814003013074</ele>
        <time>2024-11-09T23:14:09Z</time>
      </trkpt>
      <trkpt lat="24.940898573958844" lon="118.57499700786286">
        <ele>10.739574237726629</ele>
        <time>2024-11-09T23:14:11Z</time>
      </trkpt>
      <trkpt lat="24.941062275398163" lon="118.57521631353953">
        <ele>10.476630803197622</ele>
        <time>2024-11-09T23:14:17Z</time>
      </trkpt>
      <trkpt lat="24.941087850764596" lon="118.57532095047209">
        <ele>10.262794031761587</ele>
        <time>2024-11-09T23:14:20Z</time>
      </trkpt>
      <trkpt lat="24.94134744014076" lon="118.57573511130656">
        <ele>10.039746167138219</ele>
        <time>2024-11-09T23:14:30Z</time>
      </trkpt>
      <trkpt lat="24.941421584196345" lon="118.5758961725877">
        <ele>9.789202698506415</ele>
        <time>2024-11-09T23:14:34Z</time>
      </trkpt>
      <trkpt lat="24.941675994893746" lon="118.57627810297406">
        <ele>9.824653058312833</ele>
        <time>2024-11-09T23:14:44Z</time>
      </trkpt>
      <trkpt lat="24.94171613423052" lon="118.57636306747702">
        <ele>9.142199110239744</ele>
        <time>2024-11-09T23:14:46Z</time>
      </trkpt>
      <trkpt lat="24.941876813057764" lon="118.57660767986526">
        <ele>9.923583085648715</ele>
        <time>2024-11-09T23:14:52Z</time>
      </trkpt>
      <trkpt lat="24.941927683474983" lon="118.57681330229778">
        <ele>10.161211766302586</ele>
        <time>2024-11-09T23:14:56Z</time>
      </trkpt>
      <trkpt lat="24.941913719882283" lon="118.5769148078335">
        <ele>10.294556971639395</ele>
        <time>2024-11-09T23:14:58Z</time>
      </trkpt>
      <trkpt lat="24.941846016956287" lon="118.5770938341751">
        <ele>10.60916824452579</ele>
        <time>2024-11-09T23:15:02Z</time>
      </trkpt>
      <trkpt lat="24.941759404965325" lon="118.57746518992775">
        <ele>10.181939678266644</ele>
        <time>2024-11-09T23:15:10Z</time>
      </trkpt>
      <trkpt lat="24.941645594631154" lon="118.57776752976076">
        <ele>10.233440643176436</ele>
        <time>2024-11-09T23:15:16Z</time>
      </trkpt>
      <trkpt lat="24.941589907581488" lon="118.57799022087552">
        <ele>10.082554421387613</ele>
        <time>2024-11-09T23:15:20Z</time>
      </trkpt>
      <trkpt lat="24.941451659206102" lon="118.57830973726473">
        <ele>9.795506423339248</ele>
        <time>2024-11-09T23:15:26Z</time>
      </trkpt>
      <trkpt lat="24.941423720017216" lon="118.57842532916163">
        <ele>10.52541649248451</ele>
        <time>2024-11-09T23:15:28Z</time>
      </trkpt>
      <trkpt lat="24.94128330901087" lon="118.57878074812741">
        <ele>9.197419916279614</ele>
        <time>2024-11-09T23:15:34Z</time>
      </trkpt>
      <trkpt lat="24.94114986917355" lon="118.57924594105648">
        <ele>9.644326904788613</ele>
        <time>2024-11-09T23:15:42Z</time>
      </trkpt>
      <trkpt lat="24.94099822549722" lon="118.5797245054384">
        <ele>10.113523009233177</ele>
        <time>2024-11-09T23:15:50Z</time>
      </trkpt>
      <trkpt lat="24.940785306483914" lon="118.5802693138021">
        <ele>10.32851036451757</ele>
        <time>2024-11-09T23:16:00Z</time>
      </trkpt>
      <trkpt lat="24.94071966199333" lon="118.58037555131382">
        <ele>9.422318802215159</ele>
        <time>2024-11-09T23:16:03Z</time>
      </trkpt>
      <trkpt lat="24.940562924267393" lon="118.58088550996804">
        <ele>10.46746358834207</ele>
        <time>2024-11-09T23:16:11Z</time>
      </trkpt>
      <trkpt lat="24.940391620080163" lon="118.58135009663559">
        <ele>10.476456028409302</ele>
        <time>2024-11-09T23:16:19Z</time>
      </trkpt>
      <trkpt lat="24.940221543769617" lon="118.58185022032333">
        <ele>10.058505047112703</ele>
        <time>2024-11-09T23:16:29Z</time>
      </trkpt>
      <trkpt lat="24.94015506740422" lon="118.58203000426106">
        <ele>10.032651883549988</ele>
        <time>2024-11-09T23:16:33Z</time>
      </trkpt>
      <trkpt lat="24.94014550591739" lon="118.58216052497478">
        <ele>10.483623473905027</ele>
        <time>2024-11-09T23:16:35Z</time>
      </trkpt>
      <trkpt lat="24.94005650383062" lon="118.58246632174016">
        <ele>10.153216050937772</ele>
        <time>2024-11-09T23:16:41Z</time>
      </trkpt>
      <trkpt lat="24.939977651928285" lon="118.58266452161092">
        <ele>10.383376216515899</ele>
        <time>2024-11-09T23:16:45Z</time>
      </trkpt>
      <trkpt lat="24.939892733317972" lon="118.58296341252624">
        <ele>10.074106878601015</ele>
        <time>2024-11-09T23:16:51Z</time>
      </trkpt>
      <trkpt lat="24.939719727422222" lon="118.5834652624634">
        <ele>10.09607686381787</ele>
        <time>2024-11-09T23:17:01Z</time>
      </trkpt>
      <trkpt lat="24.939671193800173" lon="118.5836430274197">
        <ele>10.12330556474626</ele>
        <time>2024-11-09T23:17:05Z</time>
      </trkpt>
      <trkpt lat="24.939709258848275" lon="118.58417561466474">
        <ele>9.775284424424171</ele>
        <time>2024-11-09T23:17:15Z</time>
      </trkpt>
      <trkpt lat="24.939698702486986" lon="118.58427579134275">
        <ele>9.930613760836422</ele>
        <time>2024-11-09T23:17:17Z</time>
      </trkpt>
      <trkpt lat="24.939759563579898" lon="118.58447965079883">
        <ele>10.003977577202022</ele>
        <time>2024-11-09T23:17:21Z</time>
      </trkpt>
      <trkpt lat="24.939829497604904" lon="118.58505445905693">
        <ele>9.930203380994499</ele>
        <time>2024-11-09T23:17:32Z</time>
      </trkpt>
      <trkpt lat="24.93993903997292" lon="118.58557462405605">
        <ele>10.08320879098028</ele>
        <time>2024-11-09T23:17:42Z</time>
      </trkpt>
      <trkpt lat="24.93997225594864" lon="118.58579174204634">
        <ele>10.316557667218149</ele>
        <time>2024-11-09T23:17:46Z</time>
      </trkpt>
      <trkpt lat="24.940043517031526" lon="118.58597512699093">
        <ele>10.310237907804549</ele>
        <time>2024-11-09T23:17:50Z</time>
      </trkpt>
      <trkpt lat="24.940102064539136" lon="118.58624456768509">
        <ele>10.076453369110823</ele>
        <time>2024-11-09T23:17:56Z</time>
      </trkpt>
      <trkpt lat="24.94013049577266" lon="118.5866265741995">
        <ele>9.996498647145927</ele>
        <time>2024-11-09T23:18:05Z</time>
      </trkpt>
      <trkpt lat="24.940159494455333" lon="118.58670548516379">
        <ele>10.093394566327333</ele>
        <time>2024-11-09T23:18:08Z</time>
      </trkpt>
      <trkpt lat="24.940252400398023" lon="118.58669341786306">
        <ele>9.913963553495705</ele>
        <time>2024-11-09T23:18:13Z</time>
      </trkpt>
      <trkpt lat="24.940331188403103" lon="118.58665134763164">
        <ele>9.875182313844562</ele>
        <time>2024-11-09T23:18:15Z</time>
      </trkpt>
      <trkpt lat="24.940520813930476" lon="118.58659905491477">
        <ele>9.857822828926146</ele>
        <time>2024-11-09T23:18:19Z</time>
      </trkpt>
      <trkpt lat="24.940626791253916" lon="118.58661091418396">
        <ele>9.955716985277832</ele>
        <time>2024-11-09T23:18:21Z</time>
      </trkpt>
      <trkpt lat="24.940846224669997" lon="118.58651985621958">
        <ele>10.275600234046578</ele>
        <time>2024-11-09T23:18:25Z</time>
      </trkpt>
      <trkpt lat="24.940995442076108" lon="118.5864244167629">
        <ele>11.047746424563229</ele>
        <time>2024-11-09T23:18:29Z</time>
      </trkpt>
      <trkpt lat="24.941196927618257" lon="118.5863796751928">
        <ele>11.920184787362814</ele>
        <time>2024-11-09T23:18:32Z</time>
      </trkpt>
      <trkpt lat="24.94165564082389" lon="118.58620215210219">
        <ele>11.729480601847172</ele>
        <time>2024-11-09T23:18:42Z</time>
      </trkpt>
      <trkpt lat="24.94208175282517" lon="118.58599085774773">
        <ele>11.247106996364892</ele>
        <time>2024-11-09T23:18:54Z</time>
      </trkpt>
      <trkpt lat="24.942518276201106" lon="118.58582076974318">
        <ele>11.757007805630565</ele>
        <time>2024-11-09T23:19:04Z</time>
      </trkpt>
      <trkpt lat="24.942995291880457" lon="118.5856518003238">
        <ele>12.459622252732515</ele>
        <time>2024-11-09T23:19:14Z</time>
      </trkpt>
      <trkpt lat="24.94349965697269" lon="118.58546471612647">
        <ele>12.205379848368466</ele>
        <time>2024-11-09T23:19:24Z</time>
      </trkpt>
      <trkpt lat="24.94396192003119" lon="118.58524568483112">
        <ele>12.110209658741951</ele>
        <time>2024-11-09T23:19:35Z</time>
      </trkpt>
      <trkpt lat="24.94440666469265" lon="118.58505490409085">
        <ele>11.784425226040184</ele>
        <time>2024-11-09T23:19:45Z</time>
      </trkpt>
      <trkpt lat="24.944874045451947" lon="118.5848733603233">
        <ele>12.82288274075836</ele>
        <time>2024-11-09T23:19:55Z</time>
      </trkpt>
      <trkpt lat="24.945074447286018" lon="118.58482757340691">
        <ele>12.872136319987476</ele>
        <time>2024-11-09T23:19:59Z</time>
      </trkpt>
      <trkpt lat="24.945475547962683" lon="118.5846773590196">
        <ele>11.795720140449703</ele>
        <time>2024-11-09T23:20:08Z</time>
      </trkpt>
      <trkpt lat="24.94581868784805" lon="118.5845280676494">
        <ele>11.396998447366059</ele>
        <time>2024-11-09T23:20:16Z</time>
      </trkpt>
      <trkpt lat="24.945904996710453" lon="118.58451516654172">
        <ele>10.602938516065478</ele>
        <time>2024-11-09T23:20:18Z</time>
      </trkpt>
      <trkpt lat="24.945933621989507" lon="118.58453784034482">
        <ele>10.548080109991133</ele>
        <time>2024-11-09T23:20:33Z</time>
      </trkpt>
    </trkseg>
  </trk>
</gpx>