<?xml version="1.0" encoding="UTF-8"?>
<gpx xmlns="http://www.topografix.com/GPX/1/1" xmlns:gpxtpx="http://www.garmin.com/xmlschemas/TrackPointExtension/v1" xmlns:xsi="http://www.w3.org/2001/XMLSchema-instance" xsi:schemaLocation="http://www.topografix.com/GPX/1/1 http://www.topografix.com/GPX/1/1/gpx.xsd" version="1.1" creator="gpx.py -- https://github.com/tkrajina/gpxpy">
  <trk>
    <name>gpx from keep</name>
    <type>Run</type>
    <trkseg>
      <trkpt lat="24.910721628970144" lon="118.538575017969">
        <ele>10.123311550356448</ele>
        <time>2024-07-24T13:59:44Z</time>
      </trkpt>
      <trkpt lat="24.910606975351623" lon="118.53857339459161">
        <ele>9.699631683528423</ele>
        <time>2024-07-24T13:59:50Z</time>
      </trkpt>
      <trkpt lat="24.91034843699508" lon="118.5385112141284">
        <ele>8.987673265859485</ele>
        <time>2024-07-24T13:59:59Z</time>
      </trkpt>
      <trkpt lat="24.91020942500271" lon="118.53852916549639">
        <ele>8.13891121558845</ele>
        <time>2024-07-24T14:00:05Z</time>
      </trkpt>
      <trkpt lat="24.90995046729772" lon="118.53844418531347">
        <ele>7.884388371370733</ele>
        <time>2024-07-24T14:00:14Z</time>
      </trkpt>
      <trkpt lat="24.90976116626302" lon="118.53844942753065">
        <ele>7.7208357229828835</ele>
        <time>2024-07-24T14:00:20Z</time>
      </trkpt>
      <trkpt lat="24.909451809839346" lon="118.53839379547318">
        <ele>6.733528639189899</ele>
        <time>2024-07-24T14:00:29Z</time>
      </trkpt>
      <trkpt lat="24.909108839180803" lon="118.5382861157037">
        <ele>7.131124787963927</ele>
        <time>2024-07-24T14:00:41Z</time>
      </trkpt>
      <trkpt lat="24.909087141637713" lon="118.53820994437083">
        <ele>7.372665410861373</ele>
        <time>2024-07-24T14:00:44Z</time>
      </trkpt>
      <trkpt lat="24.909143077132757" lon="118.53812864579211">
        <ele>7.946854054927826</ele>
        <time>2024-07-24T14:00:47Z</time>
      </trkpt>
      <trkpt lat="24.90924154562694" lon="118.5378101009292">
        <ele>7.487144626677036</ele>
        <time>2024-07-24T14:00:57Z</time>
      </trkpt>
      <trkpt lat="24.909265501136204" lon="118.53771494116677">
        <ele>7.943488329648972</ele>
        <time>2024-07-24T14:01:00Z</time>
      </trkpt>
      <trkpt lat="24.909318164635913" lon="118.5376093549099">
        <ele>8.291839526034892</ele>
        <time>2024-07-24T14:01:03Z</time>
      </trkpt>
      <trkpt lat="24.909324771956662" lon="118.53726189790015">
        <ele>9.6138313151896</ele>
        <time>2024-07-24T14:01:15Z</time>
      </trkpt>
      <trkpt lat="24.909308526319233" lon="118.53716531673274">
        <ele>9.69849652145058</ele>
        <time>2024-07-24T14:01:18Z</time>
      </trkpt>
      <trkpt lat="24.909384148937978" lon="118.53689523889457">
        <ele>9.50718673504889</ele>
        <time>2024-07-24T14:01:27Z</time>
      </trkpt>
      <trkpt lat="24.909526016315798" lon="118.5367078049631">
        <ele>9.862364940345287</ele>
        <time>2024-07-24T14:01:33Z</time>
      </trkpt>
      <trkpt lat="24.90960709277579" lon="118.53641242862435">
        <ele>9.85792285669595</ele>
        <time>2024-07-24T14:01:42Z</time>
      </trkpt>
      <trkpt lat="24.909593759974918" lon="118.5362156707379">
        <ele>9.176171214319766</ele>
        <time>2024-07-24T14:01:48Z</time>
      </trkpt>
      <trkpt lat="24.909638761591044" lon="118.53582980299866">
        <ele>9.442241111770272</ele>
        <time>2024-07-24T14:02:00Z</time>
      </trkpt>
      <trkpt lat="24.909690398096775" lon="118.53553715076055">
        <ele>9.726788379251957</ele>
        <time>2024-07-24T14:02:09Z</time>
      </trkpt>
      <trkpt lat="24.90972752726212" lon="118.53523872542492">
        <ele>10.17031795810908</ele>
        <time>2024-07-24T14:02:18Z</time>
      </trkpt>
      <trkpt lat="24.909776018190673" lon="118.53487549576852">
        <ele>7.706994544714689</ele>
        <time>2024-07-24T14:02:30Z</time>
      </trkpt>
      <trkpt lat="24.909801798122682" lon="118.53452281132306">
        <ele>7.734657969325781</ele>
        <time>2024-07-24T14:02:42Z</time>
      </trkpt>
      <trkpt lat="24.909831645296023" lon="118.53421636144634">
        <ele>7.116607150062919</ele>
        <time>2024-07-24T14:02:51Z</time>
      </trkpt>
      <trkpt lat="24.909843968143456" lon="118.5341019522583">
        <ele>7.447978015057743</ele>
        <time>2024-07-24T14:02:55Z</time>
      </trkpt>
      <trkpt lat="24.90988135329946" lon="118.53396251689513">
        <ele>7.367645530961454</ele>
        <time>2024-07-24T14:02:59Z</time>
      </trkpt>
      <trkpt lat="24.909952369801626" lon="118.5338638514184">
        <ele>6.87105281278491</ele>
        <time>2024-07-24T14:03:03Z</time>
      </trkpt>
      <trkpt lat="24.910283828446705" lon="118.53375854765886">
        <ele>9.310072128660977</ele>
        <time>2024-07-24T14:03:16Z</time>
      </trkpt>
      <trkpt lat="24.910363623448124" lon="118.53371578460391">
        <ele>10.194896552711725</ele>
        <time>2024-07-24T14:03:19Z</time>
      </trkpt>
      <trkpt lat="24.910448286553695" lon="118.53370631858367">
        <ele>9.918284004554152</ele>
        <time>2024-07-24T14:03:22Z</time>
      </trkpt>
      <trkpt lat="24.910803572175087" lon="118.53374442067448">
        <ele>10.561455790884793</ele>
        <time>2024-07-24T14:03:34Z</time>
      </trkpt>
      <trkpt lat="24.910905794925796" lon="118.53376210818617">
        <ele>10.495264410041273</ele>
        <time>2024-07-24T14:03:37Z</time>
      </trkpt>
      <trkpt lat="24.911254942942342" lon="118.53377843861709">
        <ele>9.871123610064387</ele>
        <time>2024-07-24T14:03:49Z</time>
      </trkpt>
      <trkpt lat="24.91133732233342" lon="118.5337892917144">
        <ele>9.977847173810005</ele>
        <time>2024-07-24T14:03:52Z</time>
      </trkpt>
      <trkpt lat="24.911663723594934" lon="118.53375956694443">
        <ele>10.188207620754838</ele>
        <time>2024-07-24T14:04:04Z</time>
      </trkpt>
      <trkpt lat="24.91200080913126" lon="118.53374771915063">
        <ele>10.547396368347108</ele>
        <time>2024-07-24T14:04:16Z</time>
      </trkpt>
      <trkpt lat="24.91209127844959" lon="118.5337311964863">
        <ele>10.819947150535882</ele>
        <time>2024-07-24T14:04:19Z</time>
      </trkpt>
      <trkpt lat="24.912374985137728" lon="118.53373523974358">
        <ele>10.649492856115103</ele>
        <time>2024-07-24T14:04:28Z</time>
      </trkpt>
      <trkpt lat="24.912539647089947" lon="118.53374041934514">
        <ele>10.532924056984484</ele>
        <time>2024-07-24T14:04:34Z</time>
      </trkpt>
      <trkpt lat="24.912888471656313" lon="118.53377990502148">
        <ele>10.137414607219398</ele>
        <time>2024-07-24T14:04:46Z</time>
      </trkpt>
      <trkpt lat="24.91320609405798" lon="118.53389324000422">
        <ele>10.122197390533984</ele>
        <time>2024-07-24T14:04:58Z</time>
      </trkpt>
      <trkpt lat="24.913428551960735" lon="118.53388602417566">
        <ele>10.235245142132044</ele>
        <time>2024-07-24T14:05:06Z</time>
      </trkpt>
      <trkpt lat="24.913767831173793" lon="118.53394430895979">
        <ele>10.114681546576321</ele>
        <time>2024-07-24T14:05:19Z</time>
      </trkpt>
      <trkpt lat="24.914091674837252" lon="118.53400101041753">
        <ele>10.070539350621402</ele>
        <time>2024-07-24T14:05:31Z</time>
      </trkpt>
      <trkpt lat="24.914179741636566" lon="118.53400186674241">
        <ele>10.19145524315536</ele>
        <time>2024-07-24T14:05:34Z</time>
      </trkpt>
      <trkpt lat="24.9145108197846" lon="118.53407783318895">
        <ele>11.698620798997581</ele>
        <time>2024-07-24T14:05:46Z</time>
      </trkpt>
      <trkpt lat="24.91485001727558" lon="118.53414047974074">
        <ele>12.550642346031964</ele>
        <time>2024-07-24T14:05:58Z</time>
      </trkpt>
      <trkpt lat="24.91512805243058" lon="118.53416105792469">
        <ele>12.626568930223584</ele>
        <time>2024-07-24T14:06:07Z</time>
      </trkpt>
      <trkpt lat="24.915293537716117" lon="118.53418858490129">
        <ele>12.13203252851963</ele>
        <time>2024-07-24T14:06:13Z</time>
      </trkpt>
      <trkpt lat="24.915357540690028" lon="118.53424308307278">
        <ele>12.447797384113073</ele>
        <time>2024-07-24T14:06:16Z</time>
      </trkpt>
      <trkpt lat="24.915367233592928" lon="118.53433816195754">
        <ele>11.621122103184462</ele>
        <time>2024-07-24T14:06:19Z</time>
      </trkpt>
      <trkpt lat="24.91521026807356" lon="118.5346578994084">
        <ele>11.994585848413408</ele>
        <time>2024-07-24T14:06:31Z</time>
      </trkpt>
      <trkpt lat="24.915103312624183" lon="118.53503183551076">
        <ele>13.388458554632962</ele>
        <time>2024-07-24T14:06:43Z</time>
      </trkpt>
      <trkpt lat="24.915066331368216" lon="118.53531195118944">
        <ele>13.327637080103159</ele>
        <time>2024-07-24T14:06:52Z</time>
      </trkpt>
      <trkpt lat="24.91505409452842" lon="118.53559111998257">
        <ele>13.239365634508431</ele>
        <time>2024-07-24T14:07:01Z</time>
      </trkpt>
      <trkpt lat="24.91502345995533" lon="118.53589154407112">
        <ele>14.225760586559772</ele>
        <time>2024-07-24T14:07:12Z</time>
      </trkpt>
      <trkpt lat="24.91502922850604" lon="118.53618953282924">
        <ele>14.820218156091869</ele>
        <time>2024-07-24T14:07:21Z</time>
      </trkpt>
      <trkpt lat="24.91502769853978" lon="118.53657685022544">
        <ele>14.700218942016363</ele>
        <time>2024-07-24T14:07:33Z</time>
      </trkpt>
      <trkpt lat="24.91507411558974" lon="118.53695478939062">
        <ele>15.144966905936599</ele>
        <time>2024-07-24T14:07:45Z</time>
      </trkpt>
      <trkpt lat="24.915084684410676" lon="118.53706345016772">
        <ele>14.994634818285704</ele>
        <time>2024-07-24T14:07:48Z</time>
      </trkpt>
      <trkpt lat="24.915180900368913" lon="118.53734816673976">
        <ele>15.012001506984234</ele>
        <time>2024-07-24T14:07:57Z</time>
      </trkpt>
      <trkpt lat="24.915327912341905" lon="118.53768524949969">
        <ele>14.835066605359316</ele>
        <time>2024-07-24T14:08:09Z</time>
      </trkpt>
      <trkpt lat="24.91544414058277" lon="118.53800971493813">
        <ele>14.683627331629395</ele>
        <time>2024-07-24T14:08:21Z</time>
      </trkpt>
      <trkpt lat="24.915574095618087" lon="118.5383197123175">
        <ele>16.056290132924914</ele>
        <time>2024-07-24T14:08:33Z</time>
      </trkpt>
      <trkpt lat="24.915677688483733" lon="118.53859671322917">
        <ele>16.36098539736122</ele>
        <time>2024-07-24T14:08:42Z</time>
      </trkpt>
      <trkpt lat="24.91571163385639" lon="118.53869334400345">
        <ele>15.909754311665893</ele>
        <time>2024-07-24T14:08:45Z</time>
      </trkpt>
      <trkpt lat="24.915727308465677" lon="118.53879375039014">
        <ele>15.493736644275486</ele>
        <time>2024-07-24T14:08:48Z</time>
      </trkpt>
      <trkpt lat="24.915788459781748" lon="118.53898522204447">
        <ele>15.063884491100907</ele>
        <time>2024-07-24T14:08:54Z</time>
      </trkpt>
      <trkpt lat="24.915803341435083" lon="118.5390795807381">
        <ele>14.716130799613893</ele>
        <time>2024-07-24T14:08:57Z</time>
      </trkpt>
      <trkpt lat="24.915873867644223" lon="118.53925003300489">
        <ele>14.335010457783937</ele>
        <time>2024-07-24T14:09:03Z</time>
      </trkpt>
      <trkpt lat="24.915965132163542" lon="118.53957475884722">
        <ele>13.291451891884208</ele>
        <time>2024-07-24T14:09:13Z</time>
      </trkpt>
      <trkpt lat="24.916000237480585" lon="118.5396627507788">
        <ele>13.102204276248813</ele>
        <time>2024-07-24T14:09:16Z</time>
      </trkpt>
      <trkpt lat="24.91601193601422" lon="118.5399231023898">
        <ele>12.522005735896528</ele>
        <time>2024-07-24T14:09:24Z</time>
      </trkpt>
      <trkpt lat="24.91612789761106" lon="118.5401964590897">
        <ele>12.159275209531188</ele>
        <time>2024-07-24T14:09:33Z</time>
      </trkpt>
      <trkpt lat="24.916159211251546" lon="118.54028537147649">
        <ele>12.327527864836156</ele>
        <time>2024-07-24T14:09:36Z</time>
      </trkpt>
      <trkpt lat="24.916173141191532" lon="118.54038205085087">
        <ele>12.022303202189505</ele>
        <time>2024-07-24T14:09:39Z</time>
      </trkpt>
      <trkpt lat="24.91630844162354" lon="118.54074351740215">
        <ele>11.729030337184668</ele>
        <time>2024-07-24T14:09:51Z</time>
      </trkpt>
      <trkpt lat="24.9163452013323" lon="118.54082864596165">
        <ele>12.293188842013478</ele>
        <time>2024-07-24T14:09:54Z</time>
      </trkpt>
      <trkpt lat="24.916344304972558" lon="118.54100063764417">
        <ele>12.326882375404239</ele>
        <time>2024-07-24T14:10:00Z</time>
      </trkpt>
      <trkpt lat="24.91639206928717" lon="118.54108687641455">
        <ele>12.283189945854247</ele>
        <time>2024-07-24T14:10:03Z</time>
      </trkpt>
      <trkpt lat="24.916418469634706" lon="118.5411954283005">
        <ele>12.33320496045053</ele>
        <time>2024-07-24T14:10:06Z</time>
      </trkpt>
      <trkpt lat="24.916581981256343" lon="118.5414623392579">
        <ele>12.853305508382618</ele>
        <time>2024-07-24T14:10:15Z</time>
      </trkpt>
      <trkpt lat="24.916587161880265" lon="118.54155316492671">
        <ele>12.368253747932613</ele>
        <time>2024-07-24T14:10:18Z</time>
      </trkpt>
      <trkpt lat="24.916538035798247" lon="118.54165252968959">
        <ele>12.473946190439165</ele>
        <time>2024-07-24T14:10:21Z</time>
      </trkpt>
      <trkpt lat="24.91655877914684" lon="118.54173658733782">
        <ele>12.521130345761776</ele>
        <time>2024-07-24T14:10:24Z</time>
      </trkpt>
      <trkpt lat="24.916471787817894" lon="118.54183744206075">
        <ele>12.33861262910068</ele>
        <time>2024-07-24T14:10:27Z</time>
      </trkpt>
      <trkpt lat="24.916446891467203" lon="118.5419016786268">
        <ele>11.448560254648328</ele>
        <time>2024-07-24T14:10:30Z</time>
      </trkpt>
      <trkpt lat="24.91615148430047" lon="118.54199668435234">
        <ele>12.54513590503484</ele>
        <time>2024-07-24T14:10:39Z</time>
      </trkpt>
      <trkpt lat="24.915890588448345" lon="118.54207800337909">
        <ele>12.293131124228239</ele>
        <time>2024-07-24T14:10:48Z</time>
      </trkpt>
      <trkpt lat="24.915657484231573" lon="118.54219333379994">
        <ele>12.361270588822663</ele>
        <time>2024-07-24T14:10:57Z</time>
      </trkpt>
      <trkpt lat="24.915588418684887" lon="118.54225295647022">
        <ele>12.670211231335998</ele>
        <time>2024-07-24T14:11:00Z</time>
      </trkpt>
      <trkpt lat="24.91531590073612" lon="118.54231340749786">
        <ele>12.382652072235942</ele>
        <time>2024-07-24T14:11:09Z</time>
      </trkpt>
      <trkpt lat="24.915140024387206" lon="118.54235241733511">
        <ele>12.291569235734642</ele>
        <time>2024-07-24T14:11:15Z</time>
      </trkpt>
      <trkpt lat="24.9150256607502" lon="118.54239966684383">
        <ele>11.85645622573793</ele>
        <time>2024-07-24T14:11:19Z</time>
      </trkpt>
      <trkpt lat="24.914942822155272" lon="118.5424042081487">
        <ele>11.25774076860398</ele>
        <time>2024-07-24T14:11:22Z</time>
      </trkpt>
      <trkpt lat="24.914736700445765" lon="118.54245815685267">
        <ele>10.30592698045075</ele>
        <time>2024-07-24T14:11:30Z</time>
      </trkpt>
      <trkpt lat="24.914645059840446" lon="118.54246557206352">
        <ele>10.244789514690638</ele>
        <time>2024-07-24T14:11:33Z</time>
      </trkpt>
      <trkpt lat="24.914566076618367" lon="118.54249852954845">
        <ele>9.996101588010788</ele>
        <time>2024-07-24T14:11:36Z</time>
      </trkpt>
      <trkpt lat="24.914297101931233" lon="118.54253685507221">
        <ele>10.178485963493586</ele>
        <time>2024-07-24T14:11:45Z</time>
      </trkpt>
      <trkpt lat="24.914215402196596" lon="118.54254784247966">
        <ele>10.134774276055396</ele>
        <time>2024-07-24T14:11:48Z</time>
      </trkpt>
      <trkpt lat="24.91414028543724" lon="118.54258322998642">
        <ele>9.801058229990304</ele>
        <time>2024-07-24T14:11:51Z</time>
      </trkpt>
      <trkpt lat="24.91380553328583" lon="118.54267458195513">
        <ele>8.74443518742919</ele>
        <time>2024-07-24T14:12:03Z</time>
      </trkpt>
      <trkpt lat="24.913721974883956" lon="118.54268572854872">
        <ele>8.70525891892612</ele>
        <time>2024-07-24T14:12:06Z</time>
      </trkpt>
      <trkpt lat="24.91363290753249" lon="118.54272089102902">
        <ele>8.82569027505815</ele>
        <time>2024-07-24T14:12:09Z</time>
      </trkpt>
      <trkpt lat="24.913456662387443" lon="118.5427349598507">
        <ele>8.804978371597826</ele>
        <time>2024-07-24T14:12:15Z</time>
      </trkpt>
      <trkpt lat="24.91313322534558" lon="118.5428178042347">
        <ele>7.9295426942408085</ele>
        <time>2024-07-24T14:12:27Z</time>
      </trkpt>
      <trkpt lat="24.912815987523327" lon="118.54289638704665">
        <ele>8.423077015206218</ele>
        <time>2024-07-24T14:12:39Z</time>
      </trkpt>
      <trkpt lat="24.912502620692027" lon="118.54301002455502">
        <ele>8.542374599725008</ele>
        <time>2024-07-24T14:12:51Z</time>
      </trkpt>
      <trkpt lat="24.912368663727836" lon="118.54306730135674">
        <ele>8.110638034529984</ele>
        <time>2024-07-24T14:12:57Z</time>
      </trkpt>
      <trkpt lat="24.912049721516684" lon="118.54314919411969">
        <ele>7.8614895129576325</ele>
        <time>2024-07-24T14:13:09Z</time>
      </trkpt>
      <trkpt lat="24.91188570527475" lon="118.54319682991229">
        <ele>8.130140197463334</ele>
        <time>2024-07-24T14:13:15Z</time>
      </trkpt>
      <trkpt lat="24.911713696073143" lon="118.54322299530094">
        <ele>8.450463211163878</ele>
        <time>2024-07-24T14:13:21Z</time>
      </trkpt>
      <trkpt lat="24.911488568054235" lon="118.54329033868291">
        <ele>8.238247983157635</ele>
        <time>2024-07-24T14:13:29Z</time>
      </trkpt>
      <trkpt lat="24.911199297242423" lon="118.54332873952964">
        <ele>7.765608760528266</ele>
        <time>2024-07-24T14:13:39Z</time>
      </trkpt>
      <trkpt lat="24.911008862026662" lon="118.54335006506058">
        <ele>7.818842274136841</ele>
        <time>2024-07-24T14:13:45Z</time>
      </trkpt>
      <trkpt lat="24.910916387979494" lon="118.54334175804848">
        <ele>7.745928592979908</ele>
        <time>2024-07-24T14:13:48Z</time>
      </trkpt>
      <trkpt lat="24.910637405945156" lon="118.54336068667693">
        <ele>7.557487306185067</ele>
        <time>2024-07-24T14:13:57Z</time>
      </trkpt>
      <trkpt lat="24.91047445714849" lon="118.54337872571216">
        <ele>7.693021135404706</ele>
        <time>2024-07-24T14:14:03Z</time>
      </trkpt>
      <trkpt lat="24.910391382222343" lon="118.54336885717045">
        <ele>7.530107805505395</ele>
        <time>2024-07-24T14:14:06Z</time>
      </trkpt>
      <trkpt lat="24.910228843228023" lon="118.5434045062059">
        <ele>7.413259533233941</ele>
        <time>2024-07-24T14:14:12Z</time>
      </trkpt>
      <trkpt lat="24.90987928043421" lon="118.54339852990537">
        <ele>7.74195826984942</ele>
        <time>2024-07-24T14:14:24Z</time>
      </trkpt>
      <trkpt lat="24.909510050220707" lon="118.54339135796403">
        <ele>7.651398570276797</ele>
        <time>2024-07-24T14:14:36Z</time>
      </trkpt>
      <trkpt lat="24.90942773279098" lon="118.54337218259911">
        <ele>7.854121284559369</ele>
        <time>2024-07-24T14:14:39Z</time>
      </trkpt>
      <trkpt lat="24.909327706344378" lon="118.54339560650415">
        <ele>7.703989940695465</ele>
        <time>2024-07-24T14:14:42Z</time>
      </trkpt>
      <trkpt lat="24.90922779684435" lon="118.54336859201723">
        <ele>8.231075407005847</ele>
        <time>2024-07-24T14:14:45Z</time>
      </trkpt>
      <trkpt lat="24.908953008500916" lon="118.54337546231045">
        <ele>8.073485881090164</ele>
        <time>2024-07-24T14:14:54Z</time>
      </trkpt>
      <trkpt lat="24.9086799108468" lon="118.54337800412313">
        <ele>8.011082620359957</ele>
        <time>2024-07-24T14:15:03Z</time>
      </trkpt>
      <trkpt lat="24.908349123138173" lon="118.54341329619174">
        <ele>8.342774262651801</ele>
        <time>2024-07-24T14:15:15Z</time>
      </trkpt>
      <trkpt lat="24.908064790229314" lon="118.54343262135089">
        <ele>8.401476881466806</ele>
        <time>2024-07-24T14:15:27Z</time>
      </trkpt>
      <trkpt lat="24.90777775106438" lon="118.54343864044743">
        <ele>8.087168246507645</ele>
        <time>2024-07-24T14:15:37Z</time>
      </trkpt>
      <trkpt lat="24.907556570126417" lon="118.5433549825694">
        <ele>7.5487385196611285</ele>
        <time>2024-07-24T14:15:45Z</time>
      </trkpt>
      <trkpt lat="24.907493144091006" lon="118.54329101100322">
        <ele>7.359463322907686</ele>
        <time>2024-07-24T14:15:48Z</time>
      </trkpt>
      <trkpt lat="24.907470846143507" lon="118.54320621758511">
        <ele>7.377869791351259</ele>
        <time>2024-07-24T14:15:51Z</time>
      </trkpt>
      <trkpt lat="24.90760403458952" lon="118.54286222031364">
        <ele>7.455253169871867</ele>
        <time>2024-07-24T14:16:03Z</time>
      </trkpt>
      <trkpt lat="24.907696489306296" lon="118.54251804017956">
        <ele>8.09225898142904</ele>
        <time>2024-07-24T14:16:15Z</time>
      </trkpt>
      <trkpt lat="24.907703425731206" lon="118.54244280212907">
        <ele>8.455558086745441</ele>
        <time>2024-07-24T14:16:18Z</time>
      </trkpt>
      <trkpt lat="24.90781256488547" lon="118.54216838290996">
        <ele>7.577604760415852</ele>
        <time>2024-07-24T14:16:27Z</time>
      </trkpt>
      <trkpt lat="24.907879979765916" lon="118.54200638452656">
        <ele>8.137382513843477</ele>
        <time>2024-07-24T14:16:33Z</time>
      </trkpt>
      <trkpt lat="24.90793605551876" lon="118.5419252554716">
        <ele>8.810253279283643</ele>
        <time>2024-07-24T14:16:36Z</time>
      </trkpt>
      <trkpt lat="24.90800671159378" lon="118.54178432450912">
        <ele>8.903784140944481</ele>
        <time>2024-07-24T14:16:42Z</time>
      </trkpt>
      <trkpt lat="24.90802381304678" lon="118.5417080418144">
        <ele>8.59459671843797</ele>
        <time>2024-07-24T14:16:45Z</time>
      </trkpt>
      <trkpt lat="24.908017514764744" lon="118.54163137424581">
        <ele>9.439531392417848</ele>
        <time>2024-07-24T14:16:48Z</time>
      </trkpt>
      <trkpt lat="24.90797585967394" lon="118.54154158643637">
        <ele>10.698424538597465</ele>
        <time>2024-07-24T14:16:51Z</time>
      </trkpt>
      <trkpt lat="24.90799302674602" lon="118.54146639814553">
        <ele>10.387856421992183</ele>
        <time>2024-07-24T14:16:54Z</time>
      </trkpt>
      <trkpt lat="24.907977062154497" lon="118.5413684745208">
        <ele>10.445588926784694</ele>
        <time>2024-07-24T14:16:57Z</time>
      </trkpt>
      <trkpt lat="24.90803360230034" lon="118.54109888078223">
        <ele>10.649540389887989</ele>
        <time>2024-07-24T14:17:03Z</time>
      </trkpt>
      <trkpt lat="24.908180493977724" lon="118.54080306456196">
        <ele>8.945428579114377</ele>
        <time>2024-07-24T14:17:12Z</time>
      </trkpt>
      <trkpt lat="24.90828991884065" lon="118.54074039857228">
        <ele>9.125823402777314</ele>
        <time>2024-07-24T14:17:15Z</time>
      </trkpt>
      <trkpt lat="24.908407448447168" lon="118.540456198729">
        <ele>9.687719840556383</ele>
        <time>2024-07-24T14:17:24Z</time>
      </trkpt>
      <trkpt lat="24.908528425204995" lon="118.54026579804517">
        <ele>8.58773785084486</ele>
        <time>2024-07-24T14:17:30Z</time>
      </trkpt>
      <trkpt lat="24.908590709485676" lon="118.54005355074193">
        <ele>8.449948434717953</ele>
        <time>2024-07-24T14:17:37Z</time>
      </trkpt>
      <trkpt lat="24.908638512627263" lon="118.54000151387454">
        <ele>8.329956064000726</ele>
        <time>2024-07-24T14:17:40Z</time>
      </trkpt>
      <trkpt lat="24.908728410734074" lon="118.53978952790413">
        <ele>8.44941250514239</ele>
        <time>2024-07-24T14:17:47Z</time>
      </trkpt>
      <trkpt lat="24.90880107796555" lon="118.5394883516281">
        <ele>8.0596973458305</ele>
        <time>2024-07-24T14:17:57Z</time>
      </trkpt>
      <trkpt lat="24.90880289734172" lon="118.53941282478492">
        <ele>7.900238597765565</ele>
        <time>2024-07-24T14:18:00Z</time>
      </trkpt>
      <trkpt lat="24.908918436233517" lon="118.53911545720663">
        <ele>7.388627992942929</ele>
        <time>2024-07-24T14:18:12Z</time>
      </trkpt>
      <trkpt lat="24.90899100134274" lon="118.53878685296681">
        <ele>7.257804563269019</ele>
        <time>2024-07-24T14:18:24Z</time>
      </trkpt>
      <trkpt lat="24.909038656769862" lon="118.53851648016469">
        <ele>7.2341926246881485</ele>
        <time>2024-07-24T14:18:33Z</time>
      </trkpt>
      <trkpt lat="24.90910058501135" lon="118.53833169970581">
        <ele>7.823552489280701</ele>
        <time>2024-07-24T14:18:39Z</time>
      </trkpt>
      <trkpt lat="24.909102695493456" lon="118.53824392768604">
        <ele>8.404919422231615</ele>
        <time>2024-07-24T14:18:42Z</time>
      </trkpt>
      <trkpt lat="24.909198306803624" lon="118.53790788877753">
        <ele>8.10796236153692</ele>
        <time>2024-07-24T14:18:54Z</time>
      </trkpt>
      <trkpt lat="24.909243394952" lon="118.53771228113706">
        <ele>7.780197751708329</ele>
        <time>2024-07-24T14:19:00Z</time>
      </trkpt>
      <trkpt lat="24.909285809153065" lon="118.53761014318276">
        <ele>8.877447728998959</ele>
        <time>2024-07-24T14:19:03Z</time>
      </trkpt>
      <trkpt lat="24.90929720251183" lon="118.53734716420612">
        <ele>9.8032854963094</ele>
        <time>2024-07-24T14:19:12Z</time>
      </trkpt>
      <trkpt lat="24.90928797928191" lon="118.53726114887981">
        <ele>10.177252965047956</ele>
        <time>2024-07-24T14:19:15Z</time>
      </trkpt>
      <trkpt lat="24.909306787515533" lon="118.53715109414215">
        <ele>10.145119071006775</ele>
        <time>2024-07-24T14:19:18Z</time>
      </trkpt>
      <trkpt lat="24.909441201429164" lon="118.5368080188042">
        <ele>10.086230346933007</ele>
        <time>2024-07-24T14:19:30Z</time>
      </trkpt>
      <trkpt lat="24.909513661683" lon="118.53643131574165">
        <ele>10.471257589757442</ele>
        <time>2024-07-24T14:19:43Z</time>
      </trkpt>
      <trkpt lat="24.909586147242315" lon="118.53602954426836">
        <ele>10.321618778631091</ele>
        <time>2024-07-24T14:19:56Z</time>
      </trkpt>
      <trkpt lat="24.90964484081689" lon="118.53564884179707">
        <ele>10.647624269127846</ele>
        <time>2024-07-24T14:20:08Z</time>
      </trkpt>
      <trkpt lat="24.909709468995704" lon="118.5352751060969">
        <ele>9.800782876089215</ele>
        <time>2024-07-24T14:20:20Z</time>
      </trkpt>
      <trkpt lat="24.909739662617554" lon="118.53490663781743">
        <ele>8.30384149029851</ele>
        <time>2024-07-24T14:20:32Z</time>
      </trkpt>
      <trkpt lat="24.909750376817616" lon="118.53482487140784">
        <ele>8.25138136651367</ele>
        <time>2024-07-24T14:20:35Z</time>
      </trkpt>
      <trkpt lat="24.90975023591032" lon="118.53465972338816">
        <ele>7.924176035448909</ele>
        <time>2024-07-24T14:20:41Z</time>
      </trkpt>
      <trkpt lat="24.909795264659525" lon="118.53429620079993">
        <ele>7.803010533563793</ele>
        <time>2024-07-24T14:20:53Z</time>
      </trkpt>
      <trkpt lat="24.90983852225766" lon="118.5340041598337">
        <ele>7.478052967227995</ele>
        <time>2024-07-24T14:21:02Z</time>
      </trkpt>
      <trkpt lat="24.909884133823518" lon="118.53392542660787">
        <ele>7.599107140675187</ele>
        <time>2024-07-24T14:21:05Z</time>
      </trkpt>
      <trkpt lat="24.910016616084356" lon="118.53382496305865">
        <ele>7.4545820178464055</ele>
        <time>2024-07-24T14:21:11Z</time>
      </trkpt>
      <trkpt lat="24.910086795322815" lon="118.53380119087122">
        <ele>7.868752354755998</ele>
        <time>2024-07-24T14:21:14Z</time>
      </trkpt>
      <trkpt lat="24.910323580248235" lon="118.53378645470201">
        <ele>9.961944953538477</ele>
        <time>2024-07-24T14:21:23Z</time>
      </trkpt>
      <trkpt lat="24.910399628562875" lon="118.53375934105077">
        <ele>10.131925407797098</ele>
        <time>2024-07-24T14:21:26Z</time>
      </trkpt>
      <trkpt lat="24.91048637552019" lon="118.53376359402488">
        <ele>10.145416976884007</ele>
        <time>2024-07-24T14:21:29Z</time>
      </trkpt>
      <trkpt lat="24.910642269891717" lon="118.53370069806736">
        <ele>10.692989200353622</ele>
        <time>2024-07-24T14:21:35Z</time>
      </trkpt>
      <trkpt lat="24.910791543942203" lon="118.53374842983978">
        <ele>10.602450475096703</ele>
        <time>2024-07-24T14:21:41Z</time>
      </trkpt>
      <trkpt lat="24.911005428486263" lon="118.53371690865524">
        <ele>10.375999735668302</ele>
        <time>2024-07-24T14:21:51Z</time>
      </trkpt>
      <trkpt lat="24.911076348771385" lon="118.53375602802231">
        <ele>10.216866496950388</ele>
        <time>2024-07-24T14:21:55Z</time>
      </trkpt>
      <trkpt lat="24.911186448608188" lon="118.53377973901705">
        <ele>9.961433210410178</ele>
        <time>2024-07-24T14:21:59Z</time>
      </trkpt>
      <trkpt lat="24.911338788596026" lon="118.53378535931424">
        <ele>9.89721367880702</ele>
        <time>2024-07-24T14:22:03Z</time>
      </trkpt>
      <trkpt lat="24.911551506624814" lon="118.53381158271978">
        <ele>10.488006018102169</ele>
        <time>2024-07-24T14:22:09Z</time>
      </trkpt>
      <trkpt lat="24.91164947214627" lon="118.53379923832433">
        <ele>10.22083997912705</ele>
        <time>2024-07-24T14:22:12Z</time>
      </trkpt>
      <trkpt lat="24.9117464209119" lon="118.53381368868467">
        <ele>10.303938556462526</ele>
        <time>2024-07-24T14:22:15Z</time>
      </trkpt>
      <trkpt lat="24.912029550195108" lon="118.53380270787936">
        <ele>10.306048163212836</ele>
        <time>2024-07-24T14:22:24Z</time>
      </trkpt>
      <trkpt lat="24.912311167258874" lon="118.53379888725506">
        <ele>10.126685373485088</ele>
        <time>2024-07-24T14:22:33Z</time>
      </trkpt>
      <trkpt lat="24.912646344478315" lon="118.53379652113131">
        <ele>9.226013880223036</ele>
        <time>2024-07-24T14:22:45Z</time>
      </trkpt>
      <trkpt lat="24.91288643677128" lon="118.53380051928931">
        <ele>9.884057159535587</ele>
        <time>2024-07-24T14:22:54Z</time>
      </trkpt>
      <trkpt lat="24.913025622923506" lon="118.53388644293713">
        <ele>10.544799462892115</ele>
        <time>2024-07-24T14:23:00Z</time>
      </trkpt>
      <trkpt lat="24.91333417522585" lon="118.53391768236881">
        <ele>9.645607103593647</ele>
        <time>2024-07-24T14:23:12Z</time>
      </trkpt>
      <trkpt lat="24.913635445024827" lon="118.53394156266879">
        <ele>9.707351611927152</ele>
        <time>2024-07-24T14:23:24Z</time>
      </trkpt>
      <trkpt lat="24.91371799170058" lon="118.53393979153282">
        <ele>9.803249701857567</ele>
        <time>2024-07-24T14:23:27Z</time>
      </trkpt>
      <trkpt lat="24.913874974313277" lon="118.53398417932779">
        <ele>10.970466097816825</ele>
        <time>2024-07-24T14:23:33Z</time>
      </trkpt>
      <trkpt lat="24.914202442314625" lon="118.53401106870477">
        <ele>9.525258517824113</ele>
        <time>2024-07-24T14:23:45Z</time>
      </trkpt>
      <trkpt lat="24.914472142631784" lon="118.53405961402895">
        <ele>11.80516071524471</ele>
        <time>2024-07-24T14:23:55Z</time>
      </trkpt>
      <trkpt lat="24.914815551032056" lon="118.53413718733779">
        <ele>11.383325383998454</ele>
        <time>2024-07-24T14:24:08Z</time>
      </trkpt>
      <trkpt lat="24.915148109738826" lon="118.53418270547094">
        <ele>12.074560860171914</ele>
        <time>2024-07-24T14:24:20Z</time>
      </trkpt>
      <trkpt lat="24.915300963003343" lon="118.534220091192">
        <ele>12.506536195985973</ele>
        <time>2024-07-24T14:24:26Z</time>
      </trkpt>
      <trkpt lat="24.915364101178124" lon="118.53426213883117">
        <ele>12.65872392989695</ele>
        <time>2024-07-24T14:24:29Z</time>
      </trkpt>
      <trkpt lat="24.915370744860695" lon="118.5343567171078">
        <ele>12.081238482147455</ele>
        <time>2024-07-24T14:24:32Z</time>
      </trkpt>
      <trkpt lat="24.915348302561195" lon="118.53444190673513">
        <ele>11.425249684602022</ele>
        <time>2024-07-24T14:24:35Z</time>
      </trkpt>
      <trkpt lat="24.91519364122115" lon="118.53474813130971">
        <ele>11.797629434615374</ele>
        <time>2024-07-24T14:24:47Z</time>
      </trkpt>
      <trkpt lat="24.915151112784507" lon="118.53482403546245">
        <ele>12.191994290798903</ele>
        <time>2024-07-24T14:24:50Z</time>
      </trkpt>
      <trkpt lat="24.91507999294879" lon="118.53509732016627">
        <ele>12.719330639578402</ele>
        <time>2024-07-24T14:24:59Z</time>
      </trkpt>
      <trkpt lat="24.91506043851432" lon="118.53545629813404">
        <ele>13.082235605455935</ele>
        <time>2024-07-24T14:25:11Z</time>
      </trkpt>
      <trkpt lat="24.915040645437283" lon="118.53580863291793">
        <ele>13.903884019702673</ele>
        <time>2024-07-24T14:25:23Z</time>
      </trkpt>
      <trkpt lat="24.91502260590131" lon="118.53609244725543">
        <ele>15.001976710744202</ele>
        <time>2024-07-24T14:25:32Z</time>
      </trkpt>
      <trkpt lat="24.91501629139346" lon="118.5363725913677">
        <ele>14.838794159702957</ele>
        <time>2024-07-24T14:25:41Z</time>
      </trkpt>
      <trkpt lat="24.915040326560067" lon="118.5365528932629">
        <ele>14.743360253982246</ele>
        <time>2024-07-24T14:25:47Z</time>
      </trkpt>
      <trkpt lat="24.915050621242028" lon="118.53683233990667">
        <ele>14.775141539052129</ele>
        <time>2024-07-24T14:25:56Z</time>
      </trkpt>
      <trkpt lat="24.91510055166281" lon="118.53703102651377">
        <ele>14.609874204732478</ele>
        <time>2024-07-24T14:26:03Z</time>
      </trkpt>
      <trkpt lat="24.915108820723155" lon="118.53712820906506">
        <ele>15.279134556651115</ele>
        <time>2024-07-24T14:26:06Z</time>
      </trkpt>
      <trkpt lat="24.91516056519779" lon="118.53725186924918">
        <ele>14.866222600452602</ele>
        <time>2024-07-24T14:26:10Z</time>
      </trkpt>
      <trkpt lat="24.9152464522164" lon="118.53751079355098">
        <ele>14.711242388002574</ele>
        <time>2024-07-24T14:26:19Z</time>
      </trkpt>
      <trkpt lat="24.915335680388203" lon="118.53765556386571">
        <ele>15.527441350743175</ele>
        <time>2024-07-24T14:26:25Z</time>
      </trkpt>
      <trkpt lat="24.915455582021394" lon="118.53798672946792">
        <ele>14.998551799915731</ele>
        <time>2024-07-24T14:26:37Z</time>
      </trkpt>
      <trkpt lat="24.915572801868095" lon="118.53830532943863">
        <ele>15.984865742735565</ele>
        <time>2024-07-24T14:26:49Z</time>
      </trkpt>
      <trkpt lat="24.915592353986" lon="118.53838962916967">
        <ele>16.306802953593433</ele>
        <time>2024-07-24T14:26:52Z</time>
      </trkpt>
      <trkpt lat="24.91563043785296" lon="118.53846197132046">
        <ele>16.602072440087795</ele>
        <time>2024-07-24T14:26:55Z</time>
      </trkpt>
      <trkpt lat="24.91573480185694" lon="118.53882963486289">
        <ele>15.980588164180517</ele>
        <time>2024-07-24T14:27:07Z</time>
      </trkpt>
      <trkpt lat="24.915845211624447" lon="118.53919224534938">
        <ele>14.952096672728658</ele>
        <time>2024-07-24T14:27:19Z</time>
      </trkpt>
      <trkpt lat="24.915915232671374" lon="118.53936271328384">
        <ele>14.287481806240976</ele>
        <time>2024-07-24T14:27:25Z</time>
      </trkpt>
      <trkpt lat="24.916006285759853" lon="118.53962073507343">
        <ele>13.132630894891918</ele>
        <time>2024-07-24T14:27:34Z</time>
      </trkpt>
      <trkpt lat="24.915987016236397" lon="118.53972612599901">
        <ele>13.196540304459631</ele>
        <time>2024-07-24T14:27:37Z</time>
      </trkpt>
      <trkpt lat="24.91604386637256" lon="118.53988955540262">
        <ele>12.64136921800673</ele>
        <time>2024-07-24T14:27:43Z</time>
      </trkpt>
      <trkpt lat="24.916042097941666" lon="118.5399828805354">
        <ele>12.81209434196353</ele>
        <time>2024-07-24T14:27:46Z</time>
      </trkpt>
      <trkpt lat="24.91617262662688" lon="118.54034901755888">
        <ele>12.316122104413807</ele>
        <time>2024-07-24T14:27:58Z</time>
      </trkpt>
      <trkpt lat="24.91620249773375" lon="118.54043986230198">
        <ele>12.238185476511717</ele>
        <time>2024-07-24T14:28:01Z</time>
      </trkpt>
      <trkpt lat="24.916215660420956" lon="118.54054300962794">
        <ele>11.804811961017549</ele>
        <time>2024-07-24T14:28:04Z</time>
      </trkpt>
      <trkpt lat="24.916370683212463" lon="118.54086775477592">
        <ele>12.44676154665649</ele>
        <time>2024-07-24T14:28:15Z</time>
      </trkpt>
      <trkpt lat="24.916415095165075" lon="118.54094774044171">
        <ele>12.214534735307097</ele>
        <time>2024-07-24T14:28:18Z</time>
      </trkpt>
      <trkpt lat="24.91651657085808" lon="118.54131695013874">
        <ele>12.626591167412698</ele>
        <time>2024-07-24T14:28:30Z</time>
      </trkpt>
      <trkpt lat="24.916548306349583" lon="118.54149713395817">
        <ele>12.921732538379729</ele>
        <time>2024-07-24T14:28:36Z</time>
      </trkpt>
      <trkpt lat="24.91654603672587" lon="118.54167575526215">
        <ele>12.280563455075026</ele>
        <time>2024-07-24T14:28:42Z</time>
      </trkpt>
      <trkpt lat="24.91656810313455" lon="118.54175713605802">
        <ele>12.511795093305409</ele>
        <time>2024-07-24T14:28:45Z</time>
      </trkpt>
      <trkpt lat="24.916433563808134" lon="118.54194502165227">
        <ele>11.803652639500797</ele>
        <time>2024-07-24T14:28:51Z</time>
      </trkpt>
      <trkpt lat="24.916140809089654" lon="118.54200852699525">
        <ele>12.210806443355978</ele>
        <time>2024-07-24T14:29:00Z</time>
      </trkpt>
      <trkpt lat="24.91587108216924" lon="118.54209446446467">
        <ele>12.303476493805647</ele>
        <time>2024-07-24T14:29:09Z</time>
      </trkpt>
      <trkpt lat="24.915622401989772" lon="118.54219258728733">
        <ele>11.972123836167157</ele>
        <time>2024-07-24T14:29:18Z</time>
      </trkpt>
      <trkpt lat="24.915530729404395" lon="118.54221214496792">
        <ele>11.959435175172985</ele>
        <time>2024-07-24T14:29:21Z</time>
      </trkpt>
      <trkpt lat="24.915461387199308" lon="118.54224526476555">
        <ele>12.357815499417484</ele>
        <time>2024-07-24T14:29:24Z</time>
      </trkpt>
      <trkpt lat="24.915292750978974" lon="118.54227800117405">
        <ele>12.374390944838524</ele>
        <time>2024-07-24T14:29:30Z</time>
      </trkpt>
      <trkpt lat="24.91514301942321" lon="118.5423562042184">
        <ele>12.183124936185777</ele>
        <time>2024-07-24T14:29:36Z</time>
      </trkpt>
      <trkpt lat="24.914892826081967" lon="118.54240696746632">
        <ele>11.455521055497229</ele>
        <time>2024-07-24T14:29:45Z</time>
      </trkpt>
      <trkpt lat="24.91482333608035" lon="118.54244587918998">
        <ele>11.166950166225433</ele>
        <time>2024-07-24T14:29:48Z</time>
      </trkpt>
      <trkpt lat="24.91466951432966" lon="118.54246102599222">
        <ele>10.476319423876703</ele>
        <time>2024-07-24T14:29:54Z</time>
      </trkpt>
      <trkpt lat="24.91442323387188" lon="118.54257901590744">
        <ele>9.995760327205062</ele>
        <time>2024-07-24T14:30:09Z</time>
      </trkpt>
      <trkpt lat="24.91429895389215" lon="118.54255324085196">
        <ele>9.560984308831394</ele>
        <time>2024-07-24T14:30:13Z</time>
      </trkpt>
      <trkpt lat="24.914052327915293" lon="118.54260762795045">
        <ele>9.925646443851292</ele>
        <time>2024-07-24T14:30:21Z</time>
      </trkpt>
      <trkpt lat="24.913755633377473" lon="118.5427039434306">
        <ele>8.833223580382764</ele>
        <time>2024-07-24T14:30:31Z</time>
      </trkpt>
      <trkpt lat="24.913486981749212" lon="118.54274446454731">
        <ele>8.188984306529164</ele>
        <time>2024-07-24T14:30:40Z</time>
      </trkpt>
      <trkpt lat="24.91322517903223" lon="118.54282372329725">
        <ele>7.890412909910083</ele>
        <time>2024-07-24T14:30:49Z</time>
      </trkpt>
      <trkpt lat="24.91289432709843" lon="118.54289015742046">
        <ele>7.98022832814604</ele>
        <time>2024-07-24T14:31:01Z</time>
      </trkpt>
      <trkpt lat="24.91256262638803" lon="118.54299312600914">
        <ele>8.518469738774002</ele>
        <time>2024-07-24T14:31:13Z</time>
      </trkpt>
      <trkpt lat="24.912263398275424" lon="118.54309343890787">
        <ele>7.911960545927286</ele>
        <time>2024-07-24T14:31:25Z</time>
      </trkpt>
      <trkpt lat="24.91195844369293" lon="118.54319089402146">
        <ele>8.019731878302991</ele>
        <time>2024-07-24T14:31:37Z</time>
      </trkpt>
      <trkpt lat="24.911878407188137" lon="118.54320302868935">
        <ele>7.84753549285233</ele>
        <time>2024-07-24T14:31:40Z</time>
      </trkpt>
      <trkpt lat="24.91179647397394" lon="118.54319512632594">
        <ele>8.241941978223622</ele>
        <time>2024-07-24T14:31:43Z</time>
      </trkpt>
      <trkpt lat="24.911456581444277" lon="118.54329480281548">
        <ele>8.515841904096305</ele>
        <time>2024-07-24T14:31:55Z</time>
      </trkpt>
      <trkpt lat="24.911116583626455" lon="118.54333357231916">
        <ele>8.001775680109859</ele>
        <time>2024-07-24T14:32:07Z</time>
      </trkpt>
      <trkpt lat="24.91083883440776" lon="118.54335533226178">
        <ele>7.733902282081544</ele>
        <time>2024-07-24T14:32:16Z</time>
      </trkpt>
      <trkpt lat="24.910559609973365" lon="118.54337966977192">
        <ele>7.327085657045245</ele>
        <time>2024-07-24T14:32:26Z</time>
      </trkpt>
      <trkpt lat="24.910397417692618" lon="118.54336255765551">
        <ele>7.607909435406327</ele>
        <time>2024-07-24T14:32:32Z</time>
      </trkpt>
      <trkpt lat="24.91021221868377" lon="118.54342641961189">
        <ele>7.75152878370136</ele>
        <time>2024-07-24T14:32:38Z</time>
      </trkpt>
      <trkpt lat="24.910044065357667" lon="118.54341622600224">
        <ele>7.597387035377324</ele>
        <time>2024-07-24T14:32:44Z</time>
      </trkpt>
      <trkpt lat="24.909972319454447" lon="118.54344948253065">
        <ele>7.189904940314591</ele>
        <time>2024-07-24T14:32:47Z</time>
      </trkpt>
      <trkpt lat="24.909792118222185" lon="118.54341533431351">
        <ele>7.660545969381928</ele>
        <time>2024-07-24T14:32:53Z</time>
      </trkpt>
      <trkpt lat="24.909437200226563" lon="118.54339918645249">
        <ele>7.96946348529309</ele>
        <time>2024-07-24T14:33:05Z</time>
      </trkpt>
      <trkpt lat="24.90925973129969" lon="118.54341761638545">
        <ele>7.753448064438999</ele>
        <time>2024-07-24T14:33:11Z</time>
      </trkpt>
      <trkpt lat="24.908973121071185" lon="118.54336771680101">
        <ele>7.935633000917733</ele>
        <time>2024-07-24T14:33:20Z</time>
      </trkpt>
      <trkpt lat="24.90868725496461" lon="118.54336807491035">
        <ele>8.30222188308835</ele>
        <time>2024-07-24T14:33:29Z</time>
      </trkpt>
      <trkpt lat="24.908357494564232" lon="118.54339942872997">
        <ele>7.665373839437962</ele>
        <time>2024-07-24T14:33:41Z</time>
      </trkpt>
      <trkpt lat="24.908190089927537" lon="118.54341455251495">
        <ele>8.399150688201189</ele>
        <time>2024-07-24T14:33:47Z</time>
      </trkpt>
      <trkpt lat="24.908047461291428" lon="118.5434415509489">
        <ele>8.175771728157997</ele>
        <time>2024-07-24T14:33:53Z</time>
      </trkpt>
      <trkpt lat="24.907991495523724" lon="118.54342360777606">
        <ele>8.127057288773358</ele>
        <time>2024-07-24T14:33:56Z</time>
      </trkpt>
      <trkpt lat="24.907920721871367" lon="118.54344649613996">
        <ele>7.873085119761527</ele>
        <time>2024-07-24T14:33:59Z</time>
      </trkpt>
      <trkpt lat="24.907654459701163" lon="118.54344326288957">
        <ele>8.066222083754838</ele>
        <time>2024-07-24T14:34:08Z</time>
      </trkpt>
      <trkpt lat="24.907566613008516" lon="118.54342252416063">
        <ele>7.908864407800138</ele>
        <time>2024-07-24T14:34:11Z</time>
      </trkpt>
      <trkpt lat="24.90750055130282" lon="118.54335619457785">
        <ele>7.50700000859797</ele>
        <time>2024-07-24T14:34:14Z</time>
      </trkpt>
      <trkpt lat="24.907451390749046" lon="118.54327823858073">
        <ele>7.725785170681775</ele>
        <time>2024-07-24T14:34:17Z</time>
      </trkpt>
      <trkpt lat="24.907459716698515" lon="118.54319560223473">
        <ele>7.556571205146611</ele>
        <time>2024-07-24T14:34:20Z</time>
      </trkpt>
      <trkpt lat="24.907568667695063" lon="118.5429110312475">
        <ele>7.034035791642964</ele>
        <time>2024-07-24T14:34:30Z</time>
      </trkpt>
      <trkpt lat="24.907681173418137" lon="118.54264998598991">
        <ele>7.3171890042722225</ele>
        <time>2024-07-24T14:34:40Z</time>
      </trkpt>
      <trkpt lat="24.907755150937568" lon="118.54236262060707">
        <ele>8.218153547495604</ele>
        <time>2024-07-24T14:34:49Z</time>
      </trkpt>
      <trkpt lat="24.907895969948893" lon="118.54202197929283">
        <ele>7.880832699127495</ele>
        <time>2024-07-24T14:35:01Z</time>
      </trkpt>
      <trkpt lat="24.90800563628043" lon="118.54178389079844">
        <ele>9.025023993104696</ele>
        <time>2024-07-24T14:35:10Z</time>
      </trkpt>
      <trkpt lat="24.908033460389074" lon="118.54162239657181">
        <ele>9.524328601546586</ele>
        <time>2024-07-24T14:35:16Z</time>
      </trkpt>
      <trkpt lat="24.908020839506953" lon="118.54152583550889">
        <ele>9.719480886124074</ele>
        <time>2024-07-24T14:35:19Z</time>
      </trkpt>
      <trkpt lat="24.908029019710973" lon="118.54132800259784">
        <ele>10.696580178104341</ele>
        <time>2024-07-24T14:35:25Z</time>
      </trkpt>
      <trkpt lat="24.90808272106997" lon="118.54121583333308">
        <ele>9.693142582662404</ele>
        <time>2024-07-24T14:35:28Z</time>
      </trkpt>
      <trkpt lat="24.908108313390162" lon="118.54110325532467">
        <ele>10.057580160908401</ele>
        <time>2024-07-24T14:35:31Z</time>
      </trkpt>
      <trkpt lat="24.908169930580062" lon="118.54100412062435">
        <ele>10.33070448692888</ele>
        <time>2024-07-24T14:35:34Z</time>
      </trkpt>
      <trkpt lat="24.908278743067907" lon="118.54091164467503">
        <ele>9.824958516284823</ele>
        <time>2024-07-24T14:35:37Z</time>
      </trkpt>
      <trkpt lat="24.90845761062767" lon="118.54065727117151">
        <ele>6.680494981817901</ele>
        <time>2024-07-24T14:35:46Z</time>
      </trkpt>
      <trkpt lat="24.90851062246886" lon="118.54056742101334">
        <ele>7.825770370662212</ele>
        <time>2024-07-24T14:35:49Z</time>
      </trkpt>
      <trkpt lat="24.908614391056762" lon="118.54024012358236">
        <ele>8.222810395993292</ele>
        <time>2024-07-24T14:35:59Z</time>
      </trkpt>
      <trkpt lat="24.908664403742122" lon="118.53998936683527">
        <ele>7.614778636954725</ele>
        <time>2024-07-24T14:36:08Z</time>
      </trkpt>
      <trkpt lat="24.908773784303808" lon="118.53969628672061">
        <ele>7.914408492855728</ele>
        <time>2024-07-24T14:36:17Z</time>
      </trkpt>
      <trkpt lat="24.90882661763374" lon="118.53951027687049">
        <ele>7.747983871027827</ele>
        <time>2024-07-24T14:36:23Z</time>
      </trkpt>
      <trkpt lat="24.908862445668422" lon="118.5391447673369">
        <ele>8.302316753193736</ele>
        <time>2024-07-24T14:36:37Z</time>
      </trkpt>
      <trkpt lat="24.908869407194008" lon="118.53901991445626">
        <ele>7.836951890029013</ele>
        <time>2024-07-24T14:36:41Z</time>
      </trkpt>
      <trkpt lat="24.90889565084321" lon="118.53889751110285">
        <ele>7.681285675615072</ele>
        <time>2024-07-24T14:36:45Z</time>
      </trkpt>
      <trkpt lat="24.908932888757285" lon="118.53881326882582">
        <ele>7.351688523776829</ele>
        <time>2024-07-24T14:36:48Z</time>
      </trkpt>
      <trkpt lat="24.908941795390334" lon="118.53873820078424">
        <ele>7.482017400674522</ele>
        <time>2024-07-24T14:36:51Z</time>
      </trkpt>
      <trkpt lat="24.908978481542192" lon="118.53865803846732">
        <ele>7.46755307726562</ele>
        <time>2024-07-24T14:36:54Z</time>
      </trkpt>
      <trkpt lat="24.909077805506005" lon="118.53830480407615">
        <ele>7.867799072526395</ele>
        <time>2024-07-24T14:37:06Z</time>
      </trkpt>
      <trkpt lat="24.909163273152743" lon="118.53796010850866">
        <ele>7.875789377838373</ele>
        <time>2024-07-24T14:37:18Z</time>
      </trkpt>
      <trkpt lat="24.909221623400686" lon="118.53768721886041">
        <ele>8.649748393334448</ele>
        <time>2024-07-24T14:37:27Z</time>
      </trkpt>
      <trkpt lat="24.909258293346348" lon="118.53759721845479">
        <ele>9.005292621441185</ele>
        <time>2024-07-24T14:37:30Z</time>
      </trkpt>
      <trkpt lat="24.909313255582028" lon="118.53753211710972">
        <ele>9.35628142952919</ele>
        <time>2024-07-24T14:37:33Z</time>
      </trkpt>
      <trkpt lat="24.90928367417743" lon="118.5372595759201">
        <ele>9.59808421973139</ele>
        <time>2024-07-24T14:37:42Z</time>
      </trkpt>
      <trkpt lat="24.909286313738043" lon="118.53715200797483">
        <ele>10.073772956617177</ele>
        <time>2024-07-24T14:37:45Z</time>
      </trkpt>
      <trkpt lat="24.90932982423492" lon="118.53707511536129">
        <ele>10.282151941210032</ele>
        <time>2024-07-24T14:37:48Z</time>
      </trkpt>
      <trkpt lat="24.909385192381382" lon="118.5368980012004">
        <ele>10.306293366476893</ele>
        <time>2024-07-24T14:37:54Z</time>
      </trkpt>
      <trkpt lat="24.90945652623732" lon="118.53673470437283">
        <ele>10.03081749100238</ele>
        <time>2024-07-24T14:38:00Z</time>
      </trkpt>
      <trkpt lat="24.90950676230899" lon="118.53648754191313">
        <ele>9.916890856809914</ele>
        <time>2024-07-24T14:38:09Z</time>
      </trkpt>
      <trkpt lat="24.90954268048525" lon="118.5364034550175">
        <ele>9.183355488814414</ele>
        <time>2024-07-24T14:38:12Z</time>
      </trkpt>
      <trkpt lat="24.90957926030319" lon="118.5360331675879">
        <ele>9.916635344736278</ele>
        <time>2024-07-24T14:38:24Z</time>
      </trkpt>
      <trkpt lat="24.909625747953577" lon="118.5356211005671">
        <ele>9.506312791258097</ele>
        <time>2024-07-24T14:38:37Z</time>
      </trkpt>
      <trkpt lat="24.909691285178795" lon="118.5352407589243">
        <ele>9.402112229727209</ele>
        <time>2024-07-24T14:38:49Z</time>
      </trkpt>
      <trkpt lat="24.90972397181893" lon="118.53488049936426">
        <ele>8.042800980620086</ele>
        <time>2024-07-24T14:39:01Z</time>
      </trkpt>
      <trkpt lat="24.909759381727955" lon="118.53453470149948">
        <ele>7.98292738571763</ele>
        <time>2024-07-24T14:39:13Z</time>
      </trkpt>
      <trkpt lat="24.909763917509572" lon="118.53444357621662">
        <ele>7.299909216351807</ele>
        <time>2024-07-24T14:39:16Z</time>
      </trkpt>
      <trkpt lat="24.90982911861057" lon="118.53407743809798">
        <ele>7.577346934005618</ele>
        <time>2024-07-24T14:39:28Z</time>
      </trkpt>
      <trkpt lat="24.909857862862076" lon="118.53398018814843">
        <ele>8.123950384557247</ele>
        <time>2024-07-24T14:39:31Z</time>
      </trkpt>
      <trkpt lat="24.909915376152654" lon="118.53390060868311">
        <ele>7.774576671421528</ele>
        <time>2024-07-24T14:39:34Z</time>
      </trkpt>
      <trkpt lat="24.910050717700162" lon="118.53379771211267">
        <ele>7.696669009514153</ele>
        <time>2024-07-24T14:39:40Z</time>
      </trkpt>
      <trkpt lat="24.910286613802782" lon="118.53380224471232">
        <ele>9.118014330044389</ele>
        <time>2024-07-24T14:39:49Z</time>
      </trkpt>
      <trkpt lat="24.910612254031893" lon="118.53376475764668">
        <ele>9.860570347867906</ele>
        <time>2024-07-24T14:40:01Z</time>
      </trkpt>
      <trkpt lat="24.910891350155207" lon="118.5337765981588">
        <ele>10.062819027341902</ele>
        <time>2024-07-24T14:40:10Z</time>
      </trkpt>
      <trkpt lat="24.91122959389914" lon="118.53377890438779">
        <ele>10.147763956338167</ele>
        <time>2024-07-24T14:40:22Z</time>
      </trkpt>
      <trkpt lat="24.911503999129952" lon="118.53378031610477">
        <ele>10.012533742003143</ele>
        <time>2024-07-24T14:40:31Z</time>
      </trkpt>
      <trkpt lat="24.911762023402368" lon="118.533792629104">
        <ele>10.178159853443503</ele>
        <time>2024-07-24T14:40:40Z</time>
      </trkpt>
      <trkpt lat="24.911860874612543" lon="118.53378272351054">
        <ele>10.115837736055255</ele>
        <time>2024-07-24T14:40:44Z</time>
      </trkpt>
      <trkpt lat="24.91202854820427" lon="118.53380211821417">
        <ele>13.123874721117318</ele>
        <time>2024-07-24T14:40:50Z</time>
      </trkpt>
      <trkpt lat="24.912366171355426" lon="118.53377823189962">
        <ele>11.208613585680723</ele>
        <time>2024-07-24T14:41:02Z</time>
      </trkpt>
      <trkpt lat="24.912428022799975" lon="118.53376224206474">
        <ele>10.566103757359087</ele>
        <time>2024-07-24T14:41:05Z</time>
      </trkpt>
      <trkpt lat="24.912766102019162" lon="118.53376990164678">
        <ele>10.388751027174294</ele>
        <time>2024-07-24T14:41:17Z</time>
      </trkpt>
      <trkpt lat="24.912855632166714" lon="118.53377610786967">
        <ele>10.166887606494129</ele>
        <time>2024-07-24T14:41:20Z</time>
      </trkpt>
      <trkpt lat="24.913081641228654" lon="118.53387780091255">
        <ele>9.685516469180584</ele>
        <time>2024-07-24T14:41:29Z</time>
      </trkpt>
      <trkpt lat="24.913229592584" lon="118.53390821059722">
        <ele>9.581504540517926</ele>
        <time>2024-07-24T14:41:35Z</time>
      </trkpt>
      <trkpt lat="24.91353807283016" lon="118.533927260953">
        <ele>10.439698250964284</ele>
        <time>2024-07-24T14:41:47Z</time>
      </trkpt>
      <trkpt lat="24.913681453988215" lon="118.53395758954622">
        <ele>9.999032300896943</ele>
        <time>2024-07-24T14:41:53Z</time>
      </trkpt>
      <trkpt lat="24.913750783094265" lon="118.5339895301229">
        <ele>10.73558821156621</ele>
        <time>2024-07-24T14:41:56Z</time>
      </trkpt>
      <trkpt lat="24.9140567020528" lon="118.5340170094007">
        <ele>10.586315990425646</ele>
        <time>2024-07-24T14:42:08Z</time>
      </trkpt>
      <trkpt lat="24.91432007406516" lon="118.53403787300392">
        <ele>10.94286316819489</ele>
        <time>2024-07-24T14:42:17Z</time>
      </trkpt>
      <trkpt lat="24.914648051759084" lon="118.53411522271513">
        <ele>12.776311350986362</ele>
        <time>2024-07-24T14:42:29Z</time>
      </trkpt>
      <trkpt lat="24.914995024102122" lon="118.53416831131935">
        <ele>13.366566207259893</ele>
        <time>2024-07-24T14:42:41Z</time>
      </trkpt>
      <trkpt lat="24.91526217234299" lon="118.53418922678911">
        <ele>12.832591001875699</ele>
        <time>2024-07-24T14:42:51Z</time>
      </trkpt>
      <trkpt lat="24.91533814892966" lon="118.53422881569027">
        <ele>12.712463584728539</ele>
        <time>2024-07-24T14:42:54Z</time>
      </trkpt>
      <trkpt lat="24.915381713175798" lon="118.53429916123602">
        <ele>12.0373346908018</ele>
        <time>2024-07-24T14:42:57Z</time>
      </trkpt>
      <trkpt lat="24.91533712447532" lon="118.53447720406109">
        <ele>11.397745732218027</ele>
        <time>2024-07-24T14:43:03Z</time>
      </trkpt>
      <trkpt lat="24.915209279435548" lon="118.53469741518052">
        <ele>11.886755566112697</ele>
        <time>2024-07-24T14:43:12Z</time>
      </trkpt>
      <trkpt lat="24.915147666164668" lon="118.53485139732655">
        <ele>12.079044444486499</ele>
        <time>2024-07-24T14:43:18Z</time>
      </trkpt>
      <trkpt lat="24.915076217045133" lon="118.53521056345062">
        <ele>12.737730216234922</ele>
        <time>2024-07-24T14:43:30Z</time>
      </trkpt>
      <trkpt lat="24.915025873950537" lon="118.53548679571865">
        <ele>13.01908421702683</ele>
        <time>2024-07-24T14:43:40Z</time>
      </trkpt>
      <trkpt lat="24.915036266801497" lon="118.53564812787828">
        <ele>13.370865043252707</ele>
        <time>2024-07-24T14:43:46Z</time>
      </trkpt>
      <trkpt lat="24.91506159003138" lon="118.5357252969649">
        <ele>13.779121920466423</ele>
        <time>2024-07-24T14:43:49Z</time>
      </trkpt>
      <trkpt lat="24.915033863988995" lon="118.53602543834289">
        <ele>14.636645057238638</ele>
        <time>2024-07-24T14:43:58Z</time>
      </trkpt>
      <trkpt lat="24.915018266297935" lon="118.5363151853689">
        <ele>14.619925783015788</ele>
        <time>2024-07-24T14:44:07Z</time>
      </trkpt>
      <trkpt lat="24.915061961313157" lon="118.53660316922688">
        <ele>14.461605979129672</ele>
        <time>2024-07-24T14:44:16Z</time>
      </trkpt>
      <trkpt lat="24.915059133996166" lon="118.53671051503692">
        <ele>14.709288196638227</ele>
        <time>2024-07-24T14:44:19Z</time>
      </trkpt>
      <trkpt lat="24.915130098028005" lon="118.53708053608675">
        <ele>14.752577339299023</ele>
        <time>2024-07-24T14:44:31Z</time>
      </trkpt>
      <trkpt lat="24.91522861780693" lon="118.53741318888827">
        <ele>14.598375582136214</ele>
        <time>2024-07-24T14:44:43Z</time>
      </trkpt>
      <trkpt lat="24.915378802028922" lon="118.5377455731291">
        <ele>15.33446929231286</ele>
        <time>2024-07-24T14:44:56Z</time>
      </trkpt>
      <trkpt lat="24.915495609862507" lon="118.538084608844">
        <ele>14.881474687717855</ele>
        <time>2024-07-24T14:45:08Z</time>
      </trkpt>
      <trkpt lat="24.915618430508122" lon="118.53841834195184">
        <ele>16.24944063089788</ele>
        <time>2024-07-24T14:45:20Z</time>
      </trkpt>
      <trkpt lat="24.915736475268282" lon="118.53877380601594">
        <ele>15.646980861201882</ele>
        <time>2024-07-24T14:45:32Z</time>
      </trkpt>
      <trkpt lat="24.915836939260668" lon="118.53912382627699">
        <ele>14.465469716116786</ele>
        <time>2024-07-24T14:45:44Z</time>
      </trkpt>
      <trkpt lat="24.91593234488926" lon="118.53947976887486">
        <ele>13.596065381541848</ele>
        <time>2024-07-24T14:45:56Z</time>
      </trkpt>
      <trkpt lat="24.91597857332643" lon="118.5396724913433">
        <ele>13.695881818421185</ele>
        <time>2024-07-24T14:46:02Z</time>
      </trkpt>
      <trkpt lat="24.915972466282913" lon="118.5397572391352">
        <ele>13.255192891694605</ele>
        <time>2024-07-24T14:46:05Z</time>
      </trkpt>
      <trkpt lat="24.915988267100833" lon="118.54002731191108">
        <ele>13.008164932951331</ele>
        <time>2024-07-24T14:46:14Z</time>
      </trkpt>
      <trkpt lat="24.916123734102626" lon="118.54038368975046">
        <ele>12.822971070185304</ele>
        <time>2024-07-24T14:46:26Z</time>
      </trkpt>
      <trkpt lat="24.91621784643142" lon="118.54064932307129">
        <ele>12.198273623362184</ele>
        <time>2024-07-24T14:46:35Z</time>
      </trkpt>
      <trkpt lat="24.916303666551052" lon="118.54082661402029">
        <ele>11.967599481344223</ele>
        <time>2024-07-24T14:46:41Z</time>
      </trkpt>
      <trkpt lat="24.91632725705465" lon="118.54091090344579">
        <ele>12.250634346157312</ele>
        <time>2024-07-24T14:46:44Z</time>
      </trkpt>
      <trkpt lat="24.916324452102675" lon="118.54099809585269">
        <ele>12.149666361510754</ele>
        <time>2024-07-24T14:46:47Z</time>
      </trkpt>
      <trkpt lat="24.91644094411557" lon="118.54135600314675">
        <ele>12.179136000573635</ele>
        <time>2024-07-24T14:46:59Z</time>
      </trkpt>
      <trkpt lat="24.91652740434936" lon="118.54168671102306">
        <ele>12.576365449465811</ele>
        <time>2024-07-24T14:47:10Z</time>
      </trkpt>
      <trkpt lat="24.91654016205106" lon="118.54177779980242">
        <ele>12.339482299983501</ele>
        <time>2024-07-24T14:47:13Z</time>
      </trkpt>
      <trkpt lat="24.916500229024866" lon="118.54185973110197">
        <ele>12.055439562536776</ele>
        <time>2024-07-24T14:47:16Z</time>
      </trkpt>
      <trkpt lat="24.916428188549563" lon="118.54194069267402">
        <ele>11.497892606072128</ele>
        <time>2024-07-24T14:47:19Z</time>
      </trkpt>
      <trkpt lat="24.91624090233416" lon="118.54198396317939">
        <ele>12.202615491114557</ele>
        <time>2024-07-24T14:47:25Z</time>
      </trkpt>
      <trkpt lat="24.916031879561757" lon="118.54205927474275">
        <ele>12.12609984073788</ele>
        <time>2024-07-24T14:47:34Z</time>
      </trkpt>
      <trkpt lat="24.91571409476573" lon="118.54214488613138">
        <ele>11.952638749033213</ele>
        <time>2024-07-24T14:47:43Z</time>
      </trkpt>
      <trkpt lat="24.91552554921783" lon="118.54224248530628">
        <ele>12.62250429391861</ele>
        <time>2024-07-24T14:47:49Z</time>
      </trkpt>
      <trkpt lat="24.915244422764612" lon="118.54232503466697">
        <ele>12.456317668780684</ele>
        <time>2024-07-24T14:47:58Z</time>
      </trkpt>
      <trkpt lat="24.914973741886566" lon="118.54240580082987">
        <ele>11.68028499931097</ele>
        <time>2024-07-24T14:48:07Z</time>
      </trkpt>
      <trkpt lat="24.914896299958418" lon="118.54242643658233">
        <ele>11.041604240424931</ele>
        <time>2024-07-24T14:48:10Z</time>
      </trkpt>
      <trkpt lat="24.914819254613544" lon="118.54247644353661">
        <ele>11.076666245236993</ele>
        <time>2024-07-24T14:48:13Z</time>
      </trkpt>
      <trkpt lat="24.91465490641844" lon="118.54248493082628">
        <ele>10.481290445663035</ele>
        <time>2024-07-24T14:48:19Z</time>
      </trkpt>
      <trkpt lat="24.914310087607916" lon="118.54257060676692">
        <ele>9.955599124543369</ele>
        <time>2024-07-24T14:48:31Z</time>
      </trkpt>
      <trkpt lat="24.91396625988537" lon="118.54263330567963">
        <ele>10.030273617245257</ele>
        <time>2024-07-24T14:48:43Z</time>
      </trkpt>
      <trkpt lat="24.913792594320412" lon="118.54266409105249">
        <ele>9.330771476961672</ele>
        <time>2024-07-24T14:48:49Z</time>
      </trkpt>
      <trkpt lat="24.913537213602666" lon="118.5427528109883">
        <ele>8.594265980646014</ele>
        <time>2024-07-24T14:48:58Z</time>
      </trkpt>
      <trkpt lat="24.91322061643596" lon="118.5428182413192">
        <ele>7.876433786936104</ele>
        <time>2024-07-24T14:49:08Z</time>
      </trkpt>
      <trkpt lat="24.91288087184025" lon="118.54289142947431">
        <ele>7.9570799600332975</ele>
        <time>2024-07-24T14:49:20Z</time>
      </trkpt>
      <trkpt lat="24.91279961576989" lon="118.54290609476745">
        <ele>8.961220283061266</ele>
        <time>2024-07-24T14:49:23Z</time>
      </trkpt>
      <trkpt lat="24.91253965747267" lon="118.5429987742108">
        <ele>8.541321743279696</ele>
        <time>2024-07-24T14:49:32Z</time>
      </trkpt>
      <trkpt lat="24.91222194168524" lon="118.54310548745835">
        <ele>8.55988199915737</ele>
        <time>2024-07-24T14:49:44Z</time>
      </trkpt>
      <trkpt lat="24.911879443843773" lon="118.5431988198429">
        <ele>8.040178128518164</ele>
        <time>2024-07-24T14:49:56Z</time>
      </trkpt>
      <trkpt lat="24.91169436870279" lon="118.5432134424287">
        <ele>8.8545610466972</ele>
        <time>2024-07-24T14:50:02Z</time>
      </trkpt>
      <trkpt lat="24.911443726108676" lon="118.54328871715046">
        <ele>8.525311388075352</ele>
        <time>2024-07-24T14:50:11Z</time>
      </trkpt>
      <trkpt lat="24.91117326806776" lon="118.5433353794992">
        <ele>7.850819577462971</ele>
        <time>2024-07-24T14:50:20Z</time>
      </trkpt>
      <trkpt lat="24.910897583277645" lon="118.54336352389672">
        <ele>7.974548161961138</ele>
        <time>2024-07-24T14:50:29Z</time>
      </trkpt>
      <trkpt lat="24.910603851086705" lon="118.54335750137955">
        <ele>7.7373133804649115</ele>
        <time>2024-07-24T14:50:38Z</time>
      </trkpt>
      <trkpt lat="24.91043028910628" lon="118.54334556956343">
        <ele>7.609677290543914</ele>
        <time>2024-07-24T14:50:44Z</time>
      </trkpt>
      <trkpt lat="24.910236223060426" lon="118.5433940932683">
        <ele>7.764992866665125</ele>
        <time>2024-07-24T14:50:50Z</time>
      </trkpt>
      <trkpt lat="24.90995610558488" lon="118.54338628597002">
        <ele>7.864036404527724</ele>
        <time>2024-07-24T14:50:59Z</time>
      </trkpt>
      <trkpt lat="24.90972826892249" lon="118.5434433857854">
        <ele>6.88529256824404</ele>
        <time>2024-07-24T14:51:05Z</time>
      </trkpt>
      <trkpt lat="24.909380860888945" lon="118.54339600414394">
        <ele>7.8543582847341895</ele>
        <time>2024-07-24T14:51:15Z</time>
      </trkpt>
      <trkpt lat="24.90907198642417" lon="118.5433401138744">
        <ele>8.18453914579004</ele>
        <time>2024-07-24T14:51:24Z</time>
      </trkpt>
      <trkpt lat="24.908757518498856" lon="118.54335441601694">
        <ele>7.317874636501074</ele>
        <time>2024-07-24T14:51:33Z</time>
      </trkpt>
      <trkpt lat="24.908434909639528" lon="118.5433999743886">
        <ele>8.066000430844724</ele>
        <time>2024-07-24T14:51:42Z</time>
      </trkpt>
      <trkpt lat="24.908140892937137" lon="118.5434260131093">
        <ele>7.9423422291874886</ele>
        <time>2024-07-24T14:51:51Z</time>
      </trkpt>
      <trkpt lat="24.90797207370625" lon="118.54344631593042">
        <ele>7.255046156235039</ele>
        <time>2024-07-24T14:51:57Z</time>
      </trkpt>
      <trkpt lat="24.907657447492223" lon="118.54342838779974">
        <ele>8.168439954519272</ele>
        <time>2024-07-24T14:52:06Z</time>
      </trkpt>
      <trkpt lat="24.907567216748507" lon="118.54339896293304">
        <ele>7.6070926478132606</ele>
        <time>2024-07-24T14:52:09Z</time>
      </trkpt>
      <trkpt lat="24.907494649454144" lon="118.54331033518986">
        <ele>7.769671448506415</ele>
        <time>2024-07-24T14:52:12Z</time>
      </trkpt>
    </trkseg>
  </trk>
</gpx>