<?xml version="1.0" encoding="UTF-8"?>
<gpx xmlns="http://www.topografix.com/GPX/1/1" xmlns:gpxtpx="http://www.garmin.com/xmlschemas/TrackPointExtension/v1" xmlns:xsi="http://www.w3.org/2001/XMLSchema-instance" xsi:schemaLocation="http://www.topografix.com/GPX/1/1 http://www.topografix.com/GPX/1/1/gpx.xsd" version="1.1" creator="gpx.py -- https://github.com/tkrajina/gpxpy">
  <trk>
    <name>gpx from keep</name>
    <type>Run</type>
    <trkseg>
      <trkpt lat="24.91070679975344" lon="118.53859346484174">
        <ele>10.167969156987965</ele>
        <time>2024-07-22T13:56:47Z</time>
      </trkpt>
      <trkpt lat="24.910413558029617" lon="118.53853719001079">
        <ele>9.750898024067283</ele>
        <time>2024-07-22T13:56:59Z</time>
      </trkpt>
      <trkpt lat="24.91023624756299" lon="118.53850028787092">
        <ele>8.737934776581824</ele>
        <time>2024-07-22T13:57:05Z</time>
      </trkpt>
      <trkpt lat="24.909981382614323" lon="118.53849900362385">
        <ele>8.130537093617022</ele>
        <time>2024-07-22T13:57:14Z</time>
      </trkpt>
      <trkpt lat="24.909799325202034" lon="118.53845288440093">
        <ele>8.082168681547046</ele>
        <time>2024-07-22T13:57:20Z</time>
      </trkpt>
      <trkpt lat="24.909615768671863" lon="118.53843495880349">
        <ele>7.257949870079756</ele>
        <time>2024-07-22T13:57:26Z</time>
      </trkpt>
      <trkpt lat="24.909434950101033" lon="118.53845617908554">
        <ele>7.163478652946651</ele>
        <time>2024-07-22T13:57:32Z</time>
      </trkpt>
      <trkpt lat="24.90921052249598" lon="118.5383495854623">
        <ele>7.573550064116716</ele>
        <time>2024-07-22T13:57:41Z</time>
      </trkpt>
      <trkpt lat="24.909143056577832" lon="118.5383018760729">
        <ele>7.808172210119665</ele>
        <time>2024-07-22T13:57:44Z</time>
      </trkpt>
      <trkpt lat="24.90915464742995" lon="118.53821056822548">
        <ele>7.773687731474638</ele>
        <time>2024-07-22T13:57:47Z</time>
      </trkpt>
      <trkpt lat="24.909248534906226" lon="118.53794540965328">
        <ele>8.12904563266784</ele>
        <time>2024-07-22T13:57:56Z</time>
      </trkpt>
      <trkpt lat="24.90931344363567" lon="118.53755007455263">
        <ele>9.279152806848288</ele>
        <time>2024-07-22T13:58:08Z</time>
      </trkpt>
      <trkpt lat="24.909320425433037" lon="118.53740729687841">
        <ele>10.200622605159879</ele>
        <time>2024-07-22T13:58:12Z</time>
      </trkpt>
      <trkpt lat="24.90930775644504" lon="118.53726643550097">
        <ele>10.272879131138325</ele>
        <time>2024-07-22T13:58:16Z</time>
      </trkpt>
      <trkpt lat="24.90927622172861" lon="118.53714449205728">
        <ele>10.177725391462445</ele>
        <time>2024-07-22T13:58:20Z</time>
      </trkpt>
      <trkpt lat="24.90941632882211" lon="118.53683073451573">
        <ele>10.089359710924327</ele>
        <time>2024-07-22T13:58:30Z</time>
      </trkpt>
      <trkpt lat="24.909503240927766" lon="118.53654878946314">
        <ele>10.314175369217992</ele>
        <time>2024-07-22T13:58:39Z</time>
      </trkpt>
      <trkpt lat="24.90955692601273" lon="118.53624097839389">
        <ele>10.392845507711172</ele>
        <time>2024-07-22T13:58:48Z</time>
      </trkpt>
      <trkpt lat="24.909588027017335" lon="118.5359065835164">
        <ele>10.108690935187042</ele>
        <time>2024-07-22T13:59:00Z</time>
      </trkpt>
      <trkpt lat="24.9096175292817" lon="118.53562647853863">
        <ele>9.859203841537237</ele>
        <time>2024-07-22T13:59:09Z</time>
      </trkpt>
      <trkpt lat="24.90969158083769" lon="118.53536556733971">
        <ele>9.749888010323048</ele>
        <time>2024-07-22T13:59:18Z</time>
      </trkpt>
      <trkpt lat="24.909746600334937" lon="118.53499605228573">
        <ele>8.900613192468882</ele>
        <time>2024-07-22T13:59:30Z</time>
      </trkpt>
      <trkpt lat="24.909768846831547" lon="118.53491295578775">
        <ele>8.587579461745918</ele>
        <time>2024-07-22T13:59:33Z</time>
      </trkpt>
      <trkpt lat="24.909824620641945" lon="118.53488414062329">
        <ele>7.487801558338106</ele>
        <time>2024-07-22T13:59:36Z</time>
      </trkpt>
      <trkpt lat="24.910044622954832" lon="118.5350366532454">
        <ele>9.271149506792426</ele>
        <time>2024-07-22T13:59:45Z</time>
      </trkpt>
      <trkpt lat="24.910366953002164" lon="118.53515317189269">
        <ele>10.149500899016857</ele>
        <time>2024-07-22T13:59:57Z</time>
      </trkpt>
      <trkpt lat="24.910669933843923" lon="118.53530097014625">
        <ele>9.981621478684247</ele>
        <time>2024-07-22T14:00:09Z</time>
      </trkpt>
      <trkpt lat="24.9109488573479" lon="118.53541947124035">
        <ele>10.638418203219771</ele>
        <time>2024-07-22T14:00:19Z</time>
      </trkpt>
      <trkpt lat="24.91105922381502" lon="118.5354785163701">
        <ele>10.177669949829578</ele>
        <time>2024-07-22T14:00:23Z</time>
      </trkpt>
      <trkpt lat="24.91117744265855" lon="118.53550919664252">
        <ele>10.764992383308709</ele>
        <time>2024-07-22T14:00:27Z</time>
      </trkpt>
      <trkpt lat="24.911427475699632" lon="118.53564124001963">
        <ele>10.364218994043767</ele>
        <time>2024-07-22T14:00:37Z</time>
      </trkpt>
      <trkpt lat="24.911741928350796" lon="118.53579536294333">
        <ele>10.473077271133661</ele>
        <time>2024-07-22T14:00:49Z</time>
      </trkpt>
      <trkpt lat="24.912075816120797" lon="118.5359259944451">
        <ele>10.03695606905967</ele>
        <time>2024-07-22T14:01:01Z</time>
      </trkpt>
      <trkpt lat="24.912336793698138" lon="118.53605248560592">
        <ele>10.909492382779717</ele>
        <time>2024-07-22T14:01:11Z</time>
      </trkpt>
      <trkpt lat="24.91262456398689" lon="118.53619058555788">
        <ele>10.414440920576453</ele>
        <time>2024-07-22T14:01:23Z</time>
      </trkpt>
      <trkpt lat="24.91276008882281" lon="118.53624546153262">
        <ele>10.119292533956468</ele>
        <time>2024-07-22T14:01:29Z</time>
      </trkpt>
      <trkpt lat="24.912910384593765" lon="118.53624462232122">
        <ele>10.898626434616745</ele>
        <time>2024-07-22T14:01:35Z</time>
      </trkpt>
      <trkpt lat="24.912995997105657" lon="118.53628405455277">
        <ele>10.869269635528326</ele>
        <time>2024-07-22T14:01:38Z</time>
      </trkpt>
      <trkpt lat="24.913079251194812" lon="118.53634734177096">
        <ele>12.144125397317111</ele>
        <time>2024-07-22T14:01:41Z</time>
      </trkpt>
      <trkpt lat="24.913316219738356" lon="118.5364662433967">
        <ele>12.309392174705863</ele>
        <time>2024-07-22T14:01:50Z</time>
      </trkpt>
      <trkpt lat="24.913417725130422" lon="118.53649311449703">
        <ele>12.094935443252325</ele>
        <time>2024-07-22T14:01:53Z</time>
      </trkpt>
      <trkpt lat="24.913497731321574" lon="118.53654648674706">
        <ele>13.024256306700408</ele>
        <time>2024-07-22T14:01:56Z</time>
      </trkpt>
      <trkpt lat="24.913759708959716" lon="118.53664619203998">
        <ele>13.236290822736919</ele>
        <time>2024-07-22T14:02:05Z</time>
      </trkpt>
      <trkpt lat="24.914071652335394" lon="118.53678816623581">
        <ele>12.339187500067055</ele>
        <time>2024-07-22T14:02:17Z</time>
      </trkpt>
      <trkpt lat="24.914369329230126" lon="118.53690227168818">
        <ele>12.480731738731265</ele>
        <time>2024-07-22T14:02:28Z</time>
      </trkpt>
      <trkpt lat="24.914467080658753" lon="118.53694962955879">
        <ele>12.465467588044703</ele>
        <time>2024-07-22T14:02:32Z</time>
      </trkpt>
      <trkpt lat="24.91455743291005" lon="118.53701830638549">
        <ele>13.209480784833431</ele>
        <time>2024-07-22T14:02:36Z</time>
      </trkpt>
      <trkpt lat="24.914774614518265" lon="118.53709925809065">
        <ele>14.64716662839055</ele>
        <time>2024-07-22T14:02:44Z</time>
      </trkpt>
      <trkpt lat="24.914921311703804" lon="118.53716960037602">
        <ele>15.330004771240056</ele>
        <time>2024-07-22T14:02:50Z</time>
      </trkpt>
      <trkpt lat="24.915006586573796" lon="118.53717386648849">
        <ele>15.678777046501637</ele>
        <time>2024-07-22T14:02:53Z</time>
      </trkpt>
      <trkpt lat="24.915088691481817" lon="118.53722008222645">
        <ele>15.214006169699132</ele>
        <time>2024-07-22T14:02:56Z</time>
      </trkpt>
      <trkpt lat="24.91515046766335" lon="118.53729525330914">
        <ele>15.007394548505545</ele>
        <time>2024-07-22T14:02:59Z</time>
      </trkpt>
      <trkpt lat="24.915288448070882" lon="118.53764445809234">
        <ele>15.642852942459285</ele>
        <time>2024-07-22T14:03:11Z</time>
      </trkpt>
      <trkpt lat="24.915423111056203" lon="118.53797181340586">
        <ele>15.03318383730948</ele>
        <time>2024-07-22T14:03:23Z</time>
      </trkpt>
      <trkpt lat="24.915470857432855" lon="118.53814373589589">
        <ele>15.175054392777383</ele>
        <time>2024-07-22T14:03:29Z</time>
      </trkpt>
      <trkpt lat="24.915510665833466" lon="118.53821872867833">
        <ele>15.730695908889174</ele>
        <time>2024-07-22T14:03:32Z</time>
      </trkpt>
      <trkpt lat="24.915641187918787" lon="118.53854444970835">
        <ele>16.684892541728914</ele>
        <time>2024-07-22T14:03:44Z</time>
      </trkpt>
      <trkpt lat="24.915750082656483" lon="118.53890181715717">
        <ele>15.678284795023501</ele>
        <time>2024-07-22T14:03:56Z</time>
      </trkpt>
      <trkpt lat="24.915848124311513" lon="118.53927437782848">
        <ele>14.723569548688829</ele>
        <time>2024-07-22T14:04:08Z</time>
      </trkpt>
      <trkpt lat="24.91589747443847" lon="118.5394597768169">
        <ele>13.994183250702918</ele>
        <time>2024-07-22T14:04:14Z</time>
      </trkpt>
      <trkpt lat="24.915968520877932" lon="118.53964348460622">
        <ele>13.960897131823003</ele>
        <time>2024-07-22T14:04:20Z</time>
      </trkpt>
      <trkpt lat="24.915987314372536" lon="118.53975155293021">
        <ele>13.436631677672267</ele>
        <time>2024-07-22T14:04:23Z</time>
      </trkpt>
      <trkpt lat="24.91609019728927" lon="118.54009002355885">
        <ele>12.726908769458532</ele>
        <time>2024-07-22T14:04:34Z</time>
      </trkpt>
      <trkpt lat="24.91617783966381" lon="118.54045589807086">
        <ele>12.726063176058233</ele>
        <time>2024-07-22T14:04:46Z</time>
      </trkpt>
      <trkpt lat="24.91627759291263" lon="118.54081205518101">
        <ele>12.26607019547373</ele>
        <time>2024-07-22T14:04:58Z</time>
      </trkpt>
      <trkpt lat="24.916311541041306" lon="118.54089864672932">
        <ele>12.546466754749417</ele>
        <time>2024-07-22T14:05:01Z</time>
      </trkpt>
      <trkpt lat="24.916320986183916" lon="118.54119225732158">
        <ele>12.48779359832406</ele>
        <time>2024-07-22T14:05:10Z</time>
      </trkpt>
      <trkpt lat="24.91643396670141" lon="118.54146748341908">
        <ele>13.067685008049011</ele>
        <time>2024-07-22T14:05:19Z</time>
      </trkpt>
      <trkpt lat="24.916466912502838" lon="118.54155969862329">
        <ele>12.847663268446922</ele>
        <time>2024-07-22T14:05:22Z</time>
      </trkpt>
      <trkpt lat="24.916506781163857" lon="118.54175011402282">
        <ele>12.907319989986718</ele>
        <time>2024-07-22T14:05:28Z</time>
      </trkpt>
      <trkpt lat="24.91649598579707" lon="118.54185078978288">
        <ele>12.537576545961201</ele>
        <time>2024-07-22T14:05:31Z</time>
      </trkpt>
      <trkpt lat="24.916451634439856" lon="118.54195350153425">
        <ele>11.780673179775476</ele>
        <time>2024-07-22T14:05:34Z</time>
      </trkpt>
      <trkpt lat="24.91615487868936" lon="118.54200419299383">
        <ele>12.045354066416621</ele>
        <time>2024-07-22T14:05:43Z</time>
      </trkpt>
      <trkpt lat="24.916072340693955" lon="118.54204698967415">
        <ele>12.605201808735728</ele>
        <time>2024-07-22T14:05:46Z</time>
      </trkpt>
      <trkpt lat="24.915901347300615" lon="118.54207731701288">
        <ele>12.794421658851206</ele>
        <time>2024-07-22T14:05:52Z</time>
      </trkpt>
      <trkpt lat="24.91556607283238" lon="118.54223163392577">
        <ele>12.944279766641557</ele>
        <time>2024-07-22T14:06:04Z</time>
      </trkpt>
      <trkpt lat="24.915476611909472" lon="118.54224066133085">
        <ele>13.040426928550005</ele>
        <time>2024-07-22T14:06:07Z</time>
      </trkpt>
      <trkpt lat="24.915380376865098" lon="118.54229111627181">
        <ele>12.755748588591814</ele>
        <time>2024-07-22T14:06:10Z</time>
      </trkpt>
      <trkpt lat="24.915204664492148" lon="118.5423098649878">
        <ele>12.431242510676384</ele>
        <time>2024-07-22T14:06:16Z</time>
      </trkpt>
      <trkpt lat="24.914928057564776" lon="118.54237896508128">
        <ele>11.64656241517514</ele>
        <time>2024-07-22T14:06:25Z</time>
      </trkpt>
      <trkpt lat="24.914844728508125" lon="118.54239529635936">
        <ele>11.600086937658489</ele>
        <time>2024-07-22T14:06:28Z</time>
      </trkpt>
      <trkpt lat="24.914562373105273" lon="118.54249827813142">
        <ele>10.572529555298388</ele>
        <time>2024-07-22T14:06:39Z</time>
      </trkpt>
      <trkpt lat="24.91444711607808" lon="118.54252487053107">
        <ele>10.112844005227089</ele>
        <time>2024-07-22T14:06:43Z</time>
      </trkpt>
      <trkpt lat="24.914336196925532" lon="118.54253049638658">
        <ele>10.101911130361259</ele>
        <time>2024-07-22T14:06:47Z</time>
      </trkpt>
      <trkpt lat="24.914008288846425" lon="118.54259646325816">
        <ele>10.181936551816761</ele>
        <time>2024-07-22T14:06:59Z</time>
      </trkpt>
      <trkpt lat="24.913752094693084" lon="118.54271046832241">
        <ele>9.232993358746171</ele>
        <time>2024-07-22T14:07:08Z</time>
      </trkpt>
      <trkpt lat="24.913580472264176" lon="118.54275771297293">
        <ele>8.200567554682493</ele>
        <time>2024-07-22T14:07:14Z</time>
      </trkpt>
      <trkpt lat="24.91332239986077" lon="118.54278489085745">
        <ele>7.775245265103877</ele>
        <time>2024-07-22T14:07:23Z</time>
      </trkpt>
      <trkpt lat="24.913086399861808" lon="118.54286244860555">
        <ele>7.4393125008791685</ele>
        <time>2024-07-22T14:07:32Z</time>
      </trkpt>
      <trkpt lat="24.912998838171053" lon="118.54287495862404">
        <ele>7.728699875995517</ele>
        <time>2024-07-22T14:07:35Z</time>
      </trkpt>
      <trkpt lat="24.912855330114365" lon="118.54293085155065">
        <ele>8.46397855412215</ele>
        <time>2024-07-22T14:07:41Z</time>
      </trkpt>
      <trkpt lat="24.91258872376039" lon="118.54300273725062">
        <ele>8.343487792648375</ele>
        <time>2024-07-22T14:07:50Z</time>
      </trkpt>
      <trkpt lat="24.912509070181635" lon="118.54304381038725">
        <ele>8.058275149203837</ele>
        <time>2024-07-22T14:07:53Z</time>
      </trkpt>
      <trkpt lat="24.912344655259364" lon="118.54306189885641">
        <ele>7.5667728474363685</ele>
        <time>2024-07-22T14:07:59Z</time>
      </trkpt>
      <trkpt lat="24.91201970462481" lon="118.54317060919497">
        <ele>7.895792136900127</ele>
        <time>2024-07-22T14:08:11Z</time>
      </trkpt>
      <trkpt lat="24.91185819106978" lon="118.54322174364566">
        <ele>7.461046659387648</ele>
        <time>2024-07-22T14:08:17Z</time>
      </trkpt>
      <trkpt lat="24.911690909011956" lon="118.54322374044757">
        <ele>8.506651128642261</ele>
        <time>2024-07-22T14:08:23Z</time>
      </trkpt>
      <trkpt lat="24.911444911233787" lon="118.54327485101838">
        <ele>7.982562068849802</ele>
        <time>2024-07-22T14:08:32Z</time>
      </trkpt>
      <trkpt lat="24.911288700902656" lon="118.54331986318564">
        <ele>8.124972740188241</ele>
        <time>2024-07-22T14:08:38Z</time>
      </trkpt>
      <trkpt lat="24.911167317184454" lon="118.54333664912483">
        <ele>8.451712044887245</ele>
        <time>2024-07-22T14:08:42Z</time>
      </trkpt>
      <trkpt lat="24.910952876388972" lon="118.54334395761455">
        <ele>7.967046017758548</ele>
        <time>2024-07-22T14:08:49Z</time>
      </trkpt>
      <trkpt lat="24.910828820707643" lon="118.5433817772817">
        <ele>7.898909744806588</ele>
        <time>2024-07-22T14:08:53Z</time>
      </trkpt>
      <trkpt lat="24.910470027682532" lon="118.54340139949227">
        <ele>7.72063175868243</ele>
        <time>2024-07-22T14:09:05Z</time>
      </trkpt>
      <trkpt lat="24.910305511740745" lon="118.54340049608815">
        <ele>7.567130642011762</ele>
        <time>2024-07-22T14:09:11Z</time>
      </trkpt>
      <trkpt lat="24.910129860249246" lon="118.5434333245531">
        <ele>7.735596904531121</ele>
        <time>2024-07-22T14:09:17Z</time>
      </trkpt>
      <trkpt lat="24.909953442953313" lon="118.54340092162903">
        <ele>7.663328007794917</ele>
        <time>2024-07-22T14:09:23Z</time>
      </trkpt>
      <trkpt lat="24.909664867475662" lon="118.54342732426694">
        <ele>7.493860584683716</ele>
        <time>2024-07-22T14:09:32Z</time>
      </trkpt>
      <trkpt lat="24.90949211639974" lon="118.54343089129446">
        <ele>7.696460620500147</ele>
        <time>2024-07-22T14:09:38Z</time>
      </trkpt>
      <trkpt lat="24.909315034965942" lon="118.54338861453702">
        <ele>7.816826679743826</ele>
        <time>2024-07-22T14:09:44Z</time>
      </trkpt>
      <trkpt lat="24.90912617019613" lon="118.54336970834883">
        <ele>7.537321868352592</ele>
        <time>2024-07-22T14:09:50Z</time>
      </trkpt>
      <trkpt lat="24.908943503716742" lon="118.54339083767773">
        <ele>7.412012826651335</ele>
        <time>2024-07-22T14:09:56Z</time>
      </trkpt>
      <trkpt lat="24.90864482584995" lon="118.54337863011646">
        <ele>7.817469654604793</ele>
        <time>2024-07-22T14:10:05Z</time>
      </trkpt>
      <trkpt lat="24.908560014433075" lon="118.5433691548606">
        <ele>7.699285843409598</ele>
        <time>2024-07-22T14:10:08Z</time>
      </trkpt>
      <trkpt lat="24.90849629193075" lon="118.54339307191398">
        <ele>7.7880257638171315</ele>
        <time>2024-07-22T14:10:11Z</time>
      </trkpt>
      <trkpt lat="24.908217949494375" lon="118.54338928048617">
        <ele>7.693238016217947</ele>
        <time>2024-07-22T14:10:20Z</time>
      </trkpt>
      <trkpt lat="24.90813998242065" lon="118.54339714895033">
        <ele>7.686561377719045</ele>
        <time>2024-07-22T14:10:23Z</time>
      </trkpt>
      <trkpt lat="24.90809610528199" lon="118.54337745372487">
        <ele>7.471018453128636</ele>
        <time>2024-07-22T14:10:26Z</time>
      </trkpt>
      <trkpt lat="24.907845123772457" lon="118.54340599041107">
        <ele>6.993774211034179</ele>
        <time>2024-07-22T14:10:38Z</time>
      </trkpt>
      <trkpt lat="24.907638103839535" lon="118.54338640054814">
        <ele>7.577222232706845</ele>
        <time>2024-07-22T14:10:44Z</time>
      </trkpt>
      <trkpt lat="24.907528148607053" lon="118.54331480599342">
        <ele>7.905069909058511</ele>
        <time>2024-07-22T14:10:48Z</time>
      </trkpt>
      <trkpt lat="24.907476440144432" lon="118.54321472716737">
        <ele>7.867838135920465</ele>
        <time>2024-07-22T14:10:52Z</time>
      </trkpt>
      <trkpt lat="24.907593558064146" lon="118.54288921918203">
        <ele>7.411482526920736</ele>
        <time>2024-07-22T14:11:03Z</time>
      </trkpt>
      <trkpt lat="24.90762760739978" lon="118.54280670394559">
        <ele>7.697123012505472</ele>
        <time>2024-07-22T14:11:06Z</time>
      </trkpt>
      <trkpt lat="24.907661284995825" lon="118.54260831515643">
        <ele>8.327227311208844</ele>
        <time>2024-07-22T14:11:12Z</time>
      </trkpt>
      <trkpt lat="24.90770443284837" lon="118.54253536397552">
        <ele>8.166149211116135</ele>
        <time>2024-07-22T14:11:15Z</time>
      </trkpt>
      <trkpt lat="24.907723615993582" lon="118.54246257407176">
        <ele>7.984603878110647</ele>
        <time>2024-07-22T14:11:18Z</time>
      </trkpt>
      <trkpt lat="24.907790805076743" lon="118.54232435993634">
        <ele>7.861862190999091</ele>
        <time>2024-07-22T14:11:24Z</time>
      </trkpt>
      <trkpt lat="24.907918983447136" lon="118.54217963358893">
        <ele>7.695140782743692</ele>
        <time>2024-07-22T14:11:30Z</time>
      </trkpt>
      <trkpt lat="24.907942395045442" lon="118.54210850891623">
        <ele>7.256212152540684</ele>
        <time>2024-07-22T14:11:33Z</time>
      </trkpt>
      <trkpt lat="24.908009833816788" lon="118.54204465369345">
        <ele>7.470438160933554</ele>
        <time>2024-07-22T14:11:36Z</time>
      </trkpt>
      <trkpt lat="24.908103015051257" lon="118.54173298682765">
        <ele>8.520339037291706</ele>
        <time>2024-07-22T14:11:48Z</time>
      </trkpt>
      <trkpt lat="24.908138221284947" lon="118.54166154145673">
        <ele>9.156098785810173</ele>
        <time>2024-07-22T14:11:51Z</time>
      </trkpt>
      <trkpt lat="24.908229842166385" lon="118.5415947718523">
        <ele>9.436468755826354</ele>
        <time>2024-07-22T14:11:54Z</time>
      </trkpt>
      <trkpt lat="24.908328313903667" lon="118.54143391758639">
        <ele>8.777942409738898</ele>
        <time>2024-07-22T14:12:00Z</time>
      </trkpt>
      <trkpt lat="24.90839825269155" lon="118.54135815504668">
        <ele>8.516997649334371</ele>
        <time>2024-07-22T14:12:03Z</time>
      </trkpt>
      <trkpt lat="24.908411189399107" lon="118.54123428812964">
        <ele>8.513807560317218</ele>
        <time>2024-07-22T14:12:06Z</time>
      </trkpt>
      <trkpt lat="24.908447695588496" lon="118.54110383122551">
        <ele>8.222890639677644</ele>
        <time>2024-07-22T14:12:09Z</time>
      </trkpt>
      <trkpt lat="24.908479014630196" lon="118.5408835590613">
        <ele>8.124247143045068</ele>
        <time>2024-07-22T14:12:15Z</time>
      </trkpt>
      <trkpt lat="24.90864855279583" lon="118.54062031019782">
        <ele>8.101858402602375</ele>
        <time>2024-07-22T14:12:24Z</time>
      </trkpt>
      <trkpt lat="24.90868130192006" lon="118.54053110528832">
        <ele>8.19349378068</ele>
        <time>2024-07-22T14:12:27Z</time>
      </trkpt>
      <trkpt lat="24.90868855763744" lon="118.54035724729935">
        <ele>8.140911908820271</ele>
        <time>2024-07-22T14:12:33Z</time>
      </trkpt>
      <trkpt lat="24.90875808676807" lon="118.54008738156618">
        <ele>7.809846526011825</ele>
        <time>2024-07-22T14:12:42Z</time>
      </trkpt>
      <trkpt lat="24.90875887344289" lon="118.53999465294235">
        <ele>7.432812170125544</ele>
        <time>2024-07-22T14:12:45Z</time>
      </trkpt>
      <trkpt lat="24.908798540749185" lon="118.53978805521007">
        <ele>7.334050588309765</ele>
        <time>2024-07-22T14:12:51Z</time>
      </trkpt>
      <trkpt lat="24.908824167160557" lon="118.53954900773014">
        <ele>7.775058592669666</ele>
        <time>2024-07-22T14:12:59Z</time>
      </trkpt>
      <trkpt lat="24.908877424662457" lon="118.53946953616389">
        <ele>7.8609021557495</ele>
        <time>2024-07-22T14:13:03Z</time>
      </trkpt>
      <trkpt lat="24.908938029086272" lon="118.53916374520595">
        <ele>7.824012430384755</ele>
        <time>2024-07-22T14:13:16Z</time>
      </trkpt>
      <trkpt lat="24.90903031293146" lon="118.53891797808332">
        <ele>7.463540907949209</ele>
        <time>2024-07-22T14:13:25Z</time>
      </trkpt>
      <trkpt lat="24.90907343138777" lon="118.53856885840764">
        <ele>7.436024940572679</ele>
        <time>2024-07-22T14:13:37Z</time>
      </trkpt>
      <trkpt lat="24.909091824633105" lon="118.5383959768308">
        <ele>7.620042864233255</ele>
        <time>2024-07-22T14:13:43Z</time>
      </trkpt>
      <trkpt lat="24.90918194567438" lon="118.53808301053">
        <ele>8.134864998981357</ele>
        <time>2024-07-22T14:13:55Z</time>
      </trkpt>
      <trkpt lat="24.90923525670624" lon="118.5379420019522">
        <ele>7.878064097836614</ele>
        <time>2024-07-22T14:14:01Z</time>
      </trkpt>
      <trkpt lat="24.909275508714785" lon="118.53757422580654">
        <ele>8.829527037218213</ele>
        <time>2024-07-22T14:14:13Z</time>
      </trkpt>
      <trkpt lat="24.909257343835783" lon="118.53737895909246">
        <ele>9.87734386883676</ele>
        <time>2024-07-22T14:14:19Z</time>
      </trkpt>
      <trkpt lat="24.909232046490896" lon="118.5372949174825">
        <ele>10.058053845539689</ele>
        <time>2024-07-22T14:14:22Z</time>
      </trkpt>
      <trkpt lat="24.9092275583436" lon="118.53721844212984">
        <ele>10.137137411162257</ele>
        <time>2024-07-22T14:14:25Z</time>
      </trkpt>
      <trkpt lat="24.9092492602679" lon="118.53711432476766">
        <ele>10.124636536464095</ele>
        <time>2024-07-22T14:14:28Z</time>
      </trkpt>
      <trkpt lat="24.90938054860348" lon="118.53687407620953">
        <ele>10.323722675442696</ele>
        <time>2024-07-22T14:14:37Z</time>
      </trkpt>
      <trkpt lat="24.909483243602192" lon="118.53649649420953">
        <ele>10.442695158533752</ele>
        <time>2024-07-22T14:14:49Z</time>
      </trkpt>
      <trkpt lat="24.909529524121005" lon="118.53631839054779">
        <ele>10.177686017937958</ele>
        <time>2024-07-22T14:14:55Z</time>
      </trkpt>
      <trkpt lat="24.909538684590096" lon="118.53607492342162">
        <ele>9.930898053571582</ele>
        <time>2024-07-22T14:15:03Z</time>
      </trkpt>
      <trkpt lat="24.909569056871405" lon="118.53595946505946">
        <ele>9.899533557705581</ele>
        <time>2024-07-22T14:15:07Z</time>
      </trkpt>
      <trkpt lat="24.909574091918547" lon="118.53584997224468">
        <ele>10.379708823747933</ele>
        <time>2024-07-22T14:15:11Z</time>
      </trkpt>
      <trkpt lat="24.909645893076018" lon="118.53547300942569">
        <ele>10.407167971134186</ele>
        <time>2024-07-22T14:15:23Z</time>
      </trkpt>
      <trkpt lat="24.909701137317317" lon="118.53518845735509">
        <ele>9.581526619382203</ele>
        <time>2024-07-22T14:15:32Z</time>
      </trkpt>
      <trkpt lat="24.90970532609232" lon="118.53491274060418">
        <ele>8.479656225070357</ele>
        <time>2024-07-22T14:15:41Z</time>
      </trkpt>
      <trkpt lat="24.90974998588727" lon="118.53489307151123">
        <ele>7.823968604207039</ele>
        <time>2024-07-22T14:15:44Z</time>
      </trkpt>
      <trkpt lat="24.91006571697313" lon="118.53505174719402">
        <ele>9.601996585726738</ele>
        <time>2024-07-22T14:15:56Z</time>
      </trkpt>
      <trkpt lat="24.910381049523703" lon="118.53518645841767">
        <ele>10.340967363677919</ele>
        <time>2024-07-22T14:16:08Z</time>
      </trkpt>
      <trkpt lat="24.910698495033937" lon="118.53532169343934">
        <ele>10.347340987995267</ele>
        <time>2024-07-22T14:16:20Z</time>
      </trkpt>
      <trkpt lat="24.910934608593674" lon="118.53541151583407">
        <ele>10.20309641584754</ele>
        <time>2024-07-22T14:16:29Z</time>
      </trkpt>
      <trkpt lat="24.911011146979142" lon="118.53546870333547">
        <ele>10.441069872118533</ele>
        <time>2024-07-22T14:16:32Z</time>
      </trkpt>
      <trkpt lat="24.911137989213717" lon="118.53550438198673">
        <ele>9.658763179555535</ele>
        <time>2024-07-22T14:16:38Z</time>
      </trkpt>
      <trkpt lat="24.911235096663138" lon="118.53555394496195">
        <ele>9.943277320824564</ele>
        <time>2024-07-22T14:16:41Z</time>
      </trkpt>
      <trkpt lat="24.911329552583428" lon="118.53556771145666">
        <ele>9.662139267660677</ele>
        <time>2024-07-22T14:16:44Z</time>
      </trkpt>
      <trkpt lat="24.91164389476946" lon="118.53572947337787">
        <ele>9.772578528150916</ele>
        <time>2024-07-22T14:16:56Z</time>
      </trkpt>
      <trkpt lat="24.911794831459364" lon="118.53582899796679">
        <ele>9.798698548227549</ele>
        <time>2024-07-22T14:17:02Z</time>
      </trkpt>
      <trkpt lat="24.912072559261116" lon="118.53593211585984">
        <ele>10.227931395173073</ele>
        <time>2024-07-22T14:17:12Z</time>
      </trkpt>
      <trkpt lat="24.912302298644754" lon="118.53601897967691">
        <ele>10.180587018840015</ele>
        <time>2024-07-22T14:17:21Z</time>
      </trkpt>
      <trkpt lat="24.912368198920515" lon="118.5360595733607">
        <ele>10.261753488332033</ele>
        <time>2024-07-22T14:17:24Z</time>
      </trkpt>
      <trkpt lat="24.912446577283735" lon="118.53608297853164">
        <ele>9.965507398359478</ele>
        <time>2024-07-22T14:17:27Z</time>
      </trkpt>
      <trkpt lat="24.912640700044715" lon="118.53619172801068">
        <ele>9.712701712734997</ele>
        <time>2024-07-22T14:17:36Z</time>
      </trkpt>
      <trkpt lat="24.912798910004955" lon="118.53623424938345">
        <ele>10.56045831181109</ele>
        <time>2024-07-22T14:17:42Z</time>
      </trkpt>
      <trkpt lat="24.912946935684477" lon="118.53632322529724">
        <ele>10.903396811336279</ele>
        <time>2024-07-22T14:17:48Z</time>
      </trkpt>
      <trkpt lat="24.913267484221116" lon="118.53646249623">
        <ele>12.495905041694641</ele>
        <time>2024-07-22T14:18:00Z</time>
      </trkpt>
      <trkpt lat="24.913545679629514" lon="118.5365404518371">
        <ele>12.583315964788198</ele>
        <time>2024-07-22T14:18:09Z</time>
      </trkpt>
      <trkpt lat="24.913839954281368" lon="118.53667513517367">
        <ele>12.944838794879615</ele>
        <time>2024-07-22T14:18:21Z</time>
      </trkpt>
      <trkpt lat="24.914155290966647" lon="118.53683604806322">
        <ele>12.799412308260798</ele>
        <time>2024-07-22T14:18:33Z</time>
      </trkpt>
      <trkpt lat="24.914452508148607" lon="118.53698023301355">
        <ele>12.656662841327488</ele>
        <time>2024-07-22T14:18:45Z</time>
      </trkpt>
      <trkpt lat="24.914495090964703" lon="118.53703666665011">
        <ele>12.827803728170693</ele>
        <time>2024-07-22T14:18:48Z</time>
      </trkpt>
      <trkpt lat="24.914648230016276" lon="118.53711445112489">
        <ele>14.639082209207118</ele>
        <time>2024-07-22T14:18:54Z</time>
      </trkpt>
      <trkpt lat="24.914727957619995" lon="118.5370917148057">
        <ele>14.795484513044357</ele>
        <time>2024-07-22T14:18:57Z</time>
      </trkpt>
      <trkpt lat="24.914891721925937" lon="118.53715906366901">
        <ele>15.305252996273339</ele>
        <time>2024-07-22T14:19:03Z</time>
      </trkpt>
      <trkpt lat="24.914982268370927" lon="118.53716801474052">
        <ele>15.723455859348178</ele>
        <time>2024-07-22T14:19:06Z</time>
      </trkpt>
      <trkpt lat="24.915070041855348" lon="118.53721408804809">
        <ele>15.314629810862243</ele>
        <time>2024-07-22T14:19:09Z</time>
      </trkpt>
      <trkpt lat="24.915185638271428" lon="118.53743758021288">
        <ele>14.574617327190936</ele>
        <time>2024-07-22T14:19:17Z</time>
      </trkpt>
      <trkpt lat="24.915317047326" lon="118.53775271648357">
        <ele>15.139162261970341</ele>
        <time>2024-07-22T14:19:28Z</time>
      </trkpt>
      <trkpt lat="24.915365736155405" lon="118.5379298947987">
        <ele>15.062784353271127</ele>
        <time>2024-07-22T14:19:34Z</time>
      </trkpt>
      <trkpt lat="24.915402533302434" lon="118.53800202791788">
        <ele>14.915315464138985</ele>
        <time>2024-07-22T14:19:37Z</time>
      </trkpt>
      <trkpt lat="24.915424495415277" lon="118.53808959455228">
        <ele>15.03762651514262</ele>
        <time>2024-07-22T14:19:40Z</time>
      </trkpt>
      <trkpt lat="24.915553198204556" lon="118.53839829486331">
        <ele>16.36724896915257</ele>
        <time>2024-07-22T14:19:52Z</time>
      </trkpt>
      <trkpt lat="24.91568037529172" lon="118.53874102875614">
        <ele>16.528185350820422</ele>
        <time>2024-07-22T14:20:04Z</time>
      </trkpt>
      <trkpt lat="24.915779812081006" lon="118.53911360567655">
        <ele>14.97012085467577</ele>
        <time>2024-07-22T14:20:16Z</time>
      </trkpt>
      <trkpt lat="24.915848651241756" lon="118.53928483178869">
        <ele>14.51790379267186</ele>
        <time>2024-07-22T14:20:22Z</time>
      </trkpt>
      <trkpt lat="24.915865786830416" lon="118.53938952128657">
        <ele>14.186129809357226</ele>
        <time>2024-07-22T14:20:25Z</time>
      </trkpt>
      <trkpt lat="24.91592817441867" lon="118.53957828594528">
        <ele>13.794235795736313</ele>
        <time>2024-07-22T14:20:31Z</time>
      </trkpt>
      <trkpt lat="24.915966812532858" lon="118.53987922958757">
        <ele>12.92764329444617</ele>
        <time>2024-07-22T14:20:40Z</time>
      </trkpt>
      <trkpt lat="24.91603850544612" lon="118.54005204562672">
        <ele>12.837969314306974</ele>
        <time>2024-07-22T14:20:46Z</time>
      </trkpt>
      <trkpt lat="24.916087027943057" lon="118.54025072842045">
        <ele>13.166456662118435</ele>
        <time>2024-07-22T14:20:53Z</time>
      </trkpt>
      <trkpt lat="24.9161947093732" lon="118.54052479090996">
        <ele>11.455667131580412</ele>
        <time>2024-07-22T14:21:02Z</time>
      </trkpt>
      <trkpt lat="24.916253246264326" lon="118.54071765654858">
        <ele>12.216023911722004</ele>
        <time>2024-07-22T14:21:08Z</time>
      </trkpt>
      <trkpt lat="24.916326681269844" lon="118.54088449104464">
        <ele>12.148284951224923</ele>
        <time>2024-07-22T14:21:14Z</time>
      </trkpt>
      <trkpt lat="24.916283723097298" lon="118.54100705969117">
        <ele>12.63101370073855</ele>
        <time>2024-07-22T14:21:18Z</time>
      </trkpt>
      <trkpt lat="24.916304645939555" lon="118.541136194362">
        <ele>11.942949926480651</ele>
        <time>2024-07-22T14:21:22Z</time>
      </trkpt>
      <trkpt lat="24.916348346519694" lon="118.54126456055059">
        <ele>12.347220666706562</ele>
        <time>2024-07-22T14:21:26Z</time>
      </trkpt>
      <trkpt lat="24.916509508126385" lon="118.5415076069851">
        <ele>12.225958148017526</ele>
        <time>2024-07-22T14:21:35Z</time>
      </trkpt>
      <trkpt lat="24.916514262550724" lon="118.54159348643692">
        <ele>12.647132270038128</ele>
        <time>2024-07-22T14:21:38Z</time>
      </trkpt>
      <trkpt lat="24.91657733462944" lon="118.5417609080861">
        <ele>12.369685113430023</ele>
        <time>2024-07-22T14:21:44Z</time>
      </trkpt>
      <trkpt lat="24.916401804870745" lon="118.5419381249707">
        <ele>11.593129311688244</ele>
        <time>2024-07-22T14:21:50Z</time>
      </trkpt>
      <trkpt lat="24.91610907880948" lon="118.54200345507022">
        <ele>12.09752166364342</ele>
        <time>2024-07-22T14:21:59Z</time>
      </trkpt>
      <trkpt lat="24.916017961247583" lon="118.54202822468037">
        <ele>12.34942783229053</ele>
        <time>2024-07-22T14:22:02Z</time>
      </trkpt>
      <trkpt lat="24.915698674212834" lon="118.54220005385659">
        <ele>12.578667710535228</ele>
        <time>2024-07-22T14:22:14Z</time>
      </trkpt>
      <trkpt lat="24.915620742369953" lon="118.54226073181553">
        <ele>12.557143713347614</ele>
        <time>2024-07-22T14:22:17Z</time>
      </trkpt>
      <trkpt lat="24.915533478329046" lon="118.54229274674552">
        <ele>12.467749564908445</ele>
        <time>2024-07-22T14:22:20Z</time>
      </trkpt>
      <trkpt lat="24.915257895975163" lon="118.54234254705156">
        <ele>12.681929076090455</ele>
        <time>2024-07-22T14:22:29Z</time>
      </trkpt>
      <trkpt lat="24.914934740830848" lon="118.54245497773383">
        <ele>11.449384060688317</ele>
        <time>2024-07-22T14:22:41Z</time>
      </trkpt>
      <trkpt lat="24.914623990646312" lon="118.5424770960405">
        <ele>10.230736653320491</ele>
        <time>2024-07-22T14:22:53Z</time>
      </trkpt>
      <trkpt lat="24.914374427561977" lon="118.54252839073364">
        <ele>9.938721965067089</ele>
        <time>2024-07-22T14:23:02Z</time>
      </trkpt>
      <trkpt lat="24.91410933431052" lon="118.54255304377949">
        <ele>9.68980355374515</ele>
        <time>2024-07-22T14:23:11Z</time>
      </trkpt>
      <trkpt lat="24.913874075588744" lon="118.5426684610319">
        <ele>9.653585330583155</ele>
        <time>2024-07-22T14:23:20Z</time>
      </trkpt>
      <trkpt lat="24.913761827298565" lon="118.54269669893696">
        <ele>9.176962151192129</ele>
        <time>2024-07-22T14:23:24Z</time>
      </trkpt>
      <trkpt lat="24.913640864325167" lon="118.54270262752641">
        <ele>9.029855477623641</ele>
        <time>2024-07-22T14:23:28Z</time>
      </trkpt>
      <trkpt lat="24.913530643947848" lon="118.5427420558606">
        <ele>8.548249896615744</ele>
        <time>2024-07-22T14:23:32Z</time>
      </trkpt>
      <trkpt lat="24.913319760911186" lon="118.54277938305226">
        <ele>8.380844110623002</ele>
        <time>2024-07-22T14:23:39Z</time>
      </trkpt>
      <trkpt lat="24.913232970250096" lon="118.5427586701679">
        <ele>8.363431982696056</ele>
        <time>2024-07-22T14:23:42Z</time>
      </trkpt>
      <trkpt lat="24.913150951370387" lon="118.5427959622732">
        <ele>8.100335661321878</ele>
        <time>2024-07-22T14:23:45Z</time>
      </trkpt>
      <trkpt lat="24.913087228954375" lon="118.5428454345756">
        <ele>7.629154319874942</ele>
        <time>2024-07-22T14:23:48Z</time>
      </trkpt>
      <trkpt lat="24.912767688147387" lon="118.54292950602928">
        <ele>8.69236818794161</ele>
        <time>2024-07-22T14:24:00Z</time>
      </trkpt>
      <trkpt lat="24.912431856092837" lon="118.54301253508352">
        <ele>8.283258249051869</ele>
        <time>2024-07-22T14:24:12Z</time>
      </trkpt>
      <trkpt lat="24.912186776262246" lon="118.5431137227795">
        <ele>7.938579973764718</ele>
        <time>2024-07-22T14:24:21Z</time>
      </trkpt>
      <trkpt lat="24.91184990006035" lon="118.54319354906272">
        <ele>7.939082378521562</ele>
        <time>2024-07-22T14:24:33Z</time>
      </trkpt>
      <trkpt lat="24.911782861673817" lon="118.54319681939099">
        <ele>8.343481745570898</ele>
        <time>2024-07-22T14:24:36Z</time>
      </trkpt>
      <trkpt lat="24.911458192894234" lon="118.54327974768103">
        <ele>8.448599508963525</ele>
        <time>2024-07-22T14:24:48Z</time>
      </trkpt>
      <trkpt lat="24.911215912306428" lon="118.54330553058064">
        <ele>7.979634589515626</ele>
        <time>2024-07-22T14:24:57Z</time>
      </trkpt>
      <trkpt lat="24.910936689284053" lon="118.54335002107076">
        <ele>7.895201309584081</ele>
        <time>2024-07-22T14:25:06Z</time>
      </trkpt>
      <trkpt lat="24.910760803385404" lon="118.54338802785036">
        <ele>7.509224586188793</ele>
        <time>2024-07-22T14:25:12Z</time>
      </trkpt>
      <trkpt lat="24.910490278375633" lon="118.54337955749897">
        <ele>7.568421439267695</ele>
        <time>2024-07-22T14:25:21Z</time>
      </trkpt>
      <trkpt lat="24.91041727652185" lon="118.54335280774471">
        <ele>7.782939342781901</ele>
        <time>2024-07-22T14:25:24Z</time>
      </trkpt>
      <trkpt lat="24.910134079117274" lon="118.54341111802428">
        <ele>7.26859669201076</ele>
        <time>2024-07-22T14:25:34Z</time>
      </trkpt>
      <trkpt lat="24.910049128499708" lon="118.54341611340955">
        <ele>7.896660568192601</ele>
        <time>2024-07-22T14:25:37Z</time>
      </trkpt>
      <trkpt lat="24.909958662137743" lon="118.54339715353557">
        <ele>7.592382334172726</ele>
        <time>2024-07-22T14:25:40Z</time>
      </trkpt>
      <trkpt lat="24.90977605170068" lon="118.54341952395427">
        <ele>7.375409654341638</ele>
        <time>2024-07-22T14:25:46Z</time>
      </trkpt>
      <trkpt lat="24.909426485436043" lon="118.54339267869328">
        <ele>7.36542740650475</ele>
        <time>2024-07-22T14:25:58Z</time>
      </trkpt>
      <trkpt lat="24.90918587419746" lon="118.54336226098174">
        <ele>7.288188097067177</ele>
        <time>2024-07-22T14:26:07Z</time>
      </trkpt>
      <trkpt lat="24.908903441451752" lon="118.54338533874804">
        <ele>7.550864193588495</ele>
        <time>2024-07-22T14:26:16Z</time>
      </trkpt>
      <trkpt lat="24.908809699023063" lon="118.5433931533549">
        <ele>7.772740013897419</ele>
        <time>2024-07-22T14:26:19Z</time>
      </trkpt>
      <trkpt lat="24.90872045389163" lon="118.54338088601781">
        <ele>7.473673347383738</ele>
        <time>2024-07-22T14:26:22Z</time>
      </trkpt>
      <trkpt lat="24.908554050372775" lon="118.54341061112416">
        <ele>7.779882620088756</ele>
        <time>2024-07-22T14:26:28Z</time>
      </trkpt>
      <trkpt lat="24.908290418341455" lon="118.54340680147767">
        <ele>7.607457751408219</ele>
        <time>2024-07-22T14:26:37Z</time>
      </trkpt>
      <trkpt lat="24.908202758180174" lon="118.54342205844365">
        <ele>7.832063897512853</ele>
        <time>2024-07-22T14:26:40Z</time>
      </trkpt>
      <trkpt lat="24.908042524737954" lon="118.54342226437154">
        <ele>7.711010395549238</ele>
        <time>2024-07-22T14:26:46Z</time>
      </trkpt>
      <trkpt lat="24.907965085378475" lon="118.54344739909298">
        <ele>8.323140731081367</ele>
        <time>2024-07-22T14:26:49Z</time>
      </trkpt>
      <trkpt lat="24.907688911950494" lon="118.54342994976452">
        <ele>7.6037812596186996</ele>
        <time>2024-07-22T14:26:58Z</time>
      </trkpt>
      <trkpt lat="24.907514664301523" lon="118.54339380655358">
        <ele>7.519671860150993</ele>
        <time>2024-07-22T14:27:04Z</time>
      </trkpt>
      <trkpt lat="24.90744589125034" lon="118.54334764389975">
        <ele>8.002556150779128</ele>
        <time>2024-07-22T14:27:07Z</time>
      </trkpt>
      <trkpt lat="24.907397426667142" lon="118.54329043400585">
        <ele>7.796625989489257</ele>
        <time>2024-07-22T14:27:10Z</time>
      </trkpt>
      <trkpt lat="24.907410495762697" lon="118.54318482634245">
        <ele>7.7580909337848425</ele>
        <time>2024-07-22T14:27:13Z</time>
      </trkpt>
      <trkpt lat="24.90748367038195" lon="118.54299956309644">
        <ele>7.689676948823035</ele>
        <time>2024-07-22T14:27:19Z</time>
      </trkpt>
      <trkpt lat="24.907533113578644" lon="118.54291935491892">
        <ele>7.818934238515794</ele>
        <time>2024-07-22T14:27:22Z</time>
      </trkpt>
      <trkpt lat="24.90762033859121" lon="118.54253451846957">
        <ele>8.77938567660749</ele>
        <time>2024-07-22T14:27:35Z</time>
      </trkpt>
      <trkpt lat="24.907796707422833" lon="118.54225284671001">
        <ele>8.150242695584893</ele>
        <time>2024-07-22T14:27:48Z</time>
      </trkpt>
      <trkpt lat="24.907921577207063" lon="118.54210013117743">
        <ele>8.17697021458298</ele>
        <time>2024-07-22T14:27:54Z</time>
      </trkpt>
      <trkpt lat="24.90802568467982" lon="118.54182919086712">
        <ele>8.462673837319016</ele>
        <time>2024-07-22T14:28:06Z</time>
      </trkpt>
      <trkpt lat="24.908058851565915" lon="118.54166881955794">
        <ele>9.384924908168614</ele>
        <time>2024-07-22T14:28:12Z</time>
      </trkpt>
      <trkpt lat="24.908057968977808" lon="118.54149337848958">
        <ele>10.360421990044415</ele>
        <time>2024-07-22T14:28:18Z</time>
      </trkpt>
      <trkpt lat="24.90812145761169" lon="118.54141256689144">
        <ele>10.349732339382172</ele>
        <time>2024-07-22T14:28:21Z</time>
      </trkpt>
      <trkpt lat="24.908129323470167" lon="118.54132727749264">
        <ele>10.176937436684966</ele>
        <time>2024-07-22T14:28:24Z</time>
      </trkpt>
      <trkpt lat="24.90824526513647" lon="118.54106127128809">
        <ele>9.435960698872805</ele>
        <time>2024-07-22T14:28:30Z</time>
      </trkpt>
      <trkpt lat="24.908293551398884" lon="118.54083129264056">
        <ele>8.624611200764775</ele>
        <time>2024-07-22T14:28:36Z</time>
      </trkpt>
      <trkpt lat="24.90841661264209" lon="118.54065999279729">
        <ele>8.761106542311609</ele>
        <time>2024-07-22T14:28:42Z</time>
      </trkpt>
      <trkpt lat="24.90848458619137" lon="118.54049655892817">
        <ele>9.179352485574782</ele>
        <time>2024-07-22T14:28:48Z</time>
      </trkpt>
      <trkpt lat="24.90858818844221" lon="118.5403115286626">
        <ele>8.296323096379638</ele>
        <time>2024-07-22T14:28:54Z</time>
      </trkpt>
      <trkpt lat="24.90864707647199" lon="118.54000287481043">
        <ele>7.363568304106593</ele>
        <time>2024-07-22T14:29:03Z</time>
      </trkpt>
      <trkpt lat="24.908727809618984" lon="118.53977371959787">
        <ele>8.269217706285417</ele>
        <time>2024-07-22T14:29:12Z</time>
      </trkpt>
      <trkpt lat="24.90878340969925" lon="118.5395568132515">
        <ele>8.076884092763066</ele>
        <time>2024-07-22T14:29:21Z</time>
      </trkpt>
      <trkpt lat="24.908850001165224" lon="118.53942641013633">
        <ele>8.035046767443419</ele>
        <time>2024-07-22T14:29:27Z</time>
      </trkpt>
      <trkpt lat="24.90892640156894" lon="118.53909194894517">
        <ele>8.173108224757016</ele>
        <time>2024-07-22T14:29:39Z</time>
      </trkpt>
      <trkpt lat="24.90896859109692" lon="118.53897638417226">
        <ele>7.5821700831875205</ele>
        <time>2024-07-22T14:29:43Z</time>
      </trkpt>
      <trkpt lat="24.908986663811323" lon="118.53880678584089">
        <ele>8.058393131941557</ele>
        <time>2024-07-22T14:29:49Z</time>
      </trkpt>
      <trkpt lat="24.90904845500442" lon="118.5386393134818">
        <ele>8.0926224142313</ele>
        <time>2024-07-22T14:29:55Z</time>
      </trkpt>
      <trkpt lat="24.909052585056216" lon="118.53855076165196">
        <ele>7.21609772183001</ele>
        <time>2024-07-22T14:29:58Z</time>
      </trkpt>
      <trkpt lat="24.90908209213079" lon="118.53845733890248">
        <ele>7.623720680363476</ele>
        <time>2024-07-22T14:30:01Z</time>
      </trkpt>
      <trkpt lat="24.90913452234229" lon="118.53838513183375">
        <ele>7.636373477987945</ele>
        <time>2024-07-22T14:30:04Z</time>
      </trkpt>
      <trkpt lat="24.90947865500476" lon="118.53844806583581">
        <ele>8.883700295351446</ele>
        <time>2024-07-22T14:30:16Z</time>
      </trkpt>
      <trkpt lat="24.909652815284076" lon="118.5384733474983">
        <ele>8.021178011782467</ele>
        <time>2024-07-22T14:30:22Z</time>
      </trkpt>
      <trkpt lat="24.909750152680193" lon="118.5384495141827">
        <ele>7.8093539997935295</ele>
        <time>2024-07-22T14:30:25Z</time>
      </trkpt>
      <trkpt lat="24.909837767215116" lon="118.53846049292753">
        <ele>7.69051708560437</ele>
        <time>2024-07-22T14:30:28Z</time>
      </trkpt>
      <trkpt lat="24.910179002562227" lon="118.5385572163398">
        <ele>8.298061209730804</ele>
        <time>2024-07-22T14:30:40Z</time>
      </trkpt>
      <trkpt lat="24.91045732683359" lon="118.53861787702039">
        <ele>7.974869634024799</ele>
        <time>2024-07-22T14:30:49Z</time>
      </trkpt>
      <trkpt lat="24.91072825831485" lon="118.53867126819307">
        <ele>9.576282577589154</ele>
        <time>2024-07-22T14:30:58Z</time>
      </trkpt>
      <trkpt lat="24.910810032236707" lon="118.53869240958107">
        <ele>10.268108633346856</ele>
        <time>2024-07-22T14:31:01Z</time>
      </trkpt>
    </trkseg>
  </trk>
</gpx>