<?xml version="1.0" encoding="UTF-8"?>
<gpx xmlns="http://www.topografix.com/GPX/1/1" xmlns:gpxtpx="http://www.garmin.com/xmlschemas/TrackPointExtension/v1" xmlns:xsi="http://www.w3.org/2001/XMLSchema-instance" xsi:schemaLocation="http://www.topografix.com/GPX/1/1 http://www.topografix.com/GPX/1/1/gpx.xsd" version="1.1" creator="gpx.py -- https://github.com/tkrajina/gpxpy">
  <trk>
    <name>gpx from keep</name>
    <type>Walk</type>
    <trkseg>
      <trkpt lat="24.91041935270128" lon="118.54208091064324">
        <ele>32.3743896484375</ele>
        <time>2025-12-24T13:03:31Z</time>
      </trkpt>
      <trkpt lat="24.910426217523764" lon="118.5420187541386">
        <ele>27.3189697265625</ele>
        <time>2025-12-24T13:03:40Z</time>
      </trkpt>
      <trkpt lat="24.91046210636043" lon="118.5419696282243">
        <ele>26.69482421875</ele>
        <time>2025-12-24T13:03:46Z</time>
      </trkpt>
      <trkpt lat="24.91051880987795" lon="118.54183628882376">
        <ele>25.16717529296875</ele>
        <time>2025-12-24T13:03:55Z</time>
      </trkpt>
      <trkpt lat="24.910654510509776" lon="118.54170695336322">
        <ele>28.115966796875</ele>
        <time>2025-12-24T13:04:07Z</time>
      </trkpt>
      <trkpt lat="24.910756025454248" lon="118.54149039898108">
        <ele>22.14044189453125</ele>
        <time>2025-12-24T13:04:25Z</time>
      </trkpt>
      <trkpt lat="24.910820368575365" lon="118.54119364157864">
        <ele>18.58837890625</ele>
        <time>2025-12-24T13:04:49Z</time>
      </trkpt>
      <trkpt lat="24.910828191862315" lon="118.5411134369679">
        <ele>18.275146484375</ele>
        <time>2025-12-24T13:04:55Z</time>
      </trkpt>
      <trkpt lat="24.91080902088793" lon="118.54103423654846">
        <ele>16.34375</ele>
        <time>2025-12-24T13:05:01Z</time>
      </trkpt>
      <trkpt lat="24.910818902901593" lon="118.5409811003736">
        <ele>14.734130859375</ele>
        <time>2025-12-24T13:05:07Z</time>
      </trkpt>
      <trkpt lat="24.910773527917986" lon="118.54080766054189">
        <ele>20.97314453125</ele>
        <time>2025-12-24T13:05:19Z</time>
      </trkpt>
      <trkpt lat="24.91082080453532" lon="118.54048282455861">
        <ele>22.43212890625</ele>
        <time>2025-12-24T13:05:40Z</time>
      </trkpt>
      <trkpt lat="24.910868224638996" lon="118.54022415536028">
        <ele>25.40850830078125</ele>
        <time>2025-12-24T13:05:58Z</time>
      </trkpt>
      <trkpt lat="24.910886689014745" lon="118.5399845349906">
        <ele>23.71185302734375</ele>
        <time>2025-12-24T13:06:13Z</time>
      </trkpt>
      <trkpt lat="24.910974975768372" lon="118.53967071485121">
        <ele>21.726318359375</ele>
        <time>2025-12-24T13:06:37Z</time>
      </trkpt>
      <trkpt lat="24.911074178830198" lon="118.5393217986585">
        <ele>23.213623046875</ele>
        <time>2025-12-24T13:07:07Z</time>
      </trkpt>
      <trkpt lat="24.911109850909757" lon="118.53917842123374">
        <ele>23.9732666015625</ele>
        <time>2025-12-24T13:07:19Z</time>
      </trkpt>
      <trkpt lat="24.911154117360965" lon="118.53885657376142">
        <ele>26.58074951171875</ele>
        <time>2025-12-24T13:07:43Z</time>
      </trkpt>
      <trkpt lat="24.91116494542036" lon="118.53878137517532">
        <ele>26.18707275390625</ele>
        <time>2025-12-24T13:07:49Z</time>
      </trkpt>
      <trkpt lat="24.91113181355286" lon="118.5387212190699">
        <ele>24.86865234375</ele>
        <time>2025-12-24T13:07:55Z</time>
      </trkpt>
      <trkpt lat="24.91084871179415" lon="118.53865907496048">
        <ele>22.96710205078125</ele>
        <time>2025-12-24T13:08:19Z</time>
      </trkpt>
      <trkpt lat="24.91078762688243" lon="118.53861797079861">
        <ele>23.10186767578125</ele>
        <time>2025-12-24T13:08:25Z</time>
      </trkpt>
      <trkpt lat="24.910787442207372" lon="118.53853675644076">
        <ele>23.21563720703125</ele>
        <time>2025-12-24T13:08:31Z</time>
      </trkpt>
      <trkpt lat="24.91083888654622" lon="118.53829611628235">
        <ele>18.19775390625</ele>
        <time>2025-12-24T13:08:49Z</time>
      </trkpt>
      <trkpt lat="24.91098210020466" lon="118.53796121692919">
        <ele>19.890625</ele>
        <time>2025-12-24T13:09:19Z</time>
      </trkpt>
      <trkpt lat="24.911027948861175" lon="118.53789804552643">
        <ele>18.4921875</ele>
        <time>2025-12-24T13:09:25Z</time>
      </trkpt>
      <trkpt lat="24.91111546179065" lon="118.53769148841761">
        <ele>19.17608642578125</ele>
        <time>2025-12-24T13:09:43Z</time>
      </trkpt>
      <trkpt lat="24.91119511100092" lon="118.53754408873868">
        <ele>15.47607421875</ele>
        <time>2025-12-24T13:09:55Z</time>
      </trkpt>
      <trkpt lat="24.91124794627299" lon="118.53747590247691">
        <ele>13.89044189453125</ele>
        <time>2025-12-24T13:10:01Z</time>
      </trkpt>
      <trkpt lat="24.91126275424207" lon="118.53739368105552">
        <ele>14.0496826171875</ele>
        <time>2025-12-24T13:10:07Z</time>
      </trkpt>
      <trkpt lat="24.911203604777036" lon="118.53732550223397">
        <ele>15.20068359375</ele>
        <time>2025-12-24T13:10:13Z</time>
      </trkpt>
      <trkpt lat="24.911135509814848" lon="118.53728038582345">
        <ele>16.566162109375</ele>
        <time>2025-12-24T13:10:19Z</time>
      </trkpt>
      <trkpt lat="24.91110841837388" lon="118.53723927726192">
        <ele>16.67181396484375</ele>
        <time>2025-12-24T13:10:25Z</time>
      </trkpt>
      <trkpt lat="24.911060373948814" lon="118.53721722132009">
        <ele>17.17803955078125</ele>
        <time>2025-12-24T13:10:31Z</time>
      </trkpt>
      <trkpt lat="24.91103526122581" lon="118.53716708825567">
        <ele>20.87701416015625</ele>
        <time>2025-12-24T13:10:37Z</time>
      </trkpt>
      <trkpt lat="24.911146178348787" lon="118.5371380022917">
        <ele>30.552001953125</ele>
        <time>2025-12-24T13:10:46Z</time>
      </trkpt>
      <trkpt lat="24.911497182982806" lon="118.53716103987685">
        <ele>46.37298583984375</ele>
        <time>2025-12-24T13:10:55Z</time>
      </trkpt>
      <trkpt lat="24.911566103613566" lon="118.53713095413498">
        <ele>51.1961669921875</ele>
        <time>2025-12-24T13:11:01Z</time>
      </trkpt>
      <trkpt lat="24.911836968165105" lon="118.53708882188836">
        <ele>58.0927734375</ele>
        <time>2025-12-24T13:11:13Z</time>
      </trkpt>
      <trkpt lat="24.91187514430459" lon="118.53716702971712">
        <ele>62.67388916015625</ele>
        <time>2025-12-24T13:11:19Z</time>
      </trkpt>
      <trkpt lat="24.911848285173495" lon="118.5372261906621">
        <ele>61.9466552734375</ele>
        <time>2025-12-24T13:11:22Z</time>
      </trkpt>
      <trkpt lat="24.91158427314155" lon="118.5372051524583">
        <ele>64.4853515625</ele>
        <time>2025-12-24T13:11:37Z</time>
      </trkpt>
      <trkpt lat="24.911606418725672" lon="118.53726932337595">
        <ele>61.845947265625</ele>
        <time>2025-12-24T13:11:43Z</time>
      </trkpt>
      <trkpt lat="24.91153763714706" lon="118.53735957044638">
        <ele>56.006103515625</ele>
        <time>2025-12-24T13:11:58Z</time>
      </trkpt>
    </trkseg>
  </trk>
</gpx>