<?xml version="1.0" encoding="UTF-8"?>
<gpx xmlns="http://www.topografix.com/GPX/1/1" xmlns:gpxtpx="http://www.garmin.com/xmlschemas/TrackPointExtension/v1" xmlns:xsi="http://www.w3.org/2001/XMLSchema-instance" xsi:schemaLocation="http://www.topografix.com/GPX/1/1 http://www.topografix.com/GPX/1/1/gpx.xsd" version="1.1" creator="gpx.py -- https://github.com/tkrajina/gpxpy">
  <trk>
    <name>gpx from keep</name>
    <type>Run</type>
    <trkseg>
      <trkpt lat="24.911265814073598" lon="118.53741975074783">
        <ele>25.3800048828125</ele>
        <time>2025-08-11T12:59:24Z</time>
      </trkpt>
      <trkpt lat="24.91113752796309" lon="118.53772156721904">
        <ele>25.85125732421875</ele>
        <time>2025-08-11T12:59:33Z</time>
      </trkpt>
      <trkpt lat="24.91100323290903" lon="118.53802037285499">
        <ele>27.04693603515625</ele>
        <time>2025-08-11T12:59:42Z</time>
      </trkpt>
      <trkpt lat="24.91085290290963" lon="118.53830413655864">
        <ele>27.3095703125</ele>
        <time>2025-08-11T12:59:51Z</time>
      </trkpt>
      <trkpt lat="24.91079335922698" lon="118.53850066067595">
        <ele>27.73797607421875</ele>
        <time>2025-08-11T12:59:57Z</time>
      </trkpt>
      <trkpt lat="24.91079663018779" lon="118.53861997546144">
        <ele>27.760498046875</ele>
        <time>2025-08-11T13:00:00Z</time>
      </trkpt>
      <trkpt lat="24.91086780249341" lon="118.53870018198663">
        <ele>26.8179931640625</ele>
        <time>2025-08-11T13:00:03Z</time>
      </trkpt>
      <trkpt lat="24.911177893589855" lon="118.53875931620358">
        <ele>26.43603515625</ele>
        <time>2025-08-11T13:00:12Z</time>
      </trkpt>
      <trkpt lat="24.911245007018483" lon="118.5388134540313">
        <ele>26.5269775390625</ele>
        <time>2025-08-11T13:00:15Z</time>
      </trkpt>
      <trkpt lat="24.91122525275311" lon="118.53892073745955">
        <ele>27.46014404296875</ele>
        <time>2025-08-11T13:00:18Z</time>
      </trkpt>
      <trkpt lat="24.911121987067276" lon="118.53923958042009">
        <ele>25.5709228515625</ele>
        <time>2025-08-11T13:00:27Z</time>
      </trkpt>
      <trkpt lat="24.911032702636387" lon="118.53955240301319">
        <ele>26.3690185546875</ele>
        <time>2025-08-11T13:00:36Z</time>
      </trkpt>
      <trkpt lat="24.9109155374637" lon="118.53991836164502">
        <ele>29.8804931640625</ele>
        <time>2025-08-11T13:00:48Z</time>
      </trkpt>
      <trkpt lat="24.910826310598548" lon="118.54026025134473">
        <ele>30.90081787109375</ele>
        <time>2025-08-11T13:01:00Z</time>
      </trkpt>
      <trkpt lat="24.910794492933498" lon="118.54034046019905">
        <ele>30.1490478515625</ele>
        <time>2025-08-11T13:01:03Z</time>
      </trkpt>
      <trkpt lat="24.910735283640506" lon="118.54069437324071">
        <ele>30.695068359375</ele>
        <time>2025-08-11T13:01:15Z</time>
      </trkpt>
      <trkpt lat="24.910675109876994" lon="118.54106632762283">
        <ele>27.83111572265625</ele>
        <time>2025-08-11T13:01:27Z</time>
      </trkpt>
      <trkpt lat="24.910618493158307" lon="118.54123776776467">
        <ele>26.43707275390625</ele>
        <time>2025-08-11T13:01:33Z</time>
      </trkpt>
      <trkpt lat="24.91056614356075" lon="118.54153251876109">
        <ele>26.902587890625</ele>
        <time>2025-08-11T13:01:42Z</time>
      </trkpt>
      <trkpt lat="24.910513804057445" lon="118.54183328159769">
        <ele>26.89801025390625</ele>
        <time>2025-08-11T13:01:51Z</time>
      </trkpt>
      <trkpt lat="24.91041261305016" lon="118.5422012126781">
        <ele>24.58245849609375</ele>
        <time>2025-08-11T13:02:03Z</time>
      </trkpt>
      <trkpt lat="24.910355447787254" lon="118.54258617791896">
        <ele>27.01812744140625</ele>
        <time>2025-08-11T13:02:15Z</time>
      </trkpt>
      <trkpt lat="24.91025908007087" lon="118.54287590429317">
        <ele>27.95703125</ele>
        <time>2025-08-11T13:02:24Z</time>
      </trkpt>
      <trkpt lat="24.91023729657174" lon="118.54297615406976">
        <ele>28.63427734375</ele>
        <time>2025-08-11T13:02:27Z</time>
      </trkpt>
      <trkpt lat="24.910241702724363" lon="118.54316762685349">
        <ele>31.19793701171875</ele>
        <time>2025-08-11T13:02:33Z</time>
      </trkpt>
      <trkpt lat="24.91020803020535" lon="118.54332000466415">
        <ele>32.24969482421875</ele>
        <time>2025-08-11T13:02:39Z</time>
      </trkpt>
      <trkpt lat="24.91021417138186" lon="118.54338716945077">
        <ele>32.2178955078125</ele>
        <time>2025-08-11T13:02:42Z</time>
      </trkpt>
      <trkpt lat="24.9102782090811" lon="118.54340921920632">
        <ele>30.2528076171875</ele>
        <time>2025-08-11T13:02:45Z</time>
      </trkpt>
      <trkpt lat="24.910615054179157" lon="118.54335807007122">
        <ele>30.379150390625</ele>
        <time>2025-08-11T13:02:57Z</time>
      </trkpt>
      <trkpt lat="24.91089093522749" lon="118.54331995715147">
        <ele>27.90118408203125</ele>
        <time>2025-08-11T13:03:06Z</time>
      </trkpt>
      <trkpt lat="24.91116985186627" lon="118.5432988859255">
        <ele>27.56475830078125</ele>
        <time>2025-08-11T13:03:15Z</time>
      </trkpt>
      <trkpt lat="24.911447715551233" lon="118.54325275302098">
        <ele>26.979736328125</ele>
        <time>2025-08-11T13:03:24Z</time>
      </trkpt>
      <trkpt lat="24.91180152394236" lon="118.54318556283476">
        <ele>27.65264892578125</ele>
        <time>2025-08-11T13:03:36Z</time>
      </trkpt>
      <trkpt lat="24.912070346126118" lon="118.54311938085976">
        <ele>27.66748046875</ele>
        <time>2025-08-11T13:03:45Z</time>
      </trkpt>
      <trkpt lat="24.912339176667174" lon="118.54305720862291">
        <ele>27.9290771484375</ele>
        <time>2025-08-11T13:03:54Z</time>
      </trkpt>
      <trkpt lat="24.912683891960473" lon="118.54294590938933">
        <ele>27.76416015625</ele>
        <time>2025-08-11T13:04:06Z</time>
      </trkpt>
      <trkpt lat="24.9129416659565" lon="118.54285667040958">
        <ele>26.51641845703125</ele>
        <time>2025-08-11T13:04:15Z</time>
      </trkpt>
      <trkpt lat="24.913289463490006" lon="118.54278446715911">
        <ele>25.28839111328125</ele>
        <time>2025-08-11T13:04:27Z</time>
      </trkpt>
      <trkpt lat="24.913636248114475" lon="118.54270624882895">
        <ele>27.15283203125</ele>
        <time>2025-08-11T13:04:39Z</time>
      </trkpt>
      <trkpt lat="24.913804119673348" lon="118.54265711502924">
        <ele>27.4866943359375</ele>
        <time>2025-08-11T13:04:45Z</time>
      </trkpt>
      <trkpt lat="24.91386702725092" lon="118.54261801338924">
        <ele>25.91790771484375</ele>
        <time>2025-08-11T13:04:48Z</time>
      </trkpt>
      <trkpt lat="24.91391488749213" lon="118.54255585531493">
        <ele>26.20684814453125</ele>
        <time>2025-08-11T13:04:51Z</time>
      </trkpt>
      <trkpt lat="24.91407878513289" lon="118.54251875148984">
        <ele>26.431396484375</ele>
        <time>2025-08-11T13:04:57Z</time>
      </trkpt>
      <trkpt lat="24.914237795161426" lon="118.54253377789627">
        <ele>26.5994873046875</ele>
        <time>2025-08-11T13:05:03Z</time>
      </trkpt>
      <trkpt lat="24.914550512822792" lon="118.54242247862129">
        <ele>24.07672119140625</ele>
        <time>2025-08-11T13:05:15Z</time>
      </trkpt>
      <trkpt lat="24.914868300463993" lon="118.54234426120897">
        <ele>27.4246826171875</ele>
        <time>2025-08-11T13:05:27Z</time>
      </trkpt>
      <trkpt lat="24.915156068342824" lon="118.54225501805547">
        <ele>25.31170654296875</ele>
        <time>2025-08-11T13:05:36Z</time>
      </trkpt>
      <trkpt lat="24.915413840130967" lon="118.54216577668214">
        <ele>25.5447998046875</ele>
        <time>2025-08-11T13:05:45Z</time>
      </trkpt>
      <trkpt lat="24.91573553776571" lon="118.54204645506557">
        <ele>25.49102783203125</ele>
        <time>2025-08-11T13:05:57Z</time>
      </trkpt>
      <trkpt lat="24.915999349240263" lon="118.54197626043164">
        <ele>27.794189453125</ele>
        <time>2025-08-11T13:06:06Z</time>
      </trkpt>
      <trkpt lat="24.916246141219233" lon="118.54189604156896">
        <ele>27.917236328125</ele>
        <time>2025-08-11T13:06:15Z</time>
      </trkpt>
      <trkpt lat="24.916327123379244" lon="118.54189302836342">
        <ele>27.70489501953125</ele>
        <time>2025-08-11T13:06:18Z</time>
      </trkpt>
      <trkpt lat="24.916378278892438" lon="118.5419682138956">
        <ele>27.955078125</ele>
        <time>2025-08-11T13:06:21Z</time>
      </trkpt>
      <trkpt lat="24.916466880726755" lon="118.5422529217951">
        <ele>27.03460693359375</ele>
        <time>2025-08-11T13:06:30Z</time>
      </trkpt>
      <trkpt lat="24.916516035595176" lon="118.54232810642712">
        <ele>27.264892578125</ele>
        <time>2025-08-11T13:06:33Z</time>
      </trkpt>
      <trkpt lat="24.916641183940257" lon="118.5424052905576">
        <ele>27.9761962890625</ele>
        <time>2025-08-11T13:06:39Z</time>
      </trkpt>
      <trkpt lat="24.916626147290806" lon="118.54238724654495">
        <ele>27.61004638671875</ele>
        <time>2025-08-11T13:07:18Z</time>
      </trkpt>
      <trkpt lat="24.916890011271192" lon="118.54234111296908">
        <ele>28.84088134765625</ele>
        <time>2025-08-11T13:07:27Z</time>
      </trkpt>
      <trkpt lat="24.917161690651465" lon="118.54220976551292">
        <ele>27.4554443359375</ele>
        <time>2025-08-11T13:07:36Z</time>
      </trkpt>
      <trkpt lat="24.9174345379476" lon="118.5421566134077">
        <ele>28.65167236328125</ele>
        <time>2025-08-11T13:07:45Z</time>
      </trkpt>
      <trkpt lat="24.917710443098542" lon="118.54213052886091">
        <ele>26.6973876953125</ele>
        <time>2025-08-11T13:07:54Z</time>
      </trkpt>
      <trkpt lat="24.91806235054381" lon="118.54211045408336">
        <ele>23.615234375</ele>
        <time>2025-08-11T13:08:06Z</time>
      </trkpt>
      <trkpt lat="24.918372261682926" lon="118.5420893796983">
        <ele>26.0518798828125</ele>
        <time>2025-08-11T13:08:15Z</time>
      </trkpt>
      <trkpt lat="24.918666209656237" lon="118.54208434665792">
        <ele>27.44537353515625</ele>
        <time>2025-08-11T13:08:24Z</time>
      </trkpt>
      <trkpt lat="24.91896219411275" lon="118.54209635623363">
        <ele>28.8170166015625</ele>
        <time>2025-08-11T13:08:33Z</time>
      </trkpt>
      <trkpt lat="24.919240165939446" lon="118.54210134945559">
        <ele>28.55633544921875</ele>
        <time>2025-08-11T13:08:42Z</time>
      </trkpt>
      <trkpt lat="24.919511147388025" lon="118.54211035322096">
        <ele>28.70458984375</ele>
        <time>2025-08-11T13:08:51Z</time>
      </trkpt>
      <trkpt lat="24.919874107265283" lon="118.54211534052304">
        <ele>29.3529052734375</ele>
        <time>2025-08-11T13:09:03Z</time>
      </trkpt>
      <trkpt lat="24.920210090373853" lon="118.5421293523266">
        <ele>29.05987548828125</ele>
        <time>2025-08-11T13:09:15Z</time>
      </trkpt>
      <trkpt lat="24.92048210838242" lon="118.54215539873059">
        <ele>28.66461181640625</ele>
        <time>2025-08-11T13:09:24Z</time>
      </trkpt>
      <trkpt lat="24.920756052616746" lon="118.54214735955551">
        <ele>29.8331298828125</ele>
        <time>2025-08-11T13:09:33Z</time>
      </trkpt>
      <trkpt lat="24.921095959466165" lon="118.5421262831091">
        <ele>29.97021484375</ele>
        <time>2025-08-11T13:09:45Z</time>
      </trkpt>
      <trkpt lat="24.921439906809066" lon="118.54212425413445">
        <ele>30.412841796875</ele>
        <time>2025-08-11T13:09:57Z</time>
      </trkpt>
      <trkpt lat="24.92176491733328" lon="118.54215029685362">
        <ele>30.87109375</ele>
        <time>2025-08-11T13:10:09Z</time>
      </trkpt>
      <trkpt lat="24.92208700598942" lon="118.54221243015284">
        <ele>30.51654052734375</ele>
        <time>2025-08-11T13:10:21Z</time>
      </trkpt>
      <trkpt lat="24.9224430681499" lon="118.5422645358556">
        <ele>33.6768798828125</ele>
        <time>2025-08-11T13:10:33Z</time>
      </trkpt>
      <trkpt lat="24.92277022693314" lon="118.54235975120906">
        <ele>36.2716064453125</ele>
        <time>2025-08-11T13:10:45Z</time>
      </trkpt>
      <trkpt lat="24.923104397311906" lon="118.54246098073145">
        <ele>35.88232421875</ele>
        <time>2025-08-11T13:10:57Z</time>
      </trkpt>
      <trkpt lat="24.923420614938298" lon="118.54258326353653">
        <ele>37.664794921875</ele>
        <time>2025-08-11T13:11:09Z</time>
      </trkpt>
      <trkpt lat="24.923736879155115" lon="118.54272760056226">
        <ele>38.53143310546875</ele>
        <time>2025-08-11T13:11:21Z</time>
      </trkpt>
      <trkpt lat="24.924039183061144" lon="118.54288998247549">
        <ele>38.2032470703125</ele>
        <time>2025-08-11T13:11:33Z</time>
      </trkpt>
      <trkpt lat="24.924332585256522" lon="118.54309847792649">
        <ele>37.166748046875</ele>
        <time>2025-08-11T13:11:45Z</time>
      </trkpt>
      <trkpt lat="24.92455392818423" lon="118.54327489770519">
        <ele>37.14385986328125</ele>
        <time>2025-08-11T13:11:54Z</time>
      </trkpt>
      <trkpt lat="24.924771287516062" lon="118.54345933624182">
        <ele>36.265625</ele>
        <time>2025-08-11T13:12:03Z</time>
      </trkpt>
      <trkpt lat="24.924982680247933" lon="118.54365981313084">
        <ele>35.924072265625</ele>
        <time>2025-08-11T13:12:12Z</time>
      </trkpt>
      <trkpt lat="24.925174105911125" lon="118.5438753265177">
        <ele>34.12109375</ele>
        <time>2025-08-11T13:12:21Z</time>
      </trkpt>
      <trkpt lat="24.925363565810237" lon="118.5441078796335">
        <ele>33.7113037109375</ele>
        <time>2025-08-11T13:12:30Z</time>
      </trkpt>
      <trkpt lat="24.925545035353743" lon="118.54434544330047">
        <ele>32.62713623046875</ele>
        <time>2025-08-11T13:12:39Z</time>
      </trkpt>
      <trkpt lat="24.925712521483188" lon="118.54459102503789">
        <ele>31.8511962890625</ele>
        <time>2025-08-11T13:12:48Z</time>
      </trkpt>
      <trkpt lat="24.925871027411446" lon="118.54484662906793">
        <ele>31.374267578125</ele>
        <time>2025-08-11T13:12:57Z</time>
      </trkpt>
      <trkpt lat="24.926028535269406" lon="118.54510423534784">
        <ele>30.76593017578125</ele>
        <time>2025-08-11T13:13:06Z</time>
      </trkpt>
      <trkpt lat="24.926189015748946" lon="118.54534981012088">
        <ele>28.898681640625</ele>
        <time>2025-08-11T13:13:15Z</time>
      </trkpt>
      <trkpt lat="24.92634851256482" lon="118.54560440392252">
        <ele>27.8060302734375</ele>
        <time>2025-08-11T13:13:24Z</time>
      </trkpt>
      <trkpt lat="24.926488011899373" lon="118.54585999886204">
        <ele>27.439453125</ele>
        <time>2025-08-11T13:13:33Z</time>
      </trkpt>
      <trkpt lat="24.926627521001222" lon="118.54612160528427">
        <ele>27.13580322265625</ele>
        <time>2025-08-11T13:13:42Z</time>
      </trkpt>
      <trkpt lat="24.926786012872633" lon="118.54637719353258">
        <ele>25.8929443359375</ele>
        <time>2025-08-11T13:13:51Z</time>
      </trkpt>
      <trkpt lat="24.92686635908443" lon="118.54655560467941">
        <ele>25.9161376953125</ele>
        <time>2025-08-11T13:13:57Z</time>
      </trkpt>
      <trkpt lat="24.926908663519672" lon="118.54671096356327">
        <ele>25.75897216796875</ele>
        <time>2025-08-11T13:14:03Z</time>
      </trkpt>
      <trkpt lat="24.926964605618693" lon="118.54668590138013">
        <ele>25.7100830078125</ele>
        <time>2025-08-11T13:14:06Z</time>
      </trkpt>
      <trkpt lat="24.926947586010872" lon="118.54667487690719">
        <ele>26.25238037109375</ele>
        <time>2025-08-11T13:14:42Z</time>
      </trkpt>
      <trkpt lat="24.927135397294165" lon="118.54659367476364">
        <ele>26.07818603515625</ele>
        <time>2025-08-11T13:14:48Z</time>
      </trkpt>
      <trkpt lat="24.92717317129397" lon="118.5464834149279">
        <ele>26.26055908203125</ele>
        <time>2025-08-11T13:14:51Z</time>
      </trkpt>
      <trkpt lat="24.92715395289592" lon="118.54637315855912">
        <ele>26.705322265625</ele>
        <time>2025-08-11T13:14:54Z</time>
      </trkpt>
      <trkpt lat="24.926997440497857" lon="118.54610754657294">
        <ele>28.75250244140625</ele>
        <time>2025-08-11T13:15:03Z</time>
      </trkpt>
      <trkpt lat="24.926870894902603" lon="118.545828898861">
        <ele>30.77178955078125</ele>
        <time>2025-08-11T13:15:12Z</time>
      </trkpt>
      <trkpt lat="24.926675247983464" lon="118.54549712668961">
        <ele>32.96856689453125</ele>
        <time>2025-08-11T13:15:24Z</time>
      </trkpt>
      <trkpt lat="24.926481629709116" lon="118.5451813882354">
        <ele>33.74273681640625</ele>
        <time>2025-08-11T13:15:36Z</time>
      </trkpt>
      <trkpt lat="24.926344136257885" lon="118.5449318005871">
        <ele>34.93426513671875</ele>
        <time>2025-08-11T13:15:45Z</time>
      </trkpt>
      <trkpt lat="24.926266808174034" lon="118.54476741125802">
        <ele>34.69384765625</ele>
        <time>2025-08-11T13:15:51Z</time>
      </trkpt>
      <trkpt lat="24.926061195857557" lon="118.54445767894319">
        <ele>35.8150634765625</ele>
        <time>2025-08-11T13:16:03Z</time>
      </trkpt>
      <trkpt lat="24.925860596170025" lon="118.54415596194085">
        <ele>35.73309326171875</ele>
        <time>2025-08-11T13:16:15Z</time>
      </trkpt>
      <trkpt lat="24.925647018224602" lon="118.54386526914482">
        <ele>35.92803955078125</ele>
        <time>2025-08-11T13:16:27Z</time>
      </trkpt>
      <trkpt lat="24.925415471521166" lon="118.54358961112439">
        <ele>35.268310546875</ele>
        <time>2025-08-11T13:16:39Z</time>
      </trkpt>
      <trkpt lat="24.925173946895306" lon="118.54332497795637">
        <ele>37.02923583984375</ele>
        <time>2025-08-11T13:16:51Z</time>
      </trkpt>
      <trkpt lat="24.924905502407274" lon="118.54309743556745">
        <ele>38.24700927734375</ele>
        <time>2025-08-11T13:17:03Z</time>
      </trkpt>
      <trkpt lat="24.924611108905662" lon="118.5428929501123">
        <ele>40.10736083984375</ele>
        <time>2025-08-11T13:17:15Z</time>
      </trkpt>
      <trkpt lat="24.924315690520025" lon="118.5426774356886">
        <ele>41.020751953125</ele>
        <time>2025-08-11T13:17:27Z</time>
      </trkpt>
      <trkpt lat="24.92408339276437" lon="118.54252306755261">
        <ele>40.03515625</ele>
        <time>2025-08-11T13:17:36Z</time>
      </trkpt>
      <trkpt lat="24.923831127147047" lon="118.54238273494519">
        <ele>38.20648193359375</ele>
        <time>2025-08-11T13:17:45Z</time>
      </trkpt>
      <trkpt lat="24.9235719136137" lon="118.54226646227593">
        <ele>38.71710205078125</ele>
        <time>2025-08-11T13:17:54Z</time>
      </trkpt>
      <trkpt lat="24.92331268664305" lon="118.54214417400945">
        <ele>38.5975341796875</ele>
        <time>2025-08-11T13:18:03Z</time>
      </trkpt>
      <trkpt lat="24.923052493938396" lon="118.54203792551667">
        <ele>38.520751953125</ele>
        <time>2025-08-11T13:18:12Z</time>
      </trkpt>
      <trkpt lat="24.92276931058235" lon="118.54193468575588">
        <ele>37.79248046875</ele>
        <time>2025-08-11T13:18:21Z</time>
      </trkpt>
      <trkpt lat="24.922499181486373" lon="118.54185751031942">
        <ele>36.001953125</ele>
        <time>2025-08-11T13:18:30Z</time>
      </trkpt>
      <trkpt lat="24.922206120610397" lon="118.54181041204825">
        <ele>36.0567626953125</ele>
        <time>2025-08-11T13:18:39Z</time>
      </trkpt>
      <trkpt lat="24.921925066659334" lon="118.54176732296715">
        <ele>34.440185546875</ele>
        <time>2025-08-11T13:18:48Z</time>
      </trkpt>
      <trkpt lat="24.921640030602433" lon="118.54173225432532">
        <ele>34.144287109375</ele>
        <time>2025-08-11T13:18:57Z</time>
      </trkpt>
      <trkpt lat="24.921346024051513" lon="118.5417102191517">
        <ele>34.72479248046875</ele>
        <time>2025-08-11T13:19:06Z</time>
      </trkpt>
      <trkpt lat="24.92105105896899" lon="118.54170723210115">
        <ele>34.615234375</ele>
        <time>2025-08-11T13:19:15Z</time>
      </trkpt>
      <trkpt lat="24.920772076393746" lon="118.54169722622623">
        <ele>33.260498046875</ele>
        <time>2025-08-11T13:19:24Z</time>
      </trkpt>
      <trkpt lat="24.920487081586312" lon="118.54168120558145">
        <ele>33.297119140625</ele>
        <time>2025-08-11T13:19:33Z</time>
      </trkpt>
      <trkpt lat="24.92018022262254" lon="118.54172634079853">
        <ele>34.600341796875</ele>
        <time>2025-08-11T13:19:42Z</time>
      </trkpt>
      <trkpt lat="24.919899264238623" lon="118.54172736289038">
        <ele>33.38238525390625</ele>
        <time>2025-08-11T13:19:51Z</time>
      </trkpt>
      <trkpt lat="24.919624309354237" lon="118.54173038962202">
        <ele>32.34844970703125</ele>
        <time>2025-08-11T13:20:00Z</time>
      </trkpt>
      <trkpt lat="24.91935239319014" lon="118.54175146165478">
        <ele>32.310302734375</ele>
        <time>2025-08-11T13:20:09Z</time>
      </trkpt>
      <trkpt lat="24.919071421728244" lon="118.5417464685764">
        <ele>33.07806396484375</ele>
        <time>2025-08-11T13:20:18Z</time>
      </trkpt>
      <trkpt lat="24.918777454253416" lon="118.5417424789303">
        <ele>34.06378173828125</ele>
        <time>2025-08-11T13:20:27Z</time>
      </trkpt>
      <trkpt lat="24.91848748620659" lon="118.54173848900497">
        <ele>33.8201904296875</ele>
        <time>2025-08-11T13:20:36Z</time>
      </trkpt>
      <trkpt lat="24.91819753990002" lon="118.54174452436341">
        <ele>34.26104736328125</ele>
        <time>2025-08-11T13:20:45Z</time>
      </trkpt>
      <trkpt lat="24.9179185659409" lon="118.54173852861533">
        <ele>33.2198486328125</ele>
        <time>2025-08-11T13:20:54Z</time>
      </trkpt>
      <trkpt lat="24.91763855512431" lon="118.54171548994167">
        <ele>30.158203125</ele>
        <time>2025-08-11T13:21:03Z</time>
      </trkpt>
      <trkpt lat="24.91744560391107" lon="118.54172552866864">
        <ele>29.3641357421875</ele>
        <time>2025-08-11T13:21:09Z</time>
      </trkpt>
      <trkpt lat="24.917344552769947" lon="118.54169545981289">
        <ele>26.75897216796875</ele>
        <time>2025-08-11T13:21:12Z</time>
      </trkpt>
      <trkpt lat="24.917059736254497" lon="118.54176164655694">
        <ele>28.37481689453125</ele>
        <time>2025-08-11T13:21:21Z</time>
      </trkpt>
      <trkpt lat="24.916866752396476" lon="118.54175664735335">
        <ele>28.99444580078125</ele>
        <time>2025-08-11T13:21:27Z</time>
      </trkpt>
      <trkpt lat="24.916781699040268" lon="118.54172657741965">
        <ele>29.19342041015625</ele>
        <time>2025-08-11T13:21:30Z</time>
      </trkpt>
      <trkpt lat="24.916796755669385" lon="118.54175364464255">
        <ele>27.92333984375</ele>
        <time>2025-08-11T13:21:33Z</time>
      </trkpt>
      <trkpt lat="24.916875812011174" lon="118.54178471748958">
        <ele>26.8797607421875</ele>
        <time>2025-08-11T13:22:00Z</time>
      </trkpt>
      <trkpt lat="24.91699544157174" lon="118.542083460455">
        <ele>27.55316162109375</ele>
        <time>2025-08-11T13:22:09Z</time>
      </trkpt>
      <trkpt lat="24.9170366476822" lon="118.542181703908">
        <ele>27.01715087890625</ele>
        <time>2025-08-11T13:22:12Z</time>
      </trkpt>
      <trkpt lat="24.917041864971914" lon="118.54228295701823">
        <ele>27.6595458984375</ele>
        <time>2025-08-11T13:22:15Z</time>
      </trkpt>
      <trkpt lat="24.91699394930535" lon="118.54231905060513">
        <ele>27.52880859375</ele>
        <time>2025-08-11T13:22:18Z</time>
      </trkpt>
      <trkpt lat="24.916972965176214" lon="118.54232506710285">
        <ele>26.4803466796875</ele>
        <time>2025-08-11T13:23:06Z</time>
      </trkpt>
      <trkpt lat="24.91661113216461" lon="118.5423792275597">
        <ele>30.27008056640625</ele>
        <time>2025-08-11T13:23:18Z</time>
      </trkpt>
      <trkpt lat="24.91651706346773" lon="118.54234113892937">
        <ele>30.31671142578125</ele>
        <time>2025-08-11T13:23:21Z</time>
      </trkpt>
      <trkpt lat="24.916407059464667" lon="118.54233212403614">
        <ele>29.67791748046875</ele>
        <time>2025-08-11T13:23:24Z</time>
      </trkpt>
      <trkpt lat="24.916092288719216" lon="118.54241836129906">
        <ele>29.158935546875</ele>
        <time>2025-08-11T13:23:33Z</time>
      </trkpt>
      <trkpt lat="24.915779495934597" lon="118.54249457314323">
        <ele>27.47637939453125</ele>
        <time>2025-08-11T13:23:42Z</time>
      </trkpt>
      <trkpt lat="24.915481720159626" lon="118.54257980618368">
        <ele>26.52130126953125</ele>
        <time>2025-08-11T13:23:51Z</time>
      </trkpt>
      <trkpt lat="24.91518692869886" lon="118.54265802128327">
        <ele>26.3192138671875</ele>
        <time>2025-08-11T13:24:00Z</time>
      </trkpt>
      <trkpt lat="24.914860152190247" lon="118.54274125082075">
        <ele>29.64788818359375</ele>
        <time>2025-08-11T13:24:09Z</time>
      </trkpt>
      <trkpt lat="24.91455442593305" lon="118.54284954077708">
        <ele>32.26385498046875</ele>
        <time>2025-08-11T13:24:18Z</time>
      </trkpt>
      <trkpt lat="24.91424467208058" lon="118.54294479829466">
        <ele>37.45892333984375</ele>
        <time>2025-08-11T13:24:27Z</time>
      </trkpt>
      <trkpt lat="24.914143728847996" lon="118.54296485495034">
        <ele>36.93707275390625</ele>
        <time>2025-08-11T13:24:30Z</time>
      </trkpt>
      <trkpt lat="24.91398497695039" lon="118.54307112878034">
        <ele>34.92388916015625</ele>
        <time>2025-08-11T13:24:36Z</time>
      </trkpt>
      <trkpt lat="24.913907015515086" lon="118.5430841664032">
        <ele>33.33935546875</ele>
        <time>2025-08-11T13:24:39Z</time>
      </trkpt>
      <trkpt lat="24.9136760583927" lon="118.54308919485676">
        <ele>28.53125</ele>
        <time>2025-08-11T13:24:48Z</time>
      </trkpt>
      <trkpt lat="24.9134012669446" lon="118.54316941195599">
        <ele>28.445068359375</ele>
        <time>2025-08-11T13:24:57Z</time>
      </trkpt>
      <trkpt lat="24.913112462351656" lon="118.5432426124871">
        <ele>27.6976318359375</ele>
        <time>2025-08-11T13:25:06Z</time>
      </trkpt>
      <trkpt lat="24.91283165432458" lon="118.54331480978404">
        <ele>27.77880859375</ele>
        <time>2025-08-11T13:25:15Z</time>
      </trkpt>
      <trkpt lat="24.912547816862148" lon="118.5433729725786">
        <ele>27.87310791015625</ele>
        <time>2025-08-11T13:25:24Z</time>
      </trkpt>
      <trkpt lat="24.912254003946646" lon="118.54344216302313">
        <ele>27.25390625</ele>
        <time>2025-08-11T13:25:33Z</time>
      </trkpt>
      <trkpt lat="24.911955208459343" lon="118.54351937330212">
        <ele>25.70977783203125</ele>
        <time>2025-08-11T13:25:42Z</time>
      </trkpt>
      <trkpt lat="24.911656368410913" lon="118.54357553175727">
        <ele>26.09490966796875</ele>
        <time>2025-08-11T13:25:51Z</time>
      </trkpt>
      <trkpt lat="24.911361496030914" lon="118.5436166529829">
        <ele>28.03485107421875</ele>
        <time>2025-08-11T13:26:00Z</time>
      </trkpt>
      <trkpt lat="24.911157610916558" lon="118.54365776781155">
        <ele>28.44659423828125</ele>
        <time>2025-08-11T13:26:06Z</time>
      </trkpt>
      <trkpt lat="24.911068711844322" lon="118.54369987702621">
        <ele>27.27655029296875</ele>
        <time>2025-08-11T13:26:09Z</time>
      </trkpt>
      <trkpt lat="24.910987680958144" lon="118.54367983361024">
        <ele>28.0069580078125</ele>
        <time>2025-08-11T13:26:12Z</time>
      </trkpt>
      <trkpt lat="24.910794126738693" lon="118.54340417099354">
        <ele>26.61065673828125</ele>
        <time>2025-08-11T13:26:21Z</time>
      </trkpt>
      <trkpt lat="24.910713000274605" lon="118.5433390164011">
        <ele>25.46820068359375</ele>
        <time>2025-08-11T13:26:24Z</time>
      </trkpt>
      <trkpt lat="24.910503037959053" lon="118.54334304087456">
        <ele>25.067626953125</ele>
        <time>2025-08-11T13:26:30Z</time>
      </trkpt>
      <trkpt lat="24.910260027218154" lon="118.54332200598085">
        <ele>25.0374755859375</ele>
        <time>2025-08-11T13:26:36Z</time>
      </trkpt>
      <trkpt lat="24.910245829667804" lon="118.54322777488582">
        <ele>25.464599609375</ele>
        <time>2025-08-11T13:26:39Z</time>
      </trkpt>
    </trkseg>
  </trk>
</gpx>