<?xml version="1.0" encoding="UTF-8"?>
<gpx xmlns="http://www.topografix.com/GPX/1/1" xmlns:gpxtpx="http://www.garmin.com/xmlschemas/TrackPointExtension/v1" xmlns:xsi="http://www.w3.org/2001/XMLSchema-instance" xsi:schemaLocation="http://www.topografix.com/GPX/1/1 http://www.topografix.com/GPX/1/1/gpx.xsd" version="1.1" creator="gpx.py -- https://github.com/tkrajina/gpxpy">
  <trk>
    <name>gpx from keep</name>
    <type>Run</type>
    <trkseg>
      <trkpt lat="24.91123173305965" lon="118.53738265363481">
        <ele>21.73162841796875</ele>
        <time>2026-09-04T11:57:58Z</time>
      </trkpt>
      <trkpt lat="24.91116495782284" lon="118.5374759082605">
        <ele>14.848876953125</ele>
        <time>2026-09-04T11:58:01Z</time>
      </trkpt>
      <trkpt lat="24.911209134493085" lon="118.53755511728079">
        <ele>33.28619384765625</ele>
        <time>2026-09-04T11:58:04Z</time>
      </trkpt>
      <trkpt lat="24.911067865019675" lon="118.53786395190664">
        <ele>29.2999267578125</ele>
        <time>2026-09-04T11:58:13Z</time>
      </trkpt>
      <trkpt lat="24.910907544707946" lon="118.53815072588858">
        <ele>30.496337890625</ele>
        <time>2026-09-04T11:58:22Z</time>
      </trkpt>
      <trkpt lat="24.910800255512214" lon="118.5384555409384">
        <ele>28.17779541015625</ele>
        <time>2026-09-04T11:58:31Z</time>
      </trkpt>
      <trkpt lat="24.91075949400097" lon="118.53855781398842">
        <ele>26.9697265625</ele>
        <time>2026-09-04T11:58:34Z</time>
      </trkpt>
      <trkpt lat="24.91079773255137" lon="118.53866509437283">
        <ele>27.3062744140625</ele>
        <time>2026-09-04T11:58:37Z</time>
      </trkpt>
      <trkpt lat="24.91089581452946" lon="118.53870719852885">
        <ele>27.96929931640625</ele>
        <time>2026-09-04T11:58:40Z</time>
      </trkpt>
      <trkpt lat="24.91109590499978" lon="118.53875932191532">
        <ele>29.755126953125</ele>
        <time>2026-09-04T11:58:46Z</time>
      </trkpt>
      <trkpt lat="24.91117797543512" lon="118.53879541121181">
        <ele>29.8505859375</ele>
        <time>2026-09-04T11:58:49Z</time>
      </trkpt>
      <trkpt lat="24.911185185699964" lon="118.53888865594267">
        <ele>31.675537109375</ele>
        <time>2026-09-04T11:58:52Z</time>
      </trkpt>
      <trkpt lat="24.911099933656537" lon="118.53921451638605">
        <ele>32.86962890625</ele>
        <time>2026-09-04T11:59:01Z</time>
      </trkpt>
      <trkpt lat="24.91103059721129" lon="118.53950528041076">
        <ele>30.32867431640625</ele>
        <time>2026-09-04T11:59:10Z</time>
      </trkpt>
      <trkpt lat="24.911011835900407" lon="118.5396105558312">
        <ele>30.40008544921875</ele>
        <time>2026-09-04T11:59:13Z</time>
      </trkpt>
      <trkpt lat="24.91087364837096" lon="118.53996548659124">
        <ele>29.89678955078125</ele>
        <time>2026-09-04T11:59:25Z</time>
      </trkpt>
      <trkpt lat="24.910855290989623" lon="118.54025323123437">
        <ele>32.0111083984375</ele>
        <time>2026-09-04T11:59:34Z</time>
      </trkpt>
      <trkpt lat="24.910754168223026" lon="118.54064324089917">
        <ele>33.25848388671875</ele>
        <time>2026-09-04T11:59:46Z</time>
      </trkpt>
      <trkpt lat="24.910679871607453" lon="118.54095805122364">
        <ele>25.40692138671875</ele>
        <time>2026-09-04T11:59:55Z</time>
      </trkpt>
      <trkpt lat="24.91065025614871" lon="118.54113149529134">
        <ele>22.3736572265625</ele>
        <time>2026-09-04T12:00:01Z</time>
      </trkpt>
      <trkpt lat="24.910524600461866" lon="118.54128088381349">
        <ele>21.22760009765625</ele>
        <time>2026-09-04T12:00:07Z</time>
      </trkpt>
      <trkpt lat="24.910466390766313" lon="118.54163979687965">
        <ele>20.12567138671875</ele>
        <time>2026-09-04T12:00:19Z</time>
      </trkpt>
      <trkpt lat="24.910399872026055" lon="118.54185735011376">
        <ele>16.12078857421875</ele>
        <time>2026-09-04T12:00:25Z</time>
      </trkpt>
      <trkpt lat="24.910399112952643" lon="118.54196863008895">
        <ele>19.4605712890625</ele>
        <time>2026-09-04T12:00:28Z</time>
      </trkpt>
      <trkpt lat="24.91033681782373" lon="118.54229144376185">
        <ele>23.9830322265625</ele>
        <time>2026-09-04T12:00:37Z</time>
      </trkpt>
      <trkpt lat="24.910289600678826" lon="118.54265334963449">
        <ele>24.296630859375</ele>
        <time>2026-09-04T12:00:49Z</time>
      </trkpt>
      <trkpt lat="24.910213278579352" lon="118.54296613093246">
        <ele>27.37884521484375</ele>
        <time>2026-09-04T12:00:58Z</time>
      </trkpt>
      <trkpt lat="24.910191507543903" lon="118.54307239521798">
        <ele>27.9029541015625</ele>
        <time>2026-09-04T12:01:01Z</time>
      </trkpt>
      <trkpt lat="24.910230891209757" lon="118.5432558450925">
        <ele>25.64306640625</ele>
        <time>2026-09-04T12:01:07Z</time>
      </trkpt>
      <trkpt lat="24.91016925599352" lon="118.54342426373735">
        <ele>22.49566650390625</ele>
        <time>2026-09-04T12:01:13Z</time>
      </trkpt>
      <trkpt lat="24.909825276275658" lon="118.54341125564481">
        <ele>26.55584716796875</ele>
        <time>2026-09-04T12:01:25Z</time>
      </trkpt>
      <trkpt lat="24.90950625916847" lon="118.54338220637797">
        <ele>27.3343505859375</ele>
        <time>2026-09-04T12:01:34Z</time>
      </trkpt>
      <trkpt lat="24.90922132840453" lon="118.54339626070313">
        <ele>27.68731689453125</ele>
        <time>2026-09-04T12:01:43Z</time>
      </trkpt>
      <trkpt lat="24.908929347760445" lon="118.54338625637224">
        <ele>26.84600830078125</ele>
        <time>2026-09-04T12:01:52Z</time>
      </trkpt>
      <trkpt lat="24.908647376305126" lon="118.5433812636653">
        <ele>29.17462158203125</ele>
        <time>2026-09-04T12:02:01Z</time>
      </trkpt>
      <trkpt lat="24.90835740382716" lon="118.54337526904885">
        <ele>29.37103271484375</ele>
        <time>2026-09-04T12:02:10Z</time>
      </trkpt>
      <trkpt lat="24.90826240429092" lon="118.54336926086708">
        <ele>29.7027587890625</ele>
        <time>2026-09-04T12:02:13Z</time>
      </trkpt>
      <trkpt lat="24.907985491432935" lon="118.54339233682097">
        <ele>29.1024169921875</ele>
        <time>2026-09-04T12:02:22Z</time>
      </trkpt>
      <trkpt lat="24.907697575833826" lon="118.54341340859212">
        <ele>28.78399658203125</ele>
        <time>2026-09-04T12:02:31Z</time>
      </trkpt>
      <trkpt lat="24.907597540982536" lon="118.54339035888046">
        <ele>30.663330078125</ele>
        <time>2026-09-04T12:02:34Z</time>
      </trkpt>
      <trkpt lat="24.907526421541593" lon="118.54332921342683">
        <ele>30.13568115234375</ele>
        <time>2026-09-04T12:02:37Z</time>
      </trkpt>
      <trkpt lat="24.907472274140915" lon="118.5432560370132">
        <ele>29.318115234375</ele>
        <time>2026-09-04T12:02:40Z</time>
      </trkpt>
      <trkpt lat="24.907485049235177" lon="118.54315077659359">
        <ele>30.0804443359375</ele>
        <time>2026-09-04T12:02:43Z</time>
      </trkpt>
      <trkpt lat="24.90764641073328" lon="118.54286104880741">
        <ele>28.301513671875</ele>
        <time>2026-09-04T12:02:52Z</time>
      </trkpt>
      <trkpt lat="24.907772763446403" lon="118.54256630771052">
        <ele>29.6884765625</ele>
        <time>2026-09-04T12:03:01Z</time>
      </trkpt>
      <trkpt lat="24.907872285055348" lon="118.54234976062173">
        <ele>34.03265380859375</ele>
        <time>2026-09-04T12:03:07Z</time>
      </trkpt>
      <trkpt lat="24.907970660281233" lon="118.54206604332488">
        <ele>34.813232421875</ele>
        <time>2026-09-04T12:03:16Z</time>
      </trkpt>
      <trkpt lat="24.90807198451415" lon="118.54176026713179">
        <ele>35.48870849609375</ele>
        <time>2026-09-04T12:03:25Z</time>
      </trkpt>
      <trkpt lat="24.908169343264355" lon="118.54147153080335">
        <ele>38.20635986328125</ele>
        <time>2026-09-04T12:03:34Z</time>
      </trkpt>
      <trkpt lat="24.908192143352792" lon="118.54138130058006">
        <ele>38.6614990234375</ele>
        <time>2026-09-04T12:03:37Z</time>
      </trkpt>
      <trkpt lat="24.908284188239964" lon="118.54122679919891">
        <ele>34.29736328125</ele>
        <time>2026-09-04T12:03:43Z</time>
      </trkpt>
      <trkpt lat="24.90842222314089" lon="118.54105338421402">
        <ele>32.88116455078125</ele>
        <time>2026-09-04T12:03:49Z</time>
      </trkpt>
      <trkpt lat="24.90848216460904" lon="118.5409423065361">
        <ele>30.885009765625</ele>
        <time>2026-09-04T12:03:52Z</time>
      </trkpt>
      <trkpt lat="24.90860890055747" lon="118.5406159905046">
        <ele>27.0953369140625</ele>
        <time>2026-09-04T12:04:01Z</time>
      </trkpt>
      <trkpt lat="24.908718590597097" lon="118.54030175981678">
        <ele>25.21380615234375</ele>
        <time>2026-09-04T12:04:10Z</time>
      </trkpt>
      <trkpt lat="24.908797983743288" lon="118.5399866856316">
        <ele>27.8603515625</ele>
        <time>2026-09-04T12:04:19Z</time>
      </trkpt>
      <trkpt lat="24.908820768176852" lon="118.53989143738389">
        <ele>30.660888671875</ele>
        <time>2026-09-04T12:04:22Z</time>
      </trkpt>
      <trkpt lat="24.908847657011066" lon="118.53984331075469">
        <ele>30.2537841796875</ele>
        <time>2026-09-04T12:04:25Z</time>
      </trkpt>
      <trkpt lat="24.908827155248815" lon="118.53961772624243">
        <ele>23.26898193359375</ele>
        <time>2026-09-04T12:04:34Z</time>
      </trkpt>
      <trkpt lat="24.908858917035296" lon="118.53951345256073">
        <ele>23.80364990234375</ele>
        <time>2026-09-04T12:04:37Z</time>
      </trkpt>
      <trkpt lat="24.908919173482584" lon="118.5391865948179">
        <ele>24.97265625</ele>
        <time>2026-09-04T12:04:46Z</time>
      </trkpt>
      <trkpt lat="24.909014412515198" lon="118.53885572017784">
        <ele>28.509033203125</ele>
        <time>2026-09-04T12:04:55Z</time>
      </trkpt>
      <trkpt lat="24.909062631716303" lon="118.53851481833766">
        <ele>28.59869384765625</ele>
        <time>2026-09-04T12:05:04Z</time>
      </trkpt>
      <trkpt lat="24.909155930336475" lon="118.53821301290422">
        <ele>33.08154296875</ele>
        <time>2026-09-04T12:05:13Z</time>
      </trkpt>
      <trkpt lat="24.909216207614108" lon="118.53790117978167">
        <ele>32.19525146484375</ele>
        <time>2026-09-04T12:05:22Z</time>
      </trkpt>
      <trkpt lat="24.90928645498656" lon="118.53757831297479">
        <ele>35.20819091796875</ele>
        <time>2026-09-04T12:05:31Z</time>
      </trkpt>
      <trkpt lat="24.909377721692454" lon="118.53726647062183">
        <ele>35.7783203125</ele>
        <time>2026-09-04T12:05:40Z</time>
      </trkpt>
      <trkpt lat="24.909451924745632" lon="118.53692755297463">
        <ele>37.358642578125</ele>
        <time>2026-09-04T12:05:49Z</time>
      </trkpt>
      <trkpt lat="24.909466663581533" lon="118.5368162514052">
        <ele>35.99810791015625</ele>
        <time>2026-09-04T12:05:52Z</time>
      </trkpt>
      <trkpt lat="24.909536202468196" lon="118.53662272295851">
        <ele>35.1326904296875</ele>
        <time>2026-09-04T12:05:58Z</time>
      </trkpt>
      <trkpt lat="24.9095864373531" lon="118.53629884024383">
        <ele>32.8367919921875</ele>
        <time>2026-09-04T12:06:07Z</time>
      </trkpt>
      <trkpt lat="24.909620659420163" lon="118.53596994130196">
        <ele>33.5067138671875</ele>
        <time>2026-09-04T12:06:16Z</time>
      </trkpt>
      <trkpt lat="24.90966188432082" lon="118.53564404638462">
        <ele>30.50701904296875</ele>
        <time>2026-09-04T12:06:25Z</time>
      </trkpt>
      <trkpt lat="24.909720117921577" lon="118.53532416320247">
        <ele>30.126708984375</ele>
        <time>2026-09-04T12:06:34Z</time>
      </trkpt>
      <trkpt lat="24.9097613436192" lon="118.5350012693972">
        <ele>28.0108642578125</ele>
        <time>2026-09-04T12:06:43Z</time>
      </trkpt>
      <trkpt lat="24.909791574919936" lon="118.5346813811731">
        <ele>28.605224609375</ele>
        <time>2026-09-04T12:06:52Z</time>
      </trkpt>
      <trkpt lat="24.90982075750411" lon="118.53434243648294">
        <ele>32.2435302734375</ele>
        <time>2026-09-04T12:07:01Z</time>
      </trkpt>
      <trkpt lat="24.909887262963533" lon="118.53414086944672">
        <ele>32.19952392578125</ele>
        <time>2026-09-04T12:07:07Z</time>
      </trkpt>
      <trkpt lat="24.90993206325041" lon="118.53406064210485">
        <ele>31.79296875</ele>
        <time>2026-09-04T12:07:10Z</time>
      </trkpt>
      <trkpt lat="24.909993914257726" lon="118.53400247509907">
        <ele>32.6614990234375</ele>
        <time>2026-09-04T12:07:13Z</time>
      </trkpt>
      <trkpt lat="24.910078800730627" lon="118.53396035129623">
        <ele>29.78717041015625</ele>
        <time>2026-09-04T12:07:16Z</time>
      </trkpt>
      <trkpt lat="24.910162745447984" lon="118.53394229490152">
        <ele>28.26055908203125</ele>
        <time>2026-09-04T12:07:19Z</time>
      </trkpt>
      <trkpt lat="24.91023877364711" lon="118.53395833452119">
        <ele>26.7437744140625</ele>
        <time>2026-09-04T12:07:22Z</time>
      </trkpt>
      <trkpt lat="24.91055073269277" lon="118.53395931556524">
        <ele>23.29864501953125</ele>
        <time>2026-09-04T12:07:31Z</time>
      </trkpt>
      <trkpt lat="24.91075078964593" lon="118.53399439984835">
        <ele>23.53179931640625</ele>
        <time>2026-09-04T12:07:37Z</time>
      </trkpt>
      <trkpt lat="24.91103869146202" lon="118.53397031240287">
        <ele>22.90606689453125</ele>
        <time>2026-09-04T12:07:46Z</time>
      </trkpt>
      <trkpt lat="24.91133961566589" lon="118.53395625210632">
        <ele>23.285400390625</ele>
        <time>2026-09-04T12:07:55Z</time>
      </trkpt>
      <trkpt lat="24.911632574882084" lon="118.53395623166762">
        <ele>23.84869384765625</ele>
        <time>2026-09-04T12:08:04Z</time>
      </trkpt>
      <trkpt lat="24.911908587318983" lon="118.5339772713625">
        <ele>20.38238525390625</ele>
        <time>2026-09-04T12:08:13Z</time>
      </trkpt>
      <trkpt lat="24.91222154614616" lon="118.53397825233503">
        <ele>21.3853759765625</ele>
        <time>2026-09-04T12:08:22Z</time>
      </trkpt>
      <trkpt lat="24.912538453536573" lon="118.53395817408142">
        <ele>23.97381591796875</ele>
        <time>2026-09-04T12:08:31Z</time>
      </trkpt>
      <trkpt lat="24.91281944586282" lon="118.53397119097167">
        <ele>22.3319091796875</ele>
        <time>2026-09-04T12:08:40Z</time>
      </trkpt>
      <trkpt lat="24.91311942583641" lon="118.53398019530458">
        <ele>23.08721923828125</ele>
        <time>2026-09-04T12:08:49Z</time>
      </trkpt>
      <trkpt lat="24.913405393217555" lon="118.53398318377276">
        <ele>22.49481201171875</ele>
        <time>2026-09-04T12:08:58Z</time>
      </trkpt>
      <trkpt lat="24.913491352159507" lon="118.53397114409256">
        <ele>23.22552490234375</ele>
        <time>2026-09-04T12:09:01Z</time>
      </trkpt>
      <trkpt lat="24.913799389102483" lon="118.53400421521664">
        <ele>24.02484130859375</ele>
        <time>2026-09-04T12:09:10Z</time>
      </trkpt>
      <trkpt lat="24.914147381691084" lon="118.53402123863397">
        <ele>26.03948974609375</ele>
        <time>2026-09-04T12:09:22Z</time>
      </trkpt>
      <trkpt lat="24.914331331798483" lon="118.53401119774328">
        <ele>27.1279296875</ele>
        <time>2026-09-04T12:09:28Z</time>
      </trkpt>
      <trkpt lat="24.91467545315463" lon="118.5340813700562">
        <ele>26.14617919921875</ele>
        <time>2026-09-04T12:09:40Z</time>
      </trkpt>
      <trkpt lat="24.914852534832498" lon="118.5341254810203">
        <ele>24.8306884765625</ele>
        <time>2026-09-04T12:09:46Z</time>
      </trkpt>
      <trkpt lat="24.914972636492205" lon="118.53417460989743">
        <ele>23.99285888671875</ele>
        <time>2026-09-04T12:09:49Z</time>
      </trkpt>
      <trkpt lat="24.915289741939937" lon="118.53423676132962">
        <ele>26.30230712890625</ele>
        <time>2026-09-04T12:09:58Z</time>
      </trkpt>
      <trkpt lat="24.91558268167567" lon="118.5342287185039">
        <ele>28.4718017578125</ele>
        <time>2026-09-04T12:10:07Z</time>
      </trkpt>
      <trkpt lat="24.915931809060073" lon="118.5343018983493">
        <ele>30.2801513671875</ele>
        <time>2026-09-04T12:10:19Z</time>
      </trkpt>
      <trkpt lat="24.91621590920609" lon="118.53436004064478">
        <ele>31.3546142578125</ele>
        <time>2026-09-04T12:10:28Z</time>
      </trkpt>
      <trkpt lat="24.916501972825568" lon="118.53440314080375">
        <ele>27.619140625</ele>
        <time>2026-09-04T12:10:37Z</time>
      </trkpt>
      <trkpt lat="24.916774072047204" lon="118.53446028094942">
        <ele>26.374755859375</ele>
        <time>2026-09-04T12:10:46Z</time>
      </trkpt>
      <trkpt lat="24.917115221641033" lon="118.53454248587985">
        <ele>27.5986328125</ele>
        <time>2026-09-04T12:10:58Z</time>
      </trkpt>
      <trkpt lat="24.917407296171728" lon="118.53459059928923">
        <ele>25.69122314453125</ele>
        <time>2026-09-04T12:11:07Z</time>
      </trkpt>
      <trkpt lat="24.917685432630226" lon="118.5346637832029">
        <ele>23.06829833984375</ele>
        <time>2026-09-04T12:11:16Z</time>
      </trkpt>
      <trkpt lat="24.917957555363213" lon="118.53473095066683">
        <ele>23.6400146484375</ele>
        <time>2026-09-04T12:11:25Z</time>
      </trkpt>
      <trkpt lat="24.91824565173363" lon="118.53478808906881">
        <ele>23.9708251953125</ele>
        <time>2026-09-04T12:11:34Z</time>
      </trkpt>
      <trkpt lat="24.91843073607376" lon="118.53483420398945">
        <ele>24.615478515625</ele>
        <time>2026-09-04T12:11:40Z</time>
      </trkpt>
      <trkpt lat="24.918512865916124" lon="118.53489336211446">
        <ele>24.8914794921875</ele>
        <time>2026-09-04T12:11:43Z</time>
      </trkpt>
      <trkpt lat="24.918576034205476" lon="118.53496756305306">
        <ele>24.139892578125</ele>
        <time>2026-09-04T12:11:46Z</time>
      </trkpt>
      <trkpt lat="24.918627244639797" lon="118.53505881174418">
        <ele>24.00030517578125</ele>
        <time>2026-09-04T12:11:49Z</time>
      </trkpt>
      <trkpt lat="24.91865953146648" lon="118.53518114724798">
        <ele>25.83013916015625</ele>
        <time>2026-09-04T12:11:52Z</time>
      </trkpt>
      <trkpt lat="24.918647812098705" lon="118.53529847150078">
        <ele>27.51629638671875</ele>
        <time>2026-09-04T12:11:55Z</time>
      </trkpt>
      <trkpt lat="24.918505526511666" lon="118.53559128658071">
        <ele>26.114013671875</ele>
        <time>2026-09-04T12:12:04Z</time>
      </trkpt>
      <trkpt lat="24.918461734317965" lon="118.53567652346042">
        <ele>24.76983642578125</ele>
        <time>2026-09-04T12:12:07Z</time>
      </trkpt>
      <trkpt lat="24.918362486570654" lon="118.53598938651513">
        <ele>26.4578857421875</ele>
        <time>2026-09-04T12:12:16Z</time>
      </trkpt>
      <trkpt lat="24.91822613515217" lon="118.53625712598925">
        <ele>28.4366455078125</ele>
        <time>2026-09-04T12:12:25Z</time>
      </trkpt>
      <trkpt lat="24.91809983873571" lon="118.53654993025742">
        <ele>27.59686279296875</ele>
        <time>2026-09-04T12:12:34Z</time>
      </trkpt>
      <trkpt lat="24.91797853896363" lon="118.53684273118003">
        <ele>27.03594970703125</ele>
        <time>2026-09-04T12:12:43Z</time>
      </trkpt>
      <trkpt lat="24.917824138779405" lon="118.5370914126316">
        <ele>23.65606689453125</ele>
        <time>2026-09-04T12:12:52Z</time>
      </trkpt>
      <trkpt lat="24.91768490610273" lon="118.53741428988981">
        <ele>22.7479248046875</ele>
        <time>2026-09-04T12:13:01Z</time>
      </trkpt>
      <trkpt lat="24.917562626235465" lon="118.53771911407128">
        <ele>23.56768798828125</ele>
        <time>2026-09-04T12:13:10Z</time>
      </trkpt>
      <trkpt lat="24.917424205449425" lon="118.53796277332327">
        <ele>24.1180419921875</ele>
        <time>2026-09-04T12:13:19Z</time>
      </trkpt>
      <trkpt lat="24.91732593523335" lon="118.5382756111079">
        <ele>21.84515380859375</ele>
        <time>2026-09-04T12:13:28Z</time>
      </trkpt>
      <trkpt lat="24.917176780686752" lon="118.53863757853082">
        <ele>19.76373291015625</ele>
        <time>2026-09-04T12:13:40Z</time>
      </trkpt>
      <trkpt lat="24.917050412337296" lon="118.53890830001217">
        <ele>23.20947265625</ele>
        <time>2026-09-04T12:13:49Z</time>
      </trkpt>
      <trkpt lat="24.916936103215175" lon="118.53920709145586">
        <ele>21.03387451171875</ele>
        <time>2026-09-04T12:13:58Z</time>
      </trkpt>
      <trkpt lat="24.916796765438367" lon="118.53949284740214">
        <ele>21.731201171875</ele>
        <time>2026-09-04T12:14:07Z</time>
      </trkpt>
      <trkpt lat="24.9166385530818" lon="118.53983474733737">
        <ele>20.26495361328125</ele>
        <time>2026-09-04T12:14:19Z</time>
      </trkpt>
      <trkpt lat="24.9165609508362" lon="118.54000820206214">
        <ele>21.8255615234375</ele>
        <time>2026-09-04T12:14:25Z</time>
      </trkpt>
      <trkpt lat="24.91647970857078" lon="118.54034407460856">
        <ele>25.982666015625</ele>
        <time>2026-09-04T12:14:34Z</time>
      </trkpt>
      <trkpt lat="24.916370437736962" lon="118.5406669114931">
        <ele>26.16876220703125</ele>
        <time>2026-09-04T12:14:43Z</time>
      </trkpt>
      <trkpt lat="24.916272113469493" lon="118.54096768743348">
        <ele>24.015869140625</ele>
        <time>2026-09-04T12:14:52Z</time>
      </trkpt>
      <trkpt lat="24.916240320316717" lon="118.5410599248192">
        <ele>23.4110107421875</ele>
        <time>2026-09-04T12:14:55Z</time>
      </trkpt>
      <trkpt lat="24.916231778057423" lon="118.54126845592067">
        <ele>22.71002197265625</ele>
        <time>2026-09-04T12:15:01Z</time>
      </trkpt>
      <trkpt lat="24.916285485323765" lon="118.54159628286263">
        <ele>23.7535400390625</ele>
        <time>2026-09-04T12:15:10Z</time>
      </trkpt>
      <trkpt lat="24.916308704290618" lon="118.54169853952045">
        <ele>24.047119140625</ele>
        <time>2026-09-04T12:15:13Z</time>
      </trkpt>
      <trkpt lat="24.916306932919" lon="118.54180380509733">
        <ele>24.6815185546875</ele>
        <time>2026-09-04T12:15:16Z</time>
      </trkpt>
      <trkpt lat="24.91626111959136" lon="118.54188701782152">
        <ele>26.37286376953125</ele>
        <time>2026-09-04T12:15:19Z</time>
      </trkpt>
      <trkpt lat="24.91618523868508" lon="118.54193714920177">
        <ele>27.33489990234375</ele>
        <time>2026-09-04T12:15:22Z</time>
      </trkpt>
      <trkpt lat="24.91583052881269" lon="118.54204845348657">
        <ele>30.3233642578125</ele>
        <time>2026-09-04T12:15:34Z</time>
      </trkpt>
      <trkpt lat="24.915551784107112" lon="118.54214872436737">
        <ele>32.6629638671875</ele>
        <time>2026-09-04T12:15:43Z</time>
      </trkpt>
      <trkpt lat="24.915261105441672" lon="118.54227907094266">
        <ele>37.303466796875</ele>
        <time>2026-09-04T12:15:52Z</time>
      </trkpt>
      <trkpt lat="24.91505232214911" lon="118.54236630350714">
        <ele>39.4180908203125</ele>
        <time>2026-09-04T12:15:58Z</time>
      </trkpt>
      <trkpt lat="24.91471455015585" lon="118.5424505372518">
        <ele>32.11578369140625</ele>
        <time>2026-09-04T12:16:10Z</time>
      </trkpt>
      <trkpt lat="24.914485687485286" lon="118.54249967569103">
        <ele>32.77777099609375</ele>
        <time>2026-09-04T12:16:17Z</time>
      </trkpt>
      <trkpt lat="24.914398789866425" lon="118.54254178667345">
        <ele>34.0067138671875</ele>
        <time>2026-09-04T12:16:20Z</time>
      </trkpt>
      <trkpt lat="24.914048025583835" lon="118.54262902823133">
        <ele>31.1400146484375</ele>
        <time>2026-09-04T12:16:32Z</time>
      </trkpt>
      <trkpt lat="24.91374324603691" lon="118.5427122563292">
        <ele>32.97418212890625</ele>
        <time>2026-09-04T12:16:41Z</time>
      </trkpt>
      <trkpt lat="24.91345547883864" lon="118.54280250038671">
        <ele>31.7470703125</ele>
        <time>2026-09-04T12:16:50Z</time>
      </trkpt>
      <trkpt lat="24.913167587426297" lon="118.54283460000043">
        <ele>32.2342529296875</ele>
        <time>2026-09-04T12:16:59Z</time>
      </trkpt>
      <trkpt lat="24.9128897735981" lon="118.5429037907893">
        <ele>33.384033203125</ele>
        <time>2026-09-04T12:17:08Z</time>
      </trkpt>
      <trkpt lat="24.912593968500197" lon="118.54297599008534">
        <ele>29.8551025390625</ele>
        <time>2026-09-04T12:17:17Z</time>
      </trkpt>
      <trkpt lat="24.912301192610457" lon="118.5430622236531">
        <ele>27.17034912109375</ele>
        <time>2026-09-04T12:17:26Z</time>
      </trkpt>
      <trkpt lat="24.912127348824516" lon="118.54312438926834">
        <ele>27.77789306640625</ele>
        <time>2026-09-04T12:17:32Z</time>
      </trkpt>
      <trkpt lat="24.911862540950278" lon="118.54319758825628">
        <ele>27.26068115234375</ele>
        <time>2026-09-04T12:17:41Z</time>
      </trkpt>
      <trkpt lat="24.911751792065857" lon="118.54330887011436">
        <ele>34.401611328125</ele>
        <time>2026-09-04T12:17:53Z</time>
      </trkpt>
      <trkpt lat="24.91153180572539" lon="118.54330086567792">
        <ele>28.75140380859375</ele>
        <time>2026-09-04T12:18:02Z</time>
      </trkpt>
      <trkpt lat="24.911173948860043" lon="118.54334499912869">
        <ele>28.7247314453125</ele>
        <time>2026-09-04T12:18:14Z</time>
      </trkpt>
      <trkpt lat="24.910874049942013" lon="118.54337308903308">
        <ele>31.07952880859375</ele>
        <time>2026-09-04T12:18:23Z</time>
      </trkpt>
      <trkpt lat="24.910538126335066" lon="118.54338714691235">
        <ele>30.2562255859375</ele>
        <time>2026-09-04T12:18:32Z</time>
      </trkpt>
      <trkpt lat="24.910300206022658" lon="118.54340921767596">
        <ele>29.54248046875</ele>
        <time>2026-09-04T12:18:41Z</time>
      </trkpt>
      <trkpt lat="24.9102870891884" lon="118.54335308055985">
        <ele>30.6031494140625</ele>
        <time>2026-09-04T12:18:44Z</time>
      </trkpt>
      <trkpt lat="24.91029894118606" lon="118.54328390949453">
        <ele>29.9947509765625</ele>
        <time>2026-09-04T12:18:47Z</time>
      </trkpt>
      <trkpt lat="24.910271626248477" lon="118.54313354066109">
        <ele>28.6937255859375</ele>
        <time>2026-09-04T12:18:50Z</time>
      </trkpt>
      <trkpt lat="24.910271626248477" lon="118.54313354066109">
        <ele>28.6937255859375</ele>
        <time>2026-09-04T12:18:52Z</time>
      </trkpt>
    </trkseg>
  </trk>
</gpx>