<?xml version="1.0" encoding="UTF-8"?>
<gpx xmlns="http://www.topografix.com/GPX/1/1" xmlns:gpxtpx="http://www.garmin.com/xmlschemas/TrackPointExtension/v1" xmlns:xsi="http://www.w3.org/2001/XMLSchema-instance" xsi:schemaLocation="http://www.topografix.com/GPX/1/1 http://www.topografix.com/GPX/1/1/gpx.xsd" version="1.1" creator="gpx.py -- https://github.com/tkrajina/gpxpy">
  <trk>
    <name>gpx from keep</name>
    <type>Run</type>
    <trkseg>
      <trkpt lat="24.93874552982009" lon="118.56196682311142">
        <ele>12.467403886612402</ele>
        <time>2024-11-26T14:00:47Z</time>
      </trkpt>
      <trkpt lat="24.938566687555415" lon="118.56223052918793">
        <ele>12.380601578392088</ele>
        <time>2024-11-26T14:00:54Z</time>
      </trkpt>
      <trkpt lat="24.93841737807744" lon="118.56247967730718">
        <ele>12.43780056387186</ele>
        <time>2024-11-26T14:01:01Z</time>
      </trkpt>
      <trkpt lat="24.938256407947886" lon="118.56270655509756">
        <ele>12.25664190761745</ele>
        <time>2024-11-26T14:01:07Z</time>
      </trkpt>
      <trkpt lat="24.938050426199318" lon="118.56281663991456">
        <ele>10.634978362359107</ele>
        <time>2024-11-26T14:01:10Z</time>
      </trkpt>
      <trkpt lat="24.937959072749504" lon="118.56292842096396">
        <ele>10.92471625842154</ele>
        <time>2024-11-26T14:01:13Z</time>
      </trkpt>
      <trkpt lat="24.937921507008078" lon="118.56302397712881">
        <ele>10.4910256722942</ele>
        <time>2024-11-26T14:01:16Z</time>
      </trkpt>
      <trkpt lat="24.93785178795934" lon="118.56313213880456">
        <ele>10.999116852879524</ele>
        <time>2024-11-26T14:01:19Z</time>
      </trkpt>
      <trkpt lat="24.93776085027215" lon="118.56321756927245">
        <ele>11.183905347250402</ele>
        <time>2024-11-26T14:01:22Z</time>
      </trkpt>
      <trkpt lat="24.9375646651119" lon="118.56353243312931">
        <ele>11.682090006768703</ele>
        <time>2024-11-26T14:01:31Z</time>
      </trkpt>
      <trkpt lat="24.937368004140964" lon="118.56381327744052">
        <ele>12.204086707904935</ele>
        <time>2024-11-26T14:01:40Z</time>
      </trkpt>
      <trkpt lat="24.937105303436002" lon="118.56410835766968">
        <ele>10.978928178548813</ele>
        <time>2024-11-26T14:01:49Z</time>
      </trkpt>
      <trkpt lat="24.93681158878422" lon="118.56437708281862">
        <ele>11.561386640183628</ele>
        <time>2024-11-26T14:01:58Z</time>
      </trkpt>
      <trkpt lat="24.93659303842226" lon="118.56454910629063">
        <ele>11.597348016686738</ele>
        <time>2024-11-26T14:02:04Z</time>
      </trkpt>
      <trkpt lat="24.936370606576528" lon="118.56466566976017">
        <ele>10.373849723488092</ele>
        <time>2024-11-26T14:02:10Z</time>
      </trkpt>
      <trkpt lat="24.936275016667484" lon="118.56474187656264">
        <ele>10.445507682859898</ele>
        <time>2024-11-26T14:02:13Z</time>
      </trkpt>
      <trkpt lat="24.936177226936334" lon="118.56484930259231">
        <ele>11.728672820143402</ele>
        <time>2024-11-26T14:02:16Z</time>
      </trkpt>
      <trkpt lat="24.93586974894626" lon="118.5650318469652">
        <ele>11.988689616322517</ele>
        <time>2024-11-26T14:02:25Z</time>
      </trkpt>
      <trkpt lat="24.9357610565468" lon="118.56507959074109">
        <ele>11.946260727010667</ele>
        <time>2024-11-26T14:02:28Z</time>
      </trkpt>
      <trkpt lat="24.935437270777484" lon="118.56527212790839">
        <ele>11.459488090127707</ele>
        <time>2024-11-26T14:02:37Z</time>
      </trkpt>
      <trkpt lat="24.935118828564804" lon="118.56545992315651">
        <ele>10.39836083818227</ele>
        <time>2024-11-26T14:02:46Z</time>
      </trkpt>
      <trkpt lat="24.934818466304776" lon="118.56562643976436">
        <ele>10.57778805308044</ele>
        <time>2024-11-26T14:02:54Z</time>
      </trkpt>
      <trkpt lat="24.934559386265565" lon="118.56573787108299">
        <ele>11.16761505883187</ele>
        <time>2024-11-26T14:03:01Z</time>
      </trkpt>
      <trkpt lat="24.934259053241878" lon="118.56594016253452">
        <ele>12.466379615478218</ele>
        <time>2024-11-26T14:03:10Z</time>
      </trkpt>
      <trkpt lat="24.9341551852759" lon="118.56602394048622">
        <ele>14.79483630694449</ele>
        <time>2024-11-26T14:03:13Z</time>
      </trkpt>
      <trkpt lat="24.93404049604939" lon="118.56607595114832">
        <ele>13.934658353216946</ele>
        <time>2024-11-26T14:03:16Z</time>
      </trkpt>
      <trkpt lat="24.933713366531794" lon="118.56628216406429">
        <ele>11.827568855136633</ele>
        <time>2024-11-26T14:03:25Z</time>
      </trkpt>
      <trkpt lat="24.93360709892337" lon="118.56635221076542">
        <ele>11.84231398254633</ele>
        <time>2024-11-26T14:03:28Z</time>
      </trkpt>
      <trkpt lat="24.933492884533084" lon="118.56639387232997">
        <ele>11.746319584548473</ele>
        <time>2024-11-26T14:03:31Z</time>
      </trkpt>
      <trkpt lat="24.933286512962063" lon="118.5665251737594">
        <ele>11.6744373915717</ele>
        <time>2024-11-26T14:03:37Z</time>
      </trkpt>
      <trkpt lat="24.932965014656645" lon="118.56669796714631">
        <ele>11.399641938507557</ele>
        <time>2024-11-26T14:03:46Z</time>
      </trkpt>
      <trkpt lat="24.932645726978766" lon="118.5668656357688">
        <ele>11.077291442081332</ele>
        <time>2024-11-26T14:03:55Z</time>
      </trkpt>
      <trkpt lat="24.932383057046625" lon="118.56700121906066">
        <ele>9.646592263132334</ele>
        <time>2024-11-26T14:04:04Z</time>
      </trkpt>
      <trkpt lat="24.932127357917516" lon="118.56711026457162">
        <ele>10.182273304089904</ele>
        <time>2024-11-26T14:04:10Z</time>
      </trkpt>
      <trkpt lat="24.93176784922161" lon="118.56725846196854">
        <ele>10.660450723953545</ele>
        <time>2024-11-26T14:04:19Z</time>
      </trkpt>
      <trkpt lat="24.931399608062854" lon="118.56738432732033">
        <ele>11.015823405236006</ele>
        <time>2024-11-26T14:04:28Z</time>
      </trkpt>
      <trkpt lat="24.931114726204832" lon="118.56745609034265">
        <ele>10.989042843692005</ele>
        <time>2024-11-26T14:04:34Z</time>
      </trkpt>
      <trkpt lat="24.931033326955397" lon="118.5674654427822">
        <ele>10.97805487550795</ele>
        <time>2024-11-26T14:04:37Z</time>
      </trkpt>
    </trkseg>
  </trk>
</gpx>