<?xml version="1.0" encoding="UTF-8"?>
<gpx xmlns="http://www.topografix.com/GPX/1/1" xmlns:gpxtpx="http://www.garmin.com/xmlschemas/TrackPointExtension/v1" xmlns:xsi="http://www.w3.org/2001/XMLSchema-instance" xsi:schemaLocation="http://www.topografix.com/GPX/1/1 http://www.topografix.com/GPX/1/1/gpx.xsd" version="1.1" creator="gpx.py -- https://github.com/tkrajina/gpxpy">
  <trk>
    <name>gpx from keep</name>
    <type>Run</type>
    <trkseg>
      <trkpt lat="24.91069692366808" lon="118.53861157846535">
        <ele>10.038908675390001</ele>
        <time>2024-06-20T14:00:21Z</time>
      </trkpt>
      <trkpt lat="24.91045747626317" lon="118.53855807901961">
        <ele>9.879325514659286</ele>
        <time>2024-06-20T14:00:29Z</time>
      </trkpt>
      <trkpt lat="24.910119455013294" lon="118.53842306660317">
        <ele>7.681925043463707</ele>
        <time>2024-06-20T14:00:38Z</time>
      </trkpt>
      <trkpt lat="24.909924834350445" lon="118.53840888928082">
        <ele>8.288060639053583</ele>
        <time>2024-06-20T14:00:44Z</time>
      </trkpt>
      <trkpt lat="24.909832638981825" lon="118.53842480417484">
        <ele>8.156197409145534</ele>
        <time>2024-06-20T14:00:47Z</time>
      </trkpt>
      <trkpt lat="24.909546948230584" lon="118.53836499236097">
        <ele>6.610885521396995</ele>
        <time>2024-06-20T14:00:56Z</time>
      </trkpt>
      <trkpt lat="24.909242747631914" lon="118.53837642140513">
        <ele>7.376786552369595</ele>
        <time>2024-06-20T14:01:05Z</time>
      </trkpt>
      <trkpt lat="24.909197316283418" lon="118.53829535435243">
        <ele>9.83428805321455</ele>
        <time>2024-06-20T14:01:08Z</time>
      </trkpt>
      <trkpt lat="24.909288260061572" lon="118.53810402369616">
        <ele>6.587790950201452</ele>
        <time>2024-06-20T14:01:14Z</time>
      </trkpt>
      <trkpt lat="24.90931722762201" lon="118.53800621601226">
        <ele>6.769496469758451</ele>
        <time>2024-06-20T14:01:17Z</time>
      </trkpt>
      <trkpt lat="24.909327341140973" lon="118.53790302524776">
        <ele>7.493740594945848</ele>
        <time>2024-06-20T14:01:20Z</time>
      </trkpt>
      <trkpt lat="24.909427560810116" lon="118.53752576416335">
        <ele>9.314172598533332</ele>
        <time>2024-06-20T14:01:32Z</time>
      </trkpt>
      <trkpt lat="24.909510877715427" lon="118.5372025526629">
        <ele>8.656635483726859</ele>
        <time>2024-06-20T14:01:41Z</time>
      </trkpt>
      <trkpt lat="24.909531560726272" lon="118.53699040001547">
        <ele>9.163092323578894</ele>
        <time>2024-06-20T14:01:47Z</time>
      </trkpt>
      <trkpt lat="24.90942862583036" lon="118.53694606114448">
        <ele>9.437688214704394</ele>
        <time>2024-06-20T14:01:50Z</time>
      </trkpt>
      <trkpt lat="24.909435393217866" lon="118.53685040058583">
        <ele>9.029155183583498</ele>
        <time>2024-06-20T14:01:53Z</time>
      </trkpt>
      <trkpt lat="24.90952617561113" lon="118.53655442725254">
        <ele>9.204215136356652</ele>
        <time>2024-06-20T14:02:02Z</time>
      </trkpt>
      <trkpt lat="24.909579853314643" lon="118.53634059512966">
        <ele>9.424211380071938</ele>
        <time>2024-06-20T14:02:08Z</time>
      </trkpt>
      <trkpt lat="24.909590925466397" lon="118.53593667904057">
        <ele>9.526024139486253</ele>
        <time>2024-06-20T14:02:21Z</time>
      </trkpt>
      <trkpt lat="24.90965220217399" lon="118.5356157532752">
        <ele>8.795688301324844</ele>
        <time>2024-06-20T14:02:31Z</time>
      </trkpt>
      <trkpt lat="24.909694818907077" lon="118.53541924811549">
        <ele>9.690121232531965</ele>
        <time>2024-06-20T14:02:37Z</time>
      </trkpt>
      <trkpt lat="24.90970656869572" lon="118.53512225606602">
        <ele>8.853261960670352</ele>
        <time>2024-06-20T14:02:46Z</time>
      </trkpt>
      <trkpt lat="24.90973713990269" lon="118.53493409345586">
        <ele>7.922438175417483</ele>
        <time>2024-06-20T14:02:52Z</time>
      </trkpt>
      <trkpt lat="24.909780114109545" lon="118.53487359488926">
        <ele>7.284899542108178</ele>
        <time>2024-06-20T14:02:55Z</time>
      </trkpt>
      <trkpt lat="24.909848996631247" lon="118.53492727387233">
        <ele>7.428356529213488</ele>
        <time>2024-06-20T14:02:58Z</time>
      </trkpt>
      <trkpt lat="24.910160501832184" lon="118.53504195390978">
        <ele>9.38364393170923</ele>
        <time>2024-06-20T14:03:10Z</time>
      </trkpt>
      <trkpt lat="24.910236801307914" lon="118.53508432901926">
        <ele>9.357404771260917</ele>
        <time>2024-06-20T14:03:13Z</time>
      </trkpt>
      <trkpt lat="24.910407190143125" lon="118.535142703463">
        <ele>10.022313827648759</ele>
        <time>2024-06-20T14:03:19Z</time>
      </trkpt>
      <trkpt lat="24.910670641939312" lon="118.53524707170652">
        <ele>9.905133996158838</ele>
        <time>2024-06-20T14:03:28Z</time>
      </trkpt>
      <trkpt lat="24.910932702112454" lon="118.5353584291992">
        <ele>9.836851886473596</ele>
        <time>2024-06-20T14:03:37Z</time>
      </trkpt>
      <trkpt lat="24.911010890843013" lon="118.53540360105845">
        <ele>10.010993236675858</ele>
        <time>2024-06-20T14:03:40Z</time>
      </trkpt>
      <trkpt lat="24.911093954627535" lon="118.53541670673884">
        <ele>9.525225581601262</ele>
        <time>2024-06-20T14:03:43Z</time>
      </trkpt>
      <trkpt lat="24.91139619831445" lon="118.53556008025392">
        <ele>9.812698040157557</ele>
        <time>2024-06-20T14:03:55Z</time>
      </trkpt>
      <trkpt lat="24.911630117648272" lon="118.5356664933007">
        <ele>9.732969549484551</ele>
        <time>2024-06-20T14:04:04Z</time>
      </trkpt>
      <trkpt lat="24.911787154003058" lon="118.53581462835302">
        <ele>9.588561775162816</ele>
        <time>2024-06-20T14:04:10Z</time>
      </trkpt>
      <trkpt lat="24.912068748882874" lon="118.53589605706411">
        <ele>10.47958630695939</ele>
        <time>2024-06-20T14:04:19Z</time>
      </trkpt>
      <trkpt lat="24.912240172707726" lon="118.535941184463">
        <ele>10.002054875716567</ele>
        <time>2024-06-20T14:04:25Z</time>
      </trkpt>
      <trkpt lat="24.91251754181127" lon="118.53606559748874">
        <ele>9.206017283722758</ele>
        <time>2024-06-20T14:04:36Z</time>
      </trkpt>
      <trkpt lat="24.912678107124663" lon="118.5361356170096">
        <ele>9.396676945500076</ele>
        <time>2024-06-20T14:04:42Z</time>
      </trkpt>
      <trkpt lat="24.91275384172074" lon="118.53612992126811">
        <ele>9.631162700243294</ele>
        <time>2024-06-20T14:04:45Z</time>
      </trkpt>
      <trkpt lat="24.9128280821395" lon="118.53615007355333">
        <ele>9.665184416808188</ele>
        <time>2024-06-20T14:04:48Z</time>
      </trkpt>
      <trkpt lat="24.913125018397775" lon="118.53629494559483">
        <ele>12.072818597778678</ele>
        <time>2024-06-20T14:04:58Z</time>
      </trkpt>
      <trkpt lat="24.91346152216877" lon="118.53641620502438">
        <ele>12.647055657580495</ele>
        <time>2024-06-20T14:05:10Z</time>
      </trkpt>
      <trkpt lat="24.9136378562212" lon="118.5364702513692">
        <ele>12.715430486015975</ele>
        <time>2024-06-20T14:05:16Z</time>
      </trkpt>
      <trkpt lat="24.913721206068622" lon="118.53652080110278">
        <ele>13.292202193289995</ele>
        <time>2024-06-20T14:05:19Z</time>
      </trkpt>
      <trkpt lat="24.91379391506614" lon="118.53660177259891">
        <ele>12.56416953727603</ele>
        <time>2024-06-20T14:05:22Z</time>
      </trkpt>
      <trkpt lat="24.913876238288875" lon="118.53666063616069">
        <ele>12.79931029677391</ele>
        <time>2024-06-20T14:05:25Z</time>
      </trkpt>
      <trkpt lat="24.91420694045061" lon="118.53678909142631">
        <ele>12.653421468101442</ele>
        <time>2024-06-20T14:05:37Z</time>
      </trkpt>
      <trkpt lat="24.914446816270768" lon="118.53686250040104">
        <ele>12.719089868478477</ele>
        <time>2024-06-20T14:05:46Z</time>
      </trkpt>
      <trkpt lat="24.914524967264647" lon="118.53691040329954">
        <ele>12.860805694945157</ele>
        <time>2024-06-20T14:05:49Z</time>
      </trkpt>
      <trkpt lat="24.914850931259988" lon="118.53703539910013">
        <ele>14.885012499056756</ele>
        <time>2024-06-20T14:06:01Z</time>
      </trkpt>
      <trkpt lat="24.91501804828706" lon="118.53708284293877">
        <ele>15.497914114966989</ele>
        <time>2024-06-20T14:06:07Z</time>
      </trkpt>
      <trkpt lat="24.915112262123586" lon="118.53713390148056">
        <ele>15.16901996359229</ele>
        <time>2024-06-20T14:06:10Z</time>
      </trkpt>
      <trkpt lat="24.915226944533902" lon="118.53741947402995">
        <ele>14.52882981672883</ele>
        <time>2024-06-20T14:06:19Z</time>
      </trkpt>
      <trkpt lat="24.915296119814645" lon="118.53758375125972">
        <ele>15.442754171788692</ele>
        <time>2024-06-20T14:06:25Z</time>
      </trkpt>
      <trkpt lat="24.915346615630487" lon="118.53766141142168">
        <ele>14.94589732401073</ele>
        <time>2024-06-20T14:06:28Z</time>
      </trkpt>
      <trkpt lat="24.915460035184015" lon="118.53798214765499">
        <ele>14.696809000335634</ele>
        <time>2024-06-20T14:06:39Z</time>
      </trkpt>
      <trkpt lat="24.915529845718705" lon="118.53818332217519">
        <ele>15.38250004965812</ele>
        <time>2024-06-20T14:06:46Z</time>
      </trkpt>
      <trkpt lat="24.915608477820605" lon="118.53834993222306">
        <ele>16.098476835526526</ele>
        <time>2024-06-20T14:06:52Z</time>
      </trkpt>
      <trkpt lat="24.91570392644515" lon="118.53863735719975">
        <ele>15.688676733523607</ele>
        <time>2024-06-20T14:07:01Z</time>
      </trkpt>
      <trkpt lat="24.91578890484159" lon="118.53894175620943">
        <ele>15.306696377694607</ele>
        <time>2024-06-20T14:07:10Z</time>
      </trkpt>
      <trkpt lat="24.915861930857908" lon="118.53923459886661">
        <ele>15.001900087110698</ele>
        <time>2024-06-20T14:07:19Z</time>
      </trkpt>
      <trkpt lat="24.915952226106892" lon="118.53953981366601">
        <ele>13.23715318273753</ele>
        <time>2024-06-20T14:07:28Z</time>
      </trkpt>
      <trkpt lat="24.916038472754536" lon="118.53984170433394">
        <ele>12.458017638884485</ele>
        <time>2024-06-20T14:07:37Z</time>
      </trkpt>
      <trkpt lat="24.916120649913722" lon="118.54014503650482">
        <ele>12.83999611530453</ele>
        <time>2024-06-20T14:07:46Z</time>
      </trkpt>
      <trkpt lat="24.91613632041613" lon="118.54025207119275">
        <ele>12.35162923578173</ele>
        <time>2024-06-20T14:07:49Z</time>
      </trkpt>
      <trkpt lat="24.916233343123313" lon="118.54053563683935">
        <ele>11.55014868080616</ele>
        <time>2024-06-20T14:07:58Z</time>
      </trkpt>
      <trkpt lat="24.91630881781809" lon="118.5407294578116">
        <ele>12.822185668163002</ele>
        <time>2024-06-20T14:08:04Z</time>
      </trkpt>
      <trkpt lat="24.91633040448737" lon="118.54082395357676">
        <ele>12.605696963146329</ele>
        <time>2024-06-20T14:08:07Z</time>
      </trkpt>
      <trkpt lat="24.916330482299532" lon="118.54091397049835">
        <ele>12.810112605802715</ele>
        <time>2024-06-20T14:08:10Z</time>
      </trkpt>
      <trkpt lat="24.916391851665455" lon="118.54123068020748">
        <ele>13.201186303049326</ele>
        <time>2024-06-20T14:08:19Z</time>
      </trkpt>
      <trkpt lat="24.916480942922025" lon="118.54153354614714">
        <ele>12.839962719008327</ele>
        <time>2024-06-20T14:08:28Z</time>
      </trkpt>
      <trkpt lat="24.916519452798745" lon="118.54175195924975">
        <ele>12.885789236053824</ele>
        <time>2024-06-20T14:08:34Z</time>
      </trkpt>
      <trkpt lat="24.91652394976772" lon="118.54185849718581">
        <ele>12.694944596849382</ele>
        <time>2024-06-20T14:08:37Z</time>
      </trkpt>
      <trkpt lat="24.916397465065533" lon="118.54192015751558">
        <ele>11.769622235558927</ele>
        <time>2024-06-20T14:08:42Z</time>
      </trkpt>
      <trkpt lat="24.916283099790856" lon="118.5419298688207">
        <ele>12.404289608821273</ele>
        <time>2024-06-20T14:08:44Z</time>
      </trkpt>
      <trkpt lat="24.91601805799798" lon="118.54201151978745">
        <ele>12.516288615763187</ele>
        <time>2024-06-20T14:08:52Z</time>
      </trkpt>
      <trkpt lat="24.915923554583976" lon="118.54203369255913">
        <ele>12.464031875133514</ele>
        <time>2024-06-20T14:08:55Z</time>
      </trkpt>
      <trkpt lat="24.915644832089825" lon="118.54216317775942">
        <ele>12.510215881280601</ele>
        <time>2024-06-20T14:09:04Z</time>
      </trkpt>
      <trkpt lat="24.9154860545993" lon="118.54225923749767">
        <ele>12.433398787863553</ele>
        <time>2024-06-20T14:09:10Z</time>
      </trkpt>
      <trkpt lat="24.915205615381364" lon="118.54232027978293">
        <ele>12.549460297450423</ele>
        <time>2024-06-20T14:09:19Z</time>
      </trkpt>
      <trkpt lat="24.914876675344033" lon="118.54239385526542">
        <ele>10.949584404937923</ele>
        <time>2024-06-20T14:09:31Z</time>
      </trkpt>
      <trkpt lat="24.91452879502081" lon="118.54248283274062">
        <ele>10.041993198916316</ele>
        <time>2024-06-20T14:09:43Z</time>
      </trkpt>
      <trkpt lat="24.914248947249074" lon="118.5425307860872">
        <ele>9.904607753269374</ele>
        <time>2024-06-20T14:09:52Z</time>
      </trkpt>
      <trkpt lat="24.914173324545054" lon="118.54257105359224">
        <ele>10.04657453391701</ele>
        <time>2024-06-20T14:09:55Z</time>
      </trkpt>
      <trkpt lat="24.913898379484507" lon="118.54264767403359">
        <ele>9.786779697984457</ele>
        <time>2024-06-20T14:10:04Z</time>
      </trkpt>
      <trkpt lat="24.91363896192089" lon="118.54274005508505">
        <ele>8.487305796705186</ele>
        <time>2024-06-20T14:10:13Z</time>
      </trkpt>
      <trkpt lat="24.913536793215005" lon="118.54276049306938">
        <ele>8.046426373533905</ele>
        <time>2024-06-20T14:10:16Z</time>
      </trkpt>
      <trkpt lat="24.913439345652066" lon="118.54275633610457">
        <ele>8.11675161961466</ele>
        <time>2024-06-20T14:10:20Z</time>
      </trkpt>
      <trkpt lat="24.913439345652066" lon="118.54275633610457">
        <ele>8.11675161961466</ele>
        <time>2024-06-20T14:10:20Z</time>
      </trkpt>
    </trkseg>
  </trk>
</gpx>