<?xml version="1.0" encoding="UTF-8"?>
<gpx xmlns="http://www.topografix.com/GPX/1/1" xmlns:gpxtpx="http://www.garmin.com/xmlschemas/TrackPointExtension/v1" xmlns:xsi="http://www.w3.org/2001/XMLSchema-instance" xsi:schemaLocation="http://www.topografix.com/GPX/1/1 http://www.topografix.com/GPX/1/1/gpx.xsd" version="1.1" creator="gpx.py -- https://github.com/tkrajina/gpxpy">
  <trk>
    <name>gpx from keep</name>
    <type>Ride</type>
    <trkseg>
      <trkpt lat="24.909255510327373" lon="118.53803553462798">
        <ele>25.325344596741</ele>
        <time>2024-01-13T10:22:47Z</time>
      </trkpt>
      <trkpt lat="24.909297083549884" lon="118.5378520432262">
        <ele>25.87345724570343</ele>
        <time>2024-01-13T10:22:57Z</time>
      </trkpt>
      <trkpt lat="24.909307616132182" lon="118.53764950186897">
        <ele>27.269768882685863</ele>
        <time>2024-01-13T10:23:02Z</time>
      </trkpt>
      <trkpt lat="24.909392329119928" lon="118.53709801657251">
        <ele>29.676114846728044</ele>
        <time>2024-01-13T10:23:17Z</time>
      </trkpt>
      <trkpt lat="24.909406830676392" lon="118.53688443974309">
        <ele>30.99417565005135</ele>
        <time>2024-01-13T10:23:23Z</time>
      </trkpt>
      <trkpt lat="24.90950327261056" lon="118.53665080129791">
        <ele>31.20506060331517</ele>
        <time>2024-01-13T10:23:29Z</time>
      </trkpt>
      <trkpt lat="24.90957845022323" lon="118.5363038544386">
        <ele>31.268550914856835</ele>
        <time>2024-01-13T10:23:37Z</time>
      </trkpt>
      <trkpt lat="24.909570029884215" lon="118.53612436624265">
        <ele>31.306568772019983</ele>
        <time>2024-01-13T10:23:41Z</time>
      </trkpt>
      <trkpt lat="24.90960941750106" lon="118.53586665977292">
        <ele>31.064295400436077</ele>
        <time>2024-01-13T10:23:47Z</time>
      </trkpt>
      <trkpt lat="24.90960941750106" lon="118.53586665977292">
        <ele>31.064295400436077</ele>
        <time>2024-01-13T10:36:16Z</time>
      </trkpt>
      <trkpt lat="24.90960941750106" lon="118.53586665977292">
        <ele>31.064295400436077</ele>
        <time>2024-01-13T10:39:08Z</time>
      </trkpt>
    </trkseg>
  </trk>
</gpx>