<?xml version="1.0" encoding="UTF-8"?>
<gpx xmlns="http://www.topografix.com/GPX/1/1" xmlns:gpxtpx="http://www.garmin.com/xmlschemas/TrackPointExtension/v1" xmlns:xsi="http://www.w3.org/2001/XMLSchema-instance" xsi:schemaLocation="http://www.topografix.com/GPX/1/1 http://www.topografix.com/GPX/1/1/gpx.xsd" version="1.1" creator="gpx.py -- https://github.com/tkrajina/gpxpy">
  <trk>
    <name>gpx from keep</name>
    <type>Walk</type>
    <trkseg>
      <trkpt lat="24.949051209447944" lon="118.58342893498268">
        <ele>28.82806396484375</ele>
        <time>2025-11-05T09:40:50Z</time>
      </trkpt>
      <trkpt lat="24.949014195293525" lon="118.58338491174622">
        <ele>24.39996337890625</ele>
        <time>2025-11-05T09:40:56Z</time>
      </trkpt>
      <trkpt lat="24.948880224983704" lon="118.5834089351013">
        <ele>23.80804443359375</ele>
        <time>2025-11-05T09:41:11Z</time>
      </trkpt>
      <trkpt lat="24.94855832304504" lon="118.58352802678061">
        <ele>30.570068359375</ele>
        <time>2025-11-05T09:41:41Z</time>
      </trkpt>
      <trkpt lat="24.948321396717517" lon="118.58362009634257">
        <ele>27.82061767578125</ele>
        <time>2025-11-05T09:42:08Z</time>
      </trkpt>
      <trkpt lat="24.948249410424232" lon="118.58362810592712">
        <ele>26.359375</ele>
        <time>2025-11-05T09:42:14Z</time>
      </trkpt>
      <trkpt lat="24.94797449848218" lon="118.58374219019274">
        <ele>28.58251953125</ele>
        <time>2025-11-05T09:42:38Z</time>
      </trkpt>
      <trkpt lat="24.947669591066667" lon="118.58385827700548">
        <ele>33.67559814453125</ele>
        <time>2025-11-05T09:43:08Z</time>
      </trkpt>
      <trkpt lat="24.947345672416144" lon="118.583942346582">
        <ele>31.3529052734375</ele>
        <time>2025-11-05T09:43:38Z</time>
      </trkpt>
      <trkpt lat="24.94710473748979" lon="118.58401640450661">
        <ele>30.09100341796875</ele>
        <time>2025-11-05T09:44:02Z</time>
      </trkpt>
      <trkpt lat="24.94680984108355" lon="118.58416650768523">
        <ele>34.1573486328125</ele>
        <time>2025-11-05T09:44:29Z</time>
      </trkpt>
      <trkpt lat="24.94650892886232" lon="118.58427758902859">
        <ele>32.29827880859375</ele>
        <time>2025-11-05T09:44:59Z</time>
      </trkpt>
      <trkpt lat="24.94620502999047" lon="118.58442268818088">
        <ele>31.32098388671875</ele>
        <time>2025-11-05T09:45:29Z</time>
      </trkpt>
      <trkpt lat="24.946091058858322" lon="118.58445471316541">
        <ele>30.4434814453125</ele>
        <time>2025-11-05T09:45:41Z</time>
      </trkpt>
      <trkpt lat="24.94603608085192" lon="118.58449073614364">
        <ele>29.78607177734375</ele>
        <time>2025-11-05T09:45:47Z</time>
      </trkpt>
      <trkpt lat="24.945975085999706" lon="118.58448173557666">
        <ele>28.462890625</ele>
        <time>2025-11-05T09:45:53Z</time>
      </trkpt>
      <trkpt lat="24.94592408144785" lon="118.58445172311836">
        <ele>28.2008056640625</ele>
        <time>2025-11-05T09:45:59Z</time>
      </trkpt>
      <trkpt lat="24.945895065006372" lon="118.58439969730708">
        <ele>27.74566650390625</ele>
        <time>2025-11-05T09:46:05Z</time>
      </trkpt>
      <trkpt lat="24.945900037611946" lon="118.5843326609184">
        <ele>29.32940673828125</ele>
        <time>2025-11-05T09:46:11Z</time>
      </trkpt>
      <trkpt lat="24.945868988864014" lon="118.58420059139162">
        <ele>29.0107421875</ele>
        <time>2025-11-05T09:46:23Z</time>
      </trkpt>
      <trkpt lat="24.94595989511171" lon="118.5840034764983">
        <ele>24.47528076171875</ele>
        <time>2025-11-05T09:46:41Z</time>
      </trkpt>
      <trkpt lat="24.946007861653175" lon="118.58393943747598">
        <ele>23.55413818359375</ele>
        <time>2025-11-05T09:46:47Z</time>
      </trkpt>
      <trkpt lat="24.94612271197463" lon="118.58362525136711">
        <ele>24.60113525390625</ele>
        <time>2025-11-05T09:47:17Z</time>
      </trkpt>
      <trkpt lat="24.94614368213766" lon="118.58356321414979">
        <ele>27.61224365234375</ele>
        <time>2025-11-05T09:47:23Z</time>
      </trkpt>
      <trkpt lat="24.946190650174625" lon="118.58350517726547">
        <ele>30.59295654296875</ele>
        <time>2025-11-05T09:47:29Z</time>
      </trkpt>
      <trkpt lat="24.946247557763304" lon="118.58331406136688">
        <ele>22.3372802734375</ele>
        <time>2025-11-05T09:47:47Z</time>
      </trkpt>
      <trkpt lat="24.946384388738306" lon="118.58298385412108">
        <ele>29.6153564453125</ele>
        <time>2025-11-05T09:48:23Z</time>
      </trkpt>
      <trkpt lat="24.946510247645495" lon="118.58271968323291">
        <ele>29.3074951171875</ele>
        <time>2025-11-05T09:48:53Z</time>
      </trkpt>
      <trkpt lat="24.94665807940528" lon="118.58241247998424">
        <ele>31.24493408203125</ele>
        <time>2025-11-05T09:49:29Z</time>
      </trkpt>
      <trkpt lat="24.94677290059382" lon="118.5820832599057">
        <ele>29.06451416015625</ele>
        <time>2025-11-05T09:50:05Z</time>
      </trkpt>
      <trkpt lat="24.946888722426362" lon="118.58176504165554">
        <ele>27.615478515625</ele>
        <time>2025-11-05T09:50:41Z</time>
      </trkpt>
      <trkpt lat="24.946969552089474" lon="118.58146083030765">
        <ele>33.3194580078125</ele>
        <time>2025-11-05T09:51:11Z</time>
      </trkpt>
      <trkpt lat="24.946929491275668" lon="118.58133574712312">
        <ele>32.67205810546875</ele>
        <time>2025-11-05T09:51:23Z</time>
      </trkpt>
      <trkpt lat="24.946932343139952" lon="118.58106255645151">
        <ele>30.71710205078125</ele>
        <time>2025-11-05T09:51:47Z</time>
      </trkpt>
      <trkpt lat="24.94677820054824" lon="118.58076535562482">
        <ele>37.007080078125</ele>
        <time>2025-11-05T09:52:17Z</time>
      </trkpt>
      <trkpt lat="24.946723098195815" lon="118.58057021815512">
        <ele>33.52740478515625</ele>
        <time>2025-11-05T09:52:35Z</time>
      </trkpt>
      <trkpt lat="24.94671394873293" lon="118.58030802593724">
        <ele>33.78009033203125</ele>
        <time>2025-11-05T09:52:56Z</time>
      </trkpt>
      <trkpt lat="24.94665989279329" lon="118.58019894842526">
        <ele>39.248779296875</ele>
        <time>2025-11-05T09:53:17Z</time>
      </trkpt>
      <trkpt lat="24.94665975378945" lon="118.57996377121385">
        <ele>40.2918701171875</ele>
        <time>2025-11-05T09:53:36Z</time>
      </trkpt>
      <trkpt lat="24.946734525946237" lon="118.57960448991919">
        <ele>36.0281982421875</ele>
        <time>2025-11-05T09:54:06Z</time>
      </trkpt>
      <trkpt lat="24.946722397923725" lon="118.57939432622264">
        <ele>35.6168212890625</ele>
        <time>2025-11-05T09:54:24Z</time>
      </trkpt>
      <trkpt lat="24.946734348774356" lon="118.57931826530016">
        <ele>36.160400390625</ele>
        <time>2025-11-05T09:54:30Z</time>
      </trkpt>
      <trkpt lat="24.9467182743516" lon="118.5791961693341">
        <ele>34.72021484375</ele>
        <time>2025-11-05T09:54:42Z</time>
      </trkpt>
      <trkpt lat="24.946693242478855" lon="118.57914012625434">
        <ele>34.28839111328125</ele>
        <time>2025-11-05T09:54:48Z</time>
      </trkpt>
      <trkpt lat="24.946694115281282" lon="118.57894096566851">
        <ele>34.63873291015625</ele>
        <time>2025-11-05T09:55:06Z</time>
      </trkpt>
      <trkpt lat="24.946762953115872" lon="118.57870576876333">
        <ele>33.58465576171875</ele>
        <time>2025-11-05T09:55:24Z</time>
      </trkpt>
      <trkpt lat="24.94677085475444" lon="118.57855764577788">
        <ele>34.367431640625</ele>
        <time>2025-11-05T09:55:36Z</time>
      </trkpt>
      <trkpt lat="24.946693633217226" lon="118.57820935887077">
        <ele>35.21844482421875</ele>
        <time>2025-11-05T09:56:06Z</time>
      </trkpt>
      <trkpt lat="24.946676541243974" lon="118.57807024161252">
        <ele>36.794921875</ele>
        <time>2025-11-05T09:56:18Z</time>
      </trkpt>
      <trkpt lat="24.94657736949257" lon="118.57780001562533">
        <ele>41.2078857421875</ele>
        <time>2025-11-05T09:56:42Z</time>
      </trkpt>
      <trkpt lat="24.94657827239211" lon="118.57766089425276">
        <ele>41.4879150390625</ele>
        <time>2025-11-05T09:56:51Z</time>
      </trkpt>
      <trkpt lat="24.946555222988927" lon="118.57758582998848">
        <ele>41.041259765625</ele>
        <time>2025-11-05T09:56:57Z</time>
      </trkpt>
      <trkpt lat="24.946515187772103" lon="118.57752778163378">
        <ele>36.975830078125</ele>
        <time>2025-11-05T09:57:03Z</time>
      </trkpt>
      <trkpt lat="24.946405176545216" lon="118.57748975566108">
        <ele>34.78802490234375</ele>
        <time>2025-11-05T09:57:15Z</time>
      </trkpt>
      <trkpt lat="24.946445192082294" lon="118.57751977941417">
        <ele>33.08074951171875</ele>
        <time>2025-11-05T09:57:27Z</time>
      </trkpt>
      <trkpt lat="24.946425160230625" lon="118.57747073745611">
        <ele>32.22705078125</ele>
        <time>2025-11-05T09:57:33Z</time>
      </trkpt>
      <trkpt lat="24.9463631591228" lon="118.57745672934182">
        <ele>31.37451171875</ele>
        <time>2025-11-05T09:57:39Z</time>
      </trkpt>
      <trkpt lat="24.94642517511479" lon="118.57749175604626">
        <ele>164.90960693359375</ele>
        <time>2025-11-05T09:57:45Z</time>
      </trkpt>
      <trkpt lat="24.9463951517276" lon="118.57745272358052">
        <ele>129.9229736328125</ele>
        <time>2025-11-05T09:57:54Z</time>
      </trkpt>
      <trkpt lat="24.946345174455605" lon="118.57747474653621">
        <ele>140.021484375</ele>
        <time>2025-11-05T09:58:00Z</time>
      </trkpt>
      <trkpt lat="24.946327933912567" lon="118.57713544460611">
        <ele>190.51593017578125</ele>
        <time>2025-11-05T09:58:30Z</time>
      </trkpt>
      <trkpt lat="24.946348827611565" lon="118.57699331446548">
        <ele>210.70013427734375</ele>
        <time>2025-11-05T09:58:42Z</time>
      </trkpt>
      <trkpt lat="24.946306788930993" lon="118.57693226177958">
        <ele>220.7900390625</ele>
        <time>2025-11-05T09:58:48Z</time>
      </trkpt>
      <trkpt lat="24.946242792172047" lon="118.57692425890487">
        <ele>0.0</ele>
        <time>2025-11-05T09:59:36Z</time>
      </trkpt>
      <trkpt lat="24.946145671671772" lon="118.5767420985634">
        <ele>0.0</ele>
        <time>2025-11-05T09:59:45Z</time>
      </trkpt>
    </trkseg>
  </trk>
</gpx>