<?xml version="1.0" encoding="UTF-8"?>
<gpx xmlns="http://www.topografix.com/GPX/1/1" xmlns:gpxtpx="http://www.garmin.com/xmlschemas/TrackPointExtension/v1" xmlns:xsi="http://www.w3.org/2001/XMLSchema-instance" xsi:schemaLocation="http://www.topografix.com/GPX/1/1 http://www.topografix.com/GPX/1/1/gpx.xsd" version="1.1" creator="gpx.py -- https://github.com/tkrajina/gpxpy">
  <trk>
    <name>gpx from keep</name>
    <type>Ride</type>
    <trkseg>
      <trkpt lat="24.9091714483759" lon="118.53819681772289">
        <ele>7.67011975735452</ele>
        <time>2024-12-05T00:30:00Z</time>
      </trkpt>
      <trkpt lat="24.909156949669235" lon="118.53840340568101">
        <ele>7.416557013057172</ele>
        <time>2024-12-05T00:30:16Z</time>
      </trkpt>
      <trkpt lat="24.909101097767138" lon="118.5385714906317">
        <ele>7.776581944897771</ele>
        <time>2024-12-05T00:30:22Z</time>
      </trkpt>
      <trkpt lat="24.909051131336323" lon="118.53865285383">
        <ele>7.95162021741271</ele>
        <time>2024-12-05T00:30:25Z</time>
      </trkpt>
      <trkpt lat="24.909039679851347" lon="118.5387523021973">
        <ele>7.978993326425552</ele>
        <time>2024-12-05T00:30:28Z</time>
      </trkpt>
      <trkpt lat="24.909005123147253" lon="118.53886034072067">
        <ele>8.149795534089208</ele>
        <time>2024-12-05T00:30:31Z</time>
      </trkpt>
      <trkpt lat="24.9089761010315" lon="118.53906018142305">
        <ele>8.26363177690655</ele>
        <time>2024-12-05T00:30:35Z</time>
      </trkpt>
      <trkpt lat="24.90897973919969" lon="118.5392511609462">
        <ele>7.542127378284931</ele>
        <time>2024-12-05T00:30:40Z</time>
      </trkpt>
      <trkpt lat="24.90894753458774" lon="118.53933165459226">
        <ele>8.279618808999658</ele>
        <time>2024-12-05T00:30:42Z</time>
      </trkpt>
      <trkpt lat="24.908965965604605" lon="118.53950999608924">
        <ele>8.039361564442515</ele>
        <time>2024-12-05T00:30:49Z</time>
      </trkpt>
      <trkpt lat="24.90895018988032" lon="118.53959563635003">
        <ele>8.570329775102437</ele>
        <time>2024-12-05T00:30:52Z</time>
      </trkpt>
      <trkpt lat="24.908971679522683" lon="118.5398853478658">
        <ele>8.53222943469882</ele>
        <time>2024-12-05T00:31:07Z</time>
      </trkpt>
      <trkpt lat="24.908921847912083" lon="118.54000336384168">
        <ele>7.825259810313582</ele>
        <time>2024-12-05T00:31:11Z</time>
      </trkpt>
      <trkpt lat="24.90891955172759" lon="118.54023861347451">
        <ele>7.967517916113138</ele>
        <time>2024-12-05T00:31:15Z</time>
      </trkpt>
      <trkpt lat="24.90887851935324" lon="118.54041797870491">
        <ele>8.018604947254062</ele>
        <time>2024-12-05T00:31:19Z</time>
      </trkpt>
      <trkpt lat="24.908851862742907" lon="118.54064572469116">
        <ele>7.7120012026280165</ele>
        <time>2024-12-05T00:31:24Z</time>
      </trkpt>
      <trkpt lat="24.90879436876196" lon="118.54072779890625">
        <ele>7.590530928224325</ele>
        <time>2024-12-05T00:31:27Z</time>
      </trkpt>
      <trkpt lat="24.90881947318509" lon="118.54081745121744">
        <ele>7.130417205393314</ele>
        <time>2024-12-05T00:31:28Z</time>
      </trkpt>
      <trkpt lat="24.908951921340886" lon="118.54099625051487">
        <ele>8.095999052748084</ele>
        <time>2024-12-05T00:31:31Z</time>
      </trkpt>
      <trkpt lat="24.908957173140717" lon="118.54108344989018">
        <ele>8.340053722262383</ele>
        <time>2024-12-05T00:31:34Z</time>
      </trkpt>
      <trkpt lat="24.908877726699455" lon="118.54126465100651">
        <ele>8.770483885891736</ele>
        <time>2024-12-05T00:31:39Z</time>
      </trkpt>
      <trkpt lat="24.908843886477403" lon="118.5414574818654">
        <ele>7.960074406117201</ele>
        <time>2024-12-05T00:31:44Z</time>
      </trkpt>
      <trkpt lat="24.908727362161674" lon="118.54168606938013">
        <ele>8.999027037993073</ele>
        <time>2024-12-05T00:31:50Z</time>
      </trkpt>
      <trkpt lat="24.908594780338813" lon="118.54223614954947">
        <ele>7.9538781102746725</ele>
        <time>2024-12-05T00:32:03Z</time>
      </trkpt>
      <trkpt lat="24.90861890457979" lon="118.5424177975482">
        <ele>7.322206859476864</ele>
        <time>2024-12-05T00:32:08Z</time>
      </trkpt>
      <trkpt lat="24.908657780589216" lon="118.54252996839796">
        <ele>7.050394109450281</ele>
        <time>2024-12-05T00:32:11Z</time>
      </trkpt>
      <trkpt lat="24.90880326679911" lon="118.54277908742895">
        <ele>7.2587551064789295</ele>
        <time>2024-12-05T00:32:19Z</time>
      </trkpt>
      <trkpt lat="24.908785714411426" lon="118.54286659027355">
        <ele>7.7190584456548095</ele>
        <time>2024-12-05T00:32:26Z</time>
      </trkpt>
      <trkpt lat="24.90883216401112" lon="118.54293377407427">
        <ele>8.31051898933947</ele>
        <time>2024-12-05T00:32:29Z</time>
      </trkpt>
      <trkpt lat="24.908898003129416" lon="118.54296940681712">
        <ele>8.82986956089735</ele>
        <time>2024-12-05T00:32:32Z</time>
      </trkpt>
      <trkpt lat="24.908974253943086" lon="118.54298689366595">
        <ele>8.524004149250686</ele>
        <time>2024-12-05T00:32:35Z</time>
      </trkpt>
      <trkpt lat="24.909054183150314" lon="118.54304011275532">
        <ele>9.154742209240794</ele>
        <time>2024-12-05T00:32:39Z</time>
      </trkpt>
      <trkpt lat="24.909116548342872" lon="118.54312619117353">
        <ele>7.79043485596776</ele>
        <time>2024-12-05T00:32:43Z</time>
      </trkpt>
      <trkpt lat="24.909057274127655" lon="118.54319343963955">
        <ele>7.5834516398608685</ele>
        <time>2024-12-05T00:32:45Z</time>
      </trkpt>
      <trkpt lat="24.908573605250062" lon="118.5433290232638">
        <ele>8.313211970962584</ele>
        <time>2024-12-05T00:32:55Z</time>
      </trkpt>
      <trkpt lat="24.908180963665423" lon="118.54337213401064">
        <ele>8.673809279687703</ele>
        <time>2024-12-05T00:33:03Z</time>
      </trkpt>
      <trkpt lat="24.908041781492177" lon="118.54342458165493">
        <ele>9.283121706917882</ele>
        <time>2024-12-05T00:33:09Z</time>
      </trkpt>
      <trkpt lat="24.907576072862167" lon="118.54347504589926">
        <ele>8.994818295352161</ele>
        <time>2024-12-05T00:33:21Z</time>
      </trkpt>
      <trkpt lat="24.907497004731777" lon="118.54348747818568">
        <ele>9.059106240049005</ele>
        <time>2024-12-05T00:33:24Z</time>
      </trkpt>
      <trkpt lat="24.907450464615422" lon="118.54356271608204">
        <ele>8.703106300905347</ele>
        <time>2024-12-05T00:33:31Z</time>
      </trkpt>
      <trkpt lat="24.90748645642857" lon="118.54394720758039">
        <ele>7.575502384454012</ele>
        <time>2024-12-05T00:34:11Z</time>
      </trkpt>
      <trkpt lat="24.907484925648767" lon="118.54411176555524">
        <ele>8.174308096058667</ele>
        <time>2024-12-05T00:34:15Z</time>
      </trkpt>
      <trkpt lat="24.907519374569482" lon="118.54429504783234">
        <ele>7.960695390589535</ele>
        <time>2024-12-05T00:34:21Z</time>
      </trkpt>
      <trkpt lat="24.90769863751831" lon="118.54473742911821">
        <ele>7.803082510828972</ele>
        <time>2024-12-05T00:34:32Z</time>
      </trkpt>
      <trkpt lat="24.90787207523658" lon="118.5451827001316">
        <ele>8.506765256635845</ele>
        <time>2024-12-05T00:34:42Z</time>
      </trkpt>
      <trkpt lat="24.908037736289504" lon="118.54566241538774">
        <ele>7.463892249390483</ele>
        <time>2024-12-05T00:34:51Z</time>
      </trkpt>
      <trkpt lat="24.908225245916142" lon="118.54615983784628">
        <ele>8.025854079052806</ele>
        <time>2024-12-05T00:35:01Z</time>
      </trkpt>
      <trkpt lat="24.908431029049478" lon="118.54666244950532">
        <ele>8.215406745672226</ele>
        <time>2024-12-05T00:35:13Z</time>
      </trkpt>
      <trkpt lat="24.908638951960857" lon="118.54717337327112">
        <ele>7.717560526914895</ele>
        <time>2024-12-05T00:35:26Z</time>
      </trkpt>
      <trkpt lat="24.90880537655113" lon="118.54765413195038">
        <ele>8.509337452240288</ele>
        <time>2024-12-05T00:35:40Z</time>
      </trkpt>
      <trkpt lat="24.908894491742767" lon="118.54781943569377">
        <ele>7.3139160526916385</ele>
        <time>2024-12-05T00:35:45Z</time>
      </trkpt>
      <trkpt lat="24.908970906392387" lon="118.54785825893244">
        <ele>6.984005896374583</ele>
        <time>2024-12-05T00:35:48Z</time>
      </trkpt>
      <trkpt lat="24.909016818171807" lon="118.5479567525641">
        <ele>8.136016656644642</ele>
        <time>2024-12-05T00:35:50Z</time>
      </trkpt>
      <trkpt lat="24.90901843292454" lon="118.54815276202099">
        <ele>7.584484498947859</ele>
        <time>2024-12-05T00:35:54Z</time>
      </trkpt>
      <trkpt lat="24.909213322382122" lon="118.54862966087842">
        <ele>7.887234454974532</ele>
        <time>2024-12-05T00:36:05Z</time>
      </trkpt>
      <trkpt lat="24.909410244244064" lon="118.54908605800902">
        <ele>7.8395696841180325</ele>
        <time>2024-12-05T00:36:15Z</time>
      </trkpt>
      <trkpt lat="24.909612459001714" lon="118.54955467844961">
        <ele>7.1364910919219255</ele>
        <time>2024-12-05T00:36:25Z</time>
      </trkpt>
      <trkpt lat="24.90965153869463" lon="118.54963781229459">
        <ele>7.285941223613918</ele>
        <time>2024-12-05T00:36:27Z</time>
      </trkpt>
      <trkpt lat="24.909680785216" lon="118.54982852310056">
        <ele>6.778210198506713</ele>
        <time>2024-12-05T00:36:31Z</time>
      </trkpt>
      <trkpt lat="24.90982323776837" lon="118.55006836673897">
        <ele>7.81552829220891</ele>
        <time>2024-12-05T00:36:37Z</time>
      </trkpt>
      <trkpt lat="24.909849554147748" lon="118.55014492534887">
        <ele>7.736329177394509</ele>
        <time>2024-12-05T00:36:39Z</time>
      </trkpt>
      <trkpt lat="24.909941992047205" lon="118.55027819989654">
        <ele>8.347923993133008</ele>
        <time>2024-12-05T00:36:46Z</time>
      </trkpt>
      <trkpt lat="24.910037837004605" lon="118.55053806021488">
        <ele>7.739708198234439</ele>
        <time>2024-12-05T00:36:52Z</time>
      </trkpt>
      <trkpt lat="24.91009545930751" lon="118.55063810698866">
        <ele>7.501930337399244</ele>
        <time>2024-12-05T00:36:55Z</time>
      </trkpt>
      <trkpt lat="24.910110307905825" lon="118.55072966143761">
        <ele>7.520773954689503</ele>
        <time>2024-12-05T00:36:57Z</time>
      </trkpt>
      <trkpt lat="24.91016522182028" lon="118.55081296386388">
        <ele>7.285323827527463</ele>
        <time>2024-12-05T00:37:00Z</time>
      </trkpt>
      <trkpt lat="24.910174340839124" lon="118.55092291170057">
        <ele>7.766860536299646</ele>
        <time>2024-12-05T00:37:03Z</time>
      </trkpt>
      <trkpt lat="24.91020736959462" lon="118.55101119549984">
        <ele>8.224620102904737</ele>
        <time>2024-12-05T00:37:05Z</time>
      </trkpt>
      <trkpt lat="24.910252866016236" lon="118.55107689195398">
        <ele>8.356413169763982</ele>
        <time>2024-12-05T00:37:07Z</time>
      </trkpt>
      <trkpt lat="24.91033556530281" lon="118.55131191689875">
        <ele>7.933387748897076</ele>
        <time>2024-12-05T00:37:13Z</time>
      </trkpt>
      <trkpt lat="24.91039094376772" lon="118.55137397209792">
        <ele>8.201928596943617</ele>
        <time>2024-12-05T00:37:15Z</time>
      </trkpt>
      <trkpt lat="24.9105595665845" lon="118.55172310509742">
        <ele>7.8349641459062696</ele>
        <time>2024-12-05T00:37:24Z</time>
      </trkpt>
      <trkpt lat="24.910596853819236" lon="118.55182991261862">
        <ele>7.8945411229506135</ele>
        <time>2024-12-05T00:37:27Z</time>
      </trkpt>
      <trkpt lat="24.910728768573197" lon="118.5520248066462">
        <ele>7.593226586468518</ele>
        <time>2024-12-05T00:37:33Z</time>
      </trkpt>
      <trkpt lat="24.91075213717449" lon="118.55210614020997">
        <ele>7.69626154191792</ele>
        <time>2024-12-05T00:37:35Z</time>
      </trkpt>
      <trkpt lat="24.910885887185025" lon="118.55239653094937">
        <ele>8.019749848172069</ele>
        <time>2024-12-05T00:37:44Z</time>
      </trkpt>
      <trkpt lat="24.91094456479772" lon="118.55246205783415">
        <ele>8.071919511072338</ele>
        <time>2024-12-05T00:37:47Z</time>
      </trkpt>
      <trkpt lat="24.910995908258922" lon="118.55267670981783">
        <ele>8.47327318135649</ele>
        <time>2024-12-05T00:37:52Z</time>
      </trkpt>
      <trkpt lat="24.911086266951283" lon="118.55283119711126">
        <ele>7.702353254891932</ele>
        <time>2024-12-05T00:37:58Z</time>
      </trkpt>
      <trkpt lat="24.91110648186291" lon="118.55292598443387">
        <ele>8.724017872475088</ele>
        <time>2024-12-05T00:38:01Z</time>
      </trkpt>
      <trkpt lat="24.911073534737547" lon="118.55303051482845">
        <ele>8.028572151437402</ele>
        <time>2024-12-05T00:38:03Z</time>
      </trkpt>
      <trkpt lat="24.911063646640997" lon="118.55313133658616">
        <ele>7.932684112340212</ele>
        <time>2024-12-05T00:38:05Z</time>
      </trkpt>
      <trkpt lat="24.911191894125405" lon="118.5534049506997">
        <ele>7.074144872836769</ele>
        <time>2024-12-05T00:38:11Z</time>
      </trkpt>
      <trkpt lat="24.9113873460752" lon="118.55393716503087">
        <ele>8.238329974934459</ele>
        <time>2024-12-05T00:38:22Z</time>
      </trkpt>
      <trkpt lat="24.91157155632178" lon="118.55438518813918">
        <ele>8.621361358091235</ele>
        <time>2024-12-05T00:38:32Z</time>
      </trkpt>
      <trkpt lat="24.91167572416957" lon="118.55451150520365">
        <ele>8.484455924481153</ele>
        <time>2024-12-05T00:38:37Z</time>
      </trkpt>
      <trkpt lat="24.911777389726407" lon="118.55475881481789">
        <ele>8.041099832393229</ele>
        <time>2024-12-05T00:38:47Z</time>
      </trkpt>
      <trkpt lat="24.911778236209262" lon="118.55492987514427">
        <ele>7.980431383475661</ele>
        <time>2024-12-05T00:38:51Z</time>
      </trkpt>
      <trkpt lat="24.91181987842928" lon="118.55509786995555">
        <ele>8.12991795130074</ele>
        <time>2024-12-05T00:38:55Z</time>
      </trkpt>
      <trkpt lat="24.911855830215078" lon="118.5551803805324">
        <ele>8.512223186902702</ele>
        <time>2024-12-05T00:38:57Z</time>
      </trkpt>
      <trkpt lat="24.91199489708267" lon="118.55541541822494">
        <ele>9.037956311367452</ele>
        <time>2024-12-05T00:39:04Z</time>
      </trkpt>
      <trkpt lat="24.912151215251036" lon="118.55587861686266">
        <ele>7.847937031649053</ele>
        <time>2024-12-05T00:39:14Z</time>
      </trkpt>
      <trkpt lat="24.912251073445116" lon="118.55611468178303">
        <ele>5.996451699174941</ele>
        <time>2024-12-05T00:39:21Z</time>
      </trkpt>
      <trkpt lat="24.912299515828714" lon="118.55617971676786">
        <ele>6.261817624792457</ele>
        <time>2024-12-05T00:39:24Z</time>
      </trkpt>
      <trkpt lat="24.91245650168453" lon="118.55652608950471">
        <ele>6.153131013736129</ele>
        <time>2024-12-05T00:39:32Z</time>
      </trkpt>
      <trkpt lat="24.91251287110318" lon="118.55668744869904">
        <ele>7.071644236333668</ele>
        <time>2024-12-05T00:39:36Z</time>
      </trkpt>
      <trkpt lat="24.91259000331264" lon="118.55683610338932">
        <ele>7.9980282029137015</ele>
        <time>2024-12-05T00:39:40Z</time>
      </trkpt>
      <trkpt lat="24.912773692032758" lon="118.55733842991278">
        <ele>6.966525443829596</ele>
        <time>2024-12-05T00:39:50Z</time>
      </trkpt>
      <trkpt lat="24.912919379813626" lon="118.55757701450247">
        <ele>8.235691603273153</ele>
        <time>2024-12-05T00:39:56Z</time>
      </trkpt>
      <trkpt lat="24.91295157857131" lon="118.55768053370899">
        <ele>8.433120911940932</ele>
        <time>2024-12-05T00:39:58Z</time>
      </trkpt>
      <trkpt lat="24.91305697251157" lon="118.55783372398719">
        <ele>9.534539490938187</ele>
        <time>2024-12-05T00:40:03Z</time>
      </trkpt>
      <trkpt lat="24.91309724555245" lon="118.5580388292342">
        <ele>9.9238820374012</ele>
        <time>2024-12-05T00:40:13Z</time>
      </trkpt>
      <trkpt lat="24.91309318709441" lon="118.55812162340517">
        <ele>10.541842543520033</ele>
        <time>2024-12-05T00:40:25Z</time>
      </trkpt>
      <trkpt lat="24.913158061780685" lon="118.55829013307498">
        <ele>11.405392536893487</ele>
        <time>2024-12-05T00:40:45Z</time>
      </trkpt>
      <trkpt lat="24.913208350710878" lon="118.55835436097462">
        <ele>12.181064767763019</ele>
        <time>2024-12-05T00:40:50Z</time>
      </trkpt>
      <trkpt lat="24.91327201092516" lon="118.55839973449855">
        <ele>12.258747845888138</ele>
        <time>2024-12-05T00:40:56Z</time>
      </trkpt>
      <trkpt lat="24.913317387377546" lon="118.55847725510915">
        <ele>12.087878501974046</ele>
        <time>2024-12-05T00:40:59Z</time>
      </trkpt>
      <trkpt lat="24.913354901701464" lon="118.55863925465493">
        <ele>12.399279446341097</ele>
        <time>2024-12-05T00:41:03Z</time>
      </trkpt>
      <trkpt lat="24.91350911530448" lon="118.55894868125276">
        <ele>13.470688198693097</ele>
        <time>2024-12-05T00:41:12Z</time>
      </trkpt>
      <trkpt lat="24.91354187604605" lon="118.55905075877699">
        <ele>13.13896375708282</ele>
        <time>2024-12-05T00:41:15Z</time>
      </trkpt>
      <trkpt lat="24.913793584520427" lon="118.5593380282823">
        <ele>13.7201047539711</ele>
        <time>2024-12-05T00:41:23Z</time>
      </trkpt>
      <trkpt lat="24.91397589023535" lon="118.55963444579227">
        <ele>14.283380588516593</ele>
        <time>2024-12-05T00:41:30Z</time>
      </trkpt>
      <trkpt lat="24.914121101924337" lon="118.55990108429701">
        <ele>13.464223413728178</ele>
        <time>2024-12-05T00:41:37Z</time>
      </trkpt>
      <trkpt lat="24.91431220768571" lon="118.56011339935486">
        <ele>12.588578207418323</ele>
        <time>2024-12-05T00:41:44Z</time>
      </trkpt>
      <trkpt lat="24.914481710370957" lon="118.56035588800839">
        <ele>12.89080074802041</ele>
        <time>2024-12-05T00:41:53Z</time>
      </trkpt>
      <trkpt lat="24.91452115822797" lon="118.56045690557049">
        <ele>12.79147501848638</ele>
        <time>2024-12-05T00:41:56Z</time>
      </trkpt>
      <trkpt lat="24.914660023716298" lon="118.56061637896143">
        <ele>13.231677652336657</ele>
        <time>2024-12-05T00:42:04Z</time>
      </trkpt>
      <trkpt lat="24.914722932002004" lon="118.56066305203868">
        <ele>12.592036947607994</ele>
        <time>2024-12-05T00:42:06Z</time>
      </trkpt>
      <trkpt lat="24.91481826626223" lon="118.56081246763958">
        <ele>11.89404514990747</ele>
        <time>2024-12-05T00:42:11Z</time>
      </trkpt>
      <trkpt lat="24.91485018318041" lon="118.56089396262355">
        <ele>11.370358670130372</ele>
        <time>2024-12-05T00:42:13Z</time>
      </trkpt>
      <trkpt lat="24.914918103095328" lon="118.56094296941227">
        <ele>9.435510420240462</ele>
        <time>2024-12-05T00:42:15Z</time>
      </trkpt>
      <trkpt lat="24.91515380988754" lon="118.56133998079765">
        <ele>4.009779536165297</ele>
        <time>2024-12-05T00:42:25Z</time>
      </trkpt>
      <trkpt lat="24.915456977858224" lon="118.56177652752447">
        <ele>4.3478183737024665</ele>
        <time>2024-12-05T00:42:37Z</time>
      </trkpt>
      <trkpt lat="24.91573412186019" lon="118.56218789194432">
        <ele>3.246503292582929</ele>
        <time>2024-12-05T00:42:47Z</time>
      </trkpt>
      <trkpt lat="24.916037524762633" lon="118.56261024116874">
        <ele>3.1033788211643696</ele>
        <time>2024-12-05T00:42:57Z</time>
      </trkpt>
      <trkpt lat="24.916311518972883" lon="118.56302055888523">
        <ele>8.343721089884639</ele>
        <time>2024-12-05T00:43:07Z</time>
      </trkpt>
      <trkpt lat="24.916614898384378" lon="118.56343242918418">
        <ele>10.696502855047584</ele>
        <time>2024-12-05T00:43:17Z</time>
      </trkpt>
      <trkpt lat="24.916797650890498" lon="118.56367602442874">
        <ele>9.92861607298255</ele>
        <time>2024-12-05T00:43:24Z</time>
      </trkpt>
      <trkpt lat="24.916947274904636" lon="118.5637960980234">
        <ele>10.549486457370222</ele>
        <time>2024-12-05T00:43:29Z</time>
      </trkpt>
      <trkpt lat="24.917079526152595" lon="118.56395188253295">
        <ele>11.185678695328534</ele>
        <time>2024-12-05T00:43:33Z</time>
      </trkpt>
      <trkpt lat="24.917135862107706" lon="118.56404723238309">
        <ele>11.105726952664554</ele>
        <time>2024-12-05T00:43:35Z</time>
      </trkpt>
      <trkpt lat="24.917171617451157" lon="118.56415338059016">
        <ele>10.108872971497476</ele>
        <time>2024-12-05T00:43:37Z</time>
      </trkpt>
      <trkpt lat="24.91736516894569" lon="118.56447273392419">
        <ele>10.967978214845061</ele>
        <time>2024-12-05T00:43:45Z</time>
      </trkpt>
      <trkpt lat="24.91746011507078" lon="118.56466553598274">
        <ele>9.90673933364451</ele>
        <time>2024-12-05T00:43:49Z</time>
      </trkpt>
      <trkpt lat="24.917562346217657" lon="118.56491576612677">
        <ele>10.301364050246775</ele>
        <time>2024-12-05T00:43:54Z</time>
      </trkpt>
      <trkpt lat="24.917625525210283" lon="118.56524983168306">
        <ele>9.91484751086682</ele>
        <time>2024-12-05T00:44:00Z</time>
      </trkpt>
      <trkpt lat="24.917631541116783" lon="118.56548069616404">
        <ele>10.291958422400057</ele>
        <time>2024-12-05T00:44:04Z</time>
      </trkpt>
      <trkpt lat="24.917678456166172" lon="118.56590699360912">
        <ele>9.560441214591265</ele>
        <time>2024-12-05T00:44:12Z</time>
      </trkpt>
      <trkpt lat="24.917642996903602" lon="118.56645729177579">
        <ele>9.712840309366584</ele>
        <time>2024-12-05T00:44:22Z</time>
      </trkpt>
      <trkpt lat="24.917621954436907" lon="118.56699532070405">
        <ele>8.793656815774739</ele>
        <time>2024-12-05T00:44:32Z</time>
      </trkpt>
      <trkpt lat="24.917607542654125" lon="118.56748302205719">
        <ele>9.167078073136508</ele>
        <time>2024-12-05T00:44:42Z</time>
      </trkpt>
      <trkpt lat="24.917604491269252" lon="118.56799196419918">
        <ele>9.389092490077019</ele>
        <time>2024-12-05T00:44:53Z</time>
      </trkpt>
      <trkpt lat="24.917575130646295" lon="118.56846127026813">
        <ele>9.695453686639667</ele>
        <time>2024-12-05T00:45:08Z</time>
      </trkpt>
      <trkpt lat="24.917627213958784" lon="118.56853970996474">
        <ele>10.161971487104893</ele>
        <time>2024-12-05T00:45:13Z</time>
      </trkpt>
      <trkpt lat="24.91763460594617" lon="118.56875908428681">
        <ele>9.849612128920853</ele>
        <time>2024-12-05T00:45:16Z</time>
      </trkpt>
      <trkpt lat="24.917656180779904" lon="118.56884988697651">
        <ele>9.507423609495163</ele>
        <time>2024-12-05T00:45:18Z</time>
      </trkpt>
      <trkpt lat="24.917718895753055" lon="118.56893151640506">
        <ele>10.250086224637926</ele>
        <time>2024-12-05T00:45:21Z</time>
      </trkpt>
      <trkpt lat="24.91778868685399" lon="118.56897695450492">
        <ele>11.060947785153985</ele>
        <time>2024-12-05T00:45:24Z</time>
      </trkpt>
      <trkpt lat="24.91784886957099" lon="118.5691382686944">
        <ele>10.358243652619421</ele>
        <time>2024-12-05T00:45:47Z</time>
      </trkpt>
      <trkpt lat="24.917858325188686" lon="118.56922355218168">
        <ele>10.100286579690874</ele>
        <time>2024-12-05T00:45:49Z</time>
      </trkpt>
      <trkpt lat="24.917899924347306" lon="118.56932078721069">
        <ele>10.990158770233393</ele>
        <time>2024-12-05T00:45:52Z</time>
      </trkpt>
      <trkpt lat="24.917970879972376" lon="118.56939672811667">
        <ele>10.001260013319552</ele>
        <time>2024-12-05T00:45:55Z</time>
      </trkpt>
      <trkpt lat="24.91806853283893" lon="118.56944028116337">
        <ele>10.066444580443203</ele>
        <time>2024-12-05T00:45:58Z</time>
      </trkpt>
      <trkpt lat="24.91822748512758" lon="118.56933648122005">
        <ele>10.187946720980108</ele>
        <time>2024-12-05T00:46:02Z</time>
      </trkpt>
      <trkpt lat="24.91869114625694" lon="118.5692060870671">
        <ele>10.293191484175622</ele>
        <time>2024-12-05T00:46:12Z</time>
      </trkpt>
      <trkpt lat="24.918804903504192" lon="118.56918526248633">
        <ele>9.688052992336452</ele>
        <time>2024-12-05T00:46:14Z</time>
      </trkpt>
      <trkpt lat="24.919242001852563" lon="118.5690242889259">
        <ele>9.692626076750457</ele>
        <time>2024-12-05T00:46:22Z</time>
      </trkpt>
      <trkpt lat="24.91967681617749" lon="118.56887930383027">
        <ele>9.081351129338145</ele>
        <time>2024-12-05T00:46:30Z</time>
      </trkpt>
      <trkpt lat="24.920140317000353" lon="118.56876045651703">
        <ele>8.800290153361857</ele>
        <time>2024-12-05T00:46:38Z</time>
      </trkpt>
      <trkpt lat="24.920373899383037" lon="118.56871389118224">
        <ele>8.797279365360737</ele>
        <time>2024-12-05T00:46:42Z</time>
      </trkpt>
      <trkpt lat="24.92060516075158" lon="118.56873225379061">
        <ele>9.12138749845326</ele>
        <time>2024-12-05T00:46:46Z</time>
      </trkpt>
      <trkpt lat="24.92098165653295" lon="118.56862583116445">
        <ele>8.480199974030256</ele>
        <time>2024-12-05T00:46:53Z</time>
      </trkpt>
      <trkpt lat="24.92144069271702" lon="118.56858655640107">
        <ele>10.445970362983644</ele>
        <time>2024-12-05T00:47:01Z</time>
      </trkpt>
      <trkpt lat="24.921891198219203" lon="118.5685608502124">
        <ele>9.956361702643335</ele>
        <time>2024-12-05T00:47:09Z</time>
      </trkpt>
      <trkpt lat="24.92233189091287" lon="118.56851791691022">
        <ele>9.231138432398438</ele>
        <time>2024-12-05T00:47:17Z</time>
      </trkpt>
      <trkpt lat="24.92244584499266" lon="118.56847962878258">
        <ele>9.168188944458961</ele>
        <time>2024-12-05T00:47:19Z</time>
      </trkpt>
      <trkpt lat="24.92288536100609" lon="118.56847018359433">
        <ele>9.61731249280274</ele>
        <time>2024-12-05T00:47:27Z</time>
      </trkpt>
      <trkpt lat="24.92333693761858" lon="118.56845022003658">
        <ele>10.576817847788334</ele>
        <time>2024-12-05T00:47:35Z</time>
      </trkpt>
      <trkpt lat="24.923870743985123" lon="118.56837217069638">
        <ele>10.301394029520452</ele>
        <time>2024-12-05T00:47:45Z</time>
      </trkpt>
      <trkpt lat="24.924305522178802" lon="118.56836536657305">
        <ele>9.492219981737435</ele>
        <time>2024-12-05T00:47:53Z</time>
      </trkpt>
      <trkpt lat="24.924838224649204" lon="118.56830400865717">
        <ele>10.663432240486145</ele>
        <time>2024-12-05T00:48:03Z</time>
      </trkpt>
      <trkpt lat="24.92527789158928" lon="118.56827664533736">
        <ele>10.13102672342211</ele>
        <time>2024-12-05T00:48:11Z</time>
      </trkpt>
      <trkpt lat="24.925593364847177" lon="118.56825321464241">
        <ele>10.781338069587946</ele>
        <time>2024-12-05T00:48:17Z</time>
      </trkpt>
      <trkpt lat="24.925804457358186" lon="118.56821654452827">
        <ele>10.66800780966878</ele>
        <time>2024-12-05T00:48:21Z</time>
      </trkpt>
      <trkpt lat="24.92602800858567" lon="118.56821217641013">
        <ele>9.102114530280232</ele>
        <time>2024-12-05T00:48:25Z</time>
      </trkpt>
      <trkpt lat="24.926242884031424" lon="118.56817131321279">
        <ele>10.258425457403064</ele>
        <time>2024-12-05T00:48:29Z</time>
      </trkpt>
      <trkpt lat="24.926779272192423" lon="118.56811033802278">
        <ele>10.585334244184196</ele>
        <time>2024-12-05T00:48:39Z</time>
      </trkpt>
      <trkpt lat="24.92719433953421" lon="118.56811132648303">
        <ele>10.371175396256149</ele>
        <time>2024-12-05T00:48:47Z</time>
      </trkpt>
      <trkpt lat="24.927420540809333" lon="118.56805027556017">
        <ele>10.160298615694046</ele>
        <time>2024-12-05T00:48:51Z</time>
      </trkpt>
      <trkpt lat="24.92785195301973" lon="118.56803065427064">
        <ele>9.354955554008484</ele>
        <time>2024-12-05T00:48:59Z</time>
      </trkpt>
      <trkpt lat="24.928282112310523" lon="118.56798886429006">
        <ele>10.359959606081247</ele>
        <time>2024-12-05T00:49:07Z</time>
      </trkpt>
      <trkpt lat="24.92878764834048" lon="118.56798949059332">
        <ele>10.499722624197602</ele>
        <time>2024-12-05T00:49:17Z</time>
      </trkpt>
      <trkpt lat="24.92896252923955" lon="118.56795694918424">
        <ele>10.465488498099148</ele>
        <time>2024-12-05T00:49:21Z</time>
      </trkpt>
      <trkpt lat="24.92922789092744" lon="118.56793644299363">
        <ele>10.472310427576303</ele>
        <time>2024-12-05T00:49:27Z</time>
      </trkpt>
      <trkpt lat="24.929586560642203" lon="118.56787376905315">
        <ele>10.64948601089418</ele>
        <time>2024-12-05T00:49:35Z</time>
      </trkpt>
      <trkpt lat="24.929659177013246" lon="118.56787959294024">
        <ele>10.45533322636038</ele>
        <time>2024-12-05T00:49:37Z</time>
      </trkpt>
      <trkpt lat="24.92982457454637" lon="118.56795734945446">
        <ele>11.332270237617195</ele>
        <time>2024-12-05T00:49:41Z</time>
      </trkpt>
      <trkpt lat="24.929937629904213" lon="118.56811818481926">
        <ele>10.855411845259368</ele>
        <time>2024-12-05T00:49:45Z</time>
      </trkpt>
      <trkpt lat="24.929985293369295" lon="118.56821478512065">
        <ele>10.714190911501646</ele>
        <time>2024-12-05T00:49:47Z</time>
      </trkpt>
      <trkpt lat="24.93009158977055" lon="118.5686704596482">
        <ele>8.743325526826084</ele>
        <time>2024-12-05T00:49:55Z</time>
      </trkpt>
      <trkpt lat="24.930183780313843" lon="118.56888510083246">
        <ele>8.050728894770145</ele>
        <time>2024-12-05T00:49:59Z</time>
      </trkpt>
      <trkpt lat="24.930491378888096" lon="118.5693159365443">
        <ele>10.272611196152866</ele>
        <time>2024-12-05T00:50:09Z</time>
      </trkpt>
      <trkpt lat="24.93071782808226" lon="118.56964255793204">
        <ele>11.981165915727615</ele>
        <time>2024-12-05T00:50:17Z</time>
      </trkpt>
      <trkpt lat="24.930869436386637" lon="118.56991140617274">
        <ele>11.288997452706099</ele>
        <time>2024-12-05T00:50:23Z</time>
      </trkpt>
      <trkpt lat="24.930985890268843" lon="118.57007257711784">
        <ele>11.737878151237965</ele>
        <time>2024-12-05T00:50:27Z</time>
      </trkpt>
      <trkpt lat="24.93105574065188" lon="118.57014031872197">
        <ele>12.47899008821696</ele>
        <time>2024-12-05T00:50:29Z</time>
      </trkpt>
      <trkpt lat="24.931161946765467" lon="118.57030084875711">
        <ele>12.089556327089667</ele>
        <time>2024-12-05T00:50:33Z</time>
      </trkpt>
      <trkpt lat="24.9312100346581" lon="118.57047750102022">
        <ele>12.18153115734458</ele>
        <time>2024-12-05T00:50:38Z</time>
      </trkpt>
      <trkpt lat="24.931292730626996" lon="118.57062721406828">
        <ele>13.274099968373775</ele>
        <time>2024-12-05T00:50:45Z</time>
      </trkpt>
      <trkpt lat="24.93141281304062" lon="118.57074565977118">
        <ele>12.355414299294353</ele>
        <time>2024-12-05T00:50:49Z</time>
      </trkpt>
      <trkpt lat="24.9314566643419" lon="118.57081767976969">
        <ele>12.637281394563615</ele>
        <time>2024-12-05T00:50:51Z</time>
      </trkpt>
      <trkpt lat="24.931663909633418" lon="118.57098889547237">
        <ele>12.558011636137962</ele>
        <time>2024-12-05T00:50:57Z</time>
      </trkpt>
      <trkpt lat="24.931733371257994" lon="118.57102979414861">
        <ele>12.977265297435224</ele>
        <time>2024-12-05T00:50:59Z</time>
      </trkpt>
      <trkpt lat="24.93181955445387" lon="118.57103172472951">
        <ele>13.769449144601822</ele>
        <time>2024-12-05T00:51:01Z</time>
      </trkpt>
      <trkpt lat="24.932073838276697" lon="118.57128683413171">
        <ele>12.375920631922781</ele>
        <time>2024-12-05T00:51:09Z</time>
      </trkpt>
      <trkpt lat="24.932235773938366" lon="118.57140272134477">
        <ele>12.359896583482623</ele>
        <time>2024-12-05T00:51:13Z</time>
      </trkpt>
      <trkpt lat="24.932412517045815" lon="118.57142062999687">
        <ele>12.795721581205726</ele>
        <time>2024-12-05T00:51:17Z</time>
      </trkpt>
      <trkpt lat="24.932837919034483" lon="118.5715912974413">
        <ele>12.018196332268417</ele>
        <time>2024-12-05T00:51:27Z</time>
      </trkpt>
      <trkpt lat="24.933235445584515" lon="118.57181960145098">
        <ele>12.92989054415375</ele>
        <time>2024-12-05T00:51:35Z</time>
      </trkpt>
      <trkpt lat="24.933658076580702" lon="118.57204932191796">
        <ele>12.598971829749644</ele>
        <time>2024-12-05T00:51:47Z</time>
      </trkpt>
      <trkpt lat="24.933745469643004" lon="118.57205490549758">
        <ele>12.980289451777935</ele>
        <time>2024-12-05T00:51:49Z</time>
      </trkpt>
      <trkpt lat="24.933860666394654" lon="118.5721102408421">
        <ele>12.950476027093828</ele>
        <time>2024-12-05T00:51:52Z</time>
      </trkpt>
      <trkpt lat="24.934218497294225" lon="118.5723537382106">
        <ele>13.156875473447144</ele>
        <time>2024-12-05T00:52:02Z</time>
      </trkpt>
      <trkpt lat="24.93452825008594" lon="118.57248519522685">
        <ele>12.38628394342959</ele>
        <time>2024-12-05T00:52:10Z</time>
      </trkpt>
      <trkpt lat="24.934857763561915" lon="118.57256088131021">
        <ele>14.905774813145399</ele>
        <time>2024-12-05T00:52:18Z</time>
      </trkpt>
      <trkpt lat="24.93495381647602" lon="118.57255251524614">
        <ele>16.271205311641097</ele>
        <time>2024-12-05T00:52:21Z</time>
      </trkpt>
      <trkpt lat="24.935105200850888" lon="118.57263471199906">
        <ele>16.548977334052324</ele>
        <time>2024-12-05T00:52:25Z</time>
      </trkpt>
      <trkpt lat="24.935289044128897" lon="118.57266688710689">
        <ele>15.7099874522537</ele>
        <time>2024-12-05T00:52:30Z</time>
      </trkpt>
      <trkpt lat="24.935546848491608" lon="118.57278934446217">
        <ele>15.87859271466732</ele>
        <time>2024-12-05T00:52:36Z</time>
      </trkpt>
      <trkpt lat="24.93561157282725" lon="118.57287674978107">
        <ele>15.510068678297102</ele>
        <time>2024-12-05T00:52:38Z</time>
      </trkpt>
      <trkpt lat="24.935815116931217" lon="118.57296247090427">
        <ele>15.143685098737478</ele>
        <time>2024-12-05T00:52:42Z</time>
      </trkpt>
      <trkpt lat="24.935902474457674" lon="118.57303555323871">
        <ele>15.306128987111151</ele>
        <time>2024-12-05T00:52:45Z</time>
      </trkpt>
      <trkpt lat="24.936084600802698" lon="118.57309644831071">
        <ele>16.351070353761315</ele>
        <time>2024-12-05T00:52:49Z</time>
      </trkpt>
      <trkpt lat="24.93616473116624" lon="118.57314036673945">
        <ele>15.007518788799644</ele>
        <time>2024-12-05T00:52:51Z</time>
      </trkpt>
      <trkpt lat="24.936266238432413" lon="118.57316902799036">
        <ele>15.399996004998684</ele>
        <time>2024-12-05T00:52:53Z</time>
      </trkpt>
      <trkpt lat="24.936300751536606" lon="118.57326282509393">
        <ele>15.908553901128471</ele>
        <time>2024-12-05T00:52:55Z</time>
      </trkpt>
      <trkpt lat="24.936308720760056" lon="118.5734695490293">
        <ele>15.201266527175903</ele>
        <time>2024-12-05T00:52:59Z</time>
      </trkpt>
      <trkpt lat="24.936394740030575" lon="118.57350062099283">
        <ele>15.229481211863458</ele>
        <time>2024-12-05T00:53:01Z</time>
      </trkpt>
      <trkpt lat="24.936620624318063" lon="118.57349674930951">
        <ele>15.058167271316051</ele>
        <time>2024-12-05T00:53:05Z</time>
      </trkpt>
      <trkpt lat="24.936701236733203" lon="118.57348069582181">
        <ele>14.843313879333436</ele>
        <time>2024-12-05T00:53:06Z</time>
      </trkpt>
      <trkpt lat="24.936803051754787" lon="118.57348400534111">
        <ele>14.775825412012637</ele>
        <time>2024-12-05T00:53:08Z</time>
      </trkpt>
      <trkpt lat="24.936896459145526" lon="118.57352553579449">
        <ele>14.467799118719995</ele>
        <time>2024-12-05T00:53:09Z</time>
      </trkpt>
      <trkpt lat="24.937009614633435" lon="118.57354589810285">
        <ele>15.220518186688423</ele>
        <time>2024-12-05T00:53:11Z</time>
      </trkpt>
      <trkpt lat="24.93711144157191" lon="118.57352518496575">
        <ele>14.171965094283223</ele>
        <time>2024-12-05T00:53:13Z</time>
      </trkpt>
      <trkpt lat="24.93721257312044" lon="118.57365426901264">
        <ele>13.420412638224661</ele>
        <time>2024-12-05T00:53:18Z</time>
      </trkpt>
      <trkpt lat="24.93724451002602" lon="118.57375299506036">
        <ele>12.84991287253797</ele>
        <time>2024-12-05T00:53:20Z</time>
      </trkpt>
      <trkpt lat="24.937339845752035" lon="118.57390726412285">
        <ele>12.98139494843781</ele>
        <time>2024-12-05T00:53:26Z</time>
      </trkpt>
      <trkpt lat="24.937407405604766" lon="118.57395153026678">
        <ele>11.485052093863487</ele>
        <time>2024-12-05T00:53:29Z</time>
      </trkpt>
      <trkpt lat="24.93759050501931" lon="118.57414624811098">
        <ele>12.741675085388124</ele>
        <time>2024-12-05T00:53:42Z</time>
      </trkpt>
    </trkseg>
  </trk>
</gpx>