<?xml version="1.0" encoding="UTF-8"?>
<gpx xmlns="http://www.topografix.com/GPX/1/1" xmlns:gpxtpx="http://www.garmin.com/xmlschemas/TrackPointExtension/v1" xmlns:xsi="http://www.w3.org/2001/XMLSchema-instance" xsi:schemaLocation="http://www.topografix.com/GPX/1/1 http://www.topografix.com/GPX/1/1/gpx.xsd" version="1.1" creator="gpx.py -- https://github.com/tkrajina/gpxpy">
  <trk>
    <name>gpx from keep</name>
    <type>Ride</type>
    <trkseg>
      <trkpt lat="24.909136710326994" lon="118.53821867186238">
        <ele>7.590201226994395</ele>
        <time>2024-11-26T13:19:29Z</time>
      </trkpt>
      <trkpt lat="24.909119126505743" lon="118.53830220482928">
        <ele>6.525211861357093</ele>
        <time>2024-11-26T13:19:36Z</time>
      </trkpt>
      <trkpt lat="24.909129543921708" lon="118.53839123772252">
        <ele>7.788724926300347</ele>
        <time>2024-11-26T13:19:39Z</time>
      </trkpt>
      <trkpt lat="24.909064370428364" lon="118.5386584036479">
        <ele>7.925176958553493</ele>
        <time>2024-11-26T13:19:47Z</time>
      </trkpt>
      <trkpt lat="24.90904087017743" lon="118.53906653090245">
        <ele>9.003416071645916</ele>
        <time>2024-11-26T13:20:01Z</time>
      </trkpt>
      <trkpt lat="24.909014216640518" lon="118.5391847157398">
        <ele>9.057447963394225</ele>
        <time>2024-11-26T13:20:05Z</time>
      </trkpt>
      <trkpt lat="24.90897962790242" lon="118.53926059329635">
        <ele>8.152904408052564</ele>
        <time>2024-11-26T13:20:08Z</time>
      </trkpt>
      <trkpt lat="24.90895354857703" lon="118.53947871703859">
        <ele>7.771487374790013</ele>
        <time>2024-11-26T13:20:15Z</time>
      </trkpt>
      <trkpt lat="24.908961552842246" lon="118.53960258118401">
        <ele>7.878524716943502</ele>
        <time>2024-11-26T13:20:18Z</time>
      </trkpt>
      <trkpt lat="24.908998172231453" lon="118.53977134917291">
        <ele>8.839452630840242</ele>
        <time>2024-11-26T13:20:26Z</time>
      </trkpt>
      <trkpt lat="24.908997996497995" lon="118.53988971778735">
        <ele>8.805498329922557</ele>
        <time>2024-11-26T13:20:30Z</time>
      </trkpt>
      <trkpt lat="24.908956981463653" lon="118.54011600565659">
        <ele>8.442348996177316</ele>
        <time>2024-11-26T13:20:36Z</time>
      </trkpt>
      <trkpt lat="24.908920292374894" lon="118.54019901680758">
        <ele>8.26847721170634</ele>
        <time>2024-11-26T13:20:38Z</time>
      </trkpt>
      <trkpt lat="24.908866568402683" lon="118.54038548785553">
        <ele>8.157451511360705</ele>
        <time>2024-11-26T13:20:44Z</time>
      </trkpt>
      <trkpt lat="24.90874353777335" lon="118.54052539067315">
        <ele>7.812789487652481</ele>
        <time>2024-11-26T13:20:50Z</time>
      </trkpt>
      <trkpt lat="24.90880432440763" lon="118.54065450571865">
        <ele>7.996196452528238</ele>
        <time>2024-11-26T13:20:52Z</time>
      </trkpt>
      <trkpt lat="24.90894088004118" lon="118.54082132699632">
        <ele>8.099304005503654</ele>
        <time>2024-11-26T13:20:55Z</time>
      </trkpt>
      <trkpt lat="24.908944988674335" lon="118.5409103070978">
        <ele>7.875168947502971</ele>
        <time>2024-11-26T13:20:57Z</time>
      </trkpt>
      <trkpt lat="24.908832549649507" lon="118.54107668223733">
        <ele>8.490737265907228</ele>
        <time>2024-11-26T13:21:01Z</time>
      </trkpt>
      <trkpt lat="24.90879247750203" lon="118.54128467908905">
        <ele>9.164249438792467</ele>
        <time>2024-11-26T13:21:06Z</time>
      </trkpt>
      <trkpt lat="24.908747305768873" lon="118.54138120118536">
        <ele>8.80283319298178</ele>
        <time>2024-11-26T13:21:09Z</time>
      </trkpt>
      <trkpt lat="24.908694741855946" lon="118.54144173035884">
        <ele>8.060586767271161</ele>
        <time>2024-11-26T13:21:11Z</time>
      </trkpt>
      <trkpt lat="24.908654742746354" lon="118.54153540652285">
        <ele>9.265698925592005</ele>
        <time>2024-11-26T13:21:13Z</time>
      </trkpt>
      <trkpt lat="24.908678484573414" lon="118.54170963211094">
        <ele>8.317035931162536</ele>
        <time>2024-11-26T13:21:17Z</time>
      </trkpt>
      <trkpt lat="24.9086411023293" lon="118.54225027989922">
        <ele>7.11820006929338</ele>
        <time>2024-11-26T13:21:28Z</time>
      </trkpt>
      <trkpt lat="24.908637545887466" lon="118.54243901691554">
        <ele>7.778727467171848</ele>
        <time>2024-11-26T13:21:33Z</time>
      </trkpt>
      <trkpt lat="24.90868045458677" lon="118.54250643444843">
        <ele>7.492555235512555</ele>
        <time>2024-11-26T13:21:35Z</time>
      </trkpt>
      <trkpt lat="24.908692763570787" lon="118.54259506425386">
        <ele>7.274512154050171</ele>
        <time>2024-11-26T13:21:37Z</time>
      </trkpt>
      <trkpt lat="24.90874900172102" lon="118.54264777616258">
        <ele>7.282903176732361</ele>
        <time>2024-11-26T13:21:46Z</time>
      </trkpt>
      <trkpt lat="24.908769944539078" lon="118.54273818344207">
        <ele>7.30510853137821</ele>
        <time>2024-11-26T13:21:50Z</time>
      </trkpt>
      <trkpt lat="24.908840626009294" lon="118.54281657688942">
        <ele>7.580575089901686</ele>
        <time>2024-11-26T13:21:53Z</time>
      </trkpt>
      <trkpt lat="24.908921042427156" lon="118.54286284004039">
        <ele>8.144201547838748</ele>
        <time>2024-11-26T13:21:56Z</time>
      </trkpt>
      <trkpt lat="24.90899705957451" lon="118.5428745769765">
        <ele>9.128365341573954</ele>
        <time>2024-11-26T13:21:59Z</time>
      </trkpt>
      <trkpt lat="24.909070448191997" lon="118.54291084216499">
        <ele>8.225097699090838</ele>
        <time>2024-11-26T13:22:03Z</time>
      </trkpt>
      <trkpt lat="24.909060134309613" lon="118.54301667390074">
        <ele>8.288679119199514</ele>
        <time>2024-11-26T13:22:07Z</time>
      </trkpt>
      <trkpt lat="24.909000196217498" lon="118.54307270795756">
        <ele>8.641325909644365</ele>
        <time>2024-11-26T13:22:09Z</time>
      </trkpt>
      <trkpt lat="24.908605279538733" lon="118.54325449426084">
        <ele>8.763425515033305</ele>
        <time>2024-11-26T13:22:17Z</time>
      </trkpt>
      <trkpt lat="24.908108299794065" lon="118.5433708652502">
        <ele>9.018601784482598</ele>
        <time>2024-11-26T13:22:30Z</time>
      </trkpt>
      <trkpt lat="24.907919687412853" lon="118.54337685326708">
        <ele>8.528487900272012</ele>
        <time>2024-11-26T13:22:34Z</time>
      </trkpt>
      <trkpt lat="24.90758364223019" lon="118.54339984939767">
        <ele>8.441374485380948</ele>
        <time>2024-11-26T13:22:42Z</time>
      </trkpt>
      <trkpt lat="24.90751962940705" lon="118.54344807654583">
        <ele>8.12113323342055</ele>
        <time>2024-11-26T13:22:46Z</time>
      </trkpt>
      <trkpt lat="24.907490838288247" lon="118.54352361657831">
        <ele>8.157487042248249</ele>
        <time>2024-11-26T13:23:16Z</time>
      </trkpt>
      <trkpt lat="24.907511493989247" lon="118.54371472792381">
        <ele>8.063440710306168</ele>
        <time>2024-11-26T13:23:51Z</time>
      </trkpt>
      <trkpt lat="24.90750082756049" lon="118.54381884076243">
        <ele>7.363026786595583</ele>
        <time>2024-11-26T13:23:54Z</time>
      </trkpt>
      <trkpt lat="24.907501001346496" lon="118.54412936074272">
        <ele>7.8847662676125765</ele>
        <time>2024-11-26T13:24:01Z</time>
      </trkpt>
      <trkpt lat="24.907542211474453" lon="118.54432097835299">
        <ele>7.8757662223652005</ele>
        <time>2024-11-26T13:24:05Z</time>
      </trkpt>
      <trkpt lat="24.907695620548495" lon="118.54465908628319">
        <ele>7.710334740579128</ele>
        <time>2024-11-26T13:24:13Z</time>
      </trkpt>
      <trkpt lat="24.90775396505244" lon="118.54482929231817">
        <ele>7.9081019423902035</ele>
        <time>2024-11-26T13:24:17Z</time>
      </trkpt>
      <trkpt lat="24.907933492727818" lon="118.54518660379166">
        <ele>7.633904158137739</ele>
        <time>2024-11-26T13:24:25Z</time>
      </trkpt>
      <trkpt lat="24.907993427438882" lon="118.54534867432774">
        <ele>8.409559057094157</ele>
        <time>2024-11-26T13:24:29Z</time>
      </trkpt>
      <trkpt lat="24.908078002404714" lon="118.54567634370112">
        <ele>8.536003194749355</ele>
        <time>2024-11-26T13:24:34Z</time>
      </trkpt>
      <trkpt lat="24.908253888428153" lon="118.54616019075489">
        <ele>9.242031324654818</ele>
        <time>2024-11-26T13:24:44Z</time>
      </trkpt>
      <trkpt lat="24.908457056805894" lon="118.54665777923539">
        <ele>8.234369265846908</ele>
        <time>2024-11-26T13:24:56Z</time>
      </trkpt>
      <trkpt lat="24.90864734515609" lon="118.54714656744142">
        <ele>7.796918702311814</ele>
        <time>2024-11-26T13:25:08Z</time>
      </trkpt>
      <trkpt lat="24.908828597453066" lon="118.54762320935438">
        <ele>8.230319062247872</ele>
        <time>2024-11-26T13:25:22Z</time>
      </trkpt>
      <trkpt lat="24.908859566556536" lon="118.54772187850052">
        <ele>8.09270894806832</ele>
        <time>2024-11-26T13:25:25Z</time>
      </trkpt>
      <trkpt lat="24.90890916556001" lon="118.54779202699093">
        <ele>8.529766965657473</ele>
        <time>2024-11-26T13:25:29Z</time>
      </trkpt>
      <trkpt lat="24.9089734657871" lon="118.54782922633213">
        <ele>7.8722328413277864</ele>
        <time>2024-11-26T13:25:33Z</time>
      </trkpt>
      <trkpt lat="24.908999879163446" lon="118.54798127431931">
        <ele>8.19051308836788</ele>
        <time>2024-11-26T13:25:37Z</time>
      </trkpt>
      <trkpt lat="24.909003625332073" lon="118.54810238872018">
        <ele>7.577628226019442</ele>
        <time>2024-11-26T13:25:39Z</time>
      </trkpt>
      <trkpt lat="24.90916807384619" lon="118.5484603654576">
        <ele>8.750921425409615</ele>
        <time>2024-11-26T13:25:50Z</time>
      </trkpt>
      <trkpt lat="24.909274627866083" lon="118.54869587723688">
        <ele>8.390639533288777</ele>
        <time>2024-11-26T13:25:59Z</time>
      </trkpt>
      <trkpt lat="24.909350056155183" lon="118.54874855654938">
        <ele>9.292923376895487</ele>
        <time>2024-11-26T13:26:01Z</time>
      </trkpt>
      <trkpt lat="24.909487814598116" lon="118.54888871157392">
        <ele>8.821815574541688</ele>
        <time>2024-11-26T13:26:07Z</time>
      </trkpt>
      <trkpt lat="24.90952073870649" lon="118.54896147080497">
        <ele>8.685524144209921</ele>
        <time>2024-11-26T13:26:10Z</time>
      </trkpt>
      <trkpt lat="24.909652681634093" lon="118.54909038036">
        <ele>8.812070560641587</ele>
        <time>2024-11-26T13:26:15Z</time>
      </trkpt>
      <trkpt lat="24.909778186783956" lon="118.54934848663183">
        <ele>8.12191744428128</ele>
        <time>2024-11-26T13:26:23Z</time>
      </trkpt>
      <trkpt lat="24.90984964575227" lon="118.54939676615743">
        <ele>7.600533232092857</ele>
        <time>2024-11-26T13:26:26Z</time>
      </trkpt>
      <trkpt lat="24.909969958289544" lon="118.54953528393862">
        <ele>8.298050275072455</ele>
        <time>2024-11-26T13:26:31Z</time>
      </trkpt>
      <trkpt lat="24.91003847137193" lon="118.5495895567657">
        <ele>8.939039546996355</ele>
        <time>2024-11-26T13:26:33Z</time>
      </trkpt>
      <trkpt lat="24.910155113282283" lon="118.54977535336342">
        <ele>9.696962664835155</ele>
        <time>2024-11-26T13:26:39Z</time>
      </trkpt>
      <trkpt lat="24.910192102500126" lon="118.54986833883349">
        <ele>9.74406569544226</ele>
        <time>2024-11-26T13:26:42Z</time>
      </trkpt>
      <trkpt lat="24.910332032734658" lon="118.5500449531766">
        <ele>9.720613799057901</ele>
        <time>2024-11-26T13:26:48Z</time>
      </trkpt>
      <trkpt lat="24.910397042750514" lon="118.55023726846125">
        <ele>9.045095032081008</ele>
        <time>2024-11-26T13:26:54Z</time>
      </trkpt>
      <trkpt lat="24.910408099785496" lon="118.55044111132834">
        <ele>9.174476123414934</ele>
        <time>2024-11-26T13:26:59Z</time>
      </trkpt>
      <trkpt lat="24.910648638357525" lon="118.55160558296188">
        <ele>8.043385218828917</ele>
        <time>2024-11-26T13:27:04Z</time>
      </trkpt>
      <trkpt lat="24.910701873350458" lon="118.55169475158053">
        <ele>7.095156057737768</ele>
        <time>2024-11-26T13:27:06Z</time>
      </trkpt>
      <trkpt lat="24.91086253077385" lon="118.55210669858194">
        <ele>5.981287670321763</ele>
        <time>2024-11-26T13:27:15Z</time>
      </trkpt>
      <trkpt lat="24.910911785279076" lon="118.55230224661588">
        <ele>7.489898646250367</ele>
        <time>2024-11-26T13:27:19Z</time>
      </trkpt>
      <trkpt lat="24.910987127063272" lon="118.55237803580569">
        <ele>8.377242820337415</ele>
        <time>2024-11-26T13:27:22Z</time>
      </trkpt>
      <trkpt lat="24.911068685533124" lon="118.55247632881213">
        <ele>8.426735743880272</ele>
        <time>2024-11-26T13:27:26Z</time>
      </trkpt>
      <trkpt lat="24.91108647271401" lon="118.5525552734542">
        <ele>9.418850102461874</ele>
        <time>2024-11-26T13:27:29Z</time>
      </trkpt>
      <trkpt lat="24.911051789397998" lon="118.55271716785657">
        <ele>7.78679624106735</ele>
        <time>2024-11-26T13:27:39Z</time>
      </trkpt>
      <trkpt lat="24.91105500390451" lon="118.55280568116187">
        <ele>7.7000260492786765</ele>
        <time>2024-11-26T13:28:12Z</time>
      </trkpt>
      <trkpt lat="24.911124056063684" lon="118.55285261301758">
        <ele>8.536147268489003</ele>
        <time>2024-11-26T13:28:16Z</time>
      </trkpt>
      <trkpt lat="24.91114220047131" lon="118.55293470229748">
        <ele>8.565522120334208</ele>
        <time>2024-11-26T13:28:21Z</time>
      </trkpt>
      <trkpt lat="24.91110936692007" lon="118.55303125969432">
        <ele>8.08752295281738</ele>
        <time>2024-11-26T13:28:25Z</time>
      </trkpt>
      <trkpt lat="24.911111759439837" lon="118.55311787365159">
        <ele>7.1760871252045035</ele>
        <time>2024-11-26T13:28:27Z</time>
      </trkpt>
      <trkpt lat="24.911296985617415" lon="118.55363673753924">
        <ele>7.9454983016476035</ele>
        <time>2024-11-26T13:28:37Z</time>
      </trkpt>
      <trkpt lat="24.911396198074048" lon="118.55392133549384">
        <ele>7.876039765775204</ele>
        <time>2024-11-26T13:28:43Z</time>
      </trkpt>
      <trkpt lat="24.91157167879526" lon="118.5543729270874">
        <ele>8.698689016513526</ele>
        <time>2024-11-26T13:28:54Z</time>
      </trkpt>
      <trkpt lat="24.911731498964436" lon="118.55461653177771">
        <ele>7.959167838096619</ele>
        <time>2024-11-26T13:29:02Z</time>
      </trkpt>
      <trkpt lat="24.911803040006266" lon="118.55477017386806">
        <ele>7.810652254149318</ele>
        <time>2024-11-26T13:29:11Z</time>
      </trkpt>
      <trkpt lat="24.911804060916424" lon="118.55494319017659">
        <ele>7.7705284571275115</ele>
        <time>2024-11-26T13:29:16Z</time>
      </trkpt>
      <trkpt lat="24.91190531534284" lon="118.55526652007704">
        <ele>7.78629804123193</ele>
        <time>2024-11-26T13:29:27Z</time>
      </trkpt>
      <trkpt lat="24.911992225272424" lon="118.55540170831699">
        <ele>7.968682718463242</ele>
        <time>2024-11-26T13:29:31Z</time>
      </trkpt>
      <trkpt lat="24.9121138265208" lon="118.55574914104261">
        <ele>8.447464551776648</ele>
        <time>2024-11-26T13:29:40Z</time>
      </trkpt>
      <trkpt lat="24.912333541324788" lon="118.5561169132765">
        <ele>6.766761110164225</ele>
        <time>2024-11-26T13:29:52Z</time>
      </trkpt>
      <trkpt lat="24.912343073634982" lon="118.55621612409978">
        <ele>7.026916072703898</ele>
        <time>2024-11-26T13:29:54Z</time>
      </trkpt>
      <trkpt lat="24.91241553185468" lon="118.55650954669618">
        <ele>7.104535332880914</ele>
        <time>2024-11-26T13:30:00Z</time>
      </trkpt>
      <trkpt lat="24.91244977268761" lon="118.55659794065103">
        <ele>7.660552577115595</ele>
        <time>2024-11-26T13:30:02Z</time>
      </trkpt>
      <trkpt lat="24.912565077694794" lon="118.55676575813612">
        <ele>8.076860826462507</ele>
        <time>2024-11-26T13:30:08Z</time>
      </trkpt>
      <trkpt lat="24.912705016559016" lon="118.55710789496632">
        <ele>7.534593562595546</ele>
        <time>2024-11-26T13:30:14Z</time>
      </trkpt>
      <trkpt lat="24.912750735675463" lon="118.55721962468456">
        <ele>8.744581050239503</ele>
        <time>2024-11-26T13:30:16Z</time>
      </trkpt>
      <trkpt lat="24.912858418667934" lon="118.5573929604434">
        <ele>7.398342275060713</ele>
        <time>2024-11-26T13:30:20Z</time>
      </trkpt>
      <trkpt lat="24.91299507942357" lon="118.55752757504084">
        <ele>8.717236962169409</ele>
        <time>2024-11-26T13:30:25Z</time>
      </trkpt>
      <trkpt lat="24.913031799716194" lon="118.55762303212256">
        <ele>9.71822336409241</ele>
        <time>2024-11-26T13:30:28Z</time>
      </trkpt>
      <trkpt lat="24.913041198317334" lon="118.55771454126736">
        <ele>10.031973873265088</ele>
        <time>2024-11-26T13:30:30Z</time>
      </trkpt>
      <trkpt lat="24.91310907943845" lon="118.55778212870541">
        <ele>11.120884370990098</ele>
        <time>2024-11-26T13:30:34Z</time>
      </trkpt>
      <trkpt lat="24.913090755209275" lon="118.55796445721911">
        <ele>9.903781414963305</ele>
        <time>2024-11-26T13:30:39Z</time>
      </trkpt>
      <trkpt lat="24.913163593376776" lon="118.5581611699307">
        <ele>11.111273346468806</ele>
        <time>2024-11-26T13:30:53Z</time>
      </trkpt>
      <trkpt lat="24.913267811994217" lon="118.5582859321297">
        <ele>12.272899302653968</ele>
        <time>2024-11-26T13:31:03Z</time>
      </trkpt>
      <trkpt lat="24.91335925084546" lon="118.55827903061086">
        <ele>12.731132716871798</ele>
        <time>2024-11-26T13:31:06Z</time>
      </trkpt>
      <trkpt lat="24.91340866024806" lon="118.55834984016208">
        <ele>12.330720808357</ele>
        <time>2024-11-26T13:31:11Z</time>
      </trkpt>
      <trkpt lat="24.913416495213543" lon="118.55844571134985">
        <ele>12.716165237128735</ele>
        <time>2024-11-26T13:31:15Z</time>
      </trkpt>
      <trkpt lat="24.913529591946606" lon="118.55878898047175">
        <ele>15.381238602101803</ele>
        <time>2024-11-26T13:31:26Z</time>
      </trkpt>
      <trkpt lat="24.913545692821867" lon="118.55887636319018">
        <ele>15.047073882073164</ele>
        <time>2024-11-26T13:31:29Z</time>
      </trkpt>
      <trkpt lat="24.91359972773438" lon="118.5589350701589">
        <ele>15.009620820172131</ele>
        <time>2024-11-26T13:31:31Z</time>
      </trkpt>
      <trkpt lat="24.913744266171296" lon="118.55916537734167">
        <ele>14.192129797302186</ele>
        <time>2024-11-26T13:31:39Z</time>
      </trkpt>
      <trkpt lat="24.91376676916268" lon="118.55924138061634">
        <ele>14.353652389720082</ele>
        <time>2024-11-26T13:31:41Z</time>
      </trkpt>
      <trkpt lat="24.913830153142452" lon="118.55930051714684">
        <ele>13.2772883111611</ele>
        <time>2024-11-26T13:31:46Z</time>
      </trkpt>
      <trkpt lat="24.91396467951387" lon="118.55954389259877">
        <ele>15.57675807736814</ele>
        <time>2024-11-26T13:31:55Z</time>
      </trkpt>
      <trkpt lat="24.914022478498087" lon="118.55960409846256">
        <ele>15.21995956171304</ele>
        <time>2024-11-26T13:31:57Z</time>
      </trkpt>
      <trkpt lat="24.914115258570778" lon="118.55975385707478">
        <ele>13.735423177480698</ele>
        <time>2024-11-26T13:32:03Z</time>
      </trkpt>
      <trkpt lat="24.91437626520201" lon="118.56001588354277">
        <ele>12.401664831675589</ele>
        <time>2024-11-26T13:32:12Z</time>
      </trkpt>
      <trkpt lat="24.914425877570967" lon="118.56010025418804">
        <ele>12.658666264265776</ele>
        <time>2024-11-26T13:32:15Z</time>
      </trkpt>
      <trkpt lat="24.914500493890436" lon="118.56014509840799">
        <ele>12.992275275290012</ele>
        <time>2024-11-26T13:32:19Z</time>
      </trkpt>
      <trkpt lat="24.91454733030499" lon="118.56022117276919">
        <ele>13.39891601447016</ele>
        <time>2024-11-26T13:32:23Z</time>
      </trkpt>
      <trkpt lat="24.91457162391612" lon="118.56029819558293">
        <ele>12.66758188419044</ele>
        <time>2024-11-26T13:32:31Z</time>
      </trkpt>
      <trkpt lat="24.914566831751646" lon="118.56039321594645">
        <ele>12.99456781707704</ele>
        <time>2024-11-26T13:33:06Z</time>
      </trkpt>
      <trkpt lat="24.914656423594728" lon="118.56056960496632">
        <ele>13.263125539757311</ele>
        <time>2024-11-26T13:33:15Z</time>
      </trkpt>
      <trkpt lat="24.914735509148876" lon="118.5606313008477">
        <ele>12.920362757518888</ele>
        <time>2024-11-26T13:33:18Z</time>
      </trkpt>
      <trkpt lat="24.914870898413575" lon="118.56061499197367">
        <ele>13.317841382697225</ele>
        <time>2024-11-26T13:33:20Z</time>
      </trkpt>
      <trkpt lat="24.91490214152585" lon="118.5606886157301">
        <ele>12.277395349927247</ele>
        <time>2024-11-26T13:33:23Z</time>
      </trkpt>
      <trkpt lat="24.914880859173717" lon="118.56077567947287">
        <ele>11.581974410451949</ele>
        <time>2024-11-26T13:33:26Z</time>
      </trkpt>
      <trkpt lat="24.91488246403559" lon="118.56087141322044">
        <ele>9.86120068654418</ele>
        <time>2024-11-26T13:33:31Z</time>
      </trkpt>
      <trkpt lat="24.91517021892247" lon="118.56130280807001">
        <ele>4.583182527683675</ele>
        <time>2024-11-26T13:33:44Z</time>
      </trkpt>
      <trkpt lat="24.915383624507136" lon="118.56162615784504">
        <ele>5.282794334925711</ele>
        <time>2024-11-26T13:33:52Z</time>
      </trkpt>
      <trkpt lat="24.915452881881862" lon="118.56169898026265">
        <ele>5.734201121143997</ele>
        <time>2024-11-26T13:33:54Z</time>
      </trkpt>
      <trkpt lat="24.91569695044306" lon="118.56209906994751">
        <ele>4.479445680044591</ele>
        <time>2024-11-26T13:34:04Z</time>
      </trkpt>
      <trkpt lat="24.915966219239635" lon="118.56247821153578">
        <ele>4.197968703694642</ele>
        <time>2024-11-26T13:34:14Z</time>
      </trkpt>
      <trkpt lat="24.91626263425983" lon="118.56289897075325">
        <ele>6.87413065508008</ele>
        <time>2024-11-26T13:34:26Z</time>
      </trkpt>
      <trkpt lat="24.916429567290773" lon="118.5631303915187">
        <ele>10.074419080279768</ele>
        <time>2024-11-26T13:34:32Z</time>
      </trkpt>
      <trkpt lat="24.916559664360562" lon="118.56327436636093">
        <ele>11.00497167930007</ele>
        <time>2024-11-26T13:34:36Z</time>
      </trkpt>
      <trkpt lat="24.9167493287501" lon="118.56358156281438">
        <ele>10.24801422469318</ele>
        <time>2024-11-26T13:34:44Z</time>
      </trkpt>
      <trkpt lat="24.916916425673293" lon="118.56376755746268">
        <ele>10.461754543706775</ele>
        <time>2024-11-26T13:34:51Z</time>
      </trkpt>
      <trkpt lat="24.917005081353857" lon="118.56381686167822">
        <ele>11.74134604074061</ele>
        <time>2024-11-26T13:34:54Z</time>
      </trkpt>
      <trkpt lat="24.917257415688564" lon="118.56417525138356">
        <ele>10.700988249853253</ele>
        <time>2024-11-26T13:35:07Z</time>
      </trkpt>
      <trkpt lat="24.917319077571673" lon="118.56432566984505">
        <ele>9.568210936151445</ele>
        <time>2024-11-26T13:35:24Z</time>
      </trkpt>
      <trkpt lat="24.917544125716944" lon="118.56481287500995">
        <ele>8.581970680505037</ele>
        <time>2024-11-26T13:35:59Z</time>
      </trkpt>
      <trkpt lat="24.91757785010698" lon="118.56493907626265">
        <ele>9.658405601978302</ele>
        <time>2024-11-26T13:36:08Z</time>
      </trkpt>
    </trkseg>
  </trk>
</gpx>