<?xml version="1.0" encoding="UTF-8"?>
<gpx xmlns="http://www.topografix.com/GPX/1/1" xmlns:gpxtpx="http://www.garmin.com/xmlschemas/TrackPointExtension/v1" xmlns:xsi="http://www.w3.org/2001/XMLSchema-instance" xsi:schemaLocation="http://www.topografix.com/GPX/1/1 http://www.topografix.com/GPX/1/1/gpx.xsd" version="1.1" creator="gpx.py -- https://github.com/tkrajina/gpxpy">
  <trk>
    <name>gpx from keep</name>
    <type>Run</type>
    <trkseg>
      <trkpt lat="24.911314795669707" lon="118.53741473389266">
        <ele>23.534912109375</ele>
        <time>2025-08-23T13:03:57Z</time>
      </trkpt>
      <trkpt lat="24.911193125156245" lon="118.5375501049791">
        <ele>50.27667236328125</ele>
        <time>2025-08-23T13:04:00Z</time>
      </trkpt>
      <trkpt lat="24.911194501572112" lon="118.53771354182813">
        <ele>38.8905029296875</ele>
        <time>2025-08-23T13:04:03Z</time>
      </trkpt>
      <trkpt lat="24.91114275323077" lon="118.53781982907088">
        <ele>35.1829833984375</ele>
        <time>2025-08-23T13:04:06Z</time>
      </trkpt>
      <trkpt lat="24.911078233962872" lon="118.53802538096201">
        <ele>35.39202880859375</ele>
        <time>2025-08-23T13:04:12Z</time>
      </trkpt>
      <trkpt lat="24.910928853424487" lon="118.53828708610178">
        <ele>30.343505859375</ele>
        <time>2025-08-23T13:04:21Z</time>
      </trkpt>
      <trkpt lat="24.910837282336534" lon="118.53846957546882">
        <ele>29.7222900390625</ele>
        <time>2025-08-23T13:04:27Z</time>
      </trkpt>
      <trkpt lat="24.910823532983862" lon="118.53857886511143">
        <ele>29.2193603515625</ele>
        <time>2025-08-23T13:04:30Z</time>
      </trkpt>
      <trkpt lat="24.910871738196978" lon="118.53867210771978">
        <ele>27.01318359375</ele>
        <time>2025-08-23T13:04:33Z</time>
      </trkpt>
      <trkpt lat="24.91120788941524" lon="118.53875931411392">
        <ele>22.643310546875</ele>
        <time>2025-08-23T13:04:42Z</time>
      </trkpt>
      <trkpt lat="24.91127702528672" lon="118.53882347817856">
        <ele>22.9962158203125</ele>
        <time>2025-08-23T13:04:45Z</time>
      </trkpt>
      <trkpt lat="24.91126226575377" lon="118.5389287559523">
        <ele>22.47991943359375</ele>
        <time>2025-08-23T13:04:48Z</time>
      </trkpt>
      <trkpt lat="24.911152039344323" lon="118.53926464387393">
        <ele>26.0946044921875</ele>
        <time>2025-08-23T13:04:57Z</time>
      </trkpt>
      <trkpt lat="24.911072746524265" lon="118.53957445765307">
        <ele>28.0262451171875</ele>
        <time>2025-08-23T13:05:06Z</time>
      </trkpt>
      <trkpt lat="24.910970384389664" lon="118.53985318892602">
        <ele>28.63330078125</ele>
        <time>2025-08-23T13:05:15Z</time>
      </trkpt>
      <trkpt lat="24.910936594907525" lon="118.53994543029044">
        <ele>27.964111328125</ele>
        <time>2025-08-23T13:05:18Z</time>
      </trkpt>
      <trkpt lat="24.91091406901814" lon="118.54015697883273">
        <ele>30.56402587890625</ele>
        <time>2025-08-23T13:05:24Z</time>
      </trkpt>
      <trkpt lat="24.910858472919625" lon="118.54033544283607">
        <ele>30.42120361328125</ele>
        <time>2025-08-23T13:05:30Z</time>
      </trkpt>
      <trkpt lat="24.91082716691736" lon="118.5406472460967">
        <ele>33.62689208984375</ele>
        <time>2025-08-23T13:05:39Z</time>
      </trkpt>
      <trkpt lat="24.910743961743155" lon="118.54100316184375">
        <ele>28.403564453125</ele>
        <time>2025-08-23T13:05:51Z</time>
      </trkpt>
      <trkpt lat="24.91069537718673" lon="118.5411896400825">
        <ele>27.702880859375</ele>
        <time>2025-08-23T13:05:57Z</time>
      </trkpt>
      <trkpt lat="24.910686794647273" lon="118.54138012438834">
        <ele>24.810546875</ele>
        <time>2025-08-23T13:06:03Z</time>
      </trkpt>
      <trkpt lat="24.91060047666424" lon="118.54168790905251">
        <ele>22.25439453125</ele>
        <time>2025-08-23T13:06:12Z</time>
      </trkpt>
      <trkpt lat="24.910528144855956" lon="118.54199167905097">
        <ele>23.86578369140625</ele>
        <time>2025-08-23T13:06:21Z</time>
      </trkpt>
      <trkpt lat="24.910456805452014" lon="118.5422934404259">
        <ele>26.8609619140625</ele>
        <time>2025-08-23T13:06:30Z</time>
      </trkpt>
      <trkpt lat="24.910433245796337" lon="118.5424969502219">
        <ele>27.1309814453125</ele>
        <time>2025-08-23T13:06:36Z</time>
      </trkpt>
      <trkpt lat="24.91034090622258" lon="118.54279970965977">
        <ele>29.50372314453125</ele>
        <time>2025-08-23T13:06:45Z</time>
      </trkpt>
      <trkpt lat="24.910292340100373" lon="118.54300020976424">
        <ele>28.83636474609375</ele>
        <time>2025-08-23T13:06:51Z</time>
      </trkpt>
      <trkpt lat="24.910292744524174" lon="118.54319068017469">
        <ele>27.6400146484375</ele>
        <time>2025-08-23T13:06:57Z</time>
      </trkpt>
      <trkpt lat="24.910281102739354" lon="118.54335909577104">
        <ele>25.448974609375</ele>
        <time>2025-08-23T13:07:03Z</time>
      </trkpt>
      <trkpt lat="24.91034816334486" lon="118.54339217245094">
        <ele>26.94580078125</ele>
        <time>2025-08-23T13:07:06Z</time>
      </trkpt>
      <trkpt lat="24.910648077139044" lon="118.54337109982458">
        <ele>25.59356689453125</ele>
        <time>2025-08-23T13:07:15Z</time>
      </trkpt>
      <trkpt lat="24.91092997008958" lon="118.54333900130548">
        <ele>23.74725341796875</ele>
        <time>2025-08-23T13:07:24Z</time>
      </trkpt>
      <trkpt lat="24.911288845912722" lon="118.54330388998603">
        <ele>23.24591064453125</ele>
        <time>2025-08-23T13:07:36Z</time>
      </trkpt>
      <trkpt lat="24.91162465481392" lon="118.54323569871663">
        <ele>19.26031494140625</ele>
        <time>2025-08-23T13:07:48Z</time>
      </trkpt>
      <trkpt lat="24.911909474891598" lon="118.54316951575859">
        <ele>18.689208984375</ele>
        <time>2025-08-23T13:07:57Z</time>
      </trkpt>
      <trkpt lat="24.91218733408365" lon="118.54312137766959">
        <ele>20.783203125</ele>
        <time>2025-08-23T13:08:06Z</time>
      </trkpt>
      <trkpt lat="24.912536093828276" lon="118.54303113049173">
        <ele>21.9156494140625</ele>
        <time>2025-08-23T13:08:18Z</time>
      </trkpt>
      <trkpt lat="24.912815839417085" lon="118.54292986049248">
        <ele>21.90582275390625</ele>
        <time>2025-08-23T13:08:27Z</time>
      </trkpt>
      <trkpt lat="24.913101620140925" lon="118.54284563193715">
        <ele>22.9228515625</ele>
        <time>2025-08-23T13:08:36Z</time>
      </trkpt>
      <trkpt lat="24.91337745763418" lon="118.54278746849982">
        <ele>23.04730224609375</ele>
        <time>2025-08-23T13:08:45Z</time>
      </trkpt>
      <trkpt lat="24.913699228614153" lon="118.54270123198928">
        <ele>22.13946533203125</ele>
        <time>2025-08-23T13:08:57Z</time>
      </trkpt>
      <trkpt lat="24.913979018055585" lon="118.54262101307893">
        <ele>24.84881591796875</ele>
        <time>2025-08-23T13:09:06Z</time>
      </trkpt>
      <trkpt lat="24.914290779170233" lon="118.54252976421662">
        <ele>22.099609375</ele>
        <time>2025-08-23T13:09:18Z</time>
      </trkpt>
      <trkpt lat="24.91455156431626" lon="118.54244653859084">
        <ele>25.652099609375</ele>
        <time>2025-08-23T13:09:27Z</time>
      </trkpt>
      <trkpt lat="24.91490332573414" lon="118.54235829384116">
        <ele>25.8116455078125</ele>
        <time>2025-08-23T13:09:39Z</time>
      </trkpt>
      <trkpt lat="24.915170107373704" lon="118.54227406473717">
        <ele>24.420654296875</ele>
        <time>2025-08-23T13:09:48Z</time>
      </trkpt>
      <trkpt lat="24.915439862421785" lon="118.54217780501413">
        <ele>23.13751220703125</ele>
        <time>2025-08-23T13:09:57Z</time>
      </trkpt>
      <trkpt lat="24.915759586352767" lon="118.54207051378314">
        <ele>23.2965087890625</ele>
        <time>2025-08-23T13:10:09Z</time>
      </trkpt>
      <trkpt lat="24.916023408714867" lon="118.54200533180564">
        <ele>25.4754638671875</ele>
        <time>2025-08-23T13:10:18Z</time>
      </trkpt>
      <trkpt lat="24.916274132962954" lon="118.54189403457507">
        <ele>26.43792724609375</ele>
        <time>2025-08-23T13:10:27Z</time>
      </trkpt>
      <trkpt lat="24.91634098682027" lon="118.54183087091761">
        <ele>26.21844482421875</ele>
        <time>2025-08-23T13:10:30Z</time>
      </trkpt>
      <trkpt lat="24.916378792408132" lon="118.54174364845865">
        <ele>26.38946533203125</ele>
        <time>2025-08-23T13:10:33Z</time>
      </trkpt>
      <trkpt lat="24.91638857551669" lon="118.54164439727596">
        <ele>27.4698486328125</ele>
        <time>2025-08-23T13:10:36Z</time>
      </trkpt>
      <trkpt lat="24.91632077218133" lon="118.54127145736368">
        <ele>28.1126708984375</ele>
        <time>2025-08-23T13:10:48Z</time>
      </trkpt>
      <trkpt lat="24.91632409739041" lon="118.54096367358147">
        <ele>28.63641357421875</ele>
        <time>2025-08-23T13:10:57Z</time>
      </trkpt>
      <trkpt lat="24.91639645400021" lon="118.54067593280365">
        <ele>28.445556640625</ele>
        <time>2025-08-23T13:11:06Z</time>
      </trkpt>
      <trkpt lat="24.91650684249787" lon="118.54040623269618">
        <ele>31.21075439453125</ele>
        <time>2025-08-23T13:11:15Z</time>
      </trkpt>
      <trkpt lat="24.91659419835977" lon="118.54012149262904">
        <ele>29.068115234375</ele>
        <time>2025-08-23T13:11:24Z</time>
      </trkpt>
      <trkpt lat="24.91669956469511" lon="118.53984376649">
        <ele>25.16412353515625</ele>
        <time>2025-08-23T13:11:33Z</time>
      </trkpt>
      <trkpt lat="24.916848843643578" lon="118.53953094304572">
        <ele>17.44989013671875</ele>
        <time>2025-08-23T13:11:45Z</time>
      </trkpt>
      <trkpt lat="24.917010025057568" lon="118.53917700757977">
        <ele>17.89190673828125</ele>
        <time>2025-08-23T13:11:57Z</time>
      </trkpt>
      <trkpt lat="24.917135395900058" lon="118.5389062888215">
        <ele>22.340087890625</ele>
        <time>2025-08-23T13:12:06Z</time>
      </trkpt>
      <trkpt lat="24.917249715785992" lon="118.53861350997055">
        <ele>23.22210693359375</ele>
        <time>2025-08-23T13:12:15Z</time>
      </trkpt>
      <trkpt lat="24.917357011009713" lon="118.53831070193635">
        <ele>23.53497314453125</ele>
        <time>2025-08-23T13:12:24Z</time>
      </trkpt>
      <trkpt lat="24.91748430969037" lon="118.53801189986665">
        <ele>23.88958740234375</ele>
        <time>2025-08-23T13:12:33Z</time>
      </trkpt>
      <trkpt lat="24.91760152152752" lon="118.53767599618858">
        <ele>19.2135009765625</ele>
        <time>2025-08-23T13:12:45Z</time>
      </trkpt>
      <trkpt lat="24.917713874234533" lon="118.53740225560563">
        <ele>21.24951171875</ele>
        <time>2025-08-23T13:12:54Z</time>
      </trkpt>
      <trkpt lat="24.91784023890293" lon="118.53713553027426">
        <ele>21.70416259765625</ele>
        <time>2025-08-23T13:13:03Z</time>
      </trkpt>
      <trkpt lat="24.918012452458054" lon="118.53680763398687">
        <ele>21.04986572265625</ele>
        <time>2025-08-23T13:13:15Z</time>
      </trkpt>
      <trkpt lat="24.918156819028408" lon="118.53654491268854">
        <ele>22.39105224609375</ele>
        <time>2025-08-23T13:13:24Z</time>
      </trkpt>
      <trkpt lat="24.918276172849193" lon="118.53627617435022">
        <ele>23.44171142578125</ele>
        <time>2025-08-23T13:13:33Z</time>
      </trkpt>
      <trkpt lat="24.918461371128938" lon="118.53594626182674">
        <ele>22.8350830078125</ele>
        <time>2025-08-23T13:13:45Z</time>
      </trkpt>
      <trkpt lat="24.91855169087862" lon="118.5356634814408">
        <ele>23.71527099609375</ele>
        <time>2025-08-23T13:13:54Z</time>
      </trkpt>
      <trkpt lat="24.918687825549714" lon="118.53530649080771">
        <ele>23.32763671875</ele>
        <time>2025-08-23T13:14:06Z</time>
      </trkpt>
      <trkpt lat="24.918720592095276" lon="118.53521022319997">
        <ele>23.781982421875</ele>
        <time>2025-08-23T13:14:09Z</time>
      </trkpt>
      <trkpt lat="24.91873137338527" lon="118.53511897065331">
        <ele>24.6915283203125</ele>
        <time>2025-08-23T13:14:12Z</time>
      </trkpt>
      <trkpt lat="24.918719167211307" lon="118.53503173051352">
        <ele>24.827880859375</ele>
        <time>2025-08-23T13:14:15Z</time>
      </trkpt>
      <trkpt lat="24.918773989701545" lon="118.53496052982652">
        <ele>24.85845947265625</ele>
        <time>2025-08-23T13:14:18Z</time>
      </trkpt>
      <trkpt lat="24.918855915987045" lon="118.53493445197755">
        <ele>25.12579345703125</ele>
        <time>2025-08-23T13:14:21Z</time>
      </trkpt>
      <trkpt lat="24.918855915987045" lon="118.53493445197755">
        <ele>25.12579345703125</ele>
        <time>2025-08-23T13:14:24Z</time>
      </trkpt>
      <trkpt lat="24.918894929665065" lon="118.53494247145318">
        <ele>26.5789794921875</ele>
        <time>2025-08-23T13:15:57Z</time>
      </trkpt>
      <trkpt lat="24.91913999818716" lon="118.53498557363001">
        <ele>27.165283203125</ele>
        <time>2025-08-23T13:16:06Z</time>
      </trkpt>
      <trkpt lat="24.919237087404944" lon="118.5350286860676">
        <ele>26.9324951171875</ele>
        <time>2025-08-23T13:16:09Z</time>
      </trkpt>
      <trkpt lat="24.91933711162399" lon="118.53504472343108">
        <ele>26.05517578125</ele>
        <time>2025-08-23T13:16:12Z</time>
      </trkpt>
      <trkpt lat="24.91943602841224" lon="118.53501563615494">
        <ele>25.6243896484375</ele>
        <time>2025-08-23T13:16:15Z</time>
      </trkpt>
      <trkpt lat="24.919719050863073" lon="118.53504168847236">
        <ele>27.19122314453125</ele>
        <time>2025-08-23T13:16:24Z</time>
      </trkpt>
      <trkpt lat="24.920006149166966" lon="118.53509982911456">
        <ele>27.57025146484375</ele>
        <time>2025-08-23T13:16:33Z</time>
      </trkpt>
      <trkpt lat="24.920288252834354" lon="118.53515997552516">
        <ele>25.99700927734375</ele>
        <time>2025-08-23T13:16:42Z</time>
      </trkpt>
      <trkpt lat="24.920667404756383" lon="118.53524618692425">
        <ele>27.28619384765625</ele>
        <time>2025-08-23T13:16:54Z</time>
      </trkpt>
      <trkpt lat="24.920933534203648" lon="118.53531636177064">
        <ele>27.1678466796875</ele>
        <time>2025-08-23T13:17:03Z</time>
      </trkpt>
      <trkpt lat="24.92120266307231" lon="118.53538653624027">
        <ele>27.3204345703125</ele>
        <time>2025-08-23T13:17:12Z</time>
      </trkpt>
      <trkpt lat="24.921491819879392" lon="118.53546974498356">
        <ele>27.9957275390625</ele>
        <time>2025-08-23T13:17:21Z</time>
      </trkpt>
      <trkpt lat="24.92175595385749" lon="118.53554192494298">
        <ele>28.25115966796875</ele>
        <time>2025-08-23T13:17:30Z</time>
      </trkpt>
      <trkpt lat="24.92192109684096" lon="118.5356121061264">
        <ele>29.03546142578125</ele>
        <time>2025-08-23T13:17:36Z</time>
      </trkpt>
      <trkpt lat="24.921996204903476" lon="118.53566223842903">
        <ele>29.02008056640625</ele>
        <time>2025-08-23T13:17:39Z</time>
      </trkpt>
      <trkpt lat="24.92203731529904" lon="118.53571137026869">
        <ele>29.39892578125</ele>
        <time>2025-08-23T13:17:42Z</time>
      </trkpt>
      <trkpt lat="24.92206360290384" lon="118.53583470621216">
        <ele>30.1734619140625</ele>
        <time>2025-08-23T13:17:45Z</time>
      </trkpt>
      <trkpt lat="24.922181888920555" lon="118.53596304891282">
        <ele>30.354736328125</ele>
        <time>2025-08-23T13:17:52Z</time>
      </trkpt>
      <trkpt lat="24.92226125771965" lon="118.53612448399976">
        <ele>30.98944091796875</ele>
        <time>2025-08-23T13:17:57Z</time>
      </trkpt>
      <trkpt lat="24.922355505959445" lon="118.53623578068398">
        <ele>31.40899658203125</ele>
        <time>2025-08-23T13:18:04Z</time>
      </trkpt>
      <trkpt lat="24.92244166795905" lon="118.53630997660757">
        <ele>31.8096923828125</ele>
        <time>2025-08-23T13:18:07Z</time>
      </trkpt>
      <trkpt lat="24.922688856469325" lon="118.53640521832558">
        <ele>32.3514404296875</ele>
        <time>2025-08-23T13:18:16Z</time>
      </trkpt>
      <trkpt lat="24.92286185796545" lon="118.53641623622423">
        <ele>31.96630859375</ele>
        <time>2025-08-23T13:18:22Z</time>
      </trkpt>
      <trkpt lat="24.923035739533557" lon="118.53637611511591">
        <ele>33.13330078125</ele>
        <time>2025-08-23T13:18:28Z</time>
      </trkpt>
      <trkpt lat="24.923193562172468" lon="118.53630992416686">
        <ele>33.26025390625</ele>
        <time>2025-08-23T13:18:34Z</time>
      </trkpt>
      <trkpt lat="24.92351283444456" lon="118.53644526979951">
        <ele>32.2073974609375</ele>
        <time>2025-08-23T13:18:46Z</time>
      </trkpt>
      <trkpt lat="24.923593848861675" lon="118.53645629409823">
        <ele>33.51641845703125</ele>
        <time>2025-08-23T13:18:49Z</time>
      </trkpt>
      <trkpt lat="24.92376577300938" lon="118.5364342222053">
        <ele>32.4652099609375</ele>
        <time>2025-08-23T13:18:55Z</time>
      </trkpt>
      <trkpt lat="24.923856823572702" lon="118.53646128936911">
        <ele>32.51824951171875</ele>
        <time>2025-08-23T13:18:58Z</time>
      </trkpt>
      <trkpt lat="24.924002056428847" lon="118.53656957304086">
        <ele>31.79541015625</ele>
        <time>2025-08-23T13:19:04Z</time>
      </trkpt>
      <trkpt lat="24.924254605825176" lon="118.53682023394916">
        <ele>32.50347900390625</ele>
        <time>2025-08-23T13:19:16Z</time>
      </trkpt>
      <trkpt lat="24.924566946832847" lon="118.53698565878412">
        <ele>33.41314697265625</ele>
        <time>2025-08-23T13:19:28Z</time>
      </trkpt>
      <trkpt lat="24.92491509578147" lon="118.53707086420565">
        <ele>33.38177490234375</ele>
        <time>2025-08-23T13:19:40Z</time>
      </trkpt>
      <trkpt lat="24.92499815157902" lon="118.53709993672342">
        <ele>32.7523193359375</ele>
        <time>2025-08-23T13:19:43Z</time>
      </trkpt>
      <trkpt lat="24.92502435023423" lon="118.5371871696462">
        <ele>31.60028076171875</ele>
        <time>2025-08-23T13:19:46Z</time>
      </trkpt>
      <trkpt lat="24.925050799177114" lon="118.53738269298692">
        <ele>31.2269287109375</ele>
        <time>2025-08-23T13:19:52Z</time>
      </trkpt>
      <trkpt lat="24.92510296097778" lon="118.53745588560881">
        <ele>31.92291259765625</ele>
        <time>2025-08-23T13:19:55Z</time>
      </trkpt>
      <trkpt lat="24.925193980570032" lon="118.53746991687929">
        <ele>31.67364501953125</ele>
        <time>2025-08-23T13:19:58Z</time>
      </trkpt>
      <trkpt lat="24.925477866438833" lon="118.5374378110926">
        <ele>32.40350341796875</ele>
        <time>2025-08-23T13:20:07Z</time>
      </trkpt>
      <trkpt lat="24.92573465408393" lon="118.53736158880885">
        <ele>32.0836181640625</ele>
        <time>2025-08-23T13:20:16Z</time>
      </trkpt>
      <trkpt lat="24.925824643713685" lon="118.53736258522437">
        <ele>31.994873046875</ele>
        <time>2025-08-23T13:20:19Z</time>
      </trkpt>
      <trkpt lat="24.92599677242109" lon="118.537428750718">
        <ele>31.05438232421875</ele>
        <time>2025-08-23T13:20:25Z</time>
      </trkpt>
      <trkpt lat="24.92623608121574" lon="118.53757713148786">
        <ele>29.66156005859375</ele>
        <time>2025-08-23T13:20:34Z</time>
      </trkpt>
      <trkpt lat="24.92647339651297" lon="118.53772851964624">
        <ele>28.57867431640625</ele>
        <time>2025-08-23T13:20:43Z</time>
      </trkpt>
      <trkpt lat="24.92671269928538" lon="118.53787489348802">
        <ele>28.659423828125</ele>
        <time>2025-08-23T13:20:52Z</time>
      </trkpt>
      <trkpt lat="24.926953015016636" lon="118.53802728249416">
        <ele>28.83837890625</ele>
        <time>2025-08-23T13:21:01Z</time>
      </trkpt>
      <trkpt lat="24.927188344463975" lon="118.53818568698208">
        <ele>28.77655029296875</ele>
        <time>2025-08-23T13:21:10Z</time>
      </trkpt>
      <trkpt lat="24.92747679823801" lon="118.53840224081118">
        <ele>29.40338134765625</ele>
        <time>2025-08-23T13:21:22Z</time>
      </trkpt>
      <trkpt lat="24.927707135600745" lon="118.53856465409646">
        <ele>28.7529296875</ele>
        <time>2025-08-23T13:21:31Z</time>
      </trkpt>
      <trkpt lat="24.92793847424428" lon="118.53872806899825">
        <ele>28.385009765625</ele>
        <time>2025-08-23T13:21:40Z</time>
      </trkpt>
      <trkpt lat="24.928151866758764" lon="118.53891454478604">
        <ele>28.978271484375</ele>
        <time>2025-08-23T13:21:49Z</time>
      </trkpt>
      <trkpt lat="24.92843437280974" lon="118.53915615895957">
        <ele>28.74053955078125</ele>
        <time>2025-08-23T13:22:01Z</time>
      </trkpt>
      <trkpt lat="24.928718876674196" lon="118.53939777085786">
        <ele>28.8125</ele>
        <time>2025-08-23T13:22:13Z</time>
      </trkpt>
      <trkpt lat="24.92892429994959" lon="118.53959928177666">
        <ele>27.78338623046875</ele>
        <time>2025-08-23T13:22:22Z</time>
      </trkpt>
      <trkpt lat="24.92914466152064" lon="118.53977472249451">
        <ele>27.3653564453125</ele>
        <time>2025-08-23T13:22:31Z</time>
      </trkpt>
      <trkpt lat="24.929359056446902" lon="118.53996520143154">
        <ele>27.49285888671875</ele>
        <time>2025-08-23T13:22:40Z</time>
      </trkpt>
      <trkpt lat="24.92961757091236" lon="118.5402128234443">
        <ele>27.27752685546875</ele>
        <time>2025-08-23T13:22:52Z</time>
      </trkpt>
      <trkpt lat="24.92989905790817" lon="118.54045041579717">
        <ele>26.0396728515625</ele>
        <time>2025-08-23T13:23:04Z</time>
      </trkpt>
      <trkpt lat="24.930160579004195" lon="118.54070304595727">
        <ele>26.36138916015625</ele>
        <time>2025-08-23T13:23:16Z</time>
      </trkpt>
      <trkpt lat="24.930201765354898" lon="118.54079026637744">
        <ele>26.0667724609375</ele>
        <time>2025-08-23T13:23:19Z</time>
      </trkpt>
      <trkpt lat="24.930284826435617" lon="118.54082334521166">
        <ele>26.9671630859375</ele>
        <time>2025-08-23T13:23:22Z</time>
      </trkpt>
      <trkpt lat="24.93050620712192" lon="118.54101080852972">
        <ele>27.24542236328125</ele>
        <time>2025-08-23T13:23:31Z</time>
      </trkpt>
      <trkpt lat="24.930718601058462" lon="118.54120428644373">
        <ele>26.5760498046875</ele>
        <time>2025-08-23T13:23:40Z</time>
      </trkpt>
      <trkpt lat="24.93093396706477" lon="118.5413857322282">
        <ele>27.1240234375</ele>
        <time>2025-08-23T13:23:49Z</time>
      </trkpt>
      <trkpt lat="24.931219459384593" lon="118.54163033153321">
        <ele>27.14129638671875</ele>
        <time>2025-08-23T13:24:01Z</time>
      </trkpt>
      <trkpt lat="24.931426863002184" lon="118.54182982039457">
        <ele>25.939453125</ele>
        <time>2025-08-23T13:24:10Z</time>
      </trkpt>
      <trkpt lat="24.931632256885703" lon="118.54202529780314">
        <ele>26.8468017578125</ele>
        <time>2025-08-23T13:24:19Z</time>
      </trkpt>
      <trkpt lat="24.931843642137768" lon="118.54221776579774">
        <ele>26.35711669921875</ele>
        <time>2025-08-23T13:24:28Z</time>
      </trkpt>
      <trkpt lat="24.93210117447348" lon="118.54248240926961">
        <ele>25.49114990234375</ele>
        <time>2025-08-23T13:24:40Z</time>
      </trkpt>
      <trkpt lat="24.932377658891287" lon="118.54272699890977">
        <ele>24.43133544921875</ele>
        <time>2025-08-23T13:24:52Z</time>
      </trkpt>
      <trkpt lat="24.93258703977723" lon="118.54291946182862">
        <ele>25.09033203125</ele>
        <time>2025-08-23T13:25:01Z</time>
      </trkpt>
      <trkpt lat="24.932722302121906" lon="118.54305177985509">
        <ele>26.020263671875</ele>
        <time>2025-08-23T13:25:07Z</time>
      </trkpt>
      <trkpt lat="24.93280165252844" lon="118.54322219503423">
        <ele>26.75970458984375</ele>
        <time>2025-08-23T13:25:13Z</time>
      </trkpt>
      <trkpt lat="24.93277785967576" lon="118.54331843376399">
        <ele>25.73687744140625</ele>
        <time>2025-08-23T13:25:16Z</time>
      </trkpt>
      <trkpt lat="24.93279004234543" lon="118.54340564745002">
        <ele>26.546142578125</ele>
        <time>2025-08-23T13:25:19Z</time>
      </trkpt>
      <trkpt lat="24.93275322111562" lon="118.5434878519456">
        <ele>26.83819580078125</ele>
        <time>2025-08-23T13:25:22Z</time>
      </trkpt>
      <trkpt lat="24.932515877152923" lon="118.54378359273647">
        <ele>29.76043701171875</ele>
        <time>2025-08-23T13:25:34Z</time>
      </trkpt>
      <trkpt lat="24.932276528312414" lon="118.54407832777997">
        <ele>31.339599609375</ele>
        <time>2025-08-23T13:25:46Z</time>
      </trkpt>
      <trkpt lat="24.932021130743905" lon="118.54435000469361">
        <ele>32.5841064453125</ele>
        <time>2025-08-23T13:25:58Z</time>
      </trkpt>
      <trkpt lat="24.931749662263933" lon="118.54458759762439">
        <ele>32.9163818359375</ele>
        <time>2025-08-23T13:26:10Z</time>
      </trkpt>
      <trkpt lat="24.931467174724972" lon="118.5448161673973">
        <ele>33.04473876953125</ele>
        <time>2025-08-23T13:26:22Z</time>
      </trkpt>
      <trkpt lat="24.931171648020133" lon="118.5450256903976">
        <ele>33.10064697265625</ele>
        <time>2025-08-23T13:26:34Z</time>
      </trkpt>
      <trkpt lat="24.930866100626606" lon="118.5452251884169">
        <ele>32.82733154296875</ele>
        <time>2025-08-23T13:26:46Z</time>
      </trkpt>
      <trkpt lat="24.930556517578808" lon="118.54540764458572">
        <ele>33.8095703125</ele>
        <time>2025-08-23T13:26:58Z</time>
      </trkpt>
      <trkpt lat="24.930302790680354" lon="118.54552393855465">
        <ele>32.90472412109375</ele>
        <time>2025-08-23T13:27:07Z</time>
      </trkpt>
      <trkpt lat="24.92997717330784" lon="118.5456893533018">
        <ele>32.52508544921875</ele>
        <time>2025-08-23T13:27:19Z</time>
      </trkpt>
      <trkpt lat="24.92964349513748" lon="118.54582469649526">
        <ele>33.13226318359375</ele>
        <time>2025-08-23T13:27:31Z</time>
      </trkpt>
      <trkpt lat="24.929301793103363" lon="118.54594801115634">
        <ele>31.17047119140625</ele>
        <time>2025-08-23T13:27:43Z</time>
      </trkpt>
      <trkpt lat="24.929043024153433" lon="118.5460442557639">
        <ele>31.54144287109375</ele>
        <time>2025-08-23T13:27:52Z</time>
      </trkpt>
      <trkpt lat="24.928704302524025" lon="118.54615854793161">
        <ele>31.57281494140625</ele>
        <time>2025-08-23T13:28:04Z</time>
      </trkpt>
      <trkpt lat="24.928439493344825" lon="118.54623474512643">
        <ele>30.33087158203125</ele>
        <time>2025-08-23T13:28:13Z</time>
      </trkpt>
      <trkpt lat="24.928170656312965" lon="118.54629690949353">
        <ele>29.92779541015625</ele>
        <time>2025-08-23T13:28:22Z</time>
      </trkpt>
      <trkpt lat="24.927905872889188" lon="118.54638613673718">
        <ele>29.03851318359375</ele>
        <time>2025-08-23T13:28:31Z</time>
      </trkpt>
      <trkpt lat="24.92764408472993" lon="118.54647335876456">
        <ele>28.71331787109375</ele>
        <time>2025-08-23T13:28:40Z</time>
      </trkpt>
      <trkpt lat="24.927553133717833" lon="118.54649140722124">
        <ele>29.0728759765625</ele>
        <time>2025-08-23T13:28:43Z</time>
      </trkpt>
      <trkpt lat="24.92746213652581" lon="118.54648640184938">
        <ele>28.7999267578125</ele>
        <time>2025-08-23T13:28:46Z</time>
      </trkpt>
      <trkpt lat="24.927384213770047" lon="118.54651948448037">
        <ele>28.9873046875</ele>
        <time>2025-08-23T13:28:49Z</time>
      </trkpt>
      <trkpt lat="24.9273373367189" lon="118.54657762333629">
        <ele>29.01275634765625</ele>
        <time>2025-08-23T13:28:52Z</time>
      </trkpt>
      <trkpt lat="24.927311396496624" lon="118.54660569055085">
        <ele>29.19561767578125</ele>
        <time>2025-08-23T13:28:58Z</time>
      </trkpt>
      <trkpt lat="24.92716349748956" lon="118.5466457942252">
        <ele>28.62109375</ele>
        <time>2025-08-23T13:29:04Z</time>
      </trkpt>
      <trkpt lat="24.927155402486385" lon="118.54659768271581">
        <ele>26.8885498046875</ele>
        <time>2025-08-23T13:29:19Z</time>
      </trkpt>
      <trkpt lat="24.926846708253112" lon="118.54672900982683">
        <ele>27.684814453125</ele>
        <time>2025-08-23T13:29:31Z</time>
      </trkpt>
      <trkpt lat="24.92668695446737" lon="118.54684128168707">
        <ele>28.864990234375</ele>
        <time>2025-08-23T13:29:37Z</time>
      </trkpt>
      <trkpt lat="24.926404223541052" lon="118.54695656854479">
        <ele>31.161865234375</ele>
        <time>2025-08-23T13:29:46Z</time>
      </trkpt>
      <trkpt lat="24.926129487019566" lon="118.54706984966569">
        <ele>32.09814453125</ele>
        <time>2025-08-23T13:29:55Z</time>
      </trkpt>
      <trkpt lat="24.92585480352534" lon="118.54721019265313">
        <ele>33.49932861328125</ele>
        <time>2025-08-23T13:30:04Z</time>
      </trkpt>
      <trkpt lat="24.92558104997651" lon="118.54731545406983">
        <ele>33.560546875</ele>
        <time>2025-08-23T13:30:13Z</time>
      </trkpt>
      <trkpt lat="24.925318251038192" lon="118.54739866361538">
        <ele>33.140625</ele>
        <time>2025-08-23T13:30:22Z</time>
      </trkpt>
      <trkpt lat="24.9250514898469" lon="118.54750091682796">
        <ele>33.37115478515625</ele>
        <time>2025-08-23T13:30:31Z</time>
      </trkpt>
      <trkpt lat="24.924782716743984" lon="118.54759715597994">
        <ele>34.7088623046875</ele>
        <time>2025-08-23T13:30:40Z</time>
      </trkpt>
      <trkpt lat="24.92451595086302" lon="118.54769740376871">
        <ele>35.146240234375</ele>
        <time>2025-08-23T13:30:49Z</time>
      </trkpt>
      <trkpt lat="24.924258181376178" lon="118.54779664822735">
        <ele>34.80242919921875</ele>
        <time>2025-08-23T13:30:58Z</time>
      </trkpt>
      <trkpt lat="24.923995380924087" lon="118.5478798561073">
        <ele>34.0638427734375</ele>
        <time>2025-08-23T13:31:07Z</time>
      </trkpt>
      <trkpt lat="24.92373759122353" lon="118.54796907702436">
        <ele>33.68609619140625</ele>
        <time>2025-08-23T13:31:16Z</time>
      </trkpt>
      <trkpt lat="24.923469753872073" lon="118.54803324141324">
        <ele>32.41680908203125</ele>
        <time>2025-08-23T13:31:25Z</time>
      </trkpt>
      <trkpt lat="24.9231270281767" lon="118.54814952900618">
        <ele>31.6177978515625</ele>
        <time>2025-08-23T13:31:37Z</time>
      </trkpt>
      <trkpt lat="24.922949191321965" lon="118.5482207025335">
        <ele>31.4232177734375</ele>
        <time>2025-08-23T13:31:43Z</time>
      </trkpt>
      <trkpt lat="24.922624398244242" lon="118.54830391324646">
        <ele>29.24176025390625</ele>
        <time>2025-08-23T13:31:55Z</time>
      </trkpt>
      <trkpt lat="24.922295729383837" lon="118.54845126858388">
        <ele>29.00115966796875</ele>
        <time>2025-08-23T13:32:07Z</time>
      </trkpt>
      <trkpt lat="24.92203499030503" lon="118.5485675484384">
        <ele>30.23651123046875</ele>
        <time>2025-08-23T13:32:16Z</time>
      </trkpt>
      <trkpt lat="24.921765199951686" lon="118.5486567676162">
        <ele>31.32354736328125</ele>
        <time>2025-08-23T13:32:25Z</time>
      </trkpt>
      <trkpt lat="24.92158431208839" lon="118.54870188140015">
        <ele>29.31109619140625</ele>
        <time>2025-08-23T13:32:31Z</time>
      </trkpt>
      <trkpt lat="24.921251639639554" lon="118.54884823230618">
        <ele>29.50830078125</ele>
        <time>2025-08-23T13:32:43Z</time>
      </trkpt>
      <trkpt lat="24.921078786763548" lon="118.54891238772124">
        <ele>30.48828125</ele>
        <time>2025-08-23T13:32:49Z</time>
      </trkpt>
      <trkpt lat="24.920804953662294" lon="118.54897955668991">
        <ele>30.1480712890625</ele>
        <time>2025-08-23T13:32:58Z</time>
      </trkpt>
      <trkpt lat="24.920539191917303" lon="118.54908480975288">
        <ele>30.11846923828125</ele>
        <time>2025-08-23T13:33:07Z</time>
      </trkpt>
      <trkpt lat="24.920272464214147" lon="118.54920810250258">
        <ele>31.18756103515625</ele>
        <time>2025-08-23T13:33:16Z</time>
      </trkpt>
      <trkpt lat="24.920013731002992" lon="118.54932938960927">
        <ele>32.275146484375</ele>
        <time>2025-08-23T13:33:25Z</time>
      </trkpt>
      <trkpt lat="24.919747945066128" lon="118.54942261450424">
        <ele>32.686279296875</ele>
        <time>2025-08-23T13:33:34Z</time>
      </trkpt>
      <trkpt lat="24.91947514271774" lon="118.54950681959238">
        <ele>32.0872802734375</ele>
        <time>2025-08-23T13:33:43Z</time>
      </trkpt>
      <trkpt lat="24.9192113463984" lon="118.54959503259438">
        <ele>32.706298828125</ele>
        <time>2025-08-23T13:33:52Z</time>
      </trkpt>
      <trkpt lat="24.919124354816745" lon="118.54959303421822">
        <ele>31.98956298828125</ele>
        <time>2025-08-23T13:33:55Z</time>
      </trkpt>
      <trkpt lat="24.919124354816745" lon="118.54959303421822">
        <ele>31.98956298828125</ele>
        <time>2025-08-23T13:33:57Z</time>
      </trkpt>
      <trkpt lat="24.918991324261455" lon="118.54956698597725">
        <ele>33.80291748046875</ele>
        <time>2025-08-23T13:35:22Z</time>
      </trkpt>
      <trkpt lat="24.918888370882474" lon="118.54958403072006">
        <ele>30.97796630859375</ele>
        <time>2025-08-23T13:35:28Z</time>
      </trkpt>
      <trkpt lat="24.918800462671445" lon="118.5496261296427">
        <ele>29.94384765625</ele>
        <time>2025-08-23T13:35:31Z</time>
      </trkpt>
      <trkpt lat="24.91870865314347" lon="118.54972034347632">
        <ele>29.31878662109375</ele>
        <time>2025-08-23T13:35:34Z</time>
      </trkpt>
      <trkpt lat="24.918408940223546" lon="118.54985065058237">
        <ele>28.12982177734375</ele>
        <time>2025-08-23T13:35:43Z</time>
      </trkpt>
      <trkpt lat="24.918112216840214" lon="118.54997594578596">
        <ele>30.3087158203125</ele>
        <time>2025-08-23T13:35:52Z</time>
      </trkpt>
      <trkpt lat="24.917822441289285" lon="118.55007418072603">
        <ele>32.1907958984375</ele>
        <time>2025-08-23T13:36:01Z</time>
      </trkpt>
      <trkpt lat="24.917558740228216" lon="118.55021450519868">
        <ele>34.14776611328125</ele>
        <time>2025-08-23T13:36:10Z</time>
      </trkpt>
      <trkpt lat="24.917291988510158" lon="118.55032777022369">
        <ele>33.9444580078125</ele>
        <time>2025-08-23T13:36:19Z</time>
      </trkpt>
      <trkpt lat="24.91702618220306" lon="118.55041197156632">
        <ele>32.47808837890625</ele>
        <time>2025-08-23T13:36:28Z</time>
      </trkpt>
      <trkpt lat="24.916758420469204" lon="118.5505202248478">
        <ele>31.0706787109375</ele>
        <time>2025-08-23T13:36:37Z</time>
      </trkpt>
      <trkpt lat="24.91649363191766" lon="118.55061444709044">
        <ele>30.34063720703125</ele>
        <time>2025-08-23T13:36:46Z</time>
      </trkpt>
      <trkpt lat="24.916226835898264" lon="118.55070466043951">
        <ele>31.54327392578125</ele>
        <time>2025-08-23T13:36:55Z</time>
      </trkpt>
      <trkpt lat="24.915965049934858" lon="118.55080088604146">
        <ele>30.91290283203125</ele>
        <time>2025-08-23T13:37:04Z</time>
      </trkpt>
      <trkpt lat="24.915704248727675" lon="118.55088909393882">
        <ele>30.5133056640625</ele>
        <time>2025-08-23T13:37:13Z</time>
      </trkpt>
      <trkpt lat="24.915435435455365" lon="118.55097028699885">
        <ele>30.54095458984375</ele>
        <time>2025-08-23T13:37:22Z</time>
      </trkpt>
      <trkpt lat="24.915178642276217" lon="118.5510635047079">
        <ele>30.00054931640625</ele>
        <time>2025-08-23T13:37:31Z</time>
      </trkpt>
      <trkpt lat="24.91491985452971" lon="118.55115972860838">
        <ele>29.10479736328125</ele>
        <time>2025-08-23T13:37:40Z</time>
      </trkpt>
      <trkpt lat="24.914649024199527" lon="118.55123190159958">
        <ele>29.97607421875</ele>
        <time>2025-08-23T13:37:49Z</time>
      </trkpt>
      <trkpt lat="24.914385221901306" lon="118.55132010805859">
        <ele>30.0968017578125</ele>
        <time>2025-08-23T13:37:58Z</time>
      </trkpt>
      <trkpt lat="24.914205265290054" lon="118.5513301419135">
        <ele>30.2567138671875</ele>
        <time>2025-08-23T13:38:04Z</time>
      </trkpt>
      <trkpt lat="24.914047405926173" lon="118.55139529159707">
        <ele>30.211181640625</ele>
        <time>2025-08-23T13:38:10Z</time>
      </trkpt>
      <trkpt lat="24.913966406292857" lon="118.55138928442447">
        <ele>30.11212158203125</ele>
        <time>2025-08-23T13:38:13Z</time>
      </trkpt>
      <trkpt lat="24.913891356570712" lon="118.55135621922268">
        <ele>30.31768798828125</ele>
        <time>2025-08-23T13:38:16Z</time>
      </trkpt>
      <trkpt lat="24.91382041208115" lon="118.55138127749696">
        <ele>30.2828369140625</ele>
        <time>2025-08-23T13:38:19Z</time>
      </trkpt>
      <trkpt lat="24.913757737590544" lon="118.55155565239507">
        <ele>29.60150146484375</ele>
        <time>2025-08-23T13:38:25Z</time>
      </trkpt>
      <trkpt lat="24.91371089299887" lon="118.55163782981512">
        <ele>29.42626953125</ele>
        <time>2025-08-23T13:38:28Z</time>
      </trkpt>
      <trkpt lat="24.91364101875983" lon="118.55170197039831">
        <ele>29.8609619140625</ele>
        <time>2025-08-23T13:38:31Z</time>
      </trkpt>
      <trkpt lat="24.913373256946038" lon="118.5518132239745">
        <ele>30.4725341796875</ele>
        <time>2025-08-23T13:38:40Z</time>
      </trkpt>
      <trkpt lat="24.913111529847303" lon="118.55194451877651">
        <ele>30.092041015625</ele>
        <time>2025-08-23T13:38:49Z</time>
      </trkpt>
      <trkpt lat="24.912838782040218" lon="118.5520637883507">
        <ele>31.57611083984375</ele>
        <time>2025-08-23T13:38:58Z</time>
      </trkpt>
      <trkpt lat="24.912570029526453" lon="118.55218105282835">
        <ele>31.32879638671875</ele>
        <time>2025-08-23T13:39:07Z</time>
      </trkpt>
      <trkpt lat="24.912304225971344" lon="118.55227025786922">
        <ele>30.70037841796875</ele>
        <time>2025-08-23T13:39:16Z</time>
      </trkpt>
      <trkpt lat="24.912040396815748" lon="118.55234543315103">
        <ele>29.710205078125</ele>
        <time>2025-08-23T13:39:25Z</time>
      </trkpt>
      <trkpt lat="24.91180756132926" lon="118.55241960394505">
        <ele>25.40850830078125</ele>
        <time>2025-08-23T13:39:34Z</time>
      </trkpt>
      <trkpt lat="24.91151271110458" lon="118.55248075169735">
        <ele>26.04656982421875</ele>
        <time>2025-08-23T13:39:43Z</time>
      </trkpt>
      <trkpt lat="24.91122284935393" lon="118.55253588644233">
        <ele>27.50872802734375</ele>
        <time>2025-08-23T13:39:52Z</time>
      </trkpt>
      <trkpt lat="24.911032911358156" lon="118.55255594127523">
        <ele>28.45831298828125</ele>
        <time>2025-08-23T13:39:58Z</time>
      </trkpt>
      <trkpt lat="24.910939895847253" lon="118.55253991441484">
        <ele>29.027099609375</ele>
        <time>2025-08-23T13:40:01Z</time>
      </trkpt>
      <trkpt lat="24.910860805401512" lon="118.55248280112114">
        <ele>29.12664794921875</ele>
        <time>2025-08-23T13:40:04Z</time>
      </trkpt>
      <trkpt lat="24.910802661968315" lon="118.55239762775777">
        <ele>28.03533935546875</ele>
        <time>2025-08-23T13:40:07Z</time>
      </trkpt>
      <trkpt lat="24.910695179374475" lon="118.55211905279954">
        <ele>29.18603515625</ele>
        <time>2025-08-23T13:40:16Z</time>
      </trkpt>
      <trkpt lat="24.91057370653726" lon="118.5518464881009">
        <ele>30.453125</ele>
        <time>2025-08-23T13:40:25Z</time>
      </trkpt>
      <trkpt lat="24.910448215021983" lon="118.55156490131843">
        <ele>29.57550048828125</ele>
        <time>2025-08-23T13:40:34Z</time>
      </trkpt>
      <trkpt lat="24.910376899119637" lon="118.5513855251366">
        <ele>29.70330810546875</ele>
        <time>2025-08-23T13:40:40Z</time>
      </trkpt>
      <trkpt lat="24.910363714734" lon="118.55128330824567">
        <ele>29.724853515625</ele>
        <time>2025-08-23T13:40:43Z</time>
      </trkpt>
      <trkpt lat="24.910299606599143" lon="118.55121917580313">
        <ele>30.33038330078125</ele>
        <time>2025-08-23T13:40:46Z</time>
      </trkpt>
      <trkpt lat="24.9101751301998" lon="118.55094960711924">
        <ele>30.62615966796875</ele>
        <time>2025-08-23T13:40:55Z</time>
      </trkpt>
      <trkpt lat="24.910044472143213" lon="118.55058282564988">
        <ele>31.1778564453125</ele>
        <time>2025-08-23T13:41:07Z</time>
      </trkpt>
      <trkpt lat="24.909912973345314" lon="118.55030423045041">
        <ele>33.22076416015625</ele>
        <time>2025-08-23T13:41:16Z</time>
      </trkpt>
      <trkpt lat="24.90979348116829" lon="118.5500316442422">
        <ele>34.89251708984375</ele>
        <time>2025-08-23T13:41:25Z</time>
      </trkpt>
      <trkpt lat="24.909686980583995" lon="118.54975704955211">
        <ele>36.2921142578125</ele>
        <time>2025-08-23T13:41:34Z</time>
      </trkpt>
      <trkpt lat="24.909544330310045" lon="118.54940227682978">
        <ele>34.282470703125</ele>
        <time>2025-08-23T13:41:46Z</time>
      </trkpt>
      <trkpt lat="24.909397670096553" lon="118.54904449234948">
        <ele>33.217529296875</ele>
        <time>2025-08-23T13:41:58Z</time>
      </trkpt>
      <trkpt lat="24.90928614457604" lon="118.54876186855398">
        <ele>32.96563720703125</ele>
        <time>2025-08-23T13:42:07Z</time>
      </trkpt>
      <trkpt lat="24.90917162614703" lon="118.54848425289202">
        <ele>33.2786865234375</ele>
        <time>2025-08-23T13:42:16Z</time>
      </trkpt>
      <trkpt lat="24.909052095809912" lon="118.5482016230018">
        <ele>32.87921142578125</ele>
        <time>2025-08-23T13:42:25Z</time>
      </trkpt>
      <trkpt lat="24.90898674056026" lon="118.54801420250085">
        <ele>29.1405029296875</ele>
        <time>2025-08-23T13:42:31Z</time>
      </trkpt>
      <trkpt lat="24.90887443556403" lon="118.54784983633472">
        <ele>29.884521484375</ele>
        <time>2025-08-23T13:42:37Z</time>
      </trkpt>
      <trkpt lat="24.908770894374907" lon="118.54756619556119">
        <ele>30.71856689453125</ele>
        <time>2025-08-23T13:42:46Z</time>
      </trkpt>
      <trkpt lat="24.90867335531731" lon="118.54728555795661">
        <ele>29.3883056640625</ele>
        <time>2025-08-23T13:42:55Z</time>
      </trkpt>
      <trkpt lat="24.908597788430114" lon="118.54699389006187">
        <ele>27.4456787109375</ele>
        <time>2025-08-23T13:43:04Z</time>
      </trkpt>
      <trkpt lat="24.908480238250675" lon="118.54670923790127">
        <ele>28.07049560546875</ele>
        <time>2025-08-23T13:43:13Z</time>
      </trkpt>
      <trkpt lat="24.908373671524814" lon="118.5464185675978">
        <ele>27.3670654296875</ele>
        <time>2025-08-23T13:43:22Z</time>
      </trkpt>
      <trkpt lat="24.90826111872281" lon="118.54613591309568">
        <ele>27.521484375</ele>
        <time>2025-08-23T13:43:31Z</time>
      </trkpt>
      <trkpt lat="24.90813038057213" lon="118.54576204113525">
        <ele>24.8743896484375</ele>
        <time>2025-08-23T13:43:43Z</time>
      </trkpt>
      <trkpt lat="24.908034800304716" lon="118.54547035648733">
        <ele>25.7003173828125</ele>
        <time>2025-08-23T13:43:52Z</time>
      </trkpt>
      <trkpt lat="24.907931218091726" lon="118.54517866896377">
        <ele>24.9844970703125</ele>
        <time>2025-08-23T13:44:01Z</time>
      </trkpt>
      <trkpt lat="24.90780767278138" lon="118.54490502269321">
        <ele>25.56536865234375</ele>
        <time>2025-08-23T13:44:10Z</time>
      </trkpt>
      <trkpt lat="24.907681129367457" lon="118.54463337846455">
        <ele>26.26324462890625</ele>
        <time>2025-08-23T13:44:19Z</time>
      </trkpt>
      <trkpt lat="24.90762795609698" lon="118.54454617189404">
        <ele>27.42779541015625</ele>
        <time>2025-08-23T13:44:22Z</time>
      </trkpt>
      <trkpt lat="24.90753440256411" lon="118.54427351905743">
        <ele>24.57293701171875</ele>
        <time>2025-08-23T13:44:31Z</time>
      </trkpt>
      <trkpt lat="24.90752697699623" lon="118.54406902313029">
        <ele>24.36541748046875</ele>
        <time>2025-08-23T13:44:37Z</time>
      </trkpt>
      <trkpt lat="24.907566761828154" lon="118.54396877640374">
        <ele>23.79681396484375</ele>
        <time>2025-08-23T13:44:40Z</time>
      </trkpt>
      <trkpt lat="24.907625570990636" lon="118.54388155974554">
        <ele>23.79150390625</ele>
        <time>2025-08-23T13:44:43Z</time>
      </trkpt>
      <trkpt lat="24.90770141960531" lon="118.54381439056351">
        <ele>23.88507080078125</ele>
        <time>2025-08-23T13:44:46Z</time>
      </trkpt>
      <trkpt lat="24.907787334042304" lon="118.54377929889401">
        <ele>23.7608642578125</ele>
        <time>2025-08-23T13:44:49Z</time>
      </trkpt>
      <trkpt lat="24.90806325999148" lon="118.54376223806071">
        <ele>25.28466796875</ele>
        <time>2025-08-23T13:44:58Z</time>
      </trkpt>
      <trkpt lat="24.908346239687848" lon="118.54377124042283">
        <ele>24.1846923828125</ele>
        <time>2025-08-23T13:45:07Z</time>
      </trkpt>
      <trkpt lat="24.908633193555268" lon="118.5437682131137">
        <ele>22.0364990234375</ele>
        <time>2025-08-23T13:45:16Z</time>
      </trkpt>
      <trkpt lat="24.908819157217387" lon="118.54376318792964">
        <ele>22.43914794921875</ele>
        <time>2025-08-23T13:45:22Z</time>
      </trkpt>
      <trkpt lat="24.90909402005934" lon="118.54371605362834">
        <ele>25.64508056640625</ele>
        <time>2025-08-23T13:45:31Z</time>
      </trkpt>
      <trkpt lat="24.909370954203922" lon="118.54370300248965">
        <ele>24.782958984375</ele>
        <time>2025-08-23T13:45:40Z</time>
      </trkpt>
      <trkpt lat="24.90965690815645" lon="118.54369997524084">
        <ele>24.1845703125</ele>
        <time>2025-08-23T13:45:49Z</time>
      </trkpt>
      <trkpt lat="24.909934882174163" lon="118.54370597061623">
        <ele>25.91339111328125</ele>
        <time>2025-08-23T13:45:58Z</time>
      </trkpt>
      <trkpt lat="24.910205831864808" lon="118.54369993705458">
        <ele>25.69244384765625</ele>
        <time>2025-08-23T13:46:07Z</time>
      </trkpt>
      <trkpt lat="24.910546754946637" lon="118.54368587900221">
        <ele>25.534912109375</ele>
        <time>2025-08-23T13:46:19Z</time>
      </trkpt>
      <trkpt lat="24.910834716998995" lon="118.5436868614221">
        <ele>23.99896240234375</ele>
        <time>2025-08-23T13:46:28Z</time>
      </trkpt>
      <trkpt lat="24.91108869641619" lon="118.54369386092162">
        <ele>24.22802734375</ele>
        <time>2025-08-23T13:46:37Z</time>
      </trkpt>
      <trkpt lat="24.911168649449056" lon="118.5436768136611">
        <ele>22.0389404296875</ele>
        <time>2025-08-23T13:46:40Z</time>
      </trkpt>
      <trkpt lat="24.911515350022434" lon="118.54355749733271">
        <ele>24.0142822265625</ele>
        <time>2025-08-23T13:46:52Z</time>
      </trkpt>
      <trkpt lat="24.91178919352304" lon="118.54350134057705">
        <ele>25.78759765625</ele>
        <time>2025-08-23T13:47:01Z</time>
      </trkpt>
      <trkpt lat="24.912067036345444" lon="118.54344518341871">
        <ele>25.13372802734375</ele>
        <time>2025-08-23T13:47:10Z</time>
      </trkpt>
      <trkpt lat="24.912332821392003" lon="118.54336095795293">
        <ele>26.34442138671875</ele>
        <time>2025-08-23T13:47:19Z</time>
      </trkpt>
      <trkpt lat="24.912606628408938" lon="118.54328775880614">
        <ele>26.8729248046875</ele>
        <time>2025-08-23T13:47:28Z</time>
      </trkpt>
      <trkpt lat="24.912891478299898" lon="118.54323561057073">
        <ele>25.95849609375</ele>
        <time>2025-08-23T13:47:37Z</time>
      </trkpt>
      <trkpt lat="24.913162334287893" lon="118.5431854681472">
        <ele>24.07647705078125</ele>
        <time>2025-08-23T13:47:46Z</time>
      </trkpt>
      <trkpt lat="24.91342711867182" lon="118.54310124189217">
        <ele>26.24163818359375</ele>
        <time>2025-08-23T13:47:55Z</time>
      </trkpt>
      <trkpt lat="24.913703905388083" lon="118.54301901948246">
        <ele>26.9669189453125</ele>
        <time>2025-08-23T13:48:04Z</time>
      </trkpt>
      <trkpt lat="24.913896882719207" lon="118.5430210110115">
        <ele>25.489501953125</ele>
        <time>2025-08-23T13:48:10Z</time>
      </trkpt>
      <trkpt lat="24.914146709230227" lon="118.54295583241093">
        <ele>25.95672607421875</ele>
        <time>2025-08-23T13:48:19Z</time>
      </trkpt>
      <trkpt lat="24.914213599570274" lon="118.54290871108178">
        <ele>26.74560546875</ele>
        <time>2025-08-23T13:48:22Z</time>
      </trkpt>
      <trkpt lat="24.914553302064885" lon="118.54279139662127">
        <ele>28.7845458984375</ele>
        <time>2025-08-23T13:48:34Z</time>
      </trkpt>
      <trkpt lat="24.914818087391637" lon="118.542708171561">
        <ele>28.30999755859375</ele>
        <time>2025-08-23T13:48:43Z</time>
      </trkpt>
      <trkpt lat="24.915093905245936" lon="118.54264098536888">
        <ele>29.9547119140625</ele>
        <time>2025-08-23T13:48:52Z</time>
      </trkpt>
      <trkpt lat="24.915377623037177" lon="118.54252768357587">
        <ele>29.13543701171875</ele>
        <time>2025-08-23T13:49:01Z</time>
      </trkpt>
      <trkpt lat="24.915571471269423" lon="118.54246952512344">
        <ele>30.72589111328125</ele>
        <time>2025-08-23T13:49:07Z</time>
      </trkpt>
      <trkpt lat="24.915865339829004" lon="118.54242739961614">
        <ele>31.81158447265625</ele>
        <time>2025-08-23T13:49:16Z</time>
      </trkpt>
      <trkpt lat="24.916149158031256" lon="118.54236121463897">
        <ele>30.633056640625</ele>
        <time>2025-08-23T13:49:25Z</time>
      </trkpt>
      <trkpt lat="24.91633602629236" lon="118.54231207885742">
        <ele>32.6544189453125</ele>
        <time>2025-08-23T13:49:31Z</time>
      </trkpt>
      <trkpt lat="24.916503974763792" lon="118.5422990345784">
        <ele>29.3184814453125</ele>
        <time>2025-08-23T13:49:37Z</time>
      </trkpt>
      <trkpt lat="24.916506821179446" lon="118.5422278562819">
        <ele>26.59783935546875</ele>
        <time>2025-08-23T13:49:40Z</time>
      </trkpt>
      <trkpt lat="24.916440659787057" lon="118.54214866249245">
        <ele>25.2802734375</ele>
        <time>2025-08-23T13:49:43Z</time>
      </trkpt>
      <trkpt lat="24.916333332860972" lon="118.54199027245078">
        <ele>24.58636474609375</ele>
        <time>2025-08-23T13:49:49Z</time>
      </trkpt>
      <trkpt lat="24.916143355103955" lon="118.54198828063791">
        <ele>23.60858154296875</ele>
        <time>2025-08-23T13:49:55Z</time>
      </trkpt>
      <trkpt lat="24.915862550311253" lon="118.5420604814552">
        <ele>24.810546875</ele>
        <time>2025-08-23T13:50:04Z</time>
      </trkpt>
      <trkpt lat="24.915765557380848" lon="118.54205748065812">
        <ele>25.068603515625</ele>
        <time>2025-08-23T13:50:07Z</time>
      </trkpt>
      <trkpt lat="24.915501754351" lon="118.54213168512608">
        <ele>25.31292724609375</ele>
        <time>2025-08-23T13:50:16Z</time>
      </trkpt>
      <trkpt lat="24.915240978771617" lon="118.54221892180571">
        <ele>23.832275390625</ele>
        <time>2025-08-23T13:50:25Z</time>
      </trkpt>
      <trkpt lat="24.914961216355728" lon="118.54231117204633">
        <ele>24.07293701171875</ele>
        <time>2025-08-23T13:50:34Z</time>
      </trkpt>
      <trkpt lat="24.914693445504348" lon="118.54240041361406">
        <ele>26.8978271484375</ele>
        <time>2025-08-23T13:50:43Z</time>
      </trkpt>
      <trkpt lat="24.914414637209703" lon="118.54247161064177">
        <ele>28.3680419921875</ele>
        <time>2025-08-23T13:50:52Z</time>
      </trkpt>
      <trkpt lat="24.9141478850293" lon="118.54256987405407">
        <ele>29.008544921875</ele>
        <time>2025-08-23T13:51:01Z</time>
      </trkpt>
      <trkpt lat="24.913880072619772" lon="118.54264006735434">
        <ele>28.8616943359375</ele>
        <time>2025-08-23T13:51:10Z</time>
      </trkpt>
      <trkpt lat="24.913605248155303" lon="118.54270424600384">
        <ele>27.8779296875</ele>
        <time>2025-08-23T13:51:19Z</time>
      </trkpt>
      <trkpt lat="24.91333341242007" lon="118.54276341184035">
        <ele>28.98358154296875</ele>
        <time>2025-08-23T13:51:28Z</time>
      </trkpt>
      <trkpt lat="24.91298166892673" lon="118.54286067756692">
        <ele>30.5418701171875</ele>
        <time>2025-08-23T13:51:40Z</time>
      </trkpt>
      <trkpt lat="24.912710894598217" lon="118.54294891495574">
        <ele>31.13604736328125</ele>
        <time>2025-08-23T13:51:49Z</time>
      </trkpt>
      <trkpt lat="24.912389122835044" lon="118.54303515063249">
        <ele>28.57025146484375</ele>
        <time>2025-08-23T13:52:01Z</time>
      </trkpt>
      <trkpt lat="24.912105326356098" lon="118.5431123610992">
        <ele>29.35784912109375</ele>
        <time>2025-08-23T13:52:10Z</time>
      </trkpt>
      <trkpt lat="24.91182550147025" lon="118.54317653891239">
        <ele>29.24273681640625</ele>
        <time>2025-08-23T13:52:19Z</time>
      </trkpt>
      <trkpt lat="24.91153266125062" lon="118.54323269770565">
        <ele>28.8902587890625</ele>
        <time>2025-08-23T13:52:28Z</time>
      </trkpt>
      <trkpt lat="24.911246781736246" lon="118.5432708114524">
        <ele>26.5994873046875</ele>
        <time>2025-08-23T13:52:37Z</time>
      </trkpt>
      <trkpt lat="24.91095387979859" lon="118.54329789848393">
        <ele>26.2464599609375</ele>
        <time>2025-08-23T13:52:46Z</time>
      </trkpt>
      <trkpt lat="24.910668978830365" lon="118.5433259873966">
        <ele>28.4598388671875</ele>
        <time>2025-08-23T13:52:55Z</time>
      </trkpt>
      <trkpt lat="24.91037609377055" lon="118.54336109409347">
        <ele>31.958251953125</ele>
        <time>2025-08-23T13:53:04Z</time>
      </trkpt>
      <trkpt lat="24.910285085227212" lon="118.54335107576739">
        <ele>31.73858642578125</ele>
        <time>2025-08-23T13:53:07Z</time>
      </trkpt>
      <trkpt lat="24.910276918778106" lon="118.54327188140054">
        <ele>28.0</ele>
        <time>2025-08-23T13:53:10Z</time>
      </trkpt>
      <trkpt lat="24.910293693369454" lon="118.54316662076297">
        <ele>26.59228515625</ele>
        <time>2025-08-23T13:53:13Z</time>
      </trkpt>
      <trkpt lat="24.910287227758392" lon="118.54294707864013">
        <ele>25.12652587890625</ele>
        <time>2025-08-23T13:53:19Z</time>
      </trkpt>
      <trkpt lat="24.910352574768346" lon="118.54264532530529">
        <ele>24.37164306640625</ele>
        <time>2025-08-23T13:53:28Z</time>
      </trkpt>
      <trkpt lat="24.910407902796788" lon="118.5423355490961">
        <ele>28.28363037109375</ele>
        <time>2025-08-23T13:53:37Z</time>
      </trkpt>
      <trkpt lat="24.91044421718665" lon="118.54201975540357">
        <ele>28.60479736328125</ele>
        <time>2025-08-23T13:53:46Z</time>
      </trkpt>
      <trkpt lat="24.91052958881519" lon="118.5417350328757">
        <ele>27.595947265625</ele>
        <time>2025-08-23T13:53:55Z</time>
      </trkpt>
      <trkpt lat="24.910611925331025" lon="118.54143526936379">
        <ele>28.17095947265625</ele>
        <time>2025-08-23T13:54:04Z</time>
      </trkpt>
      <trkpt lat="24.910706250556085" lon="118.54113249394483">
        <ele>27.91290283203125</ele>
        <time>2025-08-23T13:54:13Z</time>
      </trkpt>
      <trkpt lat="24.910769826062346" lon="118.54094300658323">
        <ele>27.32391357421875</ele>
        <time>2025-08-23T13:54:19Z</time>
      </trkpt>
      <trkpt lat="24.910827958703166" lon="118.54055300429833">
        <ele>25.1361083984375</ele>
        <time>2025-08-23T13:54:31Z</time>
      </trkpt>
      <trkpt lat="24.910892301417643" lon="118.54026024674951">
        <ele>25.69097900390625</ele>
        <time>2025-08-23T13:54:40Z</time>
      </trkpt>
      <trkpt lat="24.91092987057292" lon="118.54006874981295">
        <ele>25.28350830078125</ele>
        <time>2025-08-23T13:54:46Z</time>
      </trkpt>
      <trkpt lat="24.910935434019105" lon="118.53987324334585">
        <ele>25.596435546875</ele>
        <time>2025-08-23T13:54:52Z</time>
      </trkpt>
      <trkpt lat="24.910962215292965" lon="118.53977699181301">
        <ele>25.55474853515625</ele>
        <time>2025-08-23T13:54:55Z</time>
      </trkpt>
      <trkpt lat="24.91104182498739" lon="118.5396075459164">
        <ele>22.8839111328125</ele>
        <time>2025-08-23T13:55:01Z</time>
      </trkpt>
      <trkpt lat="24.911110162541863" lon="118.53931678305504">
        <ele>22.41033935546875</ele>
        <time>2025-08-23T13:55:10Z</time>
      </trkpt>
      <trkpt lat="24.911175493228328" lon="118.53902401203733">
        <ele>23.34808349609375</ele>
        <time>2025-08-23T13:55:19Z</time>
      </trkpt>
      <trkpt lat="24.91120803943277" lon="118.53882548825949">
        <ele>23.80712890625</ele>
        <time>2025-08-23T13:55:25Z</time>
      </trkpt>
      <trkpt lat="24.91119882925611" lon="118.53873224345354">
        <ele>24.6055908203125</ele>
        <time>2025-08-23T13:55:28Z</time>
      </trkpt>
      <trkpt lat="24.91111574978197" lon="118.53869214357529">
        <ele>25.20233154296875</ele>
        <time>2025-08-23T13:55:31Z</time>
      </trkpt>
      <trkpt lat="24.910928689278613" lon="118.53865405617036">
        <ele>24.165283203125</ele>
        <time>2025-08-23T13:55:37Z</time>
      </trkpt>
      <trkpt lat="24.910843587189042" lon="118.53860392986536">
        <ele>23.6304931640625</ele>
        <time>2025-08-23T13:55:40Z</time>
      </trkpt>
      <trkpt lat="24.91081236799583" lon="118.53850567259785">
        <ele>23.46380615234375</ele>
        <time>2025-08-23T13:55:43Z</time>
      </trkpt>
      <trkpt lat="24.910907652473483" lon="118.53819785095533">
        <ele>22.13067626953125</ele>
        <time>2025-08-23T13:55:52Z</time>
      </trkpt>
      <trkpt lat="24.911042983597355" lon="118.53791408721182">
        <ele>21.953369140625</ele>
        <time>2025-08-23T13:56:01Z</time>
      </trkpt>
      <trkpt lat="24.911187308598677" lon="118.53762931727422">
        <ele>22.42633056640625</ele>
        <time>2025-08-23T13:56:10Z</time>
      </trkpt>
      <trkpt lat="24.911334581906807" lon="118.53732348772235">
        <ele>20.980224609375</ele>
        <time>2025-08-23T13:56:19Z</time>
      </trkpt>
      <trkpt lat="24.91145484438433" lon="118.5370126432231">
        <ele>18.9508056640625</ele>
        <time>2025-08-23T13:56:28Z</time>
      </trkpt>
      <trkpt lat="24.91153837547719" lon="118.53681610699998">
        <ele>17.93499755859375</ele>
        <time>2025-08-23T13:56:34Z</time>
      </trkpt>
    </trkseg>
  </trk>
</gpx>