<?xml version="1.0" encoding="UTF-8"?>
<gpx xmlns="http://www.topografix.com/GPX/1/1" xmlns:gpxtpx="http://www.garmin.com/xmlschemas/TrackPointExtension/v1" xmlns:xsi="http://www.w3.org/2001/XMLSchema-instance" xsi:schemaLocation="http://www.topografix.com/GPX/1/1 http://www.topografix.com/GPX/1/1/gpx.xsd" version="1.1" creator="gpx.py -- https://github.com/tkrajina/gpxpy">
  <trk>
    <name>gpx from keep</name>
    <type>Run</type>
    <trkseg>
      <trkpt lat="24.910762603512385" lon="118.5385447409602">
        <ele>10.092423913433613</ele>
        <time>2024-03-18T14:25:23Z</time>
      </trkpt>
      <trkpt lat="24.910421948012353" lon="118.53848362220684">
        <ele>9.598767305724323</ele>
        <time>2024-03-18T14:25:34Z</time>
      </trkpt>
      <trkpt lat="24.910314339986673" lon="118.53845004038193">
        <ele>9.023780201561749</ele>
        <time>2024-03-18T14:25:38Z</time>
      </trkpt>
      <trkpt lat="24.910085450800167" lon="118.53840841909411">
        <ele>8.705756670795381</ele>
        <time>2024-03-18T14:25:45Z</time>
      </trkpt>
      <trkpt lat="24.909950060260577" lon="118.53836372709577">
        <ele>8.54341446235776</ele>
        <time>2024-03-18T14:25:49Z</time>
      </trkpt>
      <trkpt lat="24.909667651845833" lon="118.53836008141909">
        <ele>7.996525474824011</ele>
        <time>2024-03-18T14:25:55Z</time>
      </trkpt>
      <trkpt lat="24.909474965188192" lon="118.53843340101267">
        <ele>7.117954126559198</ele>
        <time>2024-03-18T14:26:01Z</time>
      </trkpt>
      <trkpt lat="24.90929159927563" lon="118.53843930057323">
        <ele>8.125581036321819</ele>
        <time>2024-03-18T14:26:07Z</time>
      </trkpt>
      <trkpt lat="24.909203672216574" lon="118.53841852596884">
        <ele>8.386290162801743</ele>
        <time>2024-03-18T14:26:10Z</time>
      </trkpt>
      <trkpt lat="24.909161536660527" lon="118.53832652479818">
        <ele>8.431705166585743</ele>
        <time>2024-03-18T14:26:13Z</time>
      </trkpt>
      <trkpt lat="24.909158793569325" lon="118.53813155714954">
        <ele>7.811569306068122</ele>
        <time>2024-03-18T14:26:19Z</time>
      </trkpt>
      <trkpt lat="24.90917996185791" lon="118.53802254248582">
        <ele>8.152486119419336</ele>
        <time>2024-03-18T14:26:22Z</time>
      </trkpt>
      <trkpt lat="24.90930266458241" lon="118.53769339783348">
        <ele>8.332048751413822</ele>
        <time>2024-03-18T14:26:31Z</time>
      </trkpt>
      <trkpt lat="24.90935680229426" lon="118.53739726943361">
        <ele>9.789036937057972</ele>
        <time>2024-03-18T14:26:40Z</time>
      </trkpt>
      <trkpt lat="24.909425108264777" lon="118.53710187086978">
        <ele>10.020298326388001</ele>
        <time>2024-03-18T14:26:49Z</time>
      </trkpt>
      <trkpt lat="24.909458706092586" lon="118.53701462822113">
        <ele>10.587558950297534</ele>
        <time>2024-03-18T14:26:52Z</time>
      </trkpt>
      <trkpt lat="24.90938025471541" lon="118.53695089206836">
        <ele>9.14021754823625</ele>
        <time>2024-03-18T14:26:55Z</time>
      </trkpt>
      <trkpt lat="24.90937825196034" lon="118.53686068616965">
        <ele>9.531611911952496</ele>
        <time>2024-03-18T14:26:58Z</time>
      </trkpt>
      <trkpt lat="24.909456251377907" lon="118.53667729790592">
        <ele>10.063811337575316</ele>
        <time>2024-03-18T14:27:04Z</time>
      </trkpt>
      <trkpt lat="24.90950186996102" lon="118.53648171921364">
        <ele>10.297911717556417</ele>
        <time>2024-03-18T14:27:10Z</time>
      </trkpt>
      <trkpt lat="24.909564602929823" lon="118.53627385530693">
        <ele>10.487699163146317</ele>
        <time>2024-03-18T14:27:16Z</time>
      </trkpt>
      <trkpt lat="24.909553605303426" lon="118.53618437622406">
        <ele>10.557851788587868</ele>
        <time>2024-03-18T14:27:19Z</time>
      </trkpt>
      <trkpt lat="24.909574348312027" lon="118.53587154601578">
        <ele>10.133925566449761</ele>
        <time>2024-03-18T14:27:28Z</time>
      </trkpt>
      <trkpt lat="24.90959899226299" lon="118.53560310403861">
        <ele>10.488727329298854</ele>
        <time>2024-03-18T14:27:36Z</time>
      </trkpt>
      <trkpt lat="24.909645492465007" lon="118.53547582718086">
        <ele>10.384712291881442</ele>
        <time>2024-03-18T14:27:40Z</time>
      </trkpt>
      <trkpt lat="24.909695268997066" lon="118.53508178722923">
        <ele>9.363232176750898</ele>
        <time>2024-03-18T14:27:52Z</time>
      </trkpt>
      <trkpt lat="24.909710520655583" lon="118.53496444504178">
        <ele>8.622845150530338</ele>
        <time>2024-03-18T14:27:56Z</time>
      </trkpt>
      <trkpt lat="24.909756694873483" lon="118.53486977205984">
        <ele>7.631566098891199</ele>
        <time>2024-03-18T14:28:00Z</time>
      </trkpt>
      <trkpt lat="24.909951470095592" lon="118.53494422948094">
        <ele>8.062268370762467</ele>
        <time>2024-03-18T14:28:08Z</time>
      </trkpt>
      <trkpt lat="24.910146543503828" lon="118.53506218174851">
        <ele>9.675535381771624</ele>
        <time>2024-03-18T14:28:16Z</time>
      </trkpt>
      <trkpt lat="24.91042990193322" lon="118.53515486598255">
        <ele>10.170715392567217</ele>
        <time>2024-03-18T14:28:26Z</time>
      </trkpt>
      <trkpt lat="24.91075514045631" lon="118.53529914756184">
        <ele>10.302488689310849</ele>
        <time>2024-03-18T14:28:38Z</time>
      </trkpt>
      <trkpt lat="24.911003406024296" lon="118.5354326431093">
        <ele>10.036902589723468</ele>
        <time>2024-03-18T14:28:47Z</time>
      </trkpt>
      <trkpt lat="24.91116298854721" lon="118.53551049651402">
        <ele>10.442600729875267</ele>
        <time>2024-03-18T14:28:53Z</time>
      </trkpt>
      <trkpt lat="24.91132581247886" lon="118.53554502034474">
        <ele>10.607729601673782</ele>
        <time>2024-03-18T14:28:59Z</time>
      </trkpt>
      <trkpt lat="24.911639356866832" lon="118.53570019870752">
        <ele>10.252589052543044</ele>
        <time>2024-03-18T14:29:11Z</time>
      </trkpt>
      <trkpt lat="24.91186169791488" lon="118.53582185718884">
        <ele>9.903043593280017</ele>
        <time>2024-03-18T14:29:20Z</time>
      </trkpt>
      <trkpt lat="24.912119147133456" lon="118.53586873894629">
        <ele>10.438997942954302</ele>
        <time>2024-03-18T14:29:29Z</time>
      </trkpt>
      <trkpt lat="24.9121881033524" lon="118.53591593908993">
        <ele>10.246831820346415</ele>
        <time>2024-03-18T14:29:32Z</time>
      </trkpt>
      <trkpt lat="24.912373784216125" lon="118.53600646922169">
        <ele>9.99380752723664</ele>
        <time>2024-03-18T14:29:39Z</time>
      </trkpt>
      <trkpt lat="24.912377706945218" lon="118.53605788149375">
        <ele>9.716481292620301</ele>
        <time>2024-03-18T14:29:43Z</time>
      </trkpt>
      <trkpt lat="24.912319587468875" lon="118.53627386634034">
        <ele>10.182023921981454</ele>
        <time>2024-03-18T14:29:51Z</time>
      </trkpt>
      <trkpt lat="24.912140896499523" lon="118.53658991357183">
        <ele>9.73812192492187</ele>
        <time>2024-03-18T14:30:03Z</time>
      </trkpt>
      <trkpt lat="24.91197300366452" lon="118.53679669786483">
        <ele>10.4552853256464</ele>
        <time>2024-03-18T14:30:11Z</time>
      </trkpt>
      <trkpt lat="24.91184599119393" lon="118.53710593784935">
        <ele>10.430752962827682</ele>
        <time>2024-03-18T14:30:21Z</time>
      </trkpt>
      <trkpt lat="24.911744546568748" lon="118.53743133662158">
        <ele>9.315340324304998</ele>
        <time>2024-03-18T14:30:33Z</time>
      </trkpt>
      <trkpt lat="24.911647091086103" lon="118.53768190866094">
        <ele>9.97131813596934</ele>
        <time>2024-03-18T14:30:42Z</time>
      </trkpt>
      <trkpt lat="24.911647091086103" lon="118.53768190866094">
        <ele>9.97131813596934</ele>
        <time>2024-03-18T14:30:43Z</time>
      </trkpt>
    </trkseg>
  </trk>
</gpx>