<?xml version="1.0" encoding="UTF-8"?>
<gpx xmlns="http://www.topografix.com/GPX/1/1" xmlns:gpxtpx="http://www.garmin.com/xmlschemas/TrackPointExtension/v1" xmlns:xsi="http://www.w3.org/2001/XMLSchema-instance" xsi:schemaLocation="http://www.topografix.com/GPX/1/1 http://www.topografix.com/GPX/1/1/gpx.xsd" version="1.1" creator="gpx.py -- https://github.com/tkrajina/gpxpy">
  <trk>
    <name>gpx from keep</name>
    <type>Run</type>
    <trkseg>
      <trkpt lat="24.910747137086528" lon="118.53853554724735">
        <ele>10.127158497460186</ele>
        <time>2024-10-17T14:08:51Z</time>
      </trkpt>
      <trkpt lat="24.910582843418876" lon="118.53850454495088">
        <ele>10.111493062227964</ele>
        <time>2024-10-17T14:08:59Z</time>
      </trkpt>
      <trkpt lat="24.910373394115116" lon="118.5384954427204">
        <ele>9.284838749095798</ele>
        <time>2024-10-17T14:09:03Z</time>
      </trkpt>
      <trkpt lat="24.910106876340077" lon="118.53844067072608">
        <ele>9.469883217476308</ele>
        <time>2024-10-17T14:09:11Z</time>
      </trkpt>
      <trkpt lat="24.90981815043762" lon="118.5383941079504">
        <ele>8.49550352152437</ele>
        <time>2024-10-17T14:09:19Z</time>
      </trkpt>
      <trkpt lat="24.909699686920387" lon="118.53840082495479">
        <ele>7.754575097933412</ele>
        <time>2024-10-17T14:09:22Z</time>
      </trkpt>
      <trkpt lat="24.90947989834472" lon="118.53844540090924">
        <ele>7.649822204373777</ele>
        <time>2024-10-17T14:09:28Z</time>
      </trkpt>
      <trkpt lat="24.909168431748824" lon="118.53839274678968">
        <ele>7.2807594165205956</ele>
        <time>2024-10-17T14:09:37Z</time>
      </trkpt>
      <trkpt lat="24.909110596351383" lon="118.53831747378494">
        <ele>8.130967422388494</ele>
        <time>2024-10-17T14:09:40Z</time>
      </trkpt>
      <trkpt lat="24.90909291068603" lon="118.53818197563517">
        <ele>7.9557667057961226</ele>
        <time>2024-10-17T14:09:43Z</time>
      </trkpt>
      <trkpt lat="24.90911592188993" lon="118.53804914917772">
        <ele>8.087326126173139</ele>
        <time>2024-10-17T14:09:46Z</time>
      </trkpt>
      <trkpt lat="24.90916008600597" lon="118.53795037473978">
        <ele>8.112114432267845</ele>
        <time>2024-10-17T14:09:49Z</time>
      </trkpt>
      <trkpt lat="24.909192788008646" lon="118.53771503119842">
        <ele>7.817882778123021</ele>
        <time>2024-10-17T14:09:55Z</time>
      </trkpt>
      <trkpt lat="24.909254967155764" lon="118.53748071199355">
        <ele>9.424288638867438</ele>
        <time>2024-10-17T14:10:01Z</time>
      </trkpt>
      <trkpt lat="24.90927514146123" lon="118.53717662831167">
        <ele>9.582836581394076</ele>
        <time>2024-10-17T14:10:10Z</time>
      </trkpt>
      <trkpt lat="24.9093824209833" lon="118.53682170896356">
        <ele>10.203920725733042</ele>
        <time>2024-10-17T14:10:19Z</time>
      </trkpt>
      <trkpt lat="24.909470997390304" lon="118.5366230501975">
        <ele>10.239028642885387</ele>
        <time>2024-10-17T14:10:25Z</time>
      </trkpt>
      <trkpt lat="24.909536592765182" lon="118.53640066459646">
        <ele>10.581309062428772</ele>
        <time>2024-10-17T14:10:31Z</time>
      </trkpt>
      <trkpt lat="24.909544596428912" lon="118.5362025267082">
        <ele>9.46476270724088</ele>
        <time>2024-10-17T14:10:37Z</time>
      </trkpt>
      <trkpt lat="24.9096017800157" lon="118.53585937491289">
        <ele>9.766239807009697</ele>
        <time>2024-10-17T14:10:47Z</time>
      </trkpt>
      <trkpt lat="24.909687701551437" lon="118.53553136826042">
        <ele>9.833400783129036</ele>
        <time>2024-10-17T14:10:56Z</time>
      </trkpt>
      <trkpt lat="24.909744084672738" lon="118.5351933111717">
        <ele>9.607206511311233</ele>
        <time>2024-10-17T14:11:05Z</time>
      </trkpt>
      <trkpt lat="24.909746364938734" lon="118.5349609510753">
        <ele>9.200885822065175</ele>
        <time>2024-10-17T14:11:11Z</time>
      </trkpt>
      <trkpt lat="24.909789330753075" lon="118.5347182417587">
        <ele>8.683725240640342</ele>
        <time>2024-10-17T14:11:17Z</time>
      </trkpt>
      <trkpt lat="24.90978150235476" lon="118.53462824010202">
        <ele>8.035513492301106</ele>
        <time>2024-10-17T14:11:20Z</time>
      </trkpt>
      <trkpt lat="24.909820922604805" lon="118.53442307297125">
        <ele>7.800217300653458</ele>
        <time>2024-10-17T14:11:26Z</time>
      </trkpt>
      <trkpt lat="24.909857886465065" lon="118.53432610040522">
        <ele>7.960725214332342</ele>
        <time>2024-10-17T14:11:29Z</time>
      </trkpt>
      <trkpt lat="24.90991952002165" lon="118.53396279965631">
        <ele>8.497144755907357</ele>
        <time>2024-10-17T14:11:38Z</time>
      </trkpt>
      <trkpt lat="24.90996454602737" lon="118.53386660542527">
        <ele>8.28760498855263</ele>
        <time>2024-10-17T14:11:41Z</time>
      </trkpt>
      <trkpt lat="24.910102454657977" lon="118.53377614551476">
        <ele>8.738756529055536</ele>
        <time>2024-10-17T14:11:47Z</time>
      </trkpt>
      <trkpt lat="24.910371803064862" lon="118.53377161828541">
        <ele>9.374514007009566</ele>
        <time>2024-10-17T14:11:56Z</time>
      </trkpt>
      <trkpt lat="24.910682294264678" lon="118.53373070768063">
        <ele>10.342217394150794</ele>
        <time>2024-10-17T14:12:05Z</time>
      </trkpt>
      <trkpt lat="24.91100129373993" lon="118.5337262013809">
        <ele>10.446683153510094</ele>
        <time>2024-10-17T14:12:14Z</time>
      </trkpt>
      <trkpt lat="24.911277203071222" lon="118.53374493703566">
        <ele>10.160065834410489</ele>
        <time>2024-10-17T14:12:23Z</time>
      </trkpt>
      <trkpt lat="24.911576362069358" lon="118.53375877877562">
        <ele>9.81234051194042</ele>
        <time>2024-10-17T14:12:32Z</time>
      </trkpt>
      <trkpt lat="24.911880994754657" lon="118.5337779913767">
        <ele>10.687260680831969</ele>
        <time>2024-10-17T14:12:41Z</time>
      </trkpt>
      <trkpt lat="24.9122226223646" lon="118.53381605626178">
        <ele>10.175685596652329</ele>
        <time>2024-10-17T14:12:52Z</time>
      </trkpt>
      <trkpt lat="24.912636815787664" lon="118.53380282278239">
        <ele>10.519831423647702</ele>
        <time>2024-10-17T14:13:04Z</time>
      </trkpt>
      <trkpt lat="24.912741059776657" lon="118.53378379933098">
        <ele>10.255949601531029</ele>
        <time>2024-10-17T14:13:07Z</time>
      </trkpt>
      <trkpt lat="24.913037058912227" lon="118.53383202505091">
        <ele>10.373297558166087</ele>
        <time>2024-10-17T14:13:16Z</time>
      </trkpt>
      <trkpt lat="24.91312921060603" lon="118.53384322159025">
        <ele>10.253808612935245</ele>
        <time>2024-10-17T14:13:19Z</time>
      </trkpt>
      <trkpt lat="24.913308185152314" lon="118.53382612640553">
        <ele>10.253852664493024</ele>
        <time>2024-10-17T14:13:25Z</time>
      </trkpt>
      <trkpt lat="24.913586272996383" lon="118.53387124459772">
        <ele>10.525671949610114</ele>
        <time>2024-10-17T14:13:34Z</time>
      </trkpt>
      <trkpt lat="24.913884445315574" lon="118.53390581288434">
        <ele>11.18115421012044</ele>
        <time>2024-10-17T14:13:43Z</time>
      </trkpt>
      <trkpt lat="24.91419195361419" lon="118.53395168232106">
        <ele>10.97384069673717</ele>
        <time>2024-10-17T14:13:52Z</time>
      </trkpt>
      <trkpt lat="24.914488669660535" lon="118.53401865505404">
        <ele>11.639957858249545</ele>
        <time>2024-10-17T14:14:01Z</time>
      </trkpt>
      <trkpt lat="24.914581785739273" lon="118.53404581301344">
        <ele>11.798840353265405</ele>
        <time>2024-10-17T14:14:04Z</time>
      </trkpt>
      <trkpt lat="24.914659515289625" lon="118.53404657348932">
        <ele>12.52332073263824</ele>
        <time>2024-10-17T14:14:07Z</time>
      </trkpt>
      <trkpt lat="24.914818794424722" lon="118.53411737829386">
        <ele>11.981530409306288</ele>
        <time>2024-10-17T14:14:13Z</time>
      </trkpt>
      <trkpt lat="24.915137629040462" lon="118.53415574931158">
        <ele>12.905015547759831</ele>
        <time>2024-10-17T14:14:22Z</time>
      </trkpt>
      <trkpt lat="24.915240767213987" lon="118.53415713799603">
        <ele>12.902917145751417</ele>
        <time>2024-10-17T14:14:25Z</time>
      </trkpt>
      <trkpt lat="24.915431843185488" lon="118.53420467913338">
        <ele>12.284395216032863</ele>
        <time>2024-10-17T14:14:31Z</time>
      </trkpt>
      <trkpt lat="24.915714252109936" lon="118.53424409596684">
        <ele>12.623957565054297</ele>
        <time>2024-10-17T14:14:40Z</time>
      </trkpt>
      <trkpt lat="24.916005852840893" lon="118.53429334743936">
        <ele>12.60823620017618</ele>
        <time>2024-10-17T14:14:49Z</time>
      </trkpt>
      <trkpt lat="24.91639913328681" lon="118.5343677540144">
        <ele>12.80629319511354</ele>
        <time>2024-10-17T14:15:01Z</time>
      </trkpt>
      <trkpt lat="24.9167864631825" lon="118.53442730156853">
        <ele>14.705546000041068</ele>
        <time>2024-10-17T14:15:13Z</time>
      </trkpt>
      <trkpt lat="24.916884409396125" lon="118.53442973770628">
        <ele>14.447837409563363</ele>
        <time>2024-10-17T14:15:16Z</time>
      </trkpt>
      <trkpt lat="24.91717475283443" lon="118.53448009540215">
        <ele>15.003748018294573</ele>
        <time>2024-10-17T14:15:25Z</time>
      </trkpt>
      <trkpt lat="24.917483530681075" lon="118.53452838673284">
        <ele>14.915648923255503</ele>
        <time>2024-10-17T14:15:34Z</time>
      </trkpt>
      <trkpt lat="24.917763266861012" lon="118.53460950580236">
        <ele>15.344453912228346</ele>
        <time>2024-10-17T14:15:43Z</time>
      </trkpt>
      <trkpt lat="24.918062858746016" lon="118.53468711155794">
        <ele>14.311757676303387</ele>
        <time>2024-10-17T14:15:52Z</time>
      </trkpt>
      <trkpt lat="24.918155384395707" lon="118.53468948810242">
        <ele>14.200347172096372</ele>
        <time>2024-10-17T14:15:55Z</time>
      </trkpt>
      <trkpt lat="24.91825952610343" lon="118.53472734789865">
        <ele>13.749451484531164</ele>
        <time>2024-10-17T14:15:58Z</time>
      </trkpt>
      <trkpt lat="24.918448437273888" lon="118.53484395156173">
        <ele>13.573812908492982</ele>
        <time>2024-10-17T14:16:04Z</time>
      </trkpt>
      <trkpt lat="24.91857311990768" lon="118.53501156497727">
        <ele>12.702194755896926</ele>
        <time>2024-10-17T14:16:10Z</time>
      </trkpt>
      <trkpt lat="24.918618480114652" lon="118.53518047232856">
        <ele>11.737035672180355</ele>
        <time>2024-10-17T14:16:16Z</time>
      </trkpt>
      <trkpt lat="24.918515091208462" lon="118.53549578494737">
        <ele>10.37176162097603</ele>
        <time>2024-10-17T14:16:25Z</time>
      </trkpt>
      <trkpt lat="24.918427989218838" lon="118.53569715463611">
        <ele>10.49018501676619</ele>
        <time>2024-10-17T14:16:31Z</time>
      </trkpt>
      <trkpt lat="24.918328897032413" lon="118.53603295603597">
        <ele>10.580962053500116</ele>
        <time>2024-10-17T14:16:40Z</time>
      </trkpt>
      <trkpt lat="24.918269484811972" lon="118.53611747173994">
        <ele>10.075496662408113</ele>
        <time>2024-10-17T14:16:43Z</time>
      </trkpt>
      <trkpt lat="24.918144167413306" lon="118.53639569133028">
        <ele>9.706190839409828</ele>
        <time>2024-10-17T14:16:52Z</time>
      </trkpt>
      <trkpt lat="24.918045171046806" lon="118.53667638777925">
        <ele>9.769564223475754</ele>
        <time>2024-10-17T14:17:01Z</time>
      </trkpt>
      <trkpt lat="24.91794470533672" lon="118.53696530479043">
        <ele>9.685003221966326</ele>
        <time>2024-10-17T14:17:10Z</time>
      </trkpt>
      <trkpt lat="24.917871012602426" lon="118.53716426395181">
        <ele>9.835937001742423</ele>
        <time>2024-10-17T14:17:16Z</time>
      </trkpt>
      <trkpt lat="24.91774463787632" lon="118.53734638597635">
        <ele>9.516290067695081</ele>
        <time>2024-10-17T14:17:22Z</time>
      </trkpt>
      <trkpt lat="24.917598406557733" lon="118.53762185839663">
        <ele>9.833411578088999</ele>
        <time>2024-10-17T14:17:31Z</time>
      </trkpt>
      <trkpt lat="24.917451138040775" lon="118.53791932195537">
        <ele>9.589240494184196</ele>
        <time>2024-10-17T14:17:40Z</time>
      </trkpt>
      <trkpt lat="24.917406943231956" lon="118.53800461333492">
        <ele>9.305029246024787</ele>
        <time>2024-10-17T14:17:43Z</time>
      </trkpt>
      <trkpt lat="24.917382478772605" lon="118.53822719092983">
        <ele>9.874533041380346</ele>
        <time>2024-10-17T14:17:49Z</time>
      </trkpt>
      <trkpt lat="24.91732861591029" lon="118.53841046886517">
        <ele>9.168583896942437</ele>
        <time>2024-10-17T14:17:55Z</time>
      </trkpt>
      <trkpt lat="24.91730102567262" lon="118.5386271609599">
        <ele>9.265217723324895</ele>
        <time>2024-10-17T14:18:01Z</time>
      </trkpt>
      <trkpt lat="24.917270375954562" lon="118.53872170574553">
        <ele>9.665793891064823</ele>
        <time>2024-10-17T14:18:04Z</time>
      </trkpt>
      <trkpt lat="24.917221015177265" lon="118.53876610315521">
        <ele>9.725416483357549</ele>
        <time>2024-10-17T14:18:07Z</time>
      </trkpt>
      <trkpt lat="24.91719807672424" lon="118.53899575566724">
        <ele>9.522315613925457</ele>
        <time>2024-10-17T14:18:13Z</time>
      </trkpt>
      <trkpt lat="24.917141641918665" lon="118.53924145054043">
        <ele>9.893919044174254</ele>
        <time>2024-10-17T14:18:19Z</time>
      </trkpt>
      <trkpt lat="24.917158591679488" lon="118.53958354935065">
        <ele>10.279176625423133</ele>
        <time>2024-10-17T14:18:28Z</time>
      </trkpt>
      <trkpt lat="24.917133046244864" lon="118.5396979807516">
        <ele>9.955734665505588</ele>
        <time>2024-10-17T14:18:31Z</time>
      </trkpt>
      <trkpt lat="24.916879803802086" lon="118.53996189930642">
        <ele>9.995233939029276</ele>
        <time>2024-10-17T14:18:40Z</time>
      </trkpt>
      <trkpt lat="24.91674559766915" lon="118.54001998524657">
        <ele>9.974221222102642</ele>
        <time>2024-10-17T14:18:43Z</time>
      </trkpt>
      <trkpt lat="24.916659836220365" lon="118.54010044563123">
        <ele>9.81978147290647</ele>
        <time>2024-10-17T14:18:46Z</time>
      </trkpt>
      <trkpt lat="24.91649571748439" lon="118.54043696747073">
        <ele>11.053699295967817</ele>
        <time>2024-10-17T14:18:55Z</time>
      </trkpt>
      <trkpt lat="24.916445665653164" lon="118.54065468733188">
        <ele>11.832487941719592</ele>
        <time>2024-10-17T14:19:01Z</time>
      </trkpt>
      <trkpt lat="24.916444481996262" lon="118.54073455213413">
        <ele>11.487357553094625</ele>
        <time>2024-10-17T14:19:04Z</time>
      </trkpt>
      <trkpt lat="24.91655300691751" lon="118.5410297777243">
        <ele>12.728359607979655</ele>
        <time>2024-10-17T14:19:13Z</time>
      </trkpt>
      <trkpt lat="24.9165889489794" lon="118.54113562009309">
        <ele>12.623240849934518</ele>
        <time>2024-10-17T14:19:16Z</time>
      </trkpt>
      <trkpt lat="24.916651333060653" lon="118.54123983419841">
        <ele>12.996504646725953</ele>
        <time>2024-10-17T14:19:19Z</time>
      </trkpt>
      <trkpt lat="24.916672428211047" lon="118.54134240789743">
        <ele>12.630571928806603</ele>
        <time>2024-10-17T14:19:22Z</time>
      </trkpt>
      <trkpt lat="24.91676382157721" lon="118.54154019100172">
        <ele>13.013460706919432</ele>
        <time>2024-10-17T14:19:28Z</time>
      </trkpt>
      <trkpt lat="24.9166687625934" lon="118.54178126494658">
        <ele>12.182323674671352</ele>
        <time>2024-10-17T14:19:34Z</time>
      </trkpt>
      <trkpt lat="24.916592146968647" lon="118.54189511762655">
        <ele>11.61508503369987</ele>
        <time>2024-10-17T14:19:37Z</time>
      </trkpt>
      <trkpt lat="24.916487457593256" lon="118.54196749459228">
        <ele>10.944263214245439</ele>
        <time>2024-10-17T14:19:40Z</time>
      </trkpt>
      <trkpt lat="24.916267411636305" lon="118.54202960992703">
        <ele>12.200347102247179</ele>
        <time>2024-10-17T14:19:46Z</time>
      </trkpt>
      <trkpt lat="24.916067754673357" lon="118.54212394822657">
        <ele>12.204819431528449</ele>
        <time>2024-10-17T14:19:52Z</time>
      </trkpt>
      <trkpt lat="24.91599218217104" lon="118.54217679083834">
        <ele>12.260231680236757</ele>
        <time>2024-10-17T14:19:55Z</time>
      </trkpt>
      <trkpt lat="24.915914754061212" lon="118.54227344307081">
        <ele>12.694777526892722</ele>
        <time>2024-10-17T14:19:58Z</time>
      </trkpt>
      <trkpt lat="24.915585122119122" lon="118.54249826250289">
        <ele>12.772097272798419</ele>
        <time>2024-10-17T14:20:07Z</time>
      </trkpt>
      <trkpt lat="24.915350312642925" lon="118.54269425963905">
        <ele>12.868106994777918</ele>
        <time>2024-10-17T14:20:13Z</time>
      </trkpt>
      <trkpt lat="24.91516279466852" lon="118.54279690208251">
        <ele>12.381503637880087</ele>
        <time>2024-10-17T14:20:19Z</time>
      </trkpt>
      <trkpt lat="24.915001660887402" lon="118.54277071423813">
        <ele>11.198950316756964</ele>
        <time>2024-10-17T14:20:25Z</time>
      </trkpt>
      <trkpt lat="24.91470707479072" lon="118.54282847177558">
        <ele>10.07045431341976</ele>
        <time>2024-10-17T14:20:34Z</time>
      </trkpt>
      <trkpt lat="24.91451349163315" lon="118.54282410877039">
        <ele>10.13158782478422</ele>
        <time>2024-10-17T14:20:40Z</time>
      </trkpt>
      <trkpt lat="24.914416957474316" lon="118.54275231160551">
        <ele>9.90772210340947</ele>
        <time>2024-10-17T14:20:43Z</time>
      </trkpt>
      <trkpt lat="24.914209172844945" lon="118.54278701674058">
        <ele>9.94107682351023</ele>
        <time>2024-10-17T14:20:49Z</time>
      </trkpt>
      <trkpt lat="24.914108670054134" lon="118.54278775555998">
        <ele>9.79448439925909</ele>
        <time>2024-10-17T14:20:52Z</time>
      </trkpt>
      <trkpt lat="24.914001761471987" lon="118.54275774047191">
        <ele>9.281297950074077</ele>
        <time>2024-10-17T14:20:55Z</time>
      </trkpt>
      <trkpt lat="24.913703176015673" lon="118.54282211218762">
        <ele>7.636344295926392</ele>
        <time>2024-10-17T14:21:04Z</time>
      </trkpt>
      <trkpt lat="24.91340307648914" lon="118.54290711190407">
        <ele>7.790150101296604</ele>
        <time>2024-10-17T14:21:13Z</time>
      </trkpt>
      <trkpt lat="24.913297318709624" lon="118.54291508899126">
        <ele>7.9371076775714755</ele>
        <time>2024-10-17T14:21:16Z</time>
      </trkpt>
      <trkpt lat="24.91320024023015" lon="118.54294406527139">
        <ele>7.794402772560716</ele>
        <time>2024-10-17T14:21:19Z</time>
      </trkpt>
      <trkpt lat="24.912926451344426" lon="118.54298497181617">
        <ele>7.945230727083981</ele>
        <time>2024-10-17T14:21:28Z</time>
      </trkpt>
      <trkpt lat="24.91264468998519" lon="118.54305997655244">
        <ele>7.817921533249319</ele>
        <time>2024-10-17T14:21:37Z</time>
      </trkpt>
      <trkpt lat="24.912365105769545" lon="118.54312949139431">
        <ele>7.458192005753517</ele>
        <time>2024-10-17T14:21:46Z</time>
      </trkpt>
      <trkpt lat="24.912070918886563" lon="118.54319371880729">
        <ele>7.59422230347991</ele>
        <time>2024-10-17T14:21:55Z</time>
      </trkpt>
      <trkpt lat="24.911799283091575" lon="118.54326999359263">
        <ele>7.6725085796788335</ele>
        <time>2024-10-17T14:22:04Z</time>
      </trkpt>
      <trkpt lat="24.911701213503637" lon="118.54326894487231">
        <ele>8.22139012441039</ele>
        <time>2024-10-17T14:22:07Z</time>
      </trkpt>
      <trkpt lat="24.911426654224183" lon="118.54331907508076">
        <ele>7.8991848938167095</ele>
        <time>2024-10-17T14:22:16Z</time>
      </trkpt>
      <trkpt lat="24.911146500945247" lon="118.543370992925">
        <ele>7.769658641889691</ele>
        <time>2024-10-17T14:22:25Z</time>
      </trkpt>
      <trkpt lat="24.910852816478794" lon="118.54340121597556">
        <ele>7.324003194458783</ele>
        <time>2024-10-17T14:22:34Z</time>
      </trkpt>
      <trkpt lat="24.910564393373996" lon="118.54339560688416">
        <ele>7.530941593460739</ele>
        <time>2024-10-17T14:22:43Z</time>
      </trkpt>
      <trkpt lat="24.910298589139618" lon="118.5433827032011">
        <ele>7.071542713791132</ele>
        <time>2024-10-17T14:22:52Z</time>
      </trkpt>
      <trkpt lat="24.909995037993966" lon="118.54342268336123">
        <ele>7.490864414721727</ele>
        <time>2024-10-17T14:23:01Z</time>
      </trkpt>
      <trkpt lat="24.909673667721897" lon="118.54338812171707">
        <ele>7.501577850431204</ele>
        <time>2024-10-17T14:23:10Z</time>
      </trkpt>
      <trkpt lat="24.90949151097047" lon="118.54340520976089">
        <ele>7.408072738908231</ele>
        <time>2024-10-17T14:23:16Z</time>
      </trkpt>
      <trkpt lat="24.90919369163034" lon="118.5433905461291">
        <ele>7.1592172756791115</ele>
        <time>2024-10-17T14:23:25Z</time>
      </trkpt>
      <trkpt lat="24.908987423796034" lon="118.54340713473422">
        <ele>7.468036054633558</ele>
        <time>2024-10-17T14:23:31Z</time>
      </trkpt>
      <trkpt lat="24.90888025738039" lon="118.54338081732325">
        <ele>7.398157051764429</ele>
        <time>2024-10-17T14:23:34Z</time>
      </trkpt>
      <trkpt lat="24.908560182884692" lon="118.54339269288478">
        <ele>7.369650357402861</ele>
        <time>2024-10-17T14:23:43Z</time>
      </trkpt>
      <trkpt lat="24.908270539459075" lon="118.54339301781714">
        <ele>7.9958675801754</ele>
        <time>2024-10-17T14:23:52Z</time>
      </trkpt>
      <trkpt lat="24.90820836704353" lon="118.54336375009864">
        <ele>8.51305240392685</ele>
        <time>2024-10-17T14:23:55Z</time>
      </trkpt>
      <trkpt lat="24.907853382979734" lon="118.54340009259329">
        <ele>7.646096060983837</ele>
        <time>2024-10-17T14:24:07Z</time>
      </trkpt>
      <trkpt lat="24.907644508255345" lon="118.54341583534362">
        <ele>7.711873243562877</ele>
        <time>2024-10-17T14:24:13Z</time>
      </trkpt>
      <trkpt lat="24.907537307493815" lon="118.54338264615365">
        <ele>7.641507999040186</ele>
        <time>2024-10-17T14:24:16Z</time>
      </trkpt>
      <trkpt lat="24.907449845131477" lon="118.54331660323813">
        <ele>8.006006771698594</ele>
        <time>2024-10-17T14:24:19Z</time>
      </trkpt>
      <trkpt lat="24.907417404536464" lon="118.54323391989246">
        <ele>7.808295921422541</ele>
        <time>2024-10-17T14:24:22Z</time>
      </trkpt>
      <trkpt lat="24.907565782178587" lon="118.54293517839656">
        <ele>7.85264736879617</ele>
        <time>2024-10-17T14:24:31Z</time>
      </trkpt>
      <trkpt lat="24.907667210241677" lon="118.54264542323796">
        <ele>7.832729413174093</ele>
        <time>2024-10-17T14:24:40Z</time>
      </trkpt>
      <trkpt lat="24.907677195224164" lon="118.54245237387437">
        <ele>8.532203135080636</ele>
        <time>2024-10-17T14:24:46Z</time>
      </trkpt>
      <trkpt lat="24.907778565513613" lon="118.54216336341413">
        <ele>7.8975516855716705</ele>
        <time>2024-10-17T14:24:55Z</time>
      </trkpt>
      <trkpt lat="24.907824213764236" lon="118.5419393879472">
        <ele>8.3577198414132</ele>
        <time>2024-10-17T14:25:01Z</time>
      </trkpt>
      <trkpt lat="24.9079613943523" lon="118.54172544021243">
        <ele>9.541126322001219</ele>
        <time>2024-10-17T14:25:07Z</time>
      </trkpt>
      <trkpt lat="24.90799759645839" lon="118.54153579073738">
        <ele>10.276304616592824</ele>
        <time>2024-10-17T14:25:13Z</time>
      </trkpt>
      <trkpt lat="24.9080569298872" lon="118.54134877442928">
        <ele>10.505546163767576</ele>
        <time>2024-10-17T14:25:19Z</time>
      </trkpt>
      <trkpt lat="24.908059864446688" lon="118.54124366147745">
        <ele>10.457821908406913</ele>
        <time>2024-10-17T14:25:22Z</time>
      </trkpt>
      <trkpt lat="24.90819160082144" lon="118.5410174014768">
        <ele>10.380981849506497</ele>
        <time>2024-10-17T14:25:28Z</time>
      </trkpt>
      <trkpt lat="24.90824172490026" lon="118.54089769696955">
        <ele>9.932061306200922</ele>
        <time>2024-10-17T14:25:31Z</time>
      </trkpt>
      <trkpt lat="24.90850272187693" lon="118.54059183201319">
        <ele>8.93754809256643</ele>
        <time>2024-10-17T14:25:40Z</time>
      </trkpt>
      <trkpt lat="24.908565718594787" lon="118.54047896326603">
        <ele>9.007969781756401</ele>
        <time>2024-10-17T14:25:43Z</time>
      </trkpt>
      <trkpt lat="24.90869353970948" lon="118.54014275696761">
        <ele>8.310580152086914</ele>
        <time>2024-10-17T14:25:52Z</time>
      </trkpt>
      <trkpt lat="24.908824377151927" lon="118.53983971852487">
        <ele>8.334678842686117</ele>
        <time>2024-10-17T14:26:01Z</time>
      </trkpt>
      <trkpt lat="24.908870304215426" lon="118.53963204216079">
        <ele>7.98369581438601</ele>
        <time>2024-10-17T14:26:07Z</time>
      </trkpt>
      <trkpt lat="24.90886448935068" lon="118.53946224454376">
        <ele>8.460984387435019</ele>
        <time>2024-10-17T14:26:13Z</time>
      </trkpt>
      <trkpt lat="24.908941502098546" lon="118.53907793179934">
        <ele>7.998036049306393</ele>
        <time>2024-10-17T14:26:25Z</time>
      </trkpt>
      <trkpt lat="24.909036054387915" lon="118.53876314864878">
        <ele>7.743286596611142</ele>
        <time>2024-10-17T14:26:34Z</time>
      </trkpt>
      <trkpt lat="24.909107054158827" lon="118.53846286137058">
        <ele>7.934433372691274</ele>
        <time>2024-10-17T14:26:43Z</time>
      </trkpt>
      <trkpt lat="24.909161535742985" lon="118.53806866540056">
        <ele>8.18334574997425</ele>
        <time>2024-10-17T14:26:55Z</time>
      </trkpt>
      <trkpt lat="24.909238596777787" lon="118.53776503288572">
        <ele>7.927108027972281</ele>
        <time>2024-10-17T14:27:04Z</time>
      </trkpt>
      <trkpt lat="24.909259379555852" lon="118.53764879210156">
        <ele>8.514802686870098</ele>
        <time>2024-10-17T14:27:07Z</time>
      </trkpt>
      <trkpt lat="24.90930127962986" lon="118.53755069761907">
        <ele>9.063427894376218</ele>
        <time>2024-10-17T14:27:10Z</time>
      </trkpt>
      <trkpt lat="24.90932140638094" lon="118.53736940802665">
        <ele>9.799504051916301</ele>
        <time>2024-10-17T14:27:16Z</time>
      </trkpt>
      <trkpt lat="24.909347010151023" lon="118.53727328809829">
        <ele>9.622452851384878</ele>
        <time>2024-10-17T14:27:19Z</time>
      </trkpt>
      <trkpt lat="24.909340087116906" lon="118.53716021682965">
        <ele>10.307739798910916</ele>
        <time>2024-10-17T14:27:22Z</time>
      </trkpt>
      <trkpt lat="24.909362589919365" lon="118.53704923117647">
        <ele>10.007392039522529</ele>
        <time>2024-10-17T14:27:25Z</time>
      </trkpt>
      <trkpt lat="24.909411075813875" lon="118.53695067737611">
        <ele>9.93993876222521</ele>
        <time>2024-10-17T14:27:28Z</time>
      </trkpt>
      <trkpt lat="24.90949620771474" lon="118.53663308156409">
        <ele>10.07607319764793</ele>
        <time>2024-10-17T14:27:37Z</time>
      </trkpt>
      <trkpt lat="24.909511454363074" lon="118.5365321890688">
        <ele>10.4207857074216</ele>
        <time>2024-10-17T14:27:40Z</time>
      </trkpt>
      <trkpt lat="24.90958252687652" lon="118.53631556307603">
        <ele>10.104590215720236</ele>
        <time>2024-10-17T14:27:46Z</time>
      </trkpt>
      <trkpt lat="24.909604888249213" lon="118.53599251918712">
        <ele>10.088321804068983</ele>
        <time>2024-10-17T14:27:55Z</time>
      </trkpt>
      <trkpt lat="24.90960252712965" lon="118.53589191755559">
        <ele>10.188958209939301</ele>
        <time>2024-10-17T14:27:58Z</time>
      </trkpt>
      <trkpt lat="24.90966738693143" lon="118.53557509432271">
        <ele>9.844112195074558</ele>
        <time>2024-10-17T14:28:07Z</time>
      </trkpt>
      <trkpt lat="24.909728165310142" lon="118.53523765844648">
        <ele>9.854857292957604</ele>
        <time>2024-10-17T14:28:16Z</time>
      </trkpt>
      <trkpt lat="24.909757890852646" lon="118.53492795943814">
        <ele>8.519132536835968</ele>
        <time>2024-10-17T14:28:25Z</time>
      </trkpt>
      <trkpt lat="24.909779542635764" lon="118.53485162515761">
        <ele>8.110433515161276</ele>
        <time>2024-10-17T14:28:28Z</time>
      </trkpt>
      <trkpt lat="24.90974381956216" lon="118.53467423723183">
        <ele>7.902010278776288</ele>
        <time>2024-10-17T14:28:34Z</time>
      </trkpt>
      <trkpt lat="24.909795832384937" lon="118.53447980911317">
        <ele>7.459908189252019</ele>
        <time>2024-10-17T14:28:40Z</time>
      </trkpt>
      <trkpt lat="24.909807691854176" lon="118.53437893895554">
        <ele>7.619296596385539</ele>
        <time>2024-10-17T14:28:43Z</time>
      </trkpt>
      <trkpt lat="24.90984546599135" lon="118.53426362771587">
        <ele>7.74938546307385</ele>
        <time>2024-10-17T14:28:46Z</time>
      </trkpt>
      <trkpt lat="24.909858041359758" lon="118.53397791989204">
        <ele>7.398050349205732</ele>
        <time>2024-10-17T14:28:55Z</time>
      </trkpt>
      <trkpt lat="24.909907060232875" lon="118.53387913976637">
        <ele>7.3586904825642705</ele>
        <time>2024-10-17T14:28:58Z</time>
      </trkpt>
      <trkpt lat="24.909984481796442" lon="118.53381779488444">
        <ele>8.041862865909934</ele>
        <time>2024-10-17T14:29:01Z</time>
      </trkpt>
      <trkpt lat="24.910278878963556" lon="118.53378526284781">
        <ele>9.097279501147568</ele>
        <time>2024-10-17T14:29:10Z</time>
      </trkpt>
      <trkpt lat="24.910578341554565" lon="118.5337439374804">
        <ele>10.228307409211993</ele>
        <time>2024-10-17T14:29:19Z</time>
      </trkpt>
      <trkpt lat="24.910867081753175" lon="118.53372676522785">
        <ele>10.850121374242008</ele>
        <time>2024-10-17T14:29:28Z</time>
      </trkpt>
      <trkpt lat="24.911165744479458" lon="118.53372060605547">
        <ele>9.771418888121843</ele>
        <time>2024-10-17T14:29:37Z</time>
      </trkpt>
      <trkpt lat="24.911460151133472" lon="118.53372466851525">
        <ele>10.098404350690544</ele>
        <time>2024-10-17T14:29:46Z</time>
      </trkpt>
      <trkpt lat="24.911775646067046" lon="118.53374544621559">
        <ele>9.954366404563189</ele>
        <time>2024-10-17T14:29:55Z</time>
      </trkpt>
      <trkpt lat="24.912093010103387" lon="118.5337528226533">
        <ele>10.287133509293199</ele>
        <time>2024-10-17T14:30:04Z</time>
      </trkpt>
      <trkpt lat="24.91241250381106" lon="118.53375467388352">
        <ele>10.177948476746678</ele>
        <time>2024-10-17T14:30:13Z</time>
      </trkpt>
      <trkpt lat="24.912691295993508" lon="118.5337644385915">
        <ele>10.425380029715598</ele>
        <time>2024-10-17T14:30:22Z</time>
      </trkpt>
      <trkpt lat="24.91287700313717" lon="118.53375832859182">
        <ele>9.821192737668753</ele>
        <time>2024-10-17T14:30:28Z</time>
      </trkpt>
      <trkpt lat="24.913029045133314" lon="118.53382399355027">
        <ele>9.860873697325587</ele>
        <time>2024-10-17T14:30:34Z</time>
      </trkpt>
      <trkpt lat="24.913361523199388" lon="118.53384668975396">
        <ele>10.122881271876395</ele>
        <time>2024-10-17T14:30:46Z</time>
      </trkpt>
      <trkpt lat="24.9137349923188" lon="118.53392154963156">
        <ele>10.692997463978827</ele>
        <time>2024-10-17T14:30:58Z</time>
      </trkpt>
      <trkpt lat="24.914058735999685" lon="118.53396715907517">
        <ele>10.732420748099685</ele>
        <time>2024-10-17T14:31:07Z</time>
      </trkpt>
      <trkpt lat="24.91434073220923" lon="118.53401647996604">
        <ele>11.13527096901089</ele>
        <time>2024-10-17T14:31:16Z</time>
      </trkpt>
      <trkpt lat="24.91454571657248" lon="118.53403737178459">
        <ele>11.999043147079647</ele>
        <time>2024-10-17T14:31:22Z</time>
      </trkpt>
      <trkpt lat="24.914818336664432" lon="118.5341140307759">
        <ele>12.654061974957585</ele>
        <time>2024-10-17T14:31:31Z</time>
      </trkpt>
      <trkpt lat="24.91510236646737" lon="118.53416643493793">
        <ele>13.304710444062948</ele>
        <time>2024-10-17T14:31:40Z</time>
      </trkpt>
      <trkpt lat="24.91529446714021" lon="118.53416737129992">
        <ele>13.181243469007313</ele>
        <time>2024-10-17T14:31:46Z</time>
      </trkpt>
      <trkpt lat="24.915594495464553" lon="118.53421098132593">
        <ele>13.160805507563055</ele>
        <time>2024-10-17T14:31:55Z</time>
      </trkpt>
      <trkpt lat="24.91587124589009" lon="118.5342619008344">
        <ele>12.661714212037623</ele>
        <time>2024-10-17T14:32:04Z</time>
      </trkpt>
      <trkpt lat="24.91614157948333" lon="118.53431806679623">
        <ele>12.922215486876667</ele>
        <time>2024-10-17T14:32:13Z</time>
      </trkpt>
      <trkpt lat="24.916416745485034" lon="118.5343715540331">
        <ele>12.492710353806615</ele>
        <time>2024-10-17T14:32:22Z</time>
      </trkpt>
      <trkpt lat="24.91669664166618" lon="118.53441820207048">
        <ele>13.7223897324875</ele>
        <time>2024-10-17T14:32:31Z</time>
      </trkpt>
      <trkpt lat="24.916969004788672" lon="118.53448038897143">
        <ele>14.349424346350133</ele>
        <time>2024-10-17T14:32:40Z</time>
      </trkpt>
      <trkpt lat="24.917243373855303" lon="118.53452963331182">
        <ele>14.234383828938007</ele>
        <time>2024-10-17T14:32:49Z</time>
      </trkpt>
      <trkpt lat="24.917437922416894" lon="118.5345643482626">
        <ele>14.173805251717567</ele>
        <time>2024-10-17T14:32:55Z</time>
      </trkpt>
      <trkpt lat="24.917723886516278" lon="118.53464245676942">
        <ele>14.290598140098155</ele>
        <time>2024-10-17T14:33:04Z</time>
      </trkpt>
      <trkpt lat="24.918012152200333" lon="118.53469929170873">
        <ele>14.980524974875152</ele>
        <time>2024-10-17T14:33:13Z</time>
      </trkpt>
      <trkpt lat="24.918292972810892" lon="118.53478303576635">
        <ele>13.843916825018823</ele>
        <time>2024-10-17T14:33:22Z</time>
      </trkpt>
      <trkpt lat="24.91847562888713" lon="118.53487222378476">
        <ele>13.006238193251193</ele>
        <time>2024-10-17T14:33:28Z</time>
      </trkpt>
      <trkpt lat="24.91854325158804" lon="118.53493696521367">
        <ele>12.359580675140023</ele>
        <time>2024-10-17T14:33:31Z</time>
      </trkpt>
      <trkpt lat="24.918607136731985" lon="118.53512742222556">
        <ele>12.297285394743085</ele>
        <time>2024-10-17T14:33:37Z</time>
      </trkpt>
      <trkpt lat="24.91860762877887" lon="118.53523766969194">
        <ele>11.819852849468589</ele>
        <time>2024-10-17T14:33:40Z</time>
      </trkpt>
      <trkpt lat="24.918585530159728" lon="118.5353610850306">
        <ele>10.358813549391925</ele>
        <time>2024-10-17T14:33:43Z</time>
      </trkpt>
      <trkpt lat="24.91845782619877" lon="118.53564603934899">
        <ele>10.054319627583027</ele>
        <time>2024-10-17T14:33:52Z</time>
      </trkpt>
      <trkpt lat="24.918365319489517" lon="118.53595778891386">
        <ele>9.639413786120713</ele>
        <time>2024-10-17T14:34:01Z</time>
      </trkpt>
      <trkpt lat="24.91816458466497" lon="118.53628973101297">
        <ele>9.9862288730219</ele>
        <time>2024-10-17T14:34:13Z</time>
      </trkpt>
      <trkpt lat="24.918094892570895" lon="118.53658892949622">
        <ele>10.042793838307261</ele>
        <time>2024-10-17T14:34:22Z</time>
      </trkpt>
      <trkpt lat="24.91800342590643" lon="118.53685600230784">
        <ele>9.859339529648423</ele>
        <time>2024-10-17T14:34:31Z</time>
      </trkpt>
      <trkpt lat="24.917946294724178" lon="118.5371290741206">
        <ele>9.629159398376942</ele>
        <time>2024-10-17T14:34:40Z</time>
      </trkpt>
      <trkpt lat="24.91786931181744" lon="118.53721905661493">
        <ele>9.529978419654071</ele>
        <time>2024-10-17T14:34:43Z</time>
      </trkpt>
      <trkpt lat="24.91777312222487" lon="118.53741178222153">
        <ele>9.627962342463434</ele>
        <time>2024-10-17T14:34:49Z</time>
      </trkpt>
      <trkpt lat="24.91760814223752" lon="118.53768355968016">
        <ele>10.018672213889658</ele>
        <time>2024-10-17T14:34:58Z</time>
      </trkpt>
      <trkpt lat="24.917492335899784" lon="118.53789830627437">
        <ele>9.994317518547177</ele>
        <time>2024-10-17T14:35:05Z</time>
      </trkpt>
      <trkpt lat="24.917394276009457" lon="118.53819630403149">
        <ele>10.041363729164004</ele>
        <time>2024-10-17T14:35:14Z</time>
      </trkpt>
      <trkpt lat="24.91737237839787" lon="118.538458589162">
        <ele>9.594273413531482</ele>
        <time>2024-10-17T14:35:23Z</time>
      </trkpt>
      <trkpt lat="24.917285362358676" lon="118.53855712189471">
        <ele>9.860003693960607</ele>
        <time>2024-10-17T14:35:26Z</time>
      </trkpt>
      <trkpt lat="24.917230180686786" lon="118.53874522055635">
        <ele>9.621601396240294</ele>
        <time>2024-10-17T14:35:32Z</time>
      </trkpt>
      <trkpt lat="24.917238400606127" lon="118.53884931886138">
        <ele>9.161100836470723</ele>
        <time>2024-10-17T14:35:35Z</time>
      </trkpt>
      <trkpt lat="24.917177530058503" lon="118.53920389633797">
        <ele>9.151622942648828</ele>
        <time>2024-10-17T14:35:44Z</time>
      </trkpt>
      <trkpt lat="24.917175695036953" lon="118.53956106502265">
        <ele>10.380768954753876</ele>
        <time>2024-10-17T14:35:54Z</time>
      </trkpt>
      <trkpt lat="24.917140959556157" lon="118.53967000292508">
        <ele>10.038130316883326</ele>
        <time>2024-10-17T14:35:57Z</time>
      </trkpt>
      <trkpt lat="24.917004884480207" lon="118.53986069135624">
        <ele>10.200355511158705</ele>
        <time>2024-10-17T14:36:04Z</time>
      </trkpt>
      <trkpt lat="24.916871789034136" lon="118.53992855771914">
        <ele>9.70932812988758</ele>
        <time>2024-10-17T14:36:07Z</time>
      </trkpt>
      <trkpt lat="24.916688370453652" lon="118.54010259770766">
        <ele>10.165127533487976</ele>
        <time>2024-10-17T14:36:13Z</time>
      </trkpt>
      <trkpt lat="24.916622715083697" lon="118.54019146897144">
        <ele>10.396430858410895</ele>
        <time>2024-10-17T14:36:16Z</time>
      </trkpt>
      <trkpt lat="24.916546756665998" lon="118.54038659967121">
        <ele>10.63002401124686</ele>
        <time>2024-10-17T14:36:22Z</time>
      </trkpt>
      <trkpt lat="24.916490153617854" lon="118.54072370306861">
        <ele>11.632722837850451</ele>
        <time>2024-10-17T14:36:31Z</time>
      </trkpt>
      <trkpt lat="24.916505023543586" lon="118.54081786450288">
        <ele>11.596169023774564</ele>
        <time>2024-10-17T14:36:34Z</time>
      </trkpt>
      <trkpt lat="24.916480422438596" lon="118.54103086183358">
        <ele>12.590112646110356</ele>
        <time>2024-10-17T14:36:40Z</time>
      </trkpt>
      <trkpt lat="24.916576304387064" lon="118.54122314870439">
        <ele>12.444980652071536</ele>
        <time>2024-10-17T14:36:46Z</time>
      </trkpt>
      <trkpt lat="24.9166798618934" lon="118.5414996864653">
        <ele>12.31027835328132</ele>
        <time>2024-10-17T14:36:55Z</time>
      </trkpt>
      <trkpt lat="24.916698362337414" lon="118.54160429055597">
        <ele>12.173278528265655</ele>
        <time>2024-10-17T14:36:58Z</time>
      </trkpt>
      <trkpt lat="24.916665441555487" lon="118.54171933604006">
        <ele>11.426260692998767</ele>
        <time>2024-10-17T14:37:01Z</time>
      </trkpt>
      <trkpt lat="24.916578660640152" lon="118.54181127998254">
        <ele>11.345406897366047</ele>
        <time>2024-10-17T14:37:04Z</time>
      </trkpt>
      <trkpt lat="24.916512418501064" lon="118.54193413861263">
        <ele>10.832569187507033</ele>
        <time>2024-10-17T14:37:07Z</time>
      </trkpt>
      <trkpt lat="24.916410892506132" lon="118.54195755604985">
        <ele>11.394987775944173</ele>
        <time>2024-10-17T14:37:10Z</time>
      </trkpt>
      <trkpt lat="24.916231128171013" lon="118.5420742693531">
        <ele>12.21390067320317</ele>
        <time>2024-10-17T14:37:16Z</time>
      </trkpt>
      <trkpt lat="24.916117589468342" lon="118.54211405494338">
        <ele>12.116355425678194</ele>
        <time>2024-10-17T14:37:19Z</time>
      </trkpt>
      <trkpt lat="24.915909565158618" lon="118.54222592711736">
        <ele>12.936180783435702</ele>
        <time>2024-10-17T14:37:25Z</time>
      </trkpt>
      <trkpt lat="24.915809466163804" lon="118.5422572722339">
        <ele>12.629686300642788</ele>
        <time>2024-10-17T14:37:28Z</time>
      </trkpt>
      <trkpt lat="24.91552362657042" lon="118.54245261049097">
        <ele>12.533156509511173</ele>
        <time>2024-10-17T14:37:37Z</time>
      </trkpt>
      <trkpt lat="24.915432955246725" lon="118.54250986464473">
        <ele>12.823439355008304</ele>
        <time>2024-10-17T14:37:40Z</time>
      </trkpt>
      <trkpt lat="24.91532256807836" lon="118.54263868989379">
        <ele>13.023451121523976</ele>
        <time>2024-10-17T14:37:46Z</time>
      </trkpt>
      <trkpt lat="24.915138047312034" lon="118.54266637145248">
        <ele>12.54657397698611</ele>
        <time>2024-10-17T14:37:52Z</time>
      </trkpt>
      <trkpt lat="24.91504526004133" lon="118.54270234479816">
        <ele>11.87138333171606</ele>
        <time>2024-10-17T14:37:55Z</time>
      </trkpt>
      <trkpt lat="24.91479857562155" lon="118.54271193343826">
        <ele>10.547920840792358</ele>
        <time>2024-10-17T14:38:03Z</time>
      </trkpt>
      <trkpt lat="24.914720404797194" lon="118.5427356132756">
        <ele>10.337801224552095</ele>
        <time>2024-10-17T14:38:06Z</time>
      </trkpt>
      <trkpt lat="24.91449586759013" lon="118.54268105764992">
        <ele>10.06938517652452</ele>
        <time>2024-10-17T14:38:13Z</time>
      </trkpt>
      <trkpt lat="24.91428095599283" lon="118.542715628848">
        <ele>9.979691145010293</ele>
        <time>2024-10-17T14:38:19Z</time>
      </trkpt>
      <trkpt lat="24.914097544468703" lon="118.54279527403027">
        <ele>9.85213600192219</ele>
        <time>2024-10-17T14:38:25Z</time>
      </trkpt>
      <trkpt lat="24.913784547241434" lon="118.54282926158133">
        <ele>8.285703749395907</ele>
        <time>2024-10-17T14:38:34Z</time>
      </trkpt>
      <trkpt lat="24.913673305010278" lon="118.54282946334207">
        <ele>8.320992860943079</ele>
        <time>2024-10-17T14:38:37Z</time>
      </trkpt>
      <trkpt lat="24.91347003324313" lon="118.54290083513445">
        <ele>8.089747782796621</ele>
        <time>2024-10-17T14:38:43Z</time>
      </trkpt>
      <trkpt lat="24.91337583847559" lon="118.54297256301649">
        <ele>7.6581558175385</ele>
        <time>2024-10-17T14:38:46Z</time>
      </trkpt>
      <trkpt lat="24.91318292507274" lon="118.5430228799239">
        <ele>7.814183157868683</ele>
        <time>2024-10-17T14:38:52Z</time>
      </trkpt>
      <trkpt lat="24.912986265316043" lon="118.543003178809">
        <ele>7.7091430788859725</ele>
        <time>2024-10-17T14:38:58Z</time>
      </trkpt>
      <trkpt lat="24.912711456564313" lon="118.54305066298863">
        <ele>7.923282946459949</ele>
        <time>2024-10-17T14:39:07Z</time>
      </trkpt>
      <trkpt lat="24.912533112021997" lon="118.54308197897466">
        <ele>7.77484402153641</ele>
        <time>2024-10-17T14:39:13Z</time>
      </trkpt>
      <trkpt lat="24.912446710675045" lon="118.54311645460847">
        <ele>7.749266218394041</ele>
        <time>2024-10-17T14:39:16Z</time>
      </trkpt>
      <trkpt lat="24.91216058029574" lon="118.54317563400676">
        <ele>7.534325674176216</ele>
        <time>2024-10-17T14:39:25Z</time>
      </trkpt>
      <trkpt lat="24.911891831320155" lon="118.54323993466424">
        <ele>7.3464234080165625</ele>
        <time>2024-10-17T14:39:34Z</time>
      </trkpt>
      <trkpt lat="24.911605262741958" lon="118.54329294672267">
        <ele>8.54675979167223</ele>
        <time>2024-10-17T14:39:43Z</time>
      </trkpt>
      <trkpt lat="24.911340276275304" lon="118.54333895456786">
        <ele>7.732423217967153</ele>
        <time>2024-10-17T14:39:52Z</time>
      </trkpt>
      <trkpt lat="24.911257880278324" lon="118.54333236161864">
        <ele>7.8693992448970675</ele>
        <time>2024-10-17T14:39:55Z</time>
      </trkpt>
      <trkpt lat="24.911166297752995" lon="118.54335904318161">
        <ele>7.70963157620281</ele>
        <time>2024-10-17T14:39:58Z</time>
      </trkpt>
      <trkpt lat="24.911062420283915" lon="118.5433623542465">
        <ele>7.574204517528415</ele>
        <time>2024-10-17T14:40:01Z</time>
      </trkpt>
      <trkpt lat="24.91092564166357" lon="118.54339257616415">
        <ele>7.8040841370821</ele>
        <time>2024-10-17T14:40:05Z</time>
      </trkpt>
      <trkpt lat="24.91056784126245" lon="118.5433563993805">
        <ele>7.831403479911387</ele>
        <time>2024-10-17T14:40:16Z</time>
      </trkpt>
      <trkpt lat="24.910380413695837" lon="118.54336448708848">
        <ele>7.532897423952818</ele>
        <time>2024-10-17T14:40:22Z</time>
      </trkpt>
      <trkpt lat="24.91029567287463" lon="118.5433902921275">
        <ele>7.70405984763056</ele>
        <time>2024-10-17T14:40:25Z</time>
      </trkpt>
      <trkpt lat="24.910024993154178" lon="118.54340327777568">
        <ele>7.648176737129688</ele>
        <time>2024-10-17T14:40:34Z</time>
      </trkpt>
      <trkpt lat="24.909811042742387" lon="118.5433768962674">
        <ele>6.911733550950885</ele>
        <time>2024-10-17T14:40:40Z</time>
      </trkpt>
      <trkpt lat="24.90952215443087" lon="118.54338985838588">
        <ele>7.352677660062909</ele>
        <time>2024-10-17T14:40:49Z</time>
      </trkpt>
      <trkpt lat="24.909428156374922" lon="118.54338141734773">
        <ele>7.184543143026531</ele>
        <time>2024-10-17T14:40:52Z</time>
      </trkpt>
      <trkpt lat="24.909232034352215" lon="118.54341071536635">
        <ele>7.312629546970129</ele>
        <time>2024-10-17T14:40:58Z</time>
      </trkpt>
      <trkpt lat="24.908940541818055" lon="118.54338218063141">
        <ele>7.849357785657048</ele>
        <time>2024-10-17T14:41:07Z</time>
      </trkpt>
      <trkpt lat="24.908641712264792" lon="118.5433741260165">
        <ele>7.664183688350022</ele>
        <time>2024-10-17T14:41:16Z</time>
      </trkpt>
      <trkpt lat="24.90835113105109" lon="118.543383151613">
        <ele>7.576949034817517</ele>
        <time>2024-10-17T14:41:25Z</time>
      </trkpt>
      <trkpt lat="24.908250634294767" lon="118.54338790816328">
        <ele>7.765715165063739</ele>
        <time>2024-10-17T14:41:28Z</time>
      </trkpt>
      <trkpt lat="24.9082014736627" lon="118.54337418712036">
        <ele>7.857342744246125</ele>
        <time>2024-10-17T14:41:31Z</time>
      </trkpt>
      <trkpt lat="24.907928818797387" lon="118.54340213773317">
        <ele>7.908154553733766</ele>
        <time>2024-10-17T14:41:40Z</time>
      </trkpt>
      <trkpt lat="24.90782587038054" lon="118.54341028361436">
        <ele>8.366892678663135</ele>
        <time>2024-10-17T14:41:43Z</time>
      </trkpt>
      <trkpt lat="24.907610461104458" lon="118.54338934146114">
        <ele>7.9259051233530045</ele>
        <time>2024-10-17T14:41:49Z</time>
      </trkpt>
      <trkpt lat="24.907518374458093" lon="118.54334368645993">
        <ele>7.830511210486293</ele>
        <time>2024-10-17T14:41:52Z</time>
      </trkpt>
      <trkpt lat="24.90745437746137" lon="118.54326941028651">
        <ele>7.9198205303400755</ele>
        <time>2024-10-17T14:41:55Z</time>
      </trkpt>
      <trkpt lat="24.90750524946002" lon="118.5430567344916">
        <ele>7.7706135381013155</ele>
        <time>2024-10-17T14:42:01Z</time>
      </trkpt>
      <trkpt lat="24.907570955049117" lon="118.54297006414507">
        <ele>7.774139199405909</ele>
        <time>2024-10-17T14:42:04Z</time>
      </trkpt>
      <trkpt lat="24.907691326156037" lon="118.54264596819941">
        <ele>7.755726700648665</ele>
        <time>2024-10-17T14:42:14Z</time>
      </trkpt>
      <trkpt lat="24.907773326614222" lon="118.54231669793846">
        <ele>8.47248462960124</ele>
        <time>2024-10-17T14:42:24Z</time>
      </trkpt>
      <trkpt lat="24.907924848788483" lon="118.54194678045931">
        <ele>8.371420130133629</ele>
        <time>2024-10-17T14:42:36Z</time>
      </trkpt>
      <trkpt lat="24.908034581280962" lon="118.54158436420958">
        <ele>10.127013266086578</ele>
        <time>2024-10-17T14:42:48Z</time>
      </trkpt>
      <trkpt lat="24.908037602509765" lon="118.54141441336766">
        <ele>10.88538970053196</ele>
        <time>2024-10-17T14:42:54Z</time>
      </trkpt>
      <trkpt lat="24.908001777654814" lon="118.54130387689689">
        <ele>10.892894705757499</ele>
        <time>2024-10-17T14:42:57Z</time>
      </trkpt>
      <trkpt lat="24.908005175998746" lon="118.54115889593275">
        <ele>11.10768336430192</ele>
        <time>2024-10-17T14:43:00Z</time>
      </trkpt>
      <trkpt lat="24.908062019810824" lon="118.54103516813034">
        <ele>11.230328163132071</ele>
        <time>2024-10-17T14:43:03Z</time>
      </trkpt>
      <trkpt lat="24.908308772908757" lon="118.54072121654887">
        <ele>9.171789885498583</ele>
        <time>2024-10-17T14:43:12Z</time>
      </trkpt>
      <trkpt lat="24.908343019376254" lon="118.54061823730478">
        <ele>9.453293195925653</ele>
        <time>2024-10-17T14:43:15Z</time>
      </trkpt>
      <trkpt lat="24.908518241960135" lon="118.5403888128074">
        <ele>9.784040790051222</ele>
        <time>2024-10-17T14:43:21Z</time>
      </trkpt>
      <trkpt lat="24.90859667486561" lon="118.5402833827185">
        <ele>9.217753754928708</ele>
        <time>2024-10-17T14:43:24Z</time>
      </trkpt>
      <trkpt lat="24.90869125917433" lon="118.54008959402405">
        <ele>8.249857976101339</ele>
        <time>2024-10-17T14:43:30Z</time>
      </trkpt>
      <trkpt lat="24.908790115707266" lon="118.53980258389736">
        <ele>8.537147894501686</ele>
        <time>2024-10-17T14:43:39Z</time>
      </trkpt>
      <trkpt lat="24.908862250627116" lon="118.5394955664386">
        <ele>8.339305306784809</ele>
        <time>2024-10-17T14:43:48Z</time>
      </trkpt>
      <trkpt lat="24.90885681501873" lon="118.53941435330435">
        <ele>8.19021436944604</ele>
        <time>2024-10-17T14:43:51Z</time>
      </trkpt>
      <trkpt lat="24.908891951319013" lon="118.53922432493825">
        <ele>7.5525289457291365</ele>
        <time>2024-10-17T14:43:57Z</time>
      </trkpt>
      <trkpt lat="24.90900371455395" lon="118.53889881044508">
        <ele>7.765698175877333</ele>
        <time>2024-10-17T14:44:06Z</time>
      </trkpt>
      <trkpt lat="24.909090250346246" lon="118.53855233856991">
        <ele>7.939189944416285</ele>
        <time>2024-10-17T14:44:16Z</time>
      </trkpt>
      <trkpt lat="24.909161090767167" lon="118.53820350029073">
        <ele>8.505125523544848</ele>
        <time>2024-10-17T14:44:26Z</time>
      </trkpt>
      <trkpt lat="24.909212401011295" lon="118.53800354100173">
        <ele>7.850270893424749</ele>
        <time>2024-10-17T14:44:33Z</time>
      </trkpt>
      <trkpt lat="24.909238085868232" lon="118.53780898398128">
        <ele>8.28093726374209</ele>
        <time>2024-10-17T14:44:39Z</time>
      </trkpt>
      <trkpt lat="24.90933489335825" lon="118.53749709851573">
        <ele>9.726961756125093</ele>
        <time>2024-10-17T14:44:48Z</time>
      </trkpt>
      <trkpt lat="24.909343530741964" lon="118.5372140444756">
        <ele>9.980534340254962</ele>
        <time>2024-10-17T14:44:57Z</time>
      </trkpt>
      <trkpt lat="24.909395237278144" lon="118.53701074127778">
        <ele>10.757893935777247</ele>
        <time>2024-10-17T14:45:03Z</time>
      </trkpt>
      <trkpt lat="24.909477719034324" lon="118.53681376182826">
        <ele>9.880271842703223</ele>
        <time>2024-10-17T14:45:09Z</time>
      </trkpt>
      <trkpt lat="24.909514836970896" lon="118.53650798258441">
        <ele>10.487971236929297</ele>
        <time>2024-10-17T14:45:18Z</time>
      </trkpt>
      <trkpt lat="24.9095405096838" lon="118.53641339422919">
        <ele>10.049798724241555</ele>
        <time>2024-10-17T14:45:21Z</time>
      </trkpt>
      <trkpt lat="24.90954356690115" lon="118.53619135534214">
        <ele>10.249807370826602</ele>
        <time>2024-10-17T14:45:27Z</time>
      </trkpt>
      <trkpt lat="24.909619507906562" lon="118.53588705807003">
        <ele>9.925376079045236</ele>
        <time>2024-10-17T14:45:36Z</time>
      </trkpt>
      <trkpt lat="24.90966509703667" lon="118.53555942886975">
        <ele>10.12104972358793</ele>
        <time>2024-10-17T14:45:45Z</time>
      </trkpt>
      <trkpt lat="24.90971417376977" lon="118.53534130821392">
        <ele>9.964129177853465</ele>
        <time>2024-10-17T14:45:51Z</time>
      </trkpt>
      <trkpt lat="24.909731287568814" lon="118.53501616398752">
        <ele>8.922572969458997</ele>
        <time>2024-10-17T14:46:00Z</time>
      </trkpt>
      <trkpt lat="24.909762326272325" lon="118.53469496901307">
        <ele>7.956505608744919</ele>
        <time>2024-10-17T14:46:09Z</time>
      </trkpt>
      <trkpt lat="24.90980848527154" lon="118.53438871491848">
        <ele>7.975660711526871</ele>
        <time>2024-10-17T14:46:18Z</time>
      </trkpt>
      <trkpt lat="24.909859742477135" lon="118.53399042164979">
        <ele>8.154551636427641</ele>
        <time>2024-10-17T14:46:29Z</time>
      </trkpt>
      <trkpt lat="24.909899285775715" lon="118.53390459207488">
        <ele>7.756634473800659</ele>
        <time>2024-10-17T14:46:32Z</time>
      </trkpt>
      <trkpt lat="24.9099851644968" lon="118.53381334367542">
        <ele>7.9120803866535425</ele>
        <time>2024-10-17T14:46:36Z</time>
      </trkpt>
      <trkpt lat="24.910080604944774" lon="118.53378774267406">
        <ele>8.092554894275963</ele>
        <time>2024-10-17T14:46:39Z</time>
      </trkpt>
      <trkpt lat="24.910172820066187" lon="118.53379577884066">
        <ele>8.590750908479095</ele>
        <time>2024-10-17T14:46:42Z</time>
      </trkpt>
      <trkpt lat="24.910274979497096" lon="118.53377763859382">
        <ele>8.911687643267214</ele>
        <time>2024-10-17T14:46:45Z</time>
      </trkpt>
      <trkpt lat="24.910573387888675" lon="118.53376175260787">
        <ele>10.034053293056786</ele>
        <time>2024-10-17T14:46:54Z</time>
      </trkpt>
      <trkpt lat="24.91087549768799" lon="118.53376270007375">
        <ele>10.169343034736812</ele>
        <time>2024-10-17T14:47:03Z</time>
      </trkpt>
      <trkpt lat="24.91117847705204" lon="118.53375276443994">
        <ele>9.877064986154437</ele>
        <time>2024-10-17T14:47:12Z</time>
      </trkpt>
      <trkpt lat="24.911476184149524" lon="118.53373978684536">
        <ele>9.91897111479193</ele>
        <time>2024-10-17T14:47:21Z</time>
      </trkpt>
      <trkpt lat="24.911755507077867" lon="118.53374915853063">
        <ele>9.645228992216289</ele>
        <time>2024-10-17T14:47:30Z</time>
      </trkpt>
      <trkpt lat="24.91206063141419" lon="118.53375170480902">
        <ele>10.23636862449348</ele>
        <time>2024-10-17T14:47:39Z</time>
      </trkpt>
      <trkpt lat="24.912151380162346" lon="118.53375753488946">
        <ele>10.048282735981047</ele>
        <time>2024-10-17T14:47:42Z</time>
      </trkpt>
      <trkpt lat="24.91225154147141" lon="118.53374210340192">
        <ele>10.55414549075067</ele>
        <time>2024-10-17T14:47:45Z</time>
      </trkpt>
      <trkpt lat="24.912565582893325" lon="118.53375221200504">
        <ele>10.139457943849266</ele>
        <time>2024-10-17T14:47:57Z</time>
      </trkpt>
      <trkpt lat="24.91286531659152" lon="118.53375893576433">
        <ele>10.62078842613846</ele>
        <time>2024-10-17T14:48:06Z</time>
      </trkpt>
      <trkpt lat="24.912962829063762" lon="118.53378541306536">
        <ele>10.337215100415051</ele>
        <time>2024-10-17T14:48:09Z</time>
      </trkpt>
      <trkpt lat="24.913056189779603" lon="118.53383208847266">
        <ele>10.23276334721595</ele>
        <time>2024-10-17T14:48:12Z</time>
      </trkpt>
      <trkpt lat="24.913339904080928" lon="118.5338653889467">
        <ele>9.595432513393462</ele>
        <time>2024-10-17T14:48:21Z</time>
      </trkpt>
      <trkpt lat="24.913683438237822" lon="118.53391400417122">
        <ele>10.497882965020835</ele>
        <time>2024-10-17T14:48:32Z</time>
      </trkpt>
      <trkpt lat="24.913954431591023" lon="118.53395453169567">
        <ele>10.590951955877244</ele>
        <time>2024-10-17T14:48:40Z</time>
      </trkpt>
      <trkpt lat="24.914237739671677" lon="118.53399121216484">
        <ele>10.564403867349029</ele>
        <time>2024-10-17T14:48:49Z</time>
      </trkpt>
      <trkpt lat="24.914511979670138" lon="118.53404099370766">
        <ele>12.073260316625237</ele>
        <time>2024-10-17T14:48:58Z</time>
      </trkpt>
      <trkpt lat="24.914829296968993" lon="118.53411390091614">
        <ele>13.108580726198852</ele>
        <time>2024-10-17T14:49:10Z</time>
      </trkpt>
      <trkpt lat="24.915155212950665" lon="118.53413924799656">
        <ele>12.975208608433604</ele>
        <time>2024-10-17T14:49:19Z</time>
      </trkpt>
      <trkpt lat="24.915449746351648" lon="118.53418976591419">
        <ele>12.654821880161762</ele>
        <time>2024-10-17T14:49:28Z</time>
      </trkpt>
      <trkpt lat="24.915808156255114" lon="118.53425280806483">
        <ele>12.446214952506125</ele>
        <time>2024-10-17T14:49:40Z</time>
      </trkpt>
      <trkpt lat="24.91608957471553" lon="118.5342863788054">
        <ele>12.185249813832343</ele>
        <time>2024-10-17T14:49:49Z</time>
      </trkpt>
      <trkpt lat="24.916361982695836" lon="118.53433994608139">
        <ele>12.39136678352952</ele>
        <time>2024-10-17T14:49:58Z</time>
      </trkpt>
      <trkpt lat="24.916664953458277" lon="118.53439403380304">
        <ele>13.7578742839396</ele>
        <time>2024-10-17T14:50:07Z</time>
      </trkpt>
      <trkpt lat="24.91676325735341" lon="118.53440808983336">
        <ele>14.21697472780943</ele>
        <time>2024-10-17T14:50:10Z</time>
      </trkpt>
      <trkpt lat="24.917055316902335" lon="118.53447910001447">
        <ele>14.827654139138758</ele>
        <time>2024-10-17T14:50:19Z</time>
      </trkpt>
      <trkpt lat="24.91736012240585" lon="118.53453697342738">
        <ele>14.759978018701077</ele>
        <time>2024-10-17T14:50:28Z</time>
      </trkpt>
      <trkpt lat="24.917680333334005" lon="118.53462207371263">
        <ele>14.010502187535167</ele>
        <time>2024-10-17T14:50:38Z</time>
      </trkpt>
      <trkpt lat="24.918036875972987" lon="118.53471335488703">
        <ele>14.491771042346954</ele>
        <time>2024-10-17T14:50:49Z</time>
      </trkpt>
      <trkpt lat="24.918319892285886" lon="118.534770969704">
        <ele>13.368250840343535</ele>
        <time>2024-10-17T14:50:58Z</time>
      </trkpt>
      <trkpt lat="24.918409532934533" lon="118.53479774669178">
        <ele>12.826461029238999</ele>
        <time>2024-10-17T14:51:01Z</time>
      </trkpt>
      <trkpt lat="24.918502048646953" lon="118.53484916479506">
        <ele>13.578416119329631</ele>
        <time>2024-10-17T14:51:04Z</time>
      </trkpt>
      <trkpt lat="24.918621323650154" lon="118.53500893792346">
        <ele>12.586698623374104</ele>
        <time>2024-10-17T14:51:10Z</time>
      </trkpt>
      <trkpt lat="24.91864421040767" lon="118.53521110930645">
        <ele>11.94146432634443</ele>
        <time>2024-10-17T14:51:16Z</time>
      </trkpt>
      <trkpt lat="24.9185416284346" lon="118.53551154169176">
        <ele>10.320927988737822</ele>
        <time>2024-10-17T14:51:25Z</time>
      </trkpt>
      <trkpt lat="24.91845881499097" lon="118.5358305106105">
        <ele>10.162982874549925</ele>
        <time>2024-10-17T14:51:34Z</time>
      </trkpt>
      <trkpt lat="24.91839194513543" lon="118.53601132909412">
        <ele>9.776865027844906</ele>
        <time>2024-10-17T14:51:40Z</time>
      </trkpt>
      <trkpt lat="24.918229388031563" lon="118.53627555378489">
        <ele>9.924912163056433</ele>
        <time>2024-10-17T14:51:49Z</time>
      </trkpt>
      <trkpt lat="24.91810360894149" lon="118.53663173252265">
        <ele>10.203094901517034</ele>
        <time>2024-10-17T14:52:01Z</time>
      </trkpt>
      <trkpt lat="24.918010379085725" lon="118.53680746385534">
        <ele>9.69003391917795</ele>
        <time>2024-10-17T14:52:07Z</time>
      </trkpt>
      <trkpt lat="24.917978118197247" lon="118.53700544457992">
        <ele>10.31517815683037</ele>
        <time>2024-10-17T14:52:13Z</time>
      </trkpt>
      <trkpt lat="24.91792275292495" lon="118.5371186565522">
        <ele>10.250445037148893</ele>
        <time>2024-10-17T14:52:16Z</time>
      </trkpt>
      <trkpt lat="24.91785175737767" lon="118.53721246025395">
        <ele>10.466926191933453</ele>
        <time>2024-10-17T14:52:19Z</time>
      </trkpt>
      <trkpt lat="24.917735553362803" lon="118.53743327106183">
        <ele>10.037635460495949</ele>
        <time>2024-10-17T14:52:25Z</time>
      </trkpt>
      <trkpt lat="24.917669810649752" lon="118.53763144224092">
        <ele>10.097950126044452</ele>
        <time>2024-10-17T14:52:31Z</time>
      </trkpt>
      <trkpt lat="24.91754570703925" lon="118.53778942898626">
        <ele>9.80241956654936</ele>
        <time>2024-10-17T14:52:37Z</time>
      </trkpt>
      <trkpt lat="24.91747829646289" lon="118.53791981896049">
        <ele>9.82443458493799</ele>
        <time>2024-10-17T14:52:41Z</time>
      </trkpt>
      <trkpt lat="24.917433398639535" lon="118.53816344181146">
        <ele>9.922581288032234</ele>
        <time>2024-10-17T14:52:48Z</time>
      </trkpt>
      <trkpt lat="24.917382183422063" lon="118.53829168481874">
        <ele>10.165133347734809</ele>
        <time>2024-10-17T14:52:52Z</time>
      </trkpt>
      <trkpt lat="24.91737204463762" lon="118.53841569784939">
        <ele>9.854097850620747</ele>
        <time>2024-10-17T14:52:55Z</time>
      </trkpt>
      <trkpt lat="24.91733095184671" lon="118.53850657489143">
        <ele>10.273347522132099</ele>
        <time>2024-10-17T14:52:58Z</time>
      </trkpt>
      <trkpt lat="24.917255295590028" lon="118.53874140632509">
        <ele>9.918698043562472</ele>
        <time>2024-10-17T14:53:04Z</time>
      </trkpt>
      <trkpt lat="24.91717468573286" lon="118.5390744780277">
        <ele>9.858926532790065</ele>
        <time>2024-10-17T14:53:13Z</time>
      </trkpt>
      <trkpt lat="24.9171591744982" lon="118.5394649281638">
        <ele>10.037285284139216</ele>
        <time>2024-10-17T14:53:22Z</time>
      </trkpt>
      <trkpt lat="24.917137612237884" lon="118.53957556352943">
        <ele>10.225115886889398</ele>
        <time>2024-10-17T14:53:25Z</time>
      </trkpt>
      <trkpt lat="24.917008630369892" lon="118.53974971496882">
        <ele>9.856672134250402</ele>
        <time>2024-10-17T14:53:31Z</time>
      </trkpt>
      <trkpt lat="24.916837026642835" lon="118.53990623269007">
        <ele>10.371708861552179</ele>
        <time>2024-10-17T14:53:37Z</time>
      </trkpt>
      <trkpt lat="24.916727510720317" lon="118.53997698291951">
        <ele>10.295167715288699</ele>
        <time>2024-10-17T14:53:40Z</time>
      </trkpt>
      <trkpt lat="24.916654989970766" lon="118.54004651710693">
        <ele>10.23012762144208</ele>
        <time>2024-10-17T14:53:43Z</time>
      </trkpt>
      <trkpt lat="24.916563629713483" lon="118.54024899031602">
        <ele>10.403231256641448</ele>
        <time>2024-10-17T14:53:49Z</time>
      </trkpt>
      <trkpt lat="24.916533846508898" lon="118.54036954818356">
        <ele>10.720927132293582</ele>
        <time>2024-10-17T14:53:52Z</time>
      </trkpt>
      <trkpt lat="24.916518719261997" lon="118.54057444050814">
        <ele>11.616835246793926</ele>
        <time>2024-10-17T14:53:58Z</time>
      </trkpt>
      <trkpt lat="24.916490294132938" lon="118.54080310070671">
        <ele>12.282574783079326</ele>
        <time>2024-10-17T14:54:04Z</time>
      </trkpt>
      <trkpt lat="24.91650470427525" lon="118.54091207752897">
        <ele>12.290823202580214</ele>
        <time>2024-10-17T14:54:07Z</time>
      </trkpt>
      <trkpt lat="24.916582236822418" lon="118.54111676921467">
        <ele>12.452784224413335</ele>
        <time>2024-10-17T14:54:13Z</time>
      </trkpt>
      <trkpt lat="24.916658754098005" lon="118.54121135213406">
        <ele>12.282172751612961</ele>
        <time>2024-10-17T14:54:16Z</time>
      </trkpt>
      <trkpt lat="24.916793594384057" lon="118.54156383122468">
        <ele>12.773135963827372</ele>
        <time>2024-10-17T14:54:25Z</time>
      </trkpt>
      <trkpt lat="24.916734142428044" lon="118.54171373522405">
        <ele>12.479717708192766</ele>
        <time>2024-10-17T14:54:28Z</time>
      </trkpt>
      <trkpt lat="24.91664002513366" lon="118.54184661464166">
        <ele>11.902767456136644</ele>
        <time>2024-10-17T14:54:31Z</time>
      </trkpt>
    </trkseg>
  </trk>
</gpx>