<?xml version="1.0" encoding="UTF-8"?>
<gpx xmlns="http://www.topografix.com/GPX/1/1" xmlns:gpxtpx="http://www.garmin.com/xmlschemas/TrackPointExtension/v1" xmlns:xsi="http://www.w3.org/2001/XMLSchema-instance" xsi:schemaLocation="http://www.topografix.com/GPX/1/1 http://www.topografix.com/GPX/1/1/gpx.xsd" version="1.1" creator="gpx.py -- https://github.com/tkrajina/gpxpy">
  <trk>
    <name>gpx from keep</name>
    <type>Ride</type>
    <trkseg>
      <trkpt lat="24.925670297265473" lon="118.64787936402557">
        <ele>7.760761599987745</ele>
        <time>2024-11-05T10:09:32Z</time>
      </trkpt>
      <trkpt lat="24.925753848633274" lon="118.64783123113494">
        <ele>7.379565559327602</ele>
        <time>2024-11-05T10:09:49Z</time>
      </trkpt>
      <trkpt lat="24.92594330242755" lon="118.64763588605419">
        <ele>7.389732277952135</ele>
        <time>2024-11-05T10:10:02Z</time>
      </trkpt>
      <trkpt lat="24.92596248598211" lon="118.6475569341612">
        <ele>7.084394779987633</ele>
        <time>2024-11-05T10:10:04Z</time>
      </trkpt>
      <trkpt lat="24.925959727992293" lon="118.64747643527407">
        <ele>7.2715794844552875</ele>
        <time>2024-11-05T10:10:06Z</time>
      </trkpt>
      <trkpt lat="24.92598257548423" lon="118.6473936610348">
        <ele>7.305716103874147</ele>
        <time>2024-11-05T10:10:08Z</time>
      </trkpt>
      <trkpt lat="24.926098427419316" lon="118.64725762532176">
        <ele>6.863750738091767</ele>
        <time>2024-11-05T10:10:13Z</time>
      </trkpt>
      <trkpt lat="24.926212646376424" lon="118.64709074288906">
        <ele>7.498271512798965</ele>
        <time>2024-11-05T10:10:18Z</time>
      </trkpt>
      <trkpt lat="24.92652053732896" lon="118.64675141865811">
        <ele>7.321834960021079</ele>
        <time>2024-11-05T10:10:28Z</time>
      </trkpt>
      <trkpt lat="24.926646409837335" lon="118.64660195713908">
        <ele>7.480747662484646</ele>
        <time>2024-11-05T10:10:34Z</time>
      </trkpt>
      <trkpt lat="24.926779685516927" lon="118.64649933399768">
        <ele>7.856596959754825</ele>
        <time>2024-11-05T10:10:41Z</time>
      </trkpt>
      <trkpt lat="24.92708659091246" lon="118.64613415718074">
        <ele>7.6233638897538185</ele>
        <time>2024-11-05T10:10:51Z</time>
      </trkpt>
      <trkpt lat="24.92720884958574" lon="118.64595681603745">
        <ele>7.306904466822743</ele>
        <time>2024-11-05T10:10:55Z</time>
      </trkpt>
      <trkpt lat="24.927413827600237" lon="118.6457644115617">
        <ele>7.307981760241091</ele>
        <time>2024-11-05T10:11:04Z</time>
      </trkpt>
      <trkpt lat="24.9274867154016" lon="118.64575050399982">
        <ele>7.554214850999415</ele>
        <time>2024-11-05T10:11:15Z</time>
      </trkpt>
      <trkpt lat="24.92756832217555" lon="118.64570900646196">
        <ele>7.858467820100486</ele>
        <time>2024-11-05T10:11:35Z</time>
      </trkpt>
      <trkpt lat="24.927670276838953" lon="118.64553139377705">
        <ele>8.05423699785024</ele>
        <time>2024-11-05T10:12:08Z</time>
      </trkpt>
      <trkpt lat="24.92774524731447" lon="118.64545127530972">
        <ele>7.447148845531046</ele>
        <time>2024-11-05T10:12:11Z</time>
      </trkpt>
      <trkpt lat="24.927873502048925" lon="118.64522063555492">
        <ele>6.665923369117081</ele>
        <time>2024-11-05T10:12:19Z</time>
      </trkpt>
      <trkpt lat="24.928001972395023" lon="118.64508359203005">
        <ele>6.408087147399783</ele>
        <time>2024-11-05T10:12:24Z</time>
      </trkpt>
      <trkpt lat="24.928094071987626" lon="118.64490208340885">
        <ele>6.972571345046163</ele>
        <time>2024-11-05T10:12:28Z</time>
      </trkpt>
      <trkpt lat="24.92815057707616" lon="118.64482629834266">
        <ele>7.1840053759515285</ele>
        <time>2024-11-05T10:12:30Z</time>
      </trkpt>
      <trkpt lat="24.92830340153355" lon="118.6446848367112">
        <ele>7.133061385713518</ele>
        <time>2024-11-05T10:12:34Z</time>
      </trkpt>
      <trkpt lat="24.928426146795907" lon="118.64455131088971">
        <ele>6.867886249907315</ele>
        <time>2024-11-05T10:12:40Z</time>
      </trkpt>
      <trkpt lat="24.928609829749995" lon="118.64424289731123">
        <ele>7.234314180910587</ele>
        <time>2024-11-05T10:12:58Z</time>
      </trkpt>
      <trkpt lat="24.928790941074404" lon="118.64403881621699">
        <ele>7.534037226811051</ele>
        <time>2024-11-05T10:13:07Z</time>
      </trkpt>
      <trkpt lat="24.92883653536961" lon="118.64395016043775">
        <ele>7.50687918625772</ele>
        <time>2024-11-05T10:13:10Z</time>
      </trkpt>
      <trkpt lat="24.929123575850106" lon="118.6436017014706">
        <ele>7.168302468955517</ele>
        <time>2024-11-05T10:13:21Z</time>
      </trkpt>
      <trkpt lat="24.92918298495665" lon="118.64355183990052">
        <ele>6.977240699343383</ele>
        <time>2024-11-05T10:13:23Z</time>
      </trkpt>
      <trkpt lat="24.929506431639428" lon="118.64314821233367">
        <ele>6.98428260628134</ele>
        <time>2024-11-05T10:13:35Z</time>
      </trkpt>
      <trkpt lat="24.929672336503547" lon="118.64290842263465">
        <ele>7.415499412454665</ele>
        <time>2024-11-05T10:13:41Z</time>
      </trkpt>
      <trkpt lat="24.929745067112" lon="118.6428436731948">
        <ele>7.570096420124173</ele>
        <time>2024-11-05T10:13:43Z</time>
      </trkpt>
      <trkpt lat="24.92990526705377" lon="118.64260843306458">
        <ele>6.795791334472597</ele>
        <time>2024-11-05T10:13:49Z</time>
      </trkpt>
      <trkpt lat="24.93022575702329" lon="118.64220914003737">
        <ele>7.185766958631575</ele>
        <time>2024-11-05T10:13:59Z</time>
      </trkpt>
      <trkpt lat="24.93049692759173" lon="118.64180976628512">
        <ele>7.098257685080171</ele>
        <time>2024-11-05T10:14:12Z</time>
      </trkpt>
      <trkpt lat="24.9305598049056" lon="118.64174490217337">
        <ele>7.377950458787382</ele>
        <time>2024-11-05T10:14:15Z</time>
      </trkpt>
      <trkpt lat="24.93073646478893" lon="118.64152028142584">
        <ele>7.42270300257951</ele>
        <time>2024-11-05T10:14:25Z</time>
      </trkpt>
      <trkpt lat="24.930855211478523" lon="118.64133768058103">
        <ele>7.291041334159672</ele>
        <time>2024-11-05T10:14:30Z</time>
      </trkpt>
      <trkpt lat="24.93119214948632" lon="118.640991606055">
        <ele>6.413948871195316</ele>
        <time>2024-11-05T10:14:40Z</time>
      </trkpt>
      <trkpt lat="24.931269057074633" lon="118.64090659413709">
        <ele>5.868428081274033</ele>
        <time>2024-11-05T10:14:43Z</time>
      </trkpt>
      <trkpt lat="24.93130257873359" lon="118.6407291383341">
        <ele>5.213367121294141</ele>
        <time>2024-11-05T10:15:18Z</time>
      </trkpt>
      <trkpt lat="24.93097652791332" lon="118.64049201218762">
        <ele>7.470246443524957</ele>
        <time>2024-11-05T10:15:30Z</time>
      </trkpt>
      <trkpt lat="24.93084507939293" lon="118.64037700583778">
        <ele>7.827358881942928</ele>
        <time>2024-11-05T10:15:40Z</time>
      </trkpt>
      <trkpt lat="24.930754828935303" lon="118.64022560410167">
        <ele>8.141267700120807</ele>
        <time>2024-11-05T10:15:53Z</time>
      </trkpt>
      <trkpt lat="24.93068210019695" lon="118.64015720230985">
        <ele>8.35628945287317</ele>
        <time>2024-11-05T10:15:56Z</time>
      </trkpt>
      <trkpt lat="24.93057910709568" lon="118.64010622500182">
        <ele>8.43624644819647</ele>
        <time>2024-11-05T10:15:59Z</time>
      </trkpt>
      <trkpt lat="24.93043860816564" lon="118.64001651838196">
        <ele>8.88522573094815</ele>
        <time>2024-11-05T10:16:03Z</time>
      </trkpt>
      <trkpt lat="24.930364715818595" lon="118.63993651291294">
        <ele>9.53010406717658</ele>
        <time>2024-11-05T10:16:05Z</time>
      </trkpt>
      <trkpt lat="24.930113923680008" lon="118.63975671892379">
        <ele>9.799410396255553</ele>
        <time>2024-11-05T10:16:11Z</time>
      </trkpt>
      <trkpt lat="24.930079569919183" lon="118.6396720475849">
        <ele>10.756317052058876</ele>
        <time>2024-11-05T10:16:15Z</time>
      </trkpt>
      <trkpt lat="24.929783435230355" lon="118.63951594895138">
        <ele>12.066891830414534</ele>
        <time>2024-11-05T10:16:21Z</time>
      </trkpt>
      <trkpt lat="24.929686469513587" lon="118.63941695033657">
        <ele>11.538684104569256</ele>
        <time>2024-11-05T10:16:23Z</time>
      </trkpt>
      <trkpt lat="24.92946549280693" lon="118.63915011053851">
        <ele>11.45143570471555</ele>
        <time>2024-11-05T10:16:28Z</time>
      </trkpt>
      <trkpt lat="24.929098783299057" lon="118.63886602998132">
        <ele>11.423618445172906</ele>
        <time>2024-11-05T10:16:38Z</time>
      </trkpt>
      <trkpt lat="24.92896203452657" lon="118.63878108190777">
        <ele>11.980072356760502</ele>
        <time>2024-11-05T10:16:42Z</time>
      </trkpt>
      <trkpt lat="24.928871597726534" lon="118.63874931813491">
        <ele>11.789217226207256</ele>
        <time>2024-11-05T10:16:45Z</time>
      </trkpt>
      <trkpt lat="24.92849770706608" lon="118.6384587649913">
        <ele>13.802333378233016</ele>
        <time>2024-11-05T10:16:59Z</time>
      </trkpt>
      <trkpt lat="24.92837363061401" lon="118.63835731187886">
        <ele>13.517905461601913</ele>
        <time>2024-11-05T10:17:03Z</time>
      </trkpt>
      <trkpt lat="24.928186072414277" lon="118.63817984664992">
        <ele>14.248853932134807</ele>
        <time>2024-11-05T10:17:10Z</time>
      </trkpt>
      <trkpt lat="24.927953340050756" lon="118.63805227510481">
        <ele>16.272582285106182</ele>
        <time>2024-11-05T10:17:17Z</time>
      </trkpt>
      <trkpt lat="24.927824714855817" lon="118.63793287829672">
        <ele>17.1521856514737</ele>
        <time>2024-11-05T10:17:23Z</time>
      </trkpt>
      <trkpt lat="24.92778018585247" lon="118.63785105240947">
        <ele>17.63556166086346</ele>
        <time>2024-11-05T10:17:27Z</time>
      </trkpt>
      <trkpt lat="24.9274051961645" lon="118.63749989043428">
        <ele>20.388464198447764</ele>
        <time>2024-11-05T10:17:44Z</time>
      </trkpt>
      <trkpt lat="24.927325248778686" lon="118.63744418458501">
        <ele>19.665350938215852</ele>
        <time>2024-11-05T10:17:47Z</time>
      </trkpt>
      <trkpt lat="24.927272645162578" lon="118.63736720829189">
        <ele>20.162223438732326</ele>
        <time>2024-11-05T10:17:50Z</time>
      </trkpt>
      <trkpt lat="24.92707488236885" lon="118.63716674005892">
        <ele>20.858431450091302</ele>
        <time>2024-11-05T10:17:59Z</time>
      </trkpt>
      <trkpt lat="24.927002891349822" lon="118.63711604619841">
        <ele>20.634352704510093</ele>
        <time>2024-11-05T10:18:02Z</time>
      </trkpt>
      <trkpt lat="24.926616141732737" lon="118.63676543300545">
        <ele>23.079310993663967</ele>
        <time>2024-11-05T10:18:16Z</time>
      </trkpt>
      <trkpt lat="24.926300733195358" lon="118.63641800854505">
        <ele>23.26456039585173</ele>
        <time>2024-11-05T10:18:27Z</time>
      </trkpt>
      <trkpt lat="24.92623167246463" lon="118.6363612321929">
        <ele>23.812864515930414</ele>
        <time>2024-11-05T10:18:29Z</time>
      </trkpt>
      <trkpt lat="24.925911538240978" lon="118.6360285711966">
        <ele>22.678825179114938</ele>
        <time>2024-11-05T10:18:40Z</time>
      </trkpt>
      <trkpt lat="24.92554192360107" lon="118.635648516089">
        <ele>22.762374135665596</ele>
        <time>2024-11-05T10:18:52Z</time>
      </trkpt>
      <trkpt lat="24.92540451015611" lon="118.63550131236053">
        <ele>22.296963552944362</ele>
        <time>2024-11-05T10:18:57Z</time>
      </trkpt>
      <trkpt lat="24.925137262725283" lon="118.63525271790184">
        <ele>20.98596089426428</ele>
        <time>2024-11-05T10:19:05Z</time>
      </trkpt>
      <trkpt lat="24.92484372719043" lon="118.63490144973277">
        <ele>20.642703253775835</ele>
        <time>2024-11-05T10:19:15Z</time>
      </trkpt>
      <trkpt lat="24.924688126259834" lon="118.63477244309601">
        <ele>19.92188854701817</ele>
        <time>2024-11-05T10:19:19Z</time>
      </trkpt>
      <trkpt lat="24.924381567881046" lon="118.63440485316971">
        <ele>19.27847351040691</ele>
        <time>2024-11-05T10:19:27Z</time>
      </trkpt>
      <trkpt lat="24.924227569865877" lon="118.63424386746489">
        <ele>18.539675395935774</ele>
        <time>2024-11-05T10:19:31Z</time>
      </trkpt>
      <trkpt lat="24.924060358733957" lon="118.63409971121962">
        <ele>18.49295335635543</ele>
        <time>2024-11-05T10:19:35Z</time>
      </trkpt>
      <trkpt lat="24.923788314673896" lon="118.63375313846866">
        <ele>17.974037711508572</ele>
        <time>2024-11-05T10:19:43Z</time>
      </trkpt>
      <trkpt lat="24.923691039206936" lon="118.6336728443508">
        <ele>18.620544091798365</ele>
        <time>2024-11-05T10:19:45Z</time>
      </trkpt>
      <trkpt lat="24.9235411719117" lon="118.6334889615736">
        <ele>18.295416434295475</ele>
        <time>2024-11-05T10:19:49Z</time>
      </trkpt>
      <trkpt lat="24.923367271676813" lon="118.63334720845126">
        <ele>18.520267568528652</ele>
        <time>2024-11-05T10:19:53Z</time>
      </trkpt>
      <trkpt lat="24.923223426479197" lon="118.63319544895383">
        <ele>19.218356252647936</ele>
        <time>2024-11-05T10:19:57Z</time>
      </trkpt>
      <trkpt lat="24.923049105054115" lon="118.63305108208888">
        <ele>19.339400183409452</ele>
        <time>2024-11-05T10:20:01Z</time>
      </trkpt>
      <trkpt lat="24.92286383752429" lon="118.63282632833344">
        <ele>19.632909930311143</ele>
        <time>2024-11-05T10:20:07Z</time>
      </trkpt>
      <trkpt lat="24.922554053559857" lon="118.63258580341848">
        <ele>19.047508117742836</ele>
        <time>2024-11-05T10:20:15Z</time>
      </trkpt>
      <trkpt lat="24.92221951244245" lon="118.63220702404303">
        <ele>19.533067589625716</ele>
        <time>2024-11-05T10:20:25Z</time>
      </trkpt>
      <trkpt lat="24.921808351960166" lon="118.63182404697568">
        <ele>19.003603517077863</ele>
        <time>2024-11-05T10:20:35Z</time>
      </trkpt>
      <trkpt lat="24.921736729012185" lon="118.63172109323645">
        <ele>19.278640318661928</ele>
        <time>2024-11-05T10:20:37Z</time>
      </trkpt>
      <trkpt lat="24.921355810065656" lon="118.63133898803858">
        <ele>20.011145958676934</ele>
        <time>2024-11-05T10:20:47Z</time>
      </trkpt>
      <trkpt lat="24.92108582534899" lon="118.63105807676882">
        <ele>20.60637326259166</ele>
        <time>2024-11-05T10:20:55Z</time>
      </trkpt>
      <trkpt lat="24.920765673186356" lon="118.63076455179508">
        <ele>20.95139610953629</ele>
        <time>2024-11-05T10:21:03Z</time>
      </trkpt>
      <trkpt lat="24.920445132927075" lon="118.63043988309173">
        <ele>20.51294058840722</ele>
        <time>2024-11-05T10:21:11Z</time>
      </trkpt>
      <trkpt lat="24.92010949921101" lon="118.63008891018518">
        <ele>20.39425300154835</ele>
        <time>2024-11-05T10:21:19Z</time>
      </trkpt>
      <trkpt lat="24.919706237226062" lon="118.62968840963534">
        <ele>20.263126633130014</ele>
        <time>2024-11-05T10:21:29Z</time>
      </trkpt>
      <trkpt lat="24.919351128813773" lon="118.62936509481197">
        <ele>20.31528698001057</ele>
        <time>2024-11-05T10:21:37Z</time>
      </trkpt>
      <trkpt lat="24.919167148358476" lon="118.62915218693986">
        <ele>20.794912609271705</ele>
        <time>2024-11-05T10:21:43Z</time>
      </trkpt>
      <trkpt lat="24.918779463869754" lon="118.62883310000426">
        <ele>22.262438353151083</ele>
        <time>2024-11-05T10:21:53Z</time>
      </trkpt>
      <trkpt lat="24.918571397249117" lon="118.62863750519924">
        <ele>21.235830241814256</ele>
        <time>2024-11-05T10:21:59Z</time>
      </trkpt>
      <trkpt lat="24.918422885223787" lon="118.6284410752474">
        <ele>23.561869978904724</ele>
        <time>2024-11-05T10:22:05Z</time>
      </trkpt>
      <trkpt lat="24.918370388762902" lon="118.62834418757798">
        <ele>23.60424203425646</ele>
        <time>2024-11-05T10:22:07Z</time>
      </trkpt>
      <trkpt lat="24.918055036941713" lon="118.62814514899333">
        <ele>24.211562061682343</ele>
        <time>2024-11-05T10:22:17Z</time>
      </trkpt>
      <trkpt lat="24.917827329756662" lon="118.62785578594172">
        <ele>24.965097145177424</ele>
        <time>2024-11-05T10:22:26Z</time>
      </trkpt>
      <trkpt lat="24.917755561447635" lon="118.62778564472961">
        <ele>24.737664714455605</ele>
        <time>2024-11-05T10:22:28Z</time>
      </trkpt>
      <trkpt lat="24.91764756783019" lon="118.62774293596358">
        <ele>24.83146898727864</ele>
        <time>2024-11-05T10:22:31Z</time>
      </trkpt>
      <trkpt lat="24.917513942668" lon="118.62758477222208">
        <ele>24.500983165577054</ele>
        <time>2024-11-05T10:22:35Z</time>
      </trkpt>
      <trkpt lat="24.917298998543124" lon="118.62749902039735">
        <ele>23.680360881611705</ele>
        <time>2024-11-05T10:22:48Z</time>
      </trkpt>
      <trkpt lat="24.917301490856172" lon="118.62751064583453">
        <ele>24.222334646619856</ele>
        <time>2024-11-05T10:23:06Z</time>
      </trkpt>
      <trkpt lat="24.917300633308766" lon="118.6276090011678">
        <ele>24.24209378194064</ele>
        <time>2024-11-05T10:23:17Z</time>
      </trkpt>
      <trkpt lat="24.917613274515322" lon="118.627867572392">
        <ele>24.055275812745094</ele>
        <time>2024-11-05T10:23:38Z</time>
      </trkpt>
      <trkpt lat="24.917715437826683" lon="118.62778485899322">
        <ele>24.446244553662837</ele>
        <time>2024-11-05T10:23:42Z</time>
      </trkpt>
      <trkpt lat="24.91793302922424" lon="118.62746140111132">
        <ele>25.826642459258437</ele>
        <time>2024-11-05T10:23:56Z</time>
      </trkpt>
      <trkpt lat="24.917939440670377" lon="118.62735887487365">
        <ele>25.489642930217087</ele>
        <time>2024-11-05T10:24:01Z</time>
      </trkpt>
      <trkpt lat="24.91762249944821" lon="118.62691984976641">
        <ele>25.29681442026049</ele>
        <time>2024-11-05T10:24:17Z</time>
      </trkpt>
      <trkpt lat="24.917457156445998" lon="118.6265998762467">
        <ele>26.669959977269173</ele>
        <time>2024-11-05T10:24:32Z</time>
      </trkpt>
      <trkpt lat="24.91737323630952" lon="118.6262827742283">
        <ele>27.60486628022045</ele>
        <time>2024-11-05T10:24:39Z</time>
      </trkpt>
      <trkpt lat="24.9174065058042" lon="118.6259088062903">
        <ele>29.31837927084416</ele>
        <time>2024-11-05T10:24:47Z</time>
      </trkpt>
      <trkpt lat="24.91745305465029" lon="118.62583812424727">
        <ele>29.290252655744553</ele>
        <time>2024-11-05T10:24:50Z</time>
      </trkpt>
      <trkpt lat="24.917477259854422" lon="118.62561930819965">
        <ele>30.10694044549018</ele>
        <time>2024-11-05T10:24:54Z</time>
      </trkpt>
      <trkpt lat="24.917533914779114" lon="118.62528580245335">
        <ele>31.4413677835837</ele>
        <time>2024-11-05T10:25:00Z</time>
      </trkpt>
      <trkpt lat="24.917491018321698" lon="118.62488813962176">
        <ele>32.818591193296015</ele>
        <time>2024-11-05T10:25:10Z</time>
      </trkpt>
      <trkpt lat="24.917328504396917" lon="118.62478119102413">
        <ele>33.5174707621336</ele>
        <time>2024-11-05T10:25:15Z</time>
      </trkpt>
      <trkpt lat="24.917078245166103" lon="118.62453345609728">
        <ele>33.82936957105994</ele>
        <time>2024-11-05T10:25:21Z</time>
      </trkpt>
      <trkpt lat="24.916866447126857" lon="118.62439048975577">
        <ele>34.375706328079104</ele>
        <time>2024-11-05T10:25:27Z</time>
      </trkpt>
      <trkpt lat="24.916826962031337" lon="118.62432248553841">
        <ele>35.25953681208193</ele>
        <time>2024-11-05T10:25:29Z</time>
      </trkpt>
      <trkpt lat="24.91648190449811" lon="118.6240820582037">
        <ele>36.7064462415874</ele>
        <time>2024-11-05T10:25:37Z</time>
      </trkpt>
      <trkpt lat="24.91644115505118" lon="118.62401483614049">
        <ele>36.936531987041235</ele>
        <time>2024-11-05T10:25:39Z</time>
      </trkpt>
      <trkpt lat="24.91642673297768" lon="118.62392994438396">
        <ele>38.244903109036386</ele>
        <time>2024-11-05T10:25:41Z</time>
      </trkpt>
      <trkpt lat="24.91624853157851" lon="118.62381798422369">
        <ele>39.340267488732934</ele>
        <time>2024-11-05T10:25:45Z</time>
      </trkpt>
      <trkpt lat="24.916011570676872" lon="118.62361362791975">
        <ele>39.44674347154796</ele>
        <time>2024-11-05T10:25:51Z</time>
      </trkpt>
      <trkpt lat="24.915745417500922" lon="118.62330672472923">
        <ele>38.75800696015358</ele>
        <time>2024-11-05T10:26:01Z</time>
      </trkpt>
      <trkpt lat="24.91560347929957" lon="118.62322369464239">
        <ele>38.336298919282854</ele>
        <time>2024-11-05T10:26:05Z</time>
      </trkpt>
      <trkpt lat="24.91546250055342" lon="118.62317559618452">
        <ele>36.16009797155857</ele>
        <time>2024-11-05T10:26:09Z</time>
      </trkpt>
      <trkpt lat="24.915284482294812" lon="118.62314584957562">
        <ele>36.2847945895046</ele>
        <time>2024-11-05T10:26:14Z</time>
      </trkpt>
      <trkpt lat="24.915078710009055" lon="118.62316583624468">
        <ele>35.16733795776963</ele>
        <time>2024-11-05T10:26:18Z</time>
      </trkpt>
      <trkpt lat="24.914895538071526" lon="118.62324467261446">
        <ele>35.07574931625277</ele>
        <time>2024-11-05T10:26:21Z</time>
      </trkpt>
      <trkpt lat="24.914769004774012" lon="118.62326414023003">
        <ele>33.345826459117234</ele>
        <time>2024-11-05T10:26:23Z</time>
      </trkpt>
      <trkpt lat="24.914635218136898" lon="118.62330805629827">
        <ele>34.30347833689302</ele>
        <time>2024-11-05T10:26:25Z</time>
      </trkpt>
      <trkpt lat="24.914510550651908" lon="118.62331764892645">
        <ele>33.5148950535804</ele>
        <time>2024-11-05T10:26:27Z</time>
      </trkpt>
      <trkpt lat="24.914366424449305" lon="118.62330513267588">
        <ele>33.520204124972224</ele>
        <time>2024-11-05T10:26:29Z</time>
      </trkpt>
      <trkpt lat="24.914131634244743" lon="118.62321724907777">
        <ele>32.89427180867642</ele>
        <time>2024-11-05T10:26:33Z</time>
      </trkpt>
      <trkpt lat="24.913880136651215" lon="118.62291607896854">
        <ele>30.496519367210567</ele>
        <time>2024-11-05T10:26:39Z</time>
      </trkpt>
      <trkpt lat="24.91365953812774" lon="118.62245312743893">
        <ele>28.228252682834864</ele>
        <time>2024-11-05T10:26:49Z</time>
      </trkpt>
      <trkpt lat="24.91350917809789" lon="118.62200525835756">
        <ele>27.195915762335062</ele>
        <time>2024-11-05T10:26:57Z</time>
      </trkpt>
      <trkpt lat="24.913429486946203" lon="118.62164661894217">
        <ele>28.172496375627816</ele>
        <time>2024-11-05T10:27:03Z</time>
      </trkpt>
      <trkpt lat="24.913479447581192" lon="118.62157901588134">
        <ele>27.928329098969698</ele>
        <time>2024-11-05T10:27:06Z</time>
      </trkpt>
      <trkpt lat="24.913408853904574" lon="118.62145837672527">
        <ele>28.69359255861491</ele>
        <time>2024-11-05T10:27:09Z</time>
      </trkpt>
      <trkpt lat="24.91339751699436" lon="118.6212059411843">
        <ele>28.23031986411661</ele>
        <time>2024-11-05T10:27:14Z</time>
      </trkpt>
      <trkpt lat="24.913223301779983" lon="118.62073523833205">
        <ele>27.542097662575543</ele>
        <time>2024-11-05T10:27:20Z</time>
      </trkpt>
      <trkpt lat="24.91322698963227" lon="118.62063250710355">
        <ele>26.43183099105954</ele>
        <time>2024-11-05T10:27:23Z</time>
      </trkpt>
      <trkpt lat="24.913194965114613" lon="118.62054850707075">
        <ele>26.262955527752638</ele>
        <time>2024-11-05T10:27:25Z</time>
      </trkpt>
      <trkpt lat="24.913178141475385" lon="118.62036045718682">
        <ele>26.127260794863105</ele>
        <time>2024-11-05T10:27:30Z</time>
      </trkpt>
      <trkpt lat="24.913112802153943" lon="118.62018728992888">
        <ele>25.347529255785048</ele>
        <time>2024-11-05T10:27:32Z</time>
      </trkpt>
      <trkpt lat="24.913019133401534" lon="118.61974071765009">
        <ele>24.727264781482518</ele>
        <time>2024-11-05T10:27:39Z</time>
      </trkpt>
      <trkpt lat="24.912957309153935" lon="118.61959146971095">
        <ele>23.44910849723965</ele>
        <time>2024-11-05T10:27:41Z</time>
      </trkpt>
      <trkpt lat="24.91295608329241" lon="118.61934995207338">
        <ele>23.710471061058342</ele>
        <time>2024-11-05T10:27:44Z</time>
      </trkpt>
      <trkpt lat="24.912909410721813" lon="118.61918903506741">
        <ele>23.08925535902381</ele>
        <time>2024-11-05T10:27:46Z</time>
      </trkpt>
      <trkpt lat="24.912891037253353" lon="118.61904259888024">
        <ele>23.096405995078385</ele>
        <time>2024-11-05T10:27:48Z</time>
      </trkpt>
      <trkpt lat="24.912745895153108" lon="118.61854173824536">
        <ele>23.296851847320795</ele>
        <time>2024-11-05T10:27:54Z</time>
      </trkpt>
      <trkpt lat="24.912675783537946" lon="118.61819958265909">
        <ele>22.163934127427638</ele>
        <time>2024-11-05T10:27:59Z</time>
      </trkpt>
      <trkpt lat="24.91262754480168" lon="118.6180671219152">
        <ele>22.60212447028607</ele>
        <time>2024-11-05T10:28:01Z</time>
      </trkpt>
      <trkpt lat="24.912537877986782" lon="118.61769223323851">
        <ele>22.61220759060234</ele>
        <time>2024-11-05T10:28:07Z</time>
      </trkpt>
      <trkpt lat="24.912380660150127" lon="118.6172395808954">
        <ele>22.88397323805839</ele>
        <time>2024-11-05T10:28:14Z</time>
      </trkpt>
      <trkpt lat="24.91231126339596" lon="118.61709372482812">
        <ele>22.34000552073121</ele>
        <time>2024-11-05T10:28:16Z</time>
      </trkpt>
      <trkpt lat="24.91225529860317" lon="118.61673385162241">
        <ele>21.98278035968542</ele>
        <time>2024-11-05T10:28:21Z</time>
      </trkpt>
      <trkpt lat="24.91224670297717" lon="118.61658717721605">
        <ele>22.589342596009374</ele>
        <time>2024-11-05T10:28:23Z</time>
      </trkpt>
      <trkpt lat="24.91227670573027" lon="118.6160745315899">
        <ele>21.305964140221477</ele>
        <time>2024-11-05T10:28:31Z</time>
      </trkpt>
      <trkpt lat="24.912270702345893" lon="118.61569564385887">
        <ele>19.828130767680705</ele>
        <time>2024-11-05T10:28:37Z</time>
      </trkpt>
      <trkpt lat="24.912284779332257" lon="118.61548770185024">
        <ele>19.79749728925526</ele>
        <time>2024-11-05T10:28:41Z</time>
      </trkpt>
      <trkpt lat="24.912226074962835" lon="118.6151418382422">
        <ele>18.198912394233048</ele>
        <time>2024-11-05T10:28:47Z</time>
      </trkpt>
      <trkpt lat="24.91218963666338" lon="118.61505752581935">
        <ele>18.108159443363547</ele>
        <time>2024-11-05T10:28:49Z</time>
      </trkpt>
      <trkpt lat="24.912188438604264" lon="118.6149261420962">
        <ele>17.320098310709</ele>
        <time>2024-11-05T10:28:52Z</time>
      </trkpt>
      <trkpt lat="24.91224584666574" lon="118.61459015747653">
        <ele>16.85728396754712</ele>
        <time>2024-11-05T10:28:58Z</time>
      </trkpt>
      <trkpt lat="24.91221563783836" lon="118.61409370011819">
        <ele>15.272511866874993</ele>
        <time>2024-11-05T10:29:10Z</time>
      </trkpt>
      <trkpt lat="24.912237197315854" lon="118.61388497390756">
        <ele>14.529222408309579</ele>
        <time>2024-11-05T10:29:15Z</time>
      </trkpt>
      <trkpt lat="24.9122832358224" lon="118.61367602168312">
        <ele>14.496403021737933</ele>
        <time>2024-11-05T10:29:20Z</time>
      </trkpt>
      <trkpt lat="24.91232634394139" lon="118.61359031164156">
        <ele>14.197775853797793</ele>
        <time>2024-11-05T10:29:22Z</time>
      </trkpt>
      <trkpt lat="24.91234164406172" lon="118.61348825093312">
        <ele>14.72134205326438</ele>
        <time>2024-11-05T10:29:24Z</time>
      </trkpt>
      <trkpt lat="24.912420334300464" lon="118.61324296897891">
        <ele>14.397975905798376</ele>
        <time>2024-11-05T10:29:28Z</time>
      </trkpt>
      <trkpt lat="24.9124745617657" lon="118.6131332800402">
        <ele>13.11902090255171</ele>
        <time>2024-11-05T10:29:30Z</time>
      </trkpt>
      <trkpt lat="24.912485800562237" lon="118.61304908265835">
        <ele>14.506515513174236</ele>
        <time>2024-11-05T10:29:31Z</time>
      </trkpt>
      <trkpt lat="24.912675511997577" lon="118.61256760802006">
        <ele>13.850980451330543</ele>
        <time>2024-11-05T10:29:38Z</time>
      </trkpt>
      <trkpt lat="24.912763919687173" lon="118.61245249221449">
        <ele>13.789395675994456</ele>
        <time>2024-11-05T10:29:40Z</time>
      </trkpt>
      <trkpt lat="24.91279371785654" lon="118.61237587983233">
        <ele>13.14580706320703</ele>
        <time>2024-11-05T10:29:41Z</time>
      </trkpt>
      <trkpt lat="24.912972667915838" lon="118.61222088725741">
        <ele>12.829448743723333</ele>
        <time>2024-11-05T10:29:45Z</time>
      </trkpt>
      <trkpt lat="24.913041032323612" lon="118.61209470679144">
        <ele>12.31593999825418</ele>
        <time>2024-11-05T10:29:47Z</time>
      </trkpt>
      <trkpt lat="24.9130891336596" lon="118.61187618659321">
        <ele>13.541959130205214</ele>
        <time>2024-11-05T10:29:51Z</time>
      </trkpt>
      <trkpt lat="24.913144400223548" lon="118.61180925820044">
        <ele>12.819821271114051</ele>
        <time>2024-11-05T10:29:53Z</time>
      </trkpt>
      <trkpt lat="24.913229130537538" lon="118.61161482930699">
        <ele>12.607752279378474</ele>
        <time>2024-11-05T10:29:57Z</time>
      </trkpt>
      <trkpt lat="24.913302070284793" lon="118.61152723802257">
        <ele>10.531323085539043</ele>
        <time>2024-11-05T10:29:59Z</time>
      </trkpt>
      <trkpt lat="24.913351567592667" lon="118.61132332604721">
        <ele>12.257111525163054</ele>
        <time>2024-11-05T10:30:03Z</time>
      </trkpt>
      <trkpt lat="24.91341387398629" lon="118.61126215168494">
        <ele>11.806189055554569</ele>
        <time>2024-11-05T10:30:04Z</time>
      </trkpt>
      <trkpt lat="24.913479854895417" lon="118.61115969167015">
        <ele>11.878151786513627</ele>
        <time>2024-11-05T10:30:06Z</time>
      </trkpt>
      <trkpt lat="24.91358658443929" lon="118.61111772245512">
        <ele>11.67976580094546</ele>
        <time>2024-11-05T10:30:09Z</time>
      </trkpt>
      <trkpt lat="24.91360493943197" lon="118.61103961692582">
        <ele>10.578047146089375</ele>
        <time>2024-11-05T10:30:10Z</time>
      </trkpt>
      <trkpt lat="24.913588204703213" lon="118.61094358537318">
        <ele>11.037202093750238</ele>
        <time>2024-11-05T10:30:11Z</time>
      </trkpt>
      <trkpt lat="24.913625584604247" lon="118.61083918671028">
        <ele>11.174732002429664</ele>
        <time>2024-11-05T10:30:13Z</time>
      </trkpt>
      <trkpt lat="24.913607394475697" lon="118.61075198625724">
        <ele>11.049204641021788</ele>
        <time>2024-11-05T10:30:14Z</time>
      </trkpt>
      <trkpt lat="24.913551954831817" lon="118.61065232546224">
        <ele>11.11985693871975</ele>
        <time>2024-11-05T10:30:15Z</time>
      </trkpt>
      <trkpt lat="24.913539017980067" lon="118.61053964038452">
        <ele>10.920927247032523</ele>
        <time>2024-11-05T10:30:17Z</time>
      </trkpt>
      <trkpt lat="24.913594570797212" lon="118.61047059218393">
        <ele>10.819105735048652</ele>
        <time>2024-11-05T10:30:20Z</time>
      </trkpt>
      <trkpt lat="24.91357106823568" lon="118.61037524280479">
        <ele>11.07422705926001</ele>
        <time>2024-11-05T10:30:25Z</time>
      </trkpt>
      <trkpt lat="24.91352814022074" lon="118.61030478123268">
        <ele>11.65895917173475</ele>
        <time>2024-11-05T10:30:28Z</time>
      </trkpt>
      <trkpt lat="24.913378282049244" lon="118.61023955823605">
        <ele>10.78627554886043</ele>
        <time>2024-11-05T10:30:37Z</time>
      </trkpt>
      <trkpt lat="24.913277482231184" lon="118.61021594301002">
        <ele>10.137683154083788</ele>
        <time>2024-11-05T10:30:42Z</time>
      </trkpt>
      <trkpt lat="24.912989801303578" lon="118.61003943151566">
        <ele>10.034840907901525</ele>
        <time>2024-11-05T10:30:55Z</time>
      </trkpt>
      <trkpt lat="24.91262001577456" lon="118.60998956236554">
        <ele>10.009161924943328</ele>
        <time>2024-11-05T10:31:04Z</time>
      </trkpt>
      <trkpt lat="24.912538307462057" lon="118.60995479144992">
        <ele>9.859582214616239</ele>
        <time>2024-11-05T10:31:06Z</time>
      </trkpt>
      <trkpt lat="24.91247993959074" lon="118.60989062220192">
        <ele>10.102721664123237</ele>
        <time>2024-11-05T10:31:09Z</time>
      </trkpt>
      <trkpt lat="24.912409002672828" lon="118.60985272699293">
        <ele>10.291220278479159</ele>
        <time>2024-11-05T10:31:13Z</time>
      </trkpt>
      <trkpt lat="24.9122177909863" lon="118.60983932412898">
        <ele>10.288914275355637</ele>
        <time>2024-11-05T10:31:19Z</time>
      </trkpt>
      <trkpt lat="24.91210789915128" lon="118.6098140987782">
        <ele>9.850693606771529</ele>
        <time>2024-11-05T10:31:22Z</time>
      </trkpt>
      <trkpt lat="24.911983346345522" lon="118.60971893026449">
        <ele>10.535669525153935</ele>
        <time>2024-11-05T10:31:25Z</time>
      </trkpt>
      <trkpt lat="24.911800361173366" lon="118.60966274472356">
        <ele>9.576044385321438</ele>
        <time>2024-11-05T10:31:28Z</time>
      </trkpt>
      <trkpt lat="24.911690766946926" lon="118.6095986455566">
        <ele>11.248272145166993</ele>
        <time>2024-11-05T10:31:30Z</time>
      </trkpt>
      <trkpt lat="24.911332711327653" lon="118.60947839869607">
        <ele>10.454950313083827</ele>
        <time>2024-11-05T10:31:38Z</time>
      </trkpt>
      <trkpt lat="24.911155156184776" lon="118.60949616545194">
        <ele>11.222645736299455</ele>
        <time>2024-11-05T10:31:41Z</time>
      </trkpt>
      <trkpt lat="24.91105409734118" lon="118.6094754592105">
        <ele>11.523067032918334</ele>
        <time>2024-11-05T10:31:43Z</time>
      </trkpt>
      <trkpt lat="24.91100003334435" lon="118.60940824865884">
        <ele>11.376956213265657</ele>
        <time>2024-11-05T10:31:44Z</time>
      </trkpt>
      <trkpt lat="24.910888467813926" lon="118.60933631166388">
        <ele>11.058953361585736</ele>
        <time>2024-11-05T10:31:46Z</time>
      </trkpt>
      <trkpt lat="24.91071356236882" lon="118.6092691531617">
        <ele>10.87953282147646</ele>
        <time>2024-11-05T10:31:52Z</time>
      </trkpt>
      <trkpt lat="24.910527878104496" lon="118.60926871444472">
        <ele>11.196601388975978</ele>
        <time>2024-11-05T10:31:56Z</time>
      </trkpt>
      <trkpt lat="24.910493474411094" lon="118.60919077754193">
        <ele>11.399064247496426</ele>
        <time>2024-11-05T10:31:58Z</time>
      </trkpt>
      <trkpt lat="24.910393653414673" lon="118.60918824515647">
        <ele>11.28212116472423</ele>
        <time>2024-11-05T10:32:02Z</time>
      </trkpt>
      <trkpt lat="24.910283962560968" lon="118.60910807418674">
        <ele>11.735205676406622</ele>
        <time>2024-11-05T10:32:04Z</time>
      </trkpt>
      <trkpt lat="24.91020925099565" lon="118.60908814502437">
        <ele>11.738576928153634</ele>
        <time>2024-11-05T10:32:05Z</time>
      </trkpt>
      <trkpt lat="24.910079669089434" lon="118.60910222342363">
        <ele>11.50335998274386</ele>
        <time>2024-11-05T10:32:07Z</time>
      </trkpt>
      <trkpt lat="24.90994877312508" lon="118.60913687054286">
        <ele>11.523759211413562</ele>
        <time>2024-11-05T10:32:09Z</time>
      </trkpt>
      <trkpt lat="24.90990600735619" lon="118.60898441688109">
        <ele>11.021395714953542</ele>
        <time>2024-11-05T10:32:10Z</time>
      </trkpt>
      <trkpt lat="24.90962379898284" lon="118.60886191181838">
        <ele>11.286638955585659</ele>
        <time>2024-11-05T10:32:17Z</time>
      </trkpt>
      <trkpt lat="24.90955636012144" lon="118.60880944961582">
        <ele>10.930170469917357</ele>
        <time>2024-11-05T10:32:19Z</time>
      </trkpt>
      <trkpt lat="24.90947843564504" lon="118.60878335538695">
        <ele>11.243795221671462</ele>
        <time>2024-11-05T10:32:21Z</time>
      </trkpt>
      <trkpt lat="24.909439867646622" lon="118.60870435457737">
        <ele>11.507236188277602</ele>
        <time>2024-11-05T10:32:24Z</time>
      </trkpt>
      <trkpt lat="24.909349117197365" lon="118.60866228986154">
        <ele>10.632153603248298</ele>
        <time>2024-11-05T10:32:41Z</time>
      </trkpt>
      <trkpt lat="24.909191268355897" lon="118.60875438677981">
        <ele>10.853701053187251</ele>
        <time>2024-11-05T10:32:45Z</time>
      </trkpt>
      <trkpt lat="24.909091872786117" lon="118.60871116558128">
        <ele>10.991001558490098</ele>
        <time>2024-11-05T10:32:47Z</time>
      </trkpt>
      <trkpt lat="24.908964958478265" lon="118.6085897468317">
        <ele>10.757137871347368</ele>
        <time>2024-11-05T10:32:52Z</time>
      </trkpt>
      <trkpt lat="24.908891979475275" lon="118.60834749008454">
        <ele>11.093063895590603</ele>
        <time>2024-11-05T10:33:58Z</time>
      </trkpt>
      <trkpt lat="24.908905981565855" lon="118.60817122615656">
        <ele>11.347886628471315</ele>
        <time>2024-11-05T10:34:05Z</time>
      </trkpt>
      <trkpt lat="24.908889384443757" lon="118.60809414515488">
        <ele>11.278527215123177</ele>
        <time>2024-11-05T10:34:08Z</time>
      </trkpt>
      <trkpt lat="24.908895051526542" lon="118.60799555101637">
        <ele>10.690961530432105</ele>
        <time>2024-11-05T10:34:11Z</time>
      </trkpt>
      <trkpt lat="24.908881556269986" lon="118.60787378863465">
        <ele>10.784116202034056</ele>
        <time>2024-11-05T10:34:14Z</time>
      </trkpt>
      <trkpt lat="24.90881863278172" lon="118.60757583823408">
        <ele>10.747370591387153</ele>
        <time>2024-11-05T10:34:23Z</time>
      </trkpt>
      <trkpt lat="24.908823947607655" lon="118.60738199077296">
        <ele>11.345154471695423</ele>
        <time>2024-11-05T10:34:31Z</time>
      </trkpt>
      <trkpt lat="24.90878837866175" lon="118.6071752718127">
        <ele>11.362515773624182</ele>
        <time>2024-11-05T10:34:36Z</time>
      </trkpt>
      <trkpt lat="24.90885362326161" lon="118.60689429331379">
        <ele>11.768455566838384</ele>
        <time>2024-11-05T10:34:44Z</time>
      </trkpt>
      <trkpt lat="24.908830398522312" lon="118.60667421354307">
        <ele>11.847776621580124</ele>
        <time>2024-11-05T10:34:48Z</time>
      </trkpt>
      <trkpt lat="24.908856999974606" lon="118.60646958628796">
        <ele>12.205975773744285</ele>
        <time>2024-11-05T10:34:53Z</time>
      </trkpt>
      <trkpt lat="24.908896624852126" lon="118.60636181750063">
        <ele>12.222653772681952</ele>
        <time>2024-11-05T10:34:55Z</time>
      </trkpt>
      <trkpt lat="24.90894927695101" lon="118.60627053401633">
        <ele>12.79853186942637</ele>
        <time>2024-11-05T10:34:58Z</time>
      </trkpt>
      <trkpt lat="24.908891444408056" lon="118.60617354170842">
        <ele>13.121791985817254</ele>
        <time>2024-11-05T10:35:01Z</time>
      </trkpt>
      <trkpt lat="24.908926087066643" lon="118.60598130816516">
        <ele>13.396473274566233</ele>
        <time>2024-11-05T10:35:06Z</time>
      </trkpt>
      <trkpt lat="24.90895711296241" lon="118.60590480365592">
        <ele>13.297351776622236</ele>
        <time>2024-11-05T10:35:09Z</time>
      </trkpt>
      <trkpt lat="24.90897122743927" lon="118.6058020227544">
        <ele>12.575332001782954</ele>
        <time>2024-11-05T10:35:12Z</time>
      </trkpt>
      <trkpt lat="24.908937888078462" lon="118.60564222735721">
        <ele>13.679992731660604</ele>
        <time>2024-11-05T10:35:17Z</time>
      </trkpt>
      <trkpt lat="24.9089724300253" lon="118.60554192845542">
        <ele>13.129360940307379</ele>
        <time>2024-11-05T10:35:22Z</time>
      </trkpt>
      <trkpt lat="24.9089537181051" lon="118.60541024575109">
        <ele>13.179132231511176</ele>
        <time>2024-11-05T10:35:26Z</time>
      </trkpt>
      <trkpt lat="24.909037418667147" lon="118.60540950941076">
        <ele>12.914844487793744</ele>
        <time>2024-11-05T10:35:28Z</time>
      </trkpt>
      <trkpt lat="24.9091563907573" lon="118.6053800085571">
        <ele>13.704020076431334</ele>
        <time>2024-11-05T10:35:30Z</time>
      </trkpt>
      <trkpt lat="24.90921643903008" lon="118.60532970013246">
        <ele>14.100739238783717</ele>
        <time>2024-11-05T10:35:31Z</time>
      </trkpt>
      <trkpt lat="24.909234981720633" lon="118.60516121171077">
        <ele>14.716242542490363</ele>
        <time>2024-11-05T10:35:34Z</time>
      </trkpt>
      <trkpt lat="24.909273342159153" lon="118.6050670150348">
        <ele>14.479632385075092</ele>
        <time>2024-11-05T10:35:36Z</time>
      </trkpt>
      <trkpt lat="24.9093197505919" lon="118.60479210102629">
        <ele>14.109250497072935</ele>
        <time>2024-11-05T10:35:42Z</time>
      </trkpt>
      <trkpt lat="24.909235528302773" lon="118.60468437983145">
        <ele>13.825701408088207</ele>
        <time>2024-11-05T10:35:47Z</time>
      </trkpt>
      <trkpt lat="24.90920446285533" lon="118.60460226642874">
        <ele>13.515938242897391</ele>
        <time>2024-11-05T10:35:49Z</time>
      </trkpt>
      <trkpt lat="24.90918714250045" lon="118.60444246355948">
        <ele>13.435889123007655</ele>
        <time>2024-11-05T10:35:51Z</time>
      </trkpt>
      <trkpt lat="24.90914545243413" lon="118.60429583316464">
        <ele>13.467648521065712</ele>
        <time>2024-11-05T10:35:52Z</time>
      </trkpt>
      <trkpt lat="24.909146329807932" lon="118.60398343895079">
        <ele>13.787332683801651</ele>
        <time>2024-11-05T10:35:56Z</time>
      </trkpt>
      <trkpt lat="24.909083471919963" lon="118.60381231541265">
        <ele>13.573009185492992</ele>
        <time>2024-11-05T10:36:01Z</time>
      </trkpt>
      <trkpt lat="24.909131957965645" lon="118.60374421115661">
        <ele>13.352438650093973</ele>
        <time>2024-11-05T10:36:10Z</time>
      </trkpt>
      <trkpt lat="24.908998558392966" lon="118.60364126953787">
        <ele>13.182035088539124</ele>
        <time>2024-11-05T10:36:21Z</time>
      </trkpt>
      <trkpt lat="24.90891326672088" lon="118.60362125220864">
        <ele>13.030080755241215</ele>
        <time>2024-11-05T10:36:24Z</time>
      </trkpt>
      <trkpt lat="24.908851129791092" lon="118.6035797616931">
        <ele>13.607649775221944</ele>
        <time>2024-11-05T10:36:32Z</time>
      </trkpt>
      <trkpt lat="24.908719136177876" lon="118.60337316213617">
        <ele>12.649777324870229</ele>
        <time>2024-11-05T10:37:18Z</time>
      </trkpt>
      <trkpt lat="24.908638527214872" lon="118.6031969181476">
        <ele>13.608168979175389</ele>
        <time>2024-11-05T10:37:27Z</time>
      </trkpt>
      <trkpt lat="24.908547841610673" lon="118.6031309046389">
        <ele>13.285120515152812</ele>
        <time>2024-11-05T10:37:30Z</time>
      </trkpt>
      <trkpt lat="24.908470945872605" lon="118.60311111747487">
        <ele>13.301761512644589</ele>
        <time>2024-11-05T10:37:33Z</time>
      </trkpt>
      <trkpt lat="24.90806174273477" lon="118.60280637667731">
        <ele>11.927428006194532</ele>
        <time>2024-11-05T10:37:46Z</time>
      </trkpt>
      <trkpt lat="24.908022204110008" lon="118.60272030286019">
        <ele>11.974542480893433</ele>
        <time>2024-11-05T10:37:48Z</time>
      </trkpt>
      <trkpt lat="24.907877519171773" lon="118.60260929479088">
        <ele>12.046931228600442</ele>
        <time>2024-11-05T10:37:52Z</time>
      </trkpt>
      <trkpt lat="24.9077312321639" lon="118.60253560393775">
        <ele>11.842135539278388</ele>
        <time>2024-11-05T10:37:56Z</time>
      </trkpt>
      <trkpt lat="24.907606463273368" lon="118.60239840264593">
        <ele>11.661577127873898</ele>
        <time>2024-11-05T10:38:05Z</time>
      </trkpt>
      <trkpt lat="24.907341097397538" lon="118.60218591865065">
        <ele>11.36762558016926</ele>
        <time>2024-11-05T10:38:15Z</time>
      </trkpt>
      <trkpt lat="24.907298810646203" lon="118.60211383902596">
        <ele>10.57730243075639</ele>
        <time>2024-11-05T10:38:17Z</time>
      </trkpt>
      <trkpt lat="24.907176540825347" lon="118.60202075289372">
        <ele>11.23346985410899</ele>
        <time>2024-11-05T10:38:22Z</time>
      </trkpt>
      <trkpt lat="24.90681883417034" lon="118.60195397576622">
        <ele>9.093307911418378</ele>
        <time>2024-11-05T10:38:31Z</time>
      </trkpt>
      <trkpt lat="24.906641456262893" lon="118.60186692381215">
        <ele>9.368461918085814</ele>
        <time>2024-11-05T10:38:35Z</time>
      </trkpt>
      <trkpt lat="24.90619737860838" lon="118.60171194315298">
        <ele>8.067442439496517</ele>
        <time>2024-11-05T10:38:43Z</time>
      </trkpt>
      <trkpt lat="24.90605107520157" lon="118.60160519803068">
        <ele>7.357726140879095</ele>
        <time>2024-11-05T10:38:47Z</time>
      </trkpt>
      <trkpt lat="24.905985702446614" lon="118.6015178859179">
        <ele>7.663257108069956</ele>
        <time>2024-11-05T10:38:49Z</time>
      </trkpt>
      <trkpt lat="24.905973431352397" lon="118.60123659153166">
        <ele>7.590807251632214</ele>
        <time>2024-11-05T10:38:55Z</time>
      </trkpt>
      <trkpt lat="24.90605518632129" lon="118.60068983678079">
        <ele>9.042815329506993</ele>
        <time>2024-11-05T10:39:06Z</time>
      </trkpt>
      <trkpt lat="24.906111026638396" lon="118.6005091461514">
        <ele>8.84867824614048</ele>
        <time>2024-11-05T10:39:10Z</time>
      </trkpt>
      <trkpt lat="24.906161908949873" lon="118.60020673945604">
        <ele>9.366103844717145</ele>
        <time>2024-11-05T10:39:17Z</time>
      </trkpt>
      <trkpt lat="24.906251705806007" lon="118.59994309560196">
        <ele>9.581843904219568</ele>
        <time>2024-11-05T10:39:23Z</time>
      </trkpt>
      <trkpt lat="24.906258725565458" lon="118.59983956667092">
        <ele>9.575512307696044</ele>
        <time>2024-11-05T10:39:25Z</time>
      </trkpt>
      <trkpt lat="24.906338892009686" lon="118.59951669367395">
        <ele>10.882385468110442</ele>
        <time>2024-11-05T10:39:32Z</time>
      </trkpt>
      <trkpt lat="24.90638881464441" lon="118.59942160668537">
        <ele>10.415953534655273</ele>
        <time>2024-11-05T10:39:34Z</time>
      </trkpt>
      <trkpt lat="24.906442833173433" lon="118.59905116255634">
        <ele>10.760281093418598</ele>
        <time>2024-11-05T10:39:42Z</time>
      </trkpt>
      <trkpt lat="24.906499270515454" lon="118.59881819467354">
        <ele>11.569360514171422</ele>
        <time>2024-11-05T10:39:47Z</time>
      </trkpt>
      <trkpt lat="24.9064830830102" lon="118.59861254203442">
        <ele>11.843613151460886</ele>
        <time>2024-11-05T10:39:51Z</time>
      </trkpt>
      <trkpt lat="24.90651708176471" lon="118.59852540772687">
        <ele>11.219980643130839</ele>
        <time>2024-11-05T10:39:53Z</time>
      </trkpt>
      <trkpt lat="24.90652649258307" lon="118.59839428665386">
        <ele>10.860375151969492</ele>
        <time>2024-11-05T10:39:56Z</time>
      </trkpt>
      <trkpt lat="24.906573825236574" lon="118.59818994366508">
        <ele>10.792956142686307</ele>
        <time>2024-11-05T10:40:00Z</time>
      </trkpt>
      <trkpt lat="24.90657290205618" lon="118.59808910453621">
        <ele>10.103450076654553</ele>
        <time>2024-11-05T10:40:03Z</time>
      </trkpt>
      <trkpt lat="24.906592208025366" lon="118.59799253690761">
        <ele>10.150760262273252</ele>
        <time>2024-11-05T10:40:05Z</time>
      </trkpt>
      <trkpt lat="24.906650111226785" lon="118.59790532358943">
        <ele>10.725336998701096</ele>
        <time>2024-11-05T10:40:07Z</time>
      </trkpt>
      <trkpt lat="24.906645667826556" lon="118.59781560371073">
        <ele>10.124233463779092</ele>
        <time>2024-11-05T10:40:09Z</time>
      </trkpt>
      <trkpt lat="24.90670998593128" lon="118.59758437379249">
        <ele>10.23183523863554</ele>
        <time>2024-11-05T10:40:13Z</time>
      </trkpt>
      <trkpt lat="24.906715165367608" lon="118.59750103120798">
        <ele>10.148451583459973</ele>
        <time>2024-11-05T10:40:16Z</time>
      </trkpt>
      <trkpt lat="24.906788186307743" lon="118.59713221615489">
        <ele>9.342628883197904</ele>
        <time>2024-11-05T10:40:26Z</time>
      </trkpt>
      <trkpt lat="24.90683856359118" lon="118.59703225609196">
        <ele>9.678681625053287</ele>
        <time>2024-11-05T10:40:28Z</time>
      </trkpt>
      <trkpt lat="24.90688847894222" lon="118.59696873088158">
        <ele>9.807871687225997</ele>
        <time>2024-11-05T10:40:30Z</time>
      </trkpt>
      <trkpt lat="24.906909944591913" lon="118.59688522344818">
        <ele>10.281050687655807</ele>
        <time>2024-11-05T10:40:32Z</time>
      </trkpt>
      <trkpt lat="24.906960281986407" lon="118.59680640655851">
        <ele>9.843600728549063</ele>
        <time>2024-11-05T10:40:34Z</time>
      </trkpt>
      <trkpt lat="24.906951001461383" lon="118.59670319832667">
        <ele>9.896746938116848</ele>
        <time>2024-11-05T10:40:36Z</time>
      </trkpt>
      <trkpt lat="24.90698691465905" lon="118.59619156667384">
        <ele>9.80595130007714</ele>
        <time>2024-11-05T10:40:48Z</time>
      </trkpt>
      <trkpt lat="24.906994464641706" lon="118.59611117636555">
        <ele>9.60490149166435</ele>
        <time>2024-11-05T10:40:50Z</time>
      </trkpt>
      <trkpt lat="24.906959780951933" lon="118.59600214941702">
        <ele>9.960906795226038</ele>
        <time>2024-11-05T10:40:54Z</time>
      </trkpt>
      <trkpt lat="24.907126033984344" lon="118.59548278823368">
        <ele>9.205655916593969</ele>
        <time>2024-11-05T10:41:06Z</time>
      </trkpt>
      <trkpt lat="24.9071457636383" lon="118.59538520500953">
        <ele>9.120993975549936</ele>
        <time>2024-11-05T10:41:08Z</time>
      </trkpt>
      <trkpt lat="24.9071327190722" lon="118.59526590231071">
        <ele>9.653762308880687</ele>
        <time>2024-11-05T10:41:10Z</time>
      </trkpt>
      <trkpt lat="24.90732269722749" lon="118.59519116668237">
        <ele>9.716206746175885</ele>
        <time>2024-11-05T10:41:15Z</time>
      </trkpt>
      <trkpt lat="24.90736190585535" lon="118.59511270395578">
        <ele>9.958592634648085</ele>
        <time>2024-11-05T10:41:19Z</time>
      </trkpt>
      <trkpt lat="24.90736052889027" lon="118.59501582439702">
        <ele>10.15137863252312</ele>
        <time>2024-11-05T10:41:25Z</time>
      </trkpt>
      <trkpt lat="24.90733831760289" lon="118.59493732170252">
        <ele>9.843055293895304</ele>
        <time>2024-11-05T10:41:28Z</time>
      </trkpt>
      <trkpt lat="24.907409249488694" lon="118.5948826033378">
        <ele>10.626397504471242</ele>
        <time>2024-11-05T10:41:47Z</time>
      </trkpt>
      <trkpt lat="24.907455745047084" lon="118.59478722092086">
        <ele>11.487403070554137</ele>
        <time>2024-11-05T10:42:27Z</time>
      </trkpt>
      <trkpt lat="24.90740329153182" lon="118.59463597261762">
        <ele>10.192097721621394</ele>
        <time>2024-11-05T10:42:39Z</time>
      </trkpt>
      <trkpt lat="24.907440923768" lon="118.59435631077146">
        <ele>9.869071426801383</ele>
        <time>2024-11-05T10:42:50Z</time>
      </trkpt>
      <trkpt lat="24.90748028277776" lon="118.59420068141">
        <ele>9.872695347294211</ele>
        <time>2024-11-05T10:42:55Z</time>
      </trkpt>
      <trkpt lat="24.907485002041863" lon="118.5940994615962">
        <ele>10.229237153194845</ele>
        <time>2024-11-05T10:43:00Z</time>
      </trkpt>
      <trkpt lat="24.907515068878528" lon="118.59391764912968">
        <ele>11.007636864669621</ele>
        <time>2024-11-05T10:43:05Z</time>
      </trkpt>
      <trkpt lat="24.907498789777314" lon="118.59346081648036">
        <ele>12.029251098632812</ele>
        <time>2024-11-05T10:43:16Z</time>
      </trkpt>
      <trkpt lat="24.907619746515707" lon="118.59299626674206">
        <ele>13.114680398255587</ele>
        <time>2024-11-05T10:43:27Z</time>
      </trkpt>
      <trkpt lat="24.907668978858833" lon="118.59292335875395">
        <ele>12.42596098780632</ele>
        <time>2024-11-05T10:43:29Z</time>
      </trkpt>
      <trkpt lat="24.90773477651187" lon="118.59276059543281">
        <ele>12.568589112721384</ele>
        <time>2024-11-05T10:43:36Z</time>
      </trkpt>
      <trkpt lat="24.907759488535326" lon="118.59265233449999">
        <ele>12.608953033573925</ele>
        <time>2024-11-05T10:43:39Z</time>
      </trkpt>
      <trkpt lat="24.907811487828866" lon="118.59255059634658">
        <ele>12.995906156487763</ele>
        <time>2024-11-05T10:43:42Z</time>
      </trkpt>
      <trkpt lat="24.907837622203328" lon="118.5923917274204">
        <ele>14.550166723318398</ele>
        <time>2024-11-05T10:43:49Z</time>
      </trkpt>
      <trkpt lat="24.907874668056262" lon="118.59232024615928">
        <ele>14.578201159834862</ele>
        <time>2024-11-05T10:43:52Z</time>
      </trkpt>
      <trkpt lat="24.907897453105353" lon="118.59220420457339">
        <ele>14.873998899012804</ele>
        <time>2024-11-05T10:43:57Z</time>
      </trkpt>
      <trkpt lat="24.90793208051917" lon="118.59211824934054">
        <ele>14.967132404446602</ele>
        <time>2024-11-05T10:44:02Z</time>
      </trkpt>
      <trkpt lat="24.907924522225535" lon="118.59201453960964">
        <ele>14.697752811014652</ele>
        <time>2024-11-05T10:44:04Z</time>
      </trkpt>
      <trkpt lat="24.90794416804893" lon="118.59184420626418">
        <ele>15.009289435110986</ele>
        <time>2024-11-05T10:44:09Z</time>
      </trkpt>
      <trkpt lat="24.90793525190966" lon="118.59176325982067">
        <ele>15.06131397280842</ele>
        <time>2024-11-05T10:44:11Z</time>
      </trkpt>
      <trkpt lat="24.90798355105646" lon="118.59166756952389">
        <ele>15.221070381812751</ele>
        <time>2024-11-05T10:44:14Z</time>
      </trkpt>
      <trkpt lat="24.907986957592513" lon="118.59157937714305">
        <ele>15.036752658896148</ele>
        <time>2024-11-05T10:44:17Z</time>
      </trkpt>
      <trkpt lat="24.908106496130394" lon="118.59146001790049">
        <ele>14.59390322305262</ele>
        <time>2024-11-05T10:44:23Z</time>
      </trkpt>
      <trkpt lat="24.908207599002377" lon="118.59122170095891">
        <ele>15.114861512556672</ele>
        <time>2024-11-05T10:44:32Z</time>
      </trkpt>
      <trkpt lat="24.908251854673583" lon="118.5910046555457">
        <ele>13.542410745285451</ele>
        <time>2024-11-05T10:44:38Z</time>
      </trkpt>
      <trkpt lat="24.90828254320393" lon="118.59092770157628">
        <ele>13.01726017985493</ele>
        <time>2024-11-05T10:44:44Z</time>
      </trkpt>
      <trkpt lat="24.908292851384005" lon="118.59081657896111">
        <ele>12.8318973435089</ele>
        <time>2024-11-05T10:44:48Z</time>
      </trkpt>
      <trkpt lat="24.908263091530518" lon="118.59061741360858">
        <ele>12.736316095106304</ele>
        <time>2024-11-05T10:44:55Z</time>
      </trkpt>
      <trkpt lat="24.90828065284719" lon="118.59054029976072">
        <ele>12.972857045941055</ele>
        <time>2024-11-05T10:44:57Z</time>
      </trkpt>
      <trkpt lat="24.908277381881284" lon="118.59044018986143">
        <ele>12.490898169577122</ele>
        <time>2024-11-05T10:44:59Z</time>
      </trkpt>
      <trkpt lat="24.90834085881814" lon="118.59023736074073">
        <ele>12.883126843720675</ele>
        <time>2024-11-05T10:45:05Z</time>
      </trkpt>
      <trkpt lat="24.908455263067463" lon="118.59012697198104">
        <ele>12.713631345890462</ele>
        <time>2024-11-05T10:45:11Z</time>
      </trkpt>
      <trkpt lat="24.908463266539716" lon="118.58993855312022">
        <ele>12.485157669521868</ele>
        <time>2024-11-05T10:45:17Z</time>
      </trkpt>
      <trkpt lat="24.908521671744886" lon="118.58966130812904">
        <ele>12.375939397141337</ele>
        <time>2024-11-05T10:45:26Z</time>
      </trkpt>
      <trkpt lat="24.908662875514125" lon="118.58934985428628">
        <ele>12.107792211696506</ele>
        <time>2024-11-05T10:45:40Z</time>
      </trkpt>
      <trkpt lat="24.90868868913464" lon="118.58922665763075">
        <ele>12.167440329678357</ele>
        <time>2024-11-05T10:45:44Z</time>
      </trkpt>
      <trkpt lat="24.908633090177716" lon="118.58912161561538">
        <ele>12.466914392076433</ele>
        <time>2024-11-05T10:45:49Z</time>
      </trkpt>
      <trkpt lat="24.90873915177093" lon="118.58889741602697">
        <ele>12.7038020985201</ele>
        <time>2024-11-05T10:45:54Z</time>
      </trkpt>
      <trkpt lat="24.90888398014233" lon="118.58867576549395">
        <ele>12.412366807460785</ele>
        <time>2024-11-05T10:46:00Z</time>
      </trkpt>
      <trkpt lat="24.908918456282844" lon="118.58857526815444">
        <ele>12.569894302636385</ele>
        <time>2024-11-05T10:46:03Z</time>
      </trkpt>
      <trkpt lat="24.909015557794817" lon="118.58839254444658">
        <ele>12.456527405418456</ele>
        <time>2024-11-05T10:46:07Z</time>
      </trkpt>
      <trkpt lat="24.909083612446178" lon="118.58832538679412">
        <ele>12.488283287733793</ele>
        <time>2024-11-05T10:46:09Z</time>
      </trkpt>
      <trkpt lat="24.90915491769397" lon="118.58828802927165">
        <ele>12.605712646618485</ele>
        <time>2024-11-05T10:46:14Z</time>
      </trkpt>
      <trkpt lat="24.90925902649361" lon="118.58815960983883">
        <ele>12.363235298544168</ele>
        <time>2024-11-05T10:47:08Z</time>
      </trkpt>
      <trkpt lat="24.9092678582933" lon="118.58797221294776">
        <ele>11.978312484920025</ele>
        <time>2024-11-05T10:47:16Z</time>
      </trkpt>
      <trkpt lat="24.909240189740796" lon="118.58788201902836">
        <ele>11.642355824820697</ele>
        <time>2024-11-05T10:47:19Z</time>
      </trkpt>
      <trkpt lat="24.909236473208377" lon="118.58777709625559">
        <ele>11.807207717560232</ele>
        <time>2024-11-05T10:47:23Z</time>
      </trkpt>
      <trkpt lat="24.90926528123281" lon="118.58758718827829">
        <ele>12.213256796821952</ele>
        <time>2024-11-05T10:47:29Z</time>
      </trkpt>
      <trkpt lat="24.909397248239056" lon="118.58734842675497">
        <ele>12.068338587880135</ele>
        <time>2024-11-05T10:47:37Z</time>
      </trkpt>
      <trkpt lat="24.909437907237923" lon="118.58724458117291">
        <ele>12.267694930545986</ele>
        <time>2024-11-05T10:47:40Z</time>
      </trkpt>
      <trkpt lat="24.909469040417456" lon="118.58708250940342">
        <ele>12.498785925097764</ele>
        <time>2024-11-05T10:47:44Z</time>
      </trkpt>
      <trkpt lat="24.90952944608308" lon="118.58699798415974">
        <ele>12.264663237147033</ele>
        <time>2024-11-05T10:47:46Z</time>
      </trkpt>
      <trkpt lat="24.909568986092626" lon="118.58690264351283">
        <ele>11.983938115648925</ele>
        <time>2024-11-05T10:47:48Z</time>
      </trkpt>
      <trkpt lat="24.909606100048165" lon="118.58671717138999">
        <ele>12.057825593277812</ele>
        <time>2024-11-05T10:47:53Z</time>
      </trkpt>
      <trkpt lat="24.909638870424228" lon="118.58663527928188">
        <ele>12.009528601542115</ele>
        <time>2024-11-05T10:47:55Z</time>
      </trkpt>
      <trkpt lat="24.909654167020786" lon="118.58639289465488">
        <ele>12.793288389220834</ele>
        <time>2024-11-05T10:48:00Z</time>
      </trkpt>
      <trkpt lat="24.909699567450286" lon="118.58630055232273">
        <ele>12.124612864106894</ele>
        <time>2024-11-05T10:48:02Z</time>
      </trkpt>
      <trkpt lat="24.909734456591547" lon="118.58616624326555">
        <ele>12.409287706017494</ele>
        <time>2024-11-05T10:48:06Z</time>
      </trkpt>
      <trkpt lat="24.90980865119736" lon="118.58572894411388">
        <ele>12.59643011726439</ele>
        <time>2024-11-05T10:48:16Z</time>
      </trkpt>
      <trkpt lat="24.90977359403213" lon="118.58561181817409">
        <ele>12.521040726453066</ele>
        <time>2024-11-05T10:48:19Z</time>
      </trkpt>
      <trkpt lat="24.909764594884585" lon="118.58543298037588">
        <ele>12.131016756407917</ele>
        <time>2024-11-05T10:48:24Z</time>
      </trkpt>
      <trkpt lat="24.90979515236939" lon="118.58533939723785">
        <ele>12.133276862092316</ele>
        <time>2024-11-05T10:48:28Z</time>
      </trkpt>
      <trkpt lat="24.909844041777188" lon="118.58526211276752">
        <ele>12.288863279856741</ele>
        <time>2024-11-05T10:48:33Z</time>
      </trkpt>
      <trkpt lat="24.909873950185414" lon="118.5850673801771">
        <ele>12.227956898510456</ele>
        <time>2024-11-05T10:48:39Z</time>
      </trkpt>
      <trkpt lat="24.909854555881978" lon="118.58487013065502">
        <ele>13.03312651719898</ele>
        <time>2024-11-05T10:48:44Z</time>
      </trkpt>
      <trkpt lat="24.90982550353867" lon="118.58477101580371">
        <ele>13.481763145886362</ele>
        <time>2024-11-05T10:48:47Z</time>
      </trkpt>
      <trkpt lat="24.9098969496758" lon="118.58445335645483">
        <ele>14.660816420800984</ele>
        <time>2024-11-05T10:48:55Z</time>
      </trkpt>
      <trkpt lat="24.90996800543897" lon="118.58430210056545">
        <ele>14.469476718455553</ele>
        <time>2024-11-05T10:48:59Z</time>
      </trkpt>
      <trkpt lat="24.909948886697833" lon="118.5842041220195">
        <ele>14.832629092969</ele>
        <time>2024-11-05T10:49:03Z</time>
      </trkpt>
      <trkpt lat="24.90998225552289" lon="118.58402543494141">
        <ele>14.87116920761764</ele>
        <time>2024-11-05T10:49:08Z</time>
      </trkpt>
      <trkpt lat="24.910144049184165" lon="118.58362716880264">
        <ele>14.421620966866612</ele>
        <time>2024-11-05T10:49:18Z</time>
      </trkpt>
      <trkpt lat="24.91019062380195" lon="118.58354274218817">
        <ele>14.240236898884177</ele>
        <time>2024-11-05T10:49:20Z</time>
      </trkpt>
      <trkpt lat="24.910252024669735" lon="118.58334853059333">
        <ele>14.826783023774624</ele>
        <time>2024-11-05T10:49:25Z</time>
      </trkpt>
      <trkpt lat="24.91030639835235" lon="118.58327791293755">
        <ele>14.398897428996861</ele>
        <time>2024-11-05T10:49:27Z</time>
      </trkpt>
      <trkpt lat="24.91034818936059" lon="118.583177587665">
        <ele>14.282084247097373</ele>
        <time>2024-11-05T10:49:29Z</time>
      </trkpt>
      <trkpt lat="24.910423561181197" lon="118.5830978650015">
        <ele>13.954169351607561</ele>
        <time>2024-11-05T10:49:32Z</time>
      </trkpt>
      <trkpt lat="24.910391097222753" lon="118.58299611027914">
        <ele>14.107519222423434</ele>
        <time>2024-11-05T10:49:34Z</time>
      </trkpt>
      <trkpt lat="24.909998799166214" lon="118.58273336302507">
        <ele>12.665128748863935</ele>
        <time>2024-11-05T10:49:41Z</time>
      </trkpt>
      <trkpt lat="24.909906751756562" lon="118.58270080800867">
        <ele>12.363000662997365</ele>
        <time>2024-11-05T10:49:43Z</time>
      </trkpt>
      <trkpt lat="24.909775051418706" lon="118.58261376231091">
        <ele>12.09171069599688</ele>
        <time>2024-11-05T10:49:47Z</time>
      </trkpt>
      <trkpt lat="24.909668361854514" lon="118.58260210323499">
        <ele>11.786177122965455</ele>
        <time>2024-11-05T10:49:49Z</time>
      </trkpt>
      <trkpt lat="24.9095021202412" lon="118.58248966902187">
        <ele>11.570815335959196</ele>
        <time>2024-11-05T10:49:53Z</time>
      </trkpt>
      <trkpt lat="24.909116892133156" lon="118.58213066725038">
        <ele>12.818606077693403</ele>
        <time>2024-11-05T10:50:04Z</time>
      </trkpt>
      <trkpt lat="24.909118174540833" lon="118.58202499357934">
        <ele>12.72003096807748</ele>
        <time>2024-11-05T10:50:08Z</time>
      </trkpt>
      <trkpt lat="24.909306107128888" lon="118.58174019478668">
        <ele>11.896345109678805</ele>
        <time>2024-11-05T10:50:15Z</time>
      </trkpt>
      <trkpt lat="24.909504043341638" lon="118.58153681640387">
        <ele>12.507214277982712</ele>
        <time>2024-11-05T10:50:20Z</time>
      </trkpt>
      <trkpt lat="24.90962766188644" lon="118.58133155356465">
        <ele>12.20763836055994</ele>
        <time>2024-11-05T10:50:24Z</time>
      </trkpt>
      <trkpt lat="24.909835722224894" lon="118.58113130406487">
        <ele>11.842629082500935</ele>
        <time>2024-11-05T10:50:28Z</time>
      </trkpt>
      <trkpt lat="24.909987145720176" lon="118.58091750908555">
        <ele>11.31940844655037</ele>
        <time>2024-11-05T10:50:32Z</time>
      </trkpt>
      <trkpt lat="24.91019895434637" lon="118.58053782925197">
        <ele>12.548902693204582</ele>
        <time>2024-11-05T10:50:39Z</time>
      </trkpt>
      <trkpt lat="24.910483326189443" lon="118.58025489301747">
        <ele>12.086257866583765</ele>
        <time>2024-11-05T10:50:45Z</time>
      </trkpt>
      <trkpt lat="24.91058838662138" lon="118.58006433895933">
        <ele>12.671854135580361</ele>
        <time>2024-11-05T10:50:48Z</time>
      </trkpt>
      <trkpt lat="24.910672746789523" lon="118.58001275534814">
        <ele>12.117387454025447</ele>
        <time>2024-11-05T10:50:50Z</time>
      </trkpt>
      <trkpt lat="24.910733204030496" lon="118.57992953805524">
        <ele>12.217880283482373</ele>
        <time>2024-11-05T10:50:52Z</time>
      </trkpt>
      <trkpt lat="24.910766751952977" lon="118.57982615700469">
        <ele>12.121307766065001</ele>
        <time>2024-11-05T10:50:54Z</time>
      </trkpt>
      <trkpt lat="24.910856378318947" lon="118.57965263065115">
        <ele>12.343096109107137</ele>
        <time>2024-11-05T10:50:58Z</time>
      </trkpt>
      <trkpt lat="24.910926437078746" lon="118.5795820240835">
        <ele>12.243694386444986</ele>
        <time>2024-11-05T10:51:01Z</time>
      </trkpt>
      <trkpt lat="24.910991830907523" lon="118.57947796876758">
        <ele>12.224191090092063</ele>
        <time>2024-11-05T10:51:03Z</time>
      </trkpt>
      <trkpt lat="24.911050238906366" lon="118.57942160303193">
        <ele>12.98189730849117</ele>
        <time>2024-11-05T10:51:05Z</time>
      </trkpt>
      <trkpt lat="24.911242018666453" lon="118.57903660235812">
        <ele>13.038123770616949</ele>
        <time>2024-11-05T10:51:13Z</time>
      </trkpt>
      <trkpt lat="24.911377853433127" lon="118.57888108648076">
        <ele>12.453464942984283</ele>
        <time>2024-11-05T10:51:18Z</time>
      </trkpt>
      <trkpt lat="24.91141973600427" lon="118.57869490267026">
        <ele>12.601857396773994</ele>
        <time>2024-11-05T10:51:23Z</time>
      </trkpt>
      <trkpt lat="24.91146781555474" lon="118.57862821800332">
        <ele>12.396667622961104</ele>
        <time>2024-11-05T10:51:25Z</time>
      </trkpt>
      <trkpt lat="24.911671192650292" lon="118.57847049236075">
        <ele>12.139593382366002</ele>
        <time>2024-11-05T10:51:32Z</time>
      </trkpt>
      <trkpt lat="24.911658724342573" lon="118.57837561588265">
        <ele>12.150843213312328</ele>
        <time>2024-11-05T10:52:00Z</time>
      </trkpt>
      <trkpt lat="24.9118429732421" lon="118.5781693309692">
        <ele>11.642369870096445</ele>
        <time>2024-11-05T10:52:10Z</time>
      </trkpt>
      <trkpt lat="24.91188283076281" lon="118.57807129605558">
        <ele>12.013766648247838</ele>
        <time>2024-11-05T10:52:14Z</time>
      </trkpt>
      <trkpt lat="24.91196957404776" lon="118.57797939783711">
        <ele>12.057967746630311</ele>
        <time>2024-11-05T10:52:18Z</time>
      </trkpt>
      <trkpt lat="24.912159715141147" lon="118.57761459183756">
        <ele>12.352587265893817</ele>
        <time>2024-11-05T10:52:28Z</time>
      </trkpt>
      <trkpt lat="24.912212208917435" lon="118.57742323432616">
        <ele>13.839509767480195</ele>
        <time>2024-11-05T10:52:34Z</time>
      </trkpt>
      <trkpt lat="24.912276847489487" lon="118.5773593919792">
        <ele>14.041243082843721</ele>
        <time>2024-11-05T10:52:36Z</time>
      </trkpt>
      <trkpt lat="24.912410843015092" lon="118.57713336303749">
        <ele>14.778097078204155</ele>
        <time>2024-11-05T10:52:42Z</time>
      </trkpt>
      <trkpt lat="24.912523974521175" lon="118.57699398566096">
        <ele>14.87153341434896</ele>
        <time>2024-11-05T10:52:46Z</time>
      </trkpt>
      <trkpt lat="24.912557292293055" lon="118.57691618627176">
        <ele>14.994654311798513</ele>
        <time>2024-11-05T10:52:48Z</time>
      </trkpt>
      <trkpt lat="24.912612108323042" lon="118.5768609068829">
        <ele>14.669696637429297</ele>
        <time>2024-11-05T10:52:50Z</time>
      </trkpt>
      <trkpt lat="24.912761778713985" lon="118.57656131942366">
        <ele>14.860001708380878</ele>
        <time>2024-11-05T10:52:58Z</time>
      </trkpt>
      <trkpt lat="24.91281577675956" lon="118.57640062033282">
        <ele>14.837869918905199</ele>
        <time>2024-11-05T10:53:02Z</time>
      </trkpt>
      <trkpt lat="24.91287860104716" lon="118.57632287555042">
        <ele>14.874627550132573</ele>
        <time>2024-11-05T10:53:05Z</time>
      </trkpt>
      <trkpt lat="24.912947247474754" lon="118.5762764453524">
        <ele>14.237025945447385</ele>
        <time>2024-11-05T10:53:10Z</time>
      </trkpt>
      <trkpt lat="24.913006161857474" lon="118.57619674272145">
        <ele>13.913691454567015</ele>
        <time>2024-11-05T10:53:13Z</time>
      </trkpt>
      <trkpt lat="24.91307802405448" lon="118.576015755942">
        <ele>13.220708912238479</ele>
        <time>2024-11-05T10:53:18Z</time>
      </trkpt>
      <trkpt lat="24.913128570253818" lon="118.57593915310916">
        <ele>12.713263892568648</ele>
        <time>2024-11-05T10:53:20Z</time>
      </trkpt>
      <trkpt lat="24.913163895477243" lon="118.57573615273105">
        <ele>12.707992753945291</ele>
        <time>2024-11-05T10:53:25Z</time>
      </trkpt>
      <trkpt lat="24.913231379782278" lon="118.57568146482785">
        <ele>12.299794693477452</ele>
        <time>2024-11-05T10:53:28Z</time>
      </trkpt>
      <trkpt lat="24.913279803471013" lon="118.57559952408215">
        <ele>12.358753615990281</ele>
        <time>2024-11-05T10:53:30Z</time>
      </trkpt>
      <trkpt lat="24.91335937166135" lon="118.57555501489772">
        <ele>12.23801201954484</ele>
        <time>2024-11-05T10:53:33Z</time>
      </trkpt>
      <trkpt lat="24.913415449163903" lon="118.57550063643266">
        <ele>12.238353287801147</ele>
        <time>2024-11-05T10:53:35Z</time>
      </trkpt>
      <trkpt lat="24.91351169648153" lon="118.57514882790697">
        <ele>12.622496732510626</ele>
        <time>2024-11-05T10:53:49Z</time>
      </trkpt>
      <trkpt lat="24.913523048753337" lon="118.57505705313427">
        <ele>12.567291944287717</ele>
        <time>2024-11-05T10:53:56Z</time>
      </trkpt>
      <trkpt lat="24.913691643592788" lon="118.5747947605741">
        <ele>12.18299994058907</ele>
        <time>2024-11-05T10:54:02Z</time>
      </trkpt>
      <trkpt lat="24.913727761868145" lon="118.57469456136103">
        <ele>12.300058521330357</ele>
        <time>2024-11-05T10:54:04Z</time>
      </trkpt>
      <trkpt lat="24.913790088093236" lon="118.57462422698164">
        <ele>12.479428824968636</ele>
        <time>2024-11-05T10:54:06Z</time>
      </trkpt>
      <trkpt lat="24.91387634073538" lon="118.57441479138436">
        <ele>12.119849041104317</ele>
        <time>2024-11-05T10:54:10Z</time>
      </trkpt>
      <trkpt lat="24.91412518383966" lon="118.57413794853476">
        <ele>12.382611921988428</ele>
        <time>2024-11-05T10:54:16Z</time>
      </trkpt>
      <trkpt lat="24.91423793591157" lon="118.57409106663377">
        <ele>12.25868131313473</ele>
        <time>2024-11-05T10:54:18Z</time>
      </trkpt>
      <trkpt lat="24.914311122487884" lon="118.57402258006078">
        <ele>12.223183202557266</ele>
        <time>2024-11-05T10:54:20Z</time>
      </trkpt>
      <trkpt lat="24.91440152502647" lon="118.57377341879408">
        <ele>12.597091818228364</ele>
        <time>2024-11-05T10:54:25Z</time>
      </trkpt>
      <trkpt lat="24.914560295934358" lon="118.57350595871463">
        <ele>12.272345293313265</ele>
        <time>2024-11-05T10:54:31Z</time>
      </trkpt>
      <trkpt lat="24.91463164975999" lon="118.57342576050827">
        <ele>12.850696754641831</ele>
        <time>2024-11-05T10:54:33Z</time>
      </trkpt>
      <trkpt lat="24.914661500497505" lon="118.57331340253718">
        <ele>12.635976820252836</ele>
        <time>2024-11-05T10:54:35Z</time>
      </trkpt>
      <trkpt lat="24.91484811372198" lon="118.5730490283673">
        <ele>12.65006916038692</ele>
        <time>2024-11-05T10:54:41Z</time>
      </trkpt>
      <trkpt lat="24.91504507203013" lon="118.57257528425629">
        <ele>12.329603657126427</ele>
        <time>2024-11-05T10:54:51Z</time>
      </trkpt>
      <trkpt lat="24.915134487969237" lon="118.57237566436665">
        <ele>12.088858024217188</ele>
        <time>2024-11-05T10:54:55Z</time>
      </trkpt>
      <trkpt lat="24.91524654525864" lon="118.57218972250998">
        <ele>12.666444809176028</ele>
        <time>2024-11-05T10:54:59Z</time>
      </trkpt>
      <trkpt lat="24.91533195419314" lon="118.5720187341347">
        <ele>12.489339086227119</ele>
        <time>2024-11-05T10:55:08Z</time>
      </trkpt>
      <trkpt lat="24.91533117063092" lon="118.57192424097357">
        <ele>12.711242968216538</ele>
        <time>2024-11-05T10:55:10Z</time>
      </trkpt>
      <trkpt lat="24.915438023113058" lon="118.57165512637127">
        <ele>12.608591561205685</ele>
        <time>2024-11-05T10:55:18Z</time>
      </trkpt>
      <trkpt lat="24.9154919565255" lon="118.57147921189208">
        <ele>12.338524604216218</ele>
        <time>2024-11-05T10:55:22Z</time>
      </trkpt>
      <trkpt lat="24.915544769746095" lon="118.57139206245843">
        <ele>12.416009426116943</ele>
        <time>2024-11-05T10:55:25Z</time>
      </trkpt>
      <trkpt lat="24.915605187688424" lon="118.57119799092969">
        <ele>12.317455446347594</ele>
        <time>2024-11-05T10:55:30Z</time>
      </trkpt>
      <trkpt lat="24.91565285271007" lon="118.57112610410425">
        <ele>12.103439157828689</ele>
        <time>2024-11-05T10:55:32Z</time>
      </trkpt>
      <trkpt lat="24.91573064882893" lon="118.57095538064378">
        <ele>11.987768284976482</ele>
        <time>2024-11-05T10:55:36Z</time>
      </trkpt>
      <trkpt lat="24.915798826651493" lon="118.57085536672928">
        <ele>11.496311105787754</ele>
        <time>2024-11-05T10:55:40Z</time>
      </trkpt>
      <trkpt lat="24.91583701648901" lon="118.57075846962974">
        <ele>11.087498027831316</ele>
        <time>2024-11-05T10:55:43Z</time>
      </trkpt>
      <trkpt lat="24.916023739389367" lon="118.57066393499431">
        <ele>10.161267088726163</ele>
        <time>2024-11-05T10:55:47Z</time>
      </trkpt>
      <trkpt lat="24.9161202479742" lon="118.57064829509213">
        <ele>10.223901281133294</ele>
        <time>2024-11-05T10:55:49Z</time>
      </trkpt>
      <trkpt lat="24.916601334325684" lon="118.57046790217662">
        <ele>9.697930971160531</ele>
        <time>2024-11-05T10:55:59Z</time>
      </trkpt>
      <trkpt lat="24.917048323158216" lon="118.57031392130284">
        <ele>10.04214502684772</ele>
        <time>2024-11-05T10:56:09Z</time>
      </trkpt>
      <trkpt lat="24.91721760935434" lon="118.57023476232798">
        <ele>10.327978758141398</ele>
        <time>2024-11-05T10:56:13Z</time>
      </trkpt>
      <trkpt lat="24.9177433474193" lon="118.57002569475056">
        <ele>10.181283807381988</ele>
        <time>2024-11-05T10:56:28Z</time>
      </trkpt>
      <trkpt lat="24.917910684292686" lon="118.56996758781736">
        <ele>9.983455550856888</ele>
        <time>2024-11-05T10:56:34Z</time>
      </trkpt>
      <trkpt lat="24.917957522077668" lon="118.56989609797779">
        <ele>9.700565083883703</ele>
        <time>2024-11-05T10:56:47Z</time>
      </trkpt>
      <trkpt lat="24.917984259460088" lon="118.56978996481462">
        <ele>10.026901978999376</ele>
        <time>2024-11-05T10:56:51Z</time>
      </trkpt>
      <trkpt lat="24.918088956864107" lon="118.5696800615817">
        <ele>9.676004165783525</ele>
        <time>2024-11-05T10:56:56Z</time>
      </trkpt>
      <trkpt lat="24.918009010060135" lon="118.5696580382087">
        <ele>9.594081487506628</ele>
        <time>2024-11-05T10:57:05Z</time>
      </trkpt>
      <trkpt lat="24.917942200750467" lon="118.56961416417987">
        <ele>9.282282719388604</ele>
        <time>2024-11-05T10:57:16Z</time>
      </trkpt>
      <trkpt lat="24.917708036199304" lon="118.56932469675274">
        <ele>9.913205532357097</ele>
        <time>2024-11-05T10:57:27Z</time>
      </trkpt>
      <trkpt lat="24.917479740671318" lon="118.56892235513003">
        <ele>9.467119384557009</ele>
        <time>2024-11-05T10:57:38Z</time>
      </trkpt>
      <trkpt lat="24.91745143960009" lon="118.56881403280246">
        <ele>8.874357640743256</ele>
        <time>2024-11-05T10:57:40Z</time>
      </trkpt>
      <trkpt lat="24.917452637269406" lon="118.56872447070573">
        <ele>9.338569859042764</ele>
        <time>2024-11-05T10:57:42Z</time>
      </trkpt>
      <trkpt lat="24.917530151856454" lon="118.56839742479515">
        <ele>9.998601232655346</ele>
        <time>2024-11-05T10:57:49Z</time>
      </trkpt>
      <trkpt lat="24.91750057985261" lon="118.56830394364489">
        <ele>9.829762822017074</ele>
        <time>2024-11-05T10:57:51Z</time>
      </trkpt>
      <trkpt lat="24.91752306615799" lon="118.56781466012487">
        <ele>9.642074535600841</ele>
        <time>2024-11-05T10:58:01Z</time>
      </trkpt>
      <trkpt lat="24.91754672410378" lon="118.5672806768062">
        <ele>9.366460902616382</ele>
        <time>2024-11-05T10:58:11Z</time>
      </trkpt>
      <trkpt lat="24.917561783308933" lon="118.56718191958613">
        <ele>9.096421031281352</ele>
        <time>2024-11-05T10:58:13Z</time>
      </trkpt>
      <trkpt lat="24.917620394069214" lon="118.56709682735325">
        <ele>9.148706604726613</ele>
        <time>2024-11-05T10:58:15Z</time>
      </trkpt>
      <trkpt lat="24.91765933910943" lon="118.56693782495435">
        <ele>7.662758662365377</ele>
        <time>2024-11-05T10:58:20Z</time>
      </trkpt>
      <trkpt lat="24.917639106929386" lon="118.56671094340217">
        <ele>7.642784575931728</ele>
        <time>2024-11-05T10:58:27Z</time>
      </trkpt>
      <trkpt lat="24.917652851734232" lon="118.56655022103003">
        <ele>8.073497095145285</ele>
        <time>2024-11-05T10:58:30Z</time>
      </trkpt>
      <trkpt lat="24.917645660222107" lon="118.5663562657941">
        <ele>8.990757355466485</ele>
        <time>2024-11-05T10:58:33Z</time>
      </trkpt>
      <trkpt lat="24.917662300924455" lon="118.56603815650357">
        <ele>9.033698192797601</ele>
        <time>2024-11-05T10:58:38Z</time>
      </trkpt>
      <trkpt lat="24.917592262824392" lon="118.56547410529987">
        <ele>9.44708938151598</ele>
        <time>2024-11-05T10:58:49Z</time>
      </trkpt>
      <trkpt lat="24.917535791260125" lon="118.56527522586985">
        <ele>9.890449745580554</ele>
        <time>2024-11-05T10:58:53Z</time>
      </trkpt>
      <trkpt lat="24.91752823551389" lon="118.56518099627573">
        <ele>9.276114702224731</ele>
        <time>2024-11-05T10:58:55Z</time>
      </trkpt>
      <trkpt lat="24.917327157189632" lon="118.56469492486231">
        <ele>10.161631657741964</ele>
        <time>2024-11-05T10:59:05Z</time>
      </trkpt>
      <trkpt lat="24.917175975708073" lon="118.56440556123111">
        <ele>10.867874783463776</ele>
        <time>2024-11-05T10:59:11Z</time>
      </trkpt>
      <trkpt lat="24.917011577086715" lon="118.56410581781756">
        <ele>9.956648556515574</ele>
        <time>2024-11-05T10:59:19Z</time>
      </trkpt>
      <trkpt lat="24.916689096779802" lon="118.56370403510672">
        <ele>9.770760159939528</ele>
        <time>2024-11-05T10:59:29Z</time>
      </trkpt>
      <trkpt lat="24.916399686989944" lon="118.56331161178024">
        <ele>10.526047226041555</ele>
        <time>2024-11-05T10:59:39Z</time>
      </trkpt>
      <trkpt lat="24.91610863061529" lon="118.56289856383627">
        <ele>10.546737199649215</ele>
        <time>2024-11-05T10:59:49Z</time>
      </trkpt>
      <trkpt lat="24.91582750396628" lon="118.56248286117399">
        <ele>5.091625531204045</ele>
        <time>2024-11-05T10:59:59Z</time>
      </trkpt>
      <trkpt lat="24.91559191675169" lon="118.56210656291066">
        <ele>2.538770723156631</ele>
        <time>2024-11-05T11:00:07Z</time>
      </trkpt>
      <trkpt lat="24.915306469093075" lon="118.56172600730507">
        <ele>2.682956443168223</ele>
        <time>2024-11-05T11:00:15Z</time>
      </trkpt>
      <trkpt lat="24.91499957236933" lon="118.56125800181168">
        <ele>2.408630366437137</ele>
        <time>2024-11-05T11:00:25Z</time>
      </trkpt>
      <trkpt lat="24.914880859216396" lon="118.56110082584337">
        <ele>2.3495631916448474</ele>
        <time>2024-11-05T11:00:29Z</time>
      </trkpt>
      <trkpt lat="24.914787170192056" lon="118.56091165345151">
        <ele>3.413548892363906</ele>
        <time>2024-11-05T11:00:34Z</time>
      </trkpt>
      <trkpt lat="24.91445299330642" lon="118.56051034126206">
        <ele>11.301193517632782</ele>
        <time>2024-11-05T11:00:51Z</time>
      </trkpt>
      <trkpt lat="24.91434603131243" lon="118.56010251240376">
        <ele>12.049044420011342</ele>
        <time>2024-11-05T11:01:02Z</time>
      </trkpt>
      <trkpt lat="24.914277401196816" lon="118.56006365133774">
        <ele>11.79547640029341</ele>
        <time>2024-11-05T11:01:05Z</time>
      </trkpt>
      <trkpt lat="24.914175632800916" lon="118.55988420916786">
        <ele>11.6470050746575</ele>
        <time>2024-11-05T11:01:10Z</time>
      </trkpt>
      <trkpt lat="24.914116181028376" lon="118.55981640536653">
        <ele>11.76781910378486</ele>
        <time>2024-11-05T11:01:12Z</time>
      </trkpt>
      <trkpt lat="24.91409207961861" lon="118.55974079244493">
        <ele>12.073247409425676</ele>
        <time>2024-11-05T11:01:14Z</time>
      </trkpt>
      <trkpt lat="24.913942468637305" lon="118.55962116225142">
        <ele>12.030297867953777</ele>
        <time>2024-11-05T11:01:20Z</time>
      </trkpt>
      <trkpt lat="24.913854683797243" lon="118.5595223979878">
        <ele>12.368434806354344</ele>
        <time>2024-11-05T11:01:23Z</time>
      </trkpt>
      <trkpt lat="24.91374504777029" lon="118.55932587036098">
        <ele>12.625318402424455</ele>
        <time>2024-11-05T11:01:27Z</time>
      </trkpt>
      <trkpt lat="24.91336567863258" lon="118.55894162336041">
        <ele>13.011528711766005</ele>
        <time>2024-11-05T11:01:37Z</time>
      </trkpt>
      <trkpt lat="24.913236271559988" lon="118.55878348239456">
        <ele>12.000672600232065</ele>
        <time>2024-11-05T11:01:44Z</time>
      </trkpt>
      <trkpt lat="24.913136093164518" lon="118.55849932923834">
        <ele>11.458202878013253</ele>
        <time>2024-11-05T11:01:50Z</time>
      </trkpt>
      <trkpt lat="24.91312112287827" lon="118.55841661362916">
        <ele>11.83547308202833</ele>
        <time>2024-11-05T11:01:53Z</time>
      </trkpt>
      <trkpt lat="24.913192954983074" lon="118.55839289692658">
        <ele>11.534278596751392</ele>
        <time>2024-11-05T11:02:10Z</time>
      </trkpt>
      <trkpt lat="24.913078922748493" lon="118.55825417881942">
        <ele>11.656104828231037</ele>
        <time>2024-11-05T11:02:31Z</time>
      </trkpt>
      <trkpt lat="24.913041245814917" lon="118.55818086900574">
        <ele>11.18506506178528</ele>
        <time>2024-11-05T11:02:34Z</time>
      </trkpt>
      <trkpt lat="24.912973213943317" lon="118.55796920473658">
        <ele>9.681415691040456</ele>
        <time>2024-11-05T11:02:42Z</time>
      </trkpt>
      <trkpt lat="24.91286498096668" lon="118.5578225153682">
        <ele>9.361916084773839</ele>
        <time>2024-11-05T11:02:47Z</time>
      </trkpt>
      <trkpt lat="24.912676193509217" lon="118.55736100359161">
        <ele>7.4856062000617385</ele>
        <time>2024-11-05T11:02:58Z</time>
      </trkpt>
      <trkpt lat="24.912499052991762" lon="118.55690710493971">
        <ele>7.6176253743469715</ele>
        <time>2024-11-05T11:03:08Z</time>
      </trkpt>
      <trkpt lat="24.912352647192044" lon="118.55661198348065">
        <ele>6.626749978400767</ele>
        <time>2024-11-05T11:03:14Z</time>
      </trkpt>
      <trkpt lat="24.91228467414714" lon="118.55641572730062">
        <ele>5.982582123018801</ele>
        <time>2024-11-05T11:03:19Z</time>
      </trkpt>
      <trkpt lat="24.91226561590745" lon="118.556317380672">
        <ele>5.282507779076695</ele>
        <time>2024-11-05T11:03:21Z</time>
      </trkpt>
      <trkpt lat="24.91208645121162" lon="118.5559233015826">
        <ele>5.626418079249561</ele>
        <time>2024-11-05T11:03:29Z</time>
      </trkpt>
      <trkpt lat="24.912043017599867" lon="118.55571144262105">
        <ele>5.798289126716554</ele>
        <time>2024-11-05T11:03:33Z</time>
      </trkpt>
      <trkpt lat="24.911896606157363" lon="118.55538724694605">
        <ele>7.068663876503706</ele>
        <time>2024-11-05T11:03:39Z</time>
      </trkpt>
      <trkpt lat="24.911779819662026" lon="118.55520715718755">
        <ele>7.434674108400941</ele>
        <time>2024-11-05T11:03:43Z</time>
      </trkpt>
      <trkpt lat="24.91174011390778" lon="118.55503376950621">
        <ele>7.03683861810714</ele>
        <time>2024-11-05T11:03:47Z</time>
      </trkpt>
      <trkpt lat="24.911751009147572" lon="118.55484236192208">
        <ele>7.169418213889003</ele>
        <time>2024-11-05T11:03:53Z</time>
      </trkpt>
      <trkpt lat="24.911717978405346" lon="118.55473939734102">
        <ele>7.1906551364809275</ele>
        <time>2024-11-05T11:03:57Z</time>
      </trkpt>
      <trkpt lat="24.911668150119638" lon="118.55466707309556">
        <ele>7.142730941064656</ele>
        <time>2024-11-05T11:04:01Z</time>
      </trkpt>
      <trkpt lat="24.911630725846436" lon="118.55457871222374">
        <ele>6.7024361519142985</ele>
        <time>2024-11-05T11:04:06Z</time>
      </trkpt>
      <trkpt lat="24.911494806566115" lon="118.55439448770453">
        <ele>6.631869222037494</ele>
        <time>2024-11-05T11:04:12Z</time>
      </trkpt>
      <trkpt lat="24.91129545953454" lon="118.55391315064851">
        <ele>6.776082657277584</ele>
        <time>2024-11-05T11:04:22Z</time>
      </trkpt>
      <trkpt lat="24.911094539662" lon="118.55340950461928">
        <ele>6.366452421061695</ele>
        <time>2024-11-05T11:04:32Z</time>
      </trkpt>
      <trkpt lat="24.911017283932576" lon="118.55320854723283">
        <ele>6.250018113292754</ele>
        <time>2024-11-05T11:04:36Z</time>
      </trkpt>
      <trkpt lat="24.911048699200872" lon="118.55304326508393">
        <ele>6.199494741857052</ele>
        <time>2024-11-05T11:04:40Z</time>
      </trkpt>
      <trkpt lat="24.911040173842338" lon="118.55295435631696">
        <ele>6.784661564975977</ele>
        <time>2024-11-05T11:04:42Z</time>
      </trkpt>
      <trkpt lat="24.91094574185157" lon="118.55273438348719">
        <ele>6.673764263279736</ele>
        <time>2024-11-05T11:04:48Z</time>
      </trkpt>
      <trkpt lat="24.910877168872794" lon="118.55261907186443">
        <ele>7.228531767614186</ele>
        <time>2024-11-05T11:04:52Z</time>
      </trkpt>
      <trkpt lat="24.910817378524545" lon="118.55256230666892">
        <ele>7.291334823705256</ele>
        <time>2024-11-05T11:04:54Z</time>
      </trkpt>
      <trkpt lat="24.910633776812443" lon="118.55209097407581">
        <ele>7.094128129072487</ele>
        <time>2024-11-05T11:05:05Z</time>
      </trkpt>
      <trkpt lat="24.91049979287802" lon="118.5518044609938">
        <ele>8.048987669870257</ele>
        <time>2024-11-05T11:05:11Z</time>
      </trkpt>
      <trkpt lat="24.910433239550184" lon="118.55170728984707">
        <ele>7.887080485001206</ele>
        <time>2024-11-05T11:05:13Z</time>
      </trkpt>
      <trkpt lat="24.910349159488657" lon="118.55152214114021">
        <ele>7.536395574919879</ele>
        <time>2024-11-05T11:05:18Z</time>
      </trkpt>
      <trkpt lat="24.910291077024" lon="118.55146127106279">
        <ele>7.071708950214088</ele>
        <time>2024-11-05T11:05:20Z</time>
      </trkpt>
      <trkpt lat="24.910180056807324" lon="118.55117049769139">
        <ele>7.716479650698602</ele>
        <time>2024-11-05T11:05:26Z</time>
      </trkpt>
      <trkpt lat="24.910050078358143" lon="118.55094667117989">
        <ele>7.205251888372004</ele>
        <time>2024-11-05T11:05:30Z</time>
      </trkpt>
      <trkpt lat="24.91000572909674" lon="118.55084253530079">
        <ele>7.460707742720842</ele>
        <time>2024-11-05T11:05:32Z</time>
      </trkpt>
      <trkpt lat="24.909977046387567" lon="118.55072531812196">
        <ele>7.132531160488725</ele>
        <time>2024-11-05T11:05:34Z</time>
      </trkpt>
      <trkpt lat="24.909839896212638" lon="118.55040656730301">
        <ele>7.466477814130485</ele>
        <time>2024-11-05T11:05:40Z</time>
      </trkpt>
      <trkpt lat="24.909809877729845" lon="118.5502252553296">
        <ele>7.308412534184754</ele>
        <time>2024-11-05T11:05:45Z</time>
      </trkpt>
      <trkpt lat="24.909763264194765" lon="118.55014708719837">
        <ele>8.297438814304769</ele>
        <time>2024-11-05T11:05:47Z</time>
      </trkpt>
      <trkpt lat="24.90958824811991" lon="118.54976798963841">
        <ele>7.531774345785379</ele>
        <time>2024-11-05T11:05:55Z</time>
      </trkpt>
      <trkpt lat="24.909549085980093" lon="118.549418622052">
        <ele>7.509386376477778</ele>
        <time>2024-11-05T11:06:01Z</time>
      </trkpt>
      <trkpt lat="24.909448630172708" lon="118.54920082199251">
        <ele>7.77205366268754</ele>
        <time>2024-11-05T11:06:05Z</time>
      </trkpt>
      <trkpt lat="24.909380754729323" lon="118.5490913298769">
        <ele>7.159040196798742</ele>
        <time>2024-11-05T11:06:07Z</time>
      </trkpt>
      <trkpt lat="24.909362891737032" lon="118.5489807570456">
        <ele>7.7663780096918344</ele>
        <time>2024-11-05T11:06:09Z</time>
      </trkpt>
      <trkpt lat="24.90931918590122" lon="118.54887431396554">
        <ele>7.826742791570723</ele>
        <time>2024-11-05T11:06:11Z</time>
      </trkpt>
      <trkpt lat="24.909206324072198" lon="118.54869024813397">
        <ele>7.665300496853888</ele>
        <time>2024-11-05T11:06:15Z</time>
      </trkpt>
      <trkpt lat="24.909103292426288" lon="118.54839883877248">
        <ele>7.966101643629372</ele>
        <time>2024-11-05T11:06:21Z</time>
      </trkpt>
      <trkpt lat="24.909052673791443" lon="118.5483081587934">
        <ele>7.468447059392929</ele>
        <time>2024-11-05T11:06:23Z</time>
      </trkpt>
      <trkpt lat="24.908978965941813" lon="118.54826282179862">
        <ele>7.349685409106314</ele>
        <time>2024-11-05T11:06:26Z</time>
      </trkpt>
      <trkpt lat="24.90890588637874" lon="118.54817500853822">
        <ele>7.179057838395238</ele>
        <time>2024-11-05T11:06:29Z</time>
      </trkpt>
      <trkpt lat="24.908691357268314" lon="118.54766196780474">
        <ele>6.992266384884715</ele>
        <time>2024-11-05T11:06:39Z</time>
      </trkpt>
      <trkpt lat="24.908632373033377" lon="118.54753531851264">
        <ele>6.724288201890886</ele>
        <time>2024-11-05T11:06:41Z</time>
      </trkpt>
      <trkpt lat="24.908489101491163" lon="118.5470485509559">
        <ele>5.7757911933586</ele>
        <time>2024-11-05T11:06:49Z</time>
      </trkpt>
      <trkpt lat="24.9083206643274" lon="118.54654809987484">
        <ele>6.477355007082224</ele>
        <time>2024-11-05T11:06:58Z</time>
      </trkpt>
      <trkpt lat="24.90819390736888" lon="118.54631286009496">
        <ele>5.78105529025197</ele>
        <time>2024-11-05T11:07:03Z</time>
      </trkpt>
      <trkpt lat="24.908024666631107" lon="118.54591597106791">
        <ele>7.07956033013761</ele>
        <time>2024-11-05T11:07:10Z</time>
      </trkpt>
      <trkpt lat="24.907875335514564" lon="118.54536158325499">
        <ele>7.655548767186701</ele>
        <time>2024-11-05T11:07:21Z</time>
      </trkpt>
      <trkpt lat="24.907775579378885" lon="118.545136972679">
        <ele>7.738706685602665</ele>
        <time>2024-11-05T11:07:25Z</time>
      </trkpt>
      <trkpt lat="24.90771164589298" lon="118.54504302378346">
        <ele>8.050206656567752</ele>
        <time>2024-11-05T11:07:27Z</time>
      </trkpt>
      <trkpt lat="24.907625503996744" lon="118.54480941936555">
        <ele>7.459260171279311</ele>
        <time>2024-11-05T11:07:31Z</time>
      </trkpt>
      <trkpt lat="24.907504571574925" lon="118.544590053101">
        <ele>7.612972228787839</ele>
        <time>2024-11-05T11:07:35Z</time>
      </trkpt>
      <trkpt lat="24.90738346471844" lon="118.54425879673794">
        <ele>7.321200612932444</ele>
        <time>2024-11-05T11:07:41Z</time>
      </trkpt>
      <trkpt lat="24.90737400679033" lon="118.54415005884536">
        <ele>7.419890891760588</ele>
        <time>2024-11-05T11:07:43Z</time>
      </trkpt>
      <trkpt lat="24.907412618344193" lon="118.54396908367227">
        <ele>7.665683941915631</ele>
        <time>2024-11-05T11:07:47Z</time>
      </trkpt>
      <trkpt lat="24.907372161839252" lon="118.54376157153214">
        <ele>6.930280793458223</ele>
        <time>2024-11-05T11:08:25Z</time>
      </trkpt>
      <trkpt lat="24.90737262421431" lon="118.54367031557427">
        <ele>7.00530668720603</ele>
        <time>2024-11-05T11:08:28Z</time>
      </trkpt>
      <trkpt lat="24.907351065701075" lon="118.54346915847924">
        <ele>6.740164315328002</ele>
        <time>2024-11-05T11:08:34Z</time>
      </trkpt>
      <trkpt lat="24.907403461528062" lon="118.54318111038334">
        <ele>7.272850337438285</ele>
        <time>2024-11-05T11:08:41Z</time>
      </trkpt>
      <trkpt lat="24.907548553778103" lon="118.5429254340799">
        <ele>7.036980780772865</ele>
        <time>2024-11-05T11:08:47Z</time>
      </trkpt>
      <trkpt lat="24.90763155540675" lon="118.54262537947847">
        <ele>7.29079937748611</ele>
        <time>2024-11-05T11:08:53Z</time>
      </trkpt>
      <trkpt lat="24.907837922469515" lon="118.54215687894808">
        <ele>8.23084703925997</ele>
        <time>2024-11-05T11:09:02Z</time>
      </trkpt>
      <trkpt lat="24.908078243801306" lon="118.54158076156597">
        <ele>9.170989689417183</ele>
        <time>2024-11-05T11:09:13Z</time>
      </trkpt>
      <trkpt lat="24.908146219851343" lon="118.54136218399005">
        <ele>9.863408503122628</ele>
        <time>2024-11-05T11:09:17Z</time>
      </trkpt>
      <trkpt lat="24.908244861710447" lon="118.54115823651551">
        <ele>9.421554954722524</ele>
        <time>2024-11-05T11:09:21Z</time>
      </trkpt>
      <trkpt lat="24.908478579271865" lon="118.54081598874117">
        <ele>8.081299190409482</ele>
        <time>2024-11-05T11:09:31Z</time>
      </trkpt>
      <trkpt lat="24.90847083564858" lon="118.5408562188736">
        <ele>8.22367784101516</ele>
        <time>2024-11-05T11:09:46Z</time>
      </trkpt>
    </trkseg>
  </trk>
</gpx>