<?xml version="1.0" encoding="UTF-8"?>
<gpx xmlns="http://www.topografix.com/GPX/1/1" xmlns:gpxtpx="http://www.garmin.com/xmlschemas/TrackPointExtension/v1" xmlns:xsi="http://www.w3.org/2001/XMLSchema-instance" xsi:schemaLocation="http://www.topografix.com/GPX/1/1 http://www.topografix.com/GPX/1/1/gpx.xsd" version="1.1" creator="gpx.py -- https://github.com/tkrajina/gpxpy">
  <trk>
    <name>gpx from keep</name>
    <type>Run</type>
    <trkseg>
      <trkpt lat="24.91075982884878" lon="118.5385336376407">
        <ele>9.795788298361003</ele>
        <time>2024-07-03T13:56:54Z</time>
      </trkpt>
      <trkpt lat="24.910556762316993" lon="118.53847907547556">
        <ele>9.683459404855967</ele>
        <time>2024-07-03T13:57:03Z</time>
      </trkpt>
      <trkpt lat="24.91026429616793" lon="118.53844075874376">
        <ele>9.603960372507572</ele>
        <time>2024-07-03T13:57:12Z</time>
      </trkpt>
      <trkpt lat="24.910053845419796" lon="118.53842778833463">
        <ele>7.546721664257348</ele>
        <time>2024-07-03T13:57:18Z</time>
      </trkpt>
      <trkpt lat="24.909768752036854" lon="118.53837681140725">
        <ele>7.050092665478587</ele>
        <time>2024-07-03T13:57:27Z</time>
      </trkpt>
      <trkpt lat="24.90948517537314" lon="118.53837667779084">
        <ele>7.041885062120855</ele>
        <time>2024-07-03T13:57:36Z</time>
      </trkpt>
      <trkpt lat="24.909320212016627" lon="118.53837993934556">
        <ele>7.373841372318566</ele>
        <time>2024-07-03T13:57:42Z</time>
      </trkpt>
      <trkpt lat="24.9092381936558" lon="118.53834708272245">
        <ele>7.427078139036894</ele>
        <time>2024-07-03T13:57:45Z</time>
      </trkpt>
      <trkpt lat="24.909202518627314" lon="118.53827350206348">
        <ele>8.034221205860376</ele>
        <time>2024-07-03T13:57:48Z</time>
      </trkpt>
      <trkpt lat="24.909280607317275" lon="118.5380741604286">
        <ele>7.115936799906194</ele>
        <time>2024-07-03T13:57:54Z</time>
      </trkpt>
      <trkpt lat="24.909331043270537" lon="118.53798983653171">
        <ele>7.483664168044925</ele>
        <time>2024-07-03T13:57:57Z</time>
      </trkpt>
      <trkpt lat="24.909422581145268" lon="118.53769890158115">
        <ele>8.619035420008004</ele>
        <time>2024-07-03T13:58:06Z</time>
      </trkpt>
      <trkpt lat="24.90943932505147" lon="118.53752770273523">
        <ele>9.551506913267076</ele>
        <time>2024-07-03T13:58:12Z</time>
      </trkpt>
      <trkpt lat="24.90953251273515" lon="118.53723334209096">
        <ele>9.329570727422833</ele>
        <time>2024-07-03T13:58:21Z</time>
      </trkpt>
      <trkpt lat="24.90957668642517" lon="118.53703982481782">
        <ele>9.751750277355313</ele>
        <time>2024-07-03T13:58:27Z</time>
      </trkpt>
      <trkpt lat="24.909485875421485" lon="118.53695671796967">
        <ele>9.668846824206412</ele>
        <time>2024-07-03T13:58:31Z</time>
      </trkpt>
      <trkpt lat="24.909479206161514" lon="118.53686056200027">
        <ele>10.279390738345683</ele>
        <time>2024-07-03T13:58:34Z</time>
      </trkpt>
      <trkpt lat="24.909540261007685" lon="118.53656727081315">
        <ele>10.077903024852276</ele>
        <time>2024-07-03T13:58:43Z</time>
      </trkpt>
      <trkpt lat="24.909595398283734" lon="118.53637611956736">
        <ele>9.710792653262615</ele>
        <time>2024-07-03T13:58:49Z</time>
      </trkpt>
      <trkpt lat="24.909600403505372" lon="118.53619081974982">
        <ele>9.981389377266169</ele>
        <time>2024-07-03T13:58:55Z</time>
      </trkpt>
      <trkpt lat="24.909635375683717" lon="118.53599685409047">
        <ele>10.082962667569518</ele>
        <time>2024-07-03T13:59:01Z</time>
      </trkpt>
      <trkpt lat="24.909648203345537" lon="118.5357983018413">
        <ele>10.023610999807715</ele>
        <time>2024-07-03T13:59:07Z</time>
      </trkpt>
      <trkpt lat="24.909693026238052" lon="118.53547965941362">
        <ele>9.970528923906386</ele>
        <time>2024-07-03T13:59:16Z</time>
      </trkpt>
      <trkpt lat="24.909745391828178" lon="118.53518410784109">
        <ele>9.94797274377197</ele>
        <time>2024-07-03T13:59:25Z</time>
      </trkpt>
      <trkpt lat="24.90977868532367" lon="118.53487713507513">
        <ele>8.05475350562483</ele>
        <time>2024-07-03T13:59:34Z</time>
      </trkpt>
      <trkpt lat="24.909837159014113" lon="118.53483774592117">
        <ele>8.133298585191369</ele>
        <time>2024-07-03T13:59:37Z</time>
      </trkpt>
      <trkpt lat="24.91013404697824" lon="118.53498608192393">
        <ele>8.699850395321846</ele>
        <time>2024-07-03T13:59:49Z</time>
      </trkpt>
      <trkpt lat="24.910295063292512" lon="118.53505254474258">
        <ele>9.567773620598018</ele>
        <time>2024-07-03T13:59:55Z</time>
      </trkpt>
      <trkpt lat="24.910382702438053" lon="118.53511261676286">
        <ele>9.494749224744737</ele>
        <time>2024-07-03T13:59:58Z</time>
      </trkpt>
      <trkpt lat="24.910660316460845" lon="118.53521051801737">
        <ele>10.960180851630867</ele>
        <time>2024-07-03T14:00:07Z</time>
      </trkpt>
      <trkpt lat="24.910925885845742" lon="118.53533623212286">
        <ele>10.85401168372482</ele>
        <time>2024-07-03T14:00:16Z</time>
      </trkpt>
      <trkpt lat="24.911014218939936" lon="118.5353663498707">
        <ele>9.518794206902385</ele>
        <time>2024-07-03T14:00:19Z</time>
      </trkpt>
      <trkpt lat="24.911278779753005" lon="118.53546156698397">
        <ele>9.836024129763246</ele>
        <time>2024-07-03T14:00:28Z</time>
      </trkpt>
      <trkpt lat="24.911369574488468" lon="118.53548404535431">
        <ele>10.113381313160062</ele>
        <time>2024-07-03T14:00:31Z</time>
      </trkpt>
      <trkpt lat="24.911457002881722" lon="118.53552732846751">
        <ele>10.041936995461583</ele>
        <time>2024-07-03T14:00:35Z</time>
      </trkpt>
      <trkpt lat="24.911511703350797" lon="118.53553283659167">
        <ele>9.916352676227689</ele>
        <time>2024-07-03T14:00:38Z</time>
      </trkpt>
      <trkpt lat="24.91170026124182" lon="118.53568334026001">
        <ele>10.262430801987648</ele>
        <time>2024-07-03T14:00:46Z</time>
      </trkpt>
      <trkpt lat="24.911861325958615" lon="118.53578809708615">
        <ele>10.556938294321299</ele>
        <time>2024-07-03T14:00:52Z</time>
      </trkpt>
      <trkpt lat="24.912157631790198" lon="118.5358486682763">
        <ele>10.248010100796819</ele>
        <time>2024-07-03T14:01:01Z</time>
      </trkpt>
      <trkpt lat="24.912411168820253" lon="118.53598198512864">
        <ele>9.474350405856967</ele>
        <time>2024-07-03T14:01:10Z</time>
      </trkpt>
      <trkpt lat="24.91269521183912" lon="118.53612168214944">
        <ele>9.104957178235054</ele>
        <time>2024-07-03T14:01:22Z</time>
      </trkpt>
      <trkpt lat="24.912978282670483" lon="118.53624890749558">
        <ele>11.098003540188074</ele>
        <time>2024-07-03T14:01:34Z</time>
      </trkpt>
      <trkpt lat="24.9130454235815" lon="118.53628051944825">
        <ele>11.316240825690329</ele>
        <time>2024-07-03T14:01:37Z</time>
      </trkpt>
      <trkpt lat="24.91318235004492" lon="118.53638349851812">
        <ele>12.112108621746302</ele>
        <time>2024-07-03T14:01:43Z</time>
      </trkpt>
      <trkpt lat="24.913290868865502" lon="118.53635860491829">
        <ele>12.661513195373118</ele>
        <time>2024-07-03T14:01:46Z</time>
      </trkpt>
      <trkpt lat="24.913477690560295" lon="118.5363944285309">
        <ele>12.87651524040848</ele>
        <time>2024-07-03T14:01:52Z</time>
      </trkpt>
      <trkpt lat="24.91366128075027" lon="118.5364476744142">
        <ele>13.060507305897772</ele>
        <time>2024-07-03T14:01:58Z</time>
      </trkpt>
      <trkpt lat="24.913894998164313" lon="118.5366320375767">
        <ele>13.406732915900648</ele>
        <time>2024-07-03T14:02:07Z</time>
      </trkpt>
      <trkpt lat="24.91406555164531" lon="118.53671850068284">
        <ele>12.872409839183092</ele>
        <time>2024-07-03T14:02:13Z</time>
      </trkpt>
      <trkpt lat="24.91433021462507" lon="118.53680781176845">
        <ele>12.375947004184127</ele>
        <time>2024-07-03T14:02:22Z</time>
      </trkpt>
      <trkpt lat="24.914549019163736" lon="118.5368980673779">
        <ele>13.090418837964535</ele>
        <time>2024-07-03T14:02:31Z</time>
      </trkpt>
      <trkpt lat="24.914621286962724" lon="118.53690979630049">
        <ele>13.177825077436864</ele>
        <time>2024-07-03T14:02:34Z</time>
      </trkpt>
      <trkpt lat="24.914690819641276" lon="118.53694928012331">
        <ele>13.942934744991362</ele>
        <time>2024-07-03T14:02:37Z</time>
      </trkpt>
      <trkpt lat="24.91479071466547" lon="118.53695047704811">
        <ele>14.53312936425209</ele>
        <time>2024-07-03T14:02:41Z</time>
      </trkpt>
      <trkpt lat="24.914895846411444" lon="118.53699289023791">
        <ele>14.968454448506236</ele>
        <time>2024-07-03T14:02:45Z</time>
      </trkpt>
      <trkpt lat="24.91511206003097" lon="118.53711769417308">
        <ele>15.151415736414492</ele>
        <time>2024-07-03T14:02:53Z</time>
      </trkpt>
      <trkpt lat="24.91516331480218" lon="118.5371709144877">
        <ele>14.755572017282248</ele>
        <time>2024-07-03T14:02:56Z</time>
      </trkpt>
      <trkpt lat="24.915283479723275" lon="118.53744547409286">
        <ele>14.774796060286462</ele>
        <time>2024-07-03T14:03:05Z</time>
      </trkpt>
      <trkpt lat="24.915426429895476" lon="118.53778610244123">
        <ele>15.319376896135509</ele>
        <time>2024-07-03T14:03:17Z</time>
      </trkpt>
      <trkpt lat="24.915541063143145" lon="118.53813410281543">
        <ele>15.06623796839267</ele>
        <time>2024-07-03T14:03:29Z</time>
      </trkpt>
      <trkpt lat="24.91567531285953" lon="118.53844801087114">
        <ele>16.094482521526515</ele>
        <time>2024-07-03T14:03:41Z</time>
      </trkpt>
      <trkpt lat="24.91578531208191" lon="118.53881428799208">
        <ele>15.984812529757619</ele>
        <time>2024-07-03T14:03:53Z</time>
      </trkpt>
      <trkpt lat="24.915858143267098" lon="118.53910560960202">
        <ele>14.01632713060826</ele>
        <time>2024-07-03T14:04:02Z</time>
      </trkpt>
      <trkpt lat="24.915901427847473" lon="118.53919002265201">
        <ele>14.570337056182325</ele>
        <time>2024-07-03T14:04:05Z</time>
      </trkpt>
      <trkpt lat="24.915985376411953" lon="118.53949920562664">
        <ele>13.462780107744038</ele>
        <time>2024-07-03T14:04:14Z</time>
      </trkpt>
      <trkpt lat="24.916066467957915" lon="118.53978812936808">
        <ele>12.763908275403082</ele>
        <time>2024-07-03T14:04:23Z</time>
      </trkpt>
      <trkpt lat="24.91615071131189" lon="118.54007760019715">
        <ele>12.595050860196352</ele>
        <time>2024-07-03T14:04:32Z</time>
      </trkpt>
      <trkpt lat="24.91619089154509" lon="118.54016947015961">
        <ele>12.109798166900873</ele>
        <time>2024-07-03T14:04:35Z</time>
      </trkpt>
      <trkpt lat="24.916260056846074" lon="118.54046108270109">
        <ele>11.787319839000702</ele>
        <time>2024-07-03T14:04:44Z</time>
      </trkpt>
      <trkpt lat="24.91629161806203" lon="118.5405895808406">
        <ele>12.256471675820649</ele>
        <time>2024-07-03T14:04:48Z</time>
      </trkpt>
      <trkpt lat="24.916406641467894" lon="118.54087443931938">
        <ele>12.665290824137628</ele>
        <time>2024-07-03T14:04:56Z</time>
      </trkpt>
      <trkpt lat="24.916471802189882" lon="118.54122376629093">
        <ele>12.801815609447658</ele>
        <time>2024-07-03T14:05:07Z</time>
      </trkpt>
      <trkpt lat="24.916571644606655" lon="118.54159459985158">
        <ele>12.987315226346254</ele>
        <time>2024-07-03T14:05:19Z</time>
      </trkpt>
      <trkpt lat="24.916595272494718" lon="118.54170856957758">
        <ele>12.805878726765513</ele>
        <time>2024-07-03T14:05:22Z</time>
      </trkpt>
      <trkpt lat="24.91657871826766" lon="118.54180251910506">
        <ele>12.130342341028154</ele>
        <time>2024-07-03T14:05:25Z</time>
      </trkpt>
      <trkpt lat="24.916536557505516" lon="118.54190112596561">
        <ele>11.863756332546473</ele>
        <time>2024-07-03T14:05:28Z</time>
      </trkpt>
      <trkpt lat="24.916237466984263" lon="118.54196343397079">
        <ele>12.324326001107693</ele>
        <time>2024-07-03T14:05:37Z</time>
      </trkpt>
      <trkpt lat="24.916123053109793" lon="118.5419870264703">
        <ele>12.188849937170744</ele>
        <time>2024-07-03T14:05:40Z</time>
      </trkpt>
      <trkpt lat="24.915853959369056" lon="118.54207339561955">
        <ele>12.2936110496521</ele>
        <time>2024-07-03T14:05:49Z</time>
      </trkpt>
      <trkpt lat="24.915567366361184" lon="118.54217426195446">
        <ele>11.915068164467812</ele>
        <time>2024-07-03T14:05:58Z</time>
      </trkpt>
      <trkpt lat="24.915303235836845" lon="118.54224483095122">
        <ele>11.647275456227362</ele>
        <time>2024-07-03T14:06:07Z</time>
      </trkpt>
      <trkpt lat="24.915156171582563" lon="118.54229945047177">
        <ele>11.896837686188519</ele>
        <time>2024-07-03T14:06:13Z</time>
      </trkpt>
      <trkpt lat="24.915074934124508" lon="118.5423071675449">
        <ele>11.748081906698644</ele>
        <time>2024-07-03T14:06:16Z</time>
      </trkpt>
      <trkpt lat="24.914787154452007" lon="118.54239499951271">
        <ele>11.048145983368158</ele>
        <time>2024-07-03T14:06:28Z</time>
      </trkpt>
      <trkpt lat="24.914631058237028" lon="118.54243829357856">
        <ele>10.373574162833393</ele>
        <time>2024-07-03T14:06:34Z</time>
      </trkpt>
      <trkpt lat="24.914375195980657" lon="118.54246820333348">
        <ele>10.050472439266741</ele>
        <time>2024-07-03T14:06:43Z</time>
      </trkpt>
      <trkpt lat="24.914080339939435" lon="118.54256282079058">
        <ele>10.184938340447843</ele>
        <time>2024-07-03T14:06:53Z</time>
      </trkpt>
      <trkpt lat="24.913862229953693" lon="118.5426580016685">
        <ele>9.463001024909317</ele>
        <time>2024-07-03T14:07:01Z</time>
      </trkpt>
      <trkpt lat="24.9135652168541" lon="118.54273365454716">
        <ele>8.444202300161123</ele>
        <time>2024-07-03T14:07:11Z</time>
      </trkpt>
      <trkpt lat="24.91328789779561" lon="118.54276463120694">
        <ele>8.21966004371643</ele>
        <time>2024-07-03T14:07:20Z</time>
      </trkpt>
      <trkpt lat="24.912948060731374" lon="118.54281993345236">
        <ele>7.80229729693383</ele>
        <time>2024-07-03T14:07:32Z</time>
      </trkpt>
      <trkpt lat="24.912650773000625" lon="118.54291496083441">
        <ele>8.925876427441835</ele>
        <time>2024-07-03T14:07:42Z</time>
      </trkpt>
      <trkpt lat="24.912330890775852" lon="118.54303380847979">
        <ele>8.835405476391315</ele>
        <time>2024-07-03T14:07:54Z</time>
      </trkpt>
      <trkpt lat="24.91215654103111" lon="118.54307106840216">
        <ele>8.39393413439393</ele>
        <time>2024-07-03T14:08:00Z</time>
      </trkpt>
      <trkpt lat="24.912083877220333" lon="118.54310471398126">
        <ele>7.963662704452872</ele>
        <time>2024-07-03T14:08:03Z</time>
      </trkpt>
      <trkpt lat="24.91173608264265" lon="118.54315796779592">
        <ele>8.305634699761868</ele>
        <time>2024-07-03T14:08:15Z</time>
      </trkpt>
      <trkpt lat="24.91164611622797" lon="118.54317304362942">
        <ele>9.154414288699627</ele>
        <time>2024-07-03T14:08:18Z</time>
      </trkpt>
      <trkpt lat="24.91156295087498" lon="118.5432160036221">
        <ele>9.384330464527011</ele>
        <time>2024-07-03T14:08:21Z</time>
      </trkpt>
      <trkpt lat="24.911226814355402" lon="118.5432694644521">
        <ele>8.593401200138032</ele>
        <time>2024-07-03T14:08:33Z</time>
      </trkpt>
      <trkpt lat="24.911137559709957" lon="118.54329943224782">
        <ele>8.546146992594004</ele>
        <time>2024-07-03T14:08:36Z</time>
      </trkpt>
      <trkpt lat="24.910837118119172" lon="118.54333572774809">
        <ele>8.041169453412294</ele>
        <time>2024-07-03T14:08:45Z</time>
      </trkpt>
      <trkpt lat="24.910647719144407" lon="118.54331428014524">
        <ele>7.394803307019174</ele>
        <time>2024-07-03T14:08:51Z</time>
      </trkpt>
      <trkpt lat="24.910368575323655" lon="118.54333448911713">
        <ele>8.314188402146101</ele>
        <time>2024-07-03T14:09:01Z</time>
      </trkpt>
      <trkpt lat="24.910284274934153" lon="118.54330886751485">
        <ele>8.535661580041051</ele>
        <time>2024-07-03T14:09:05Z</time>
      </trkpt>
      <trkpt lat="24.91029481196949" lon="118.54296526532607">
        <ele>7.280188419856131</ele>
        <time>2024-07-03T14:09:16Z</time>
      </trkpt>
      <trkpt lat="24.910345493312217" lon="118.54266591056361">
        <ele>7.4274845495820045</ele>
        <time>2024-07-03T14:09:25Z</time>
      </trkpt>
      <trkpt lat="24.910348097679005" lon="118.5425741489189">
        <ele>7.955740870907903</ele>
        <time>2024-07-03T14:09:28Z</time>
      </trkpt>
      <trkpt lat="24.910371108891106" lon="118.54248845840604">
        <ele>7.803151957690716</ele>
        <time>2024-07-03T14:09:31Z</time>
      </trkpt>
      <trkpt lat="24.910402718297373" lon="118.5421262138394">
        <ele>8.12655876390636</ele>
        <time>2024-07-03T14:09:43Z</time>
      </trkpt>
      <trkpt lat="24.910413566256132" lon="118.54202163400905">
        <ele>7.720161556266248</ele>
        <time>2024-07-03T14:09:46Z</time>
      </trkpt>
      <trkpt lat="24.91047626136973" lon="118.54194218448697">
        <ele>7.841896906495094</ele>
        <time>2024-07-03T14:09:49Z</time>
      </trkpt>
      <trkpt lat="24.910460787909603" lon="118.54186182993932">
        <ele>8.462978787720203</ele>
        <time>2024-07-03T14:09:52Z</time>
      </trkpt>
      <trkpt lat="24.910413002050927" lon="118.54176652702598">
        <ele>7.588745181448758</ele>
        <time>2024-07-03T14:09:55Z</time>
      </trkpt>
      <trkpt lat="24.910255057666433" lon="118.54156089969138">
        <ele>8.416965470649302</ele>
        <time>2024-07-03T14:10:01Z</time>
      </trkpt>
      <trkpt lat="24.910210062078146" lon="118.54134335046216">
        <ele>7.737226499244571</ele>
        <time>2024-07-03T14:10:07Z</time>
      </trkpt>
      <trkpt lat="24.91023610356796" lon="118.54114486412821">
        <ele>7.75499948952347</ele>
        <time>2024-07-03T14:10:13Z</time>
      </trkpt>
      <trkpt lat="24.910335131966868" lon="118.54095304334369">
        <ele>7.837108878418803</ele>
        <time>2024-07-03T14:10:19Z</time>
      </trkpt>
      <trkpt lat="24.91058005564376" lon="118.54078544522879">
        <ele>8.283347327262163</ele>
        <time>2024-07-03T14:10:25Z</time>
      </trkpt>
      <trkpt lat="24.910707764305823" lon="118.54059718260086">
        <ele>8.74392507225275</ele>
        <time>2024-07-03T14:10:31Z</time>
      </trkpt>
      <trkpt lat="24.910797657896605" lon="118.54039872570445">
        <ele>8.06655717547983</ele>
        <time>2024-07-03T14:10:37Z</time>
      </trkpt>
      <trkpt lat="24.91088459344163" lon="118.54011693426705">
        <ele>7.810635040514171</ele>
        <time>2024-07-03T14:10:46Z</time>
      </trkpt>
      <trkpt lat="24.910963665080487" lon="118.53985085197816">
        <ele>6.91387153044343</ele>
        <time>2024-07-03T14:10:55Z</time>
      </trkpt>
      <trkpt lat="24.91105334227836" lon="118.53968517997352">
        <ele>7.490701138973236</ele>
        <time>2024-07-03T14:11:01Z</time>
      </trkpt>
      <trkpt lat="24.911113815019217" lon="118.53937763260306">
        <ele>7.172100363299251</ele>
        <time>2024-07-03T14:11:12Z</time>
      </trkpt>
      <trkpt lat="24.911186788582537" lon="118.53908336766563">
        <ele>7.863580180332065</ele>
        <time>2024-07-03T14:11:22Z</time>
      </trkpt>
      <trkpt lat="24.911226473909093" lon="118.53890886413598">
        <ele>8.135553134605289</ele>
        <time>2024-07-03T14:11:28Z</time>
      </trkpt>
      <trkpt lat="24.911226706148927" lon="118.53882876331647">
        <ele>8.20140457432717</ele>
        <time>2024-07-03T14:11:31Z</time>
      </trkpt>
      <trkpt lat="24.91110561473663" lon="118.5387303244828">
        <ele>8.65293132700026</ele>
        <time>2024-07-03T14:11:37Z</time>
      </trkpt>
      <trkpt lat="24.910776267695773" lon="118.53860600809396">
        <ele>8.850572343915701</ele>
        <time>2024-07-03T14:11:49Z</time>
      </trkpt>
      <trkpt lat="24.91051575763767" lon="118.5385170821826">
        <ele>9.849517384544015</ele>
        <time>2024-07-03T14:11:58Z</time>
      </trkpt>
      <trkpt lat="24.910230134629504" lon="118.53844069684271">
        <ele>9.12761552259326</ele>
        <time>2024-07-03T14:12:07Z</time>
      </trkpt>
      <trkpt lat="24.910021479525103" lon="118.5384014793514">
        <ele>9.245198115706444</ele>
        <time>2024-07-03T14:12:13Z</time>
      </trkpt>
      <trkpt lat="24.90995517364446" lon="118.53837448186789">
        <ele>9.219109424389899</ele>
        <time>2024-07-03T14:12:16Z</time>
      </trkpt>
    </trkseg>
  </trk>
</gpx>