<?xml version="1.0" encoding="UTF-8"?>
<gpx xmlns="http://www.topografix.com/GPX/1/1" xmlns:gpxtpx="http://www.garmin.com/xmlschemas/TrackPointExtension/v1" xmlns:xsi="http://www.w3.org/2001/XMLSchema-instance" xsi:schemaLocation="http://www.topografix.com/GPX/1/1 http://www.topografix.com/GPX/1/1/gpx.xsd" version="1.1" creator="gpx.py -- https://github.com/tkrajina/gpxpy">
  <trk>
    <name>gpx from keep</name>
    <type>Run</type>
    <trkseg>
      <trkpt lat="24.918406227150935" lon="118.565325249124">
        <ele>24.5618896484375</ele>
        <time>2025-11-08T12:27:08Z</time>
      </trkpt>
      <trkpt lat="24.91847913943632" lon="118.56526315167706">
        <ele>21.33868408203125</ele>
        <time>2025-11-08T12:27:11Z</time>
      </trkpt>
      <trkpt lat="24.91861713759966" lon="118.56527716299897">
        <ele>19.8402099609375</ele>
        <time>2025-11-08T12:27:14Z</time>
      </trkpt>
      <trkpt lat="24.91888025793194" lon="118.56540333226748">
        <ele>20.33843994140625</ele>
        <time>2025-11-08T12:27:20Z</time>
      </trkpt>
      <trkpt lat="24.919004323856832" lon="118.56547042305894">
        <ele>20.25067138671875</ele>
        <time>2025-11-08T12:27:23Z</time>
      </trkpt>
      <trkpt lat="24.91910841097248" lon="118.56555253718764">
        <ele>19.83734130859375</ele>
        <time>2025-11-08T12:27:26Z</time>
      </trkpt>
      <trkpt lat="24.919220448477013" lon="118.56559559292553">
        <ele>21.10369873046875</ele>
        <time>2025-11-08T12:27:29Z</time>
      </trkpt>
      <trkpt lat="24.919329348994754" lon="118.56552748492635">
        <ele>20.16937255859375</ele>
        <time>2025-11-08T12:27:32Z</time>
      </trkpt>
      <trkpt lat="24.919509066216367" lon="118.56532016529269">
        <ele>20.20074462890625</ele>
        <time>2025-11-08T12:27:38Z</time>
      </trkpt>
      <trkpt lat="24.919572900825877" lon="118.5651949743641">
        <ele>20.035400390625</ele>
        <time>2025-11-08T12:27:41Z</time>
      </trkpt>
      <trkpt lat="24.919650559846684" lon="118.5649325756051">
        <ele>20.31982421875</ele>
        <time>2025-11-08T12:27:47Z</time>
      </trkpt>
      <trkpt lat="24.91965341616509" lon="118.56481940471592">
        <ele>22.03857421875</ele>
        <time>2025-11-08T12:27:50Z</time>
      </trkpt>
      <trkpt lat="24.91965341616509" lon="118.56481940471592">
        <ele>22.03857421875</ele>
        <time>2025-11-08T12:27:53Z</time>
      </trkpt>
      <trkpt lat="24.91962950961088" lon="118.56489051369273">
        <ele>23.05450439453125</ele>
        <time>2025-11-08T12:28:08Z</time>
      </trkpt>
      <trkpt lat="24.91951691871431" lon="118.56520299020097">
        <ele>20.7103271484375</ele>
        <time>2025-11-08T12:28:17Z</time>
      </trkpt>
      <trkpt lat="24.91949005889239" lon="118.56531215469552">
        <ele>22.0008544921875</ele>
        <time>2025-11-08T12:28:20Z</time>
      </trkpt>
      <trkpt lat="24.919445177433005" lon="118.56540229165418">
        <ele>23.9256591796875</ele>
        <time>2025-11-08T12:28:23Z</time>
      </trkpt>
      <trkpt lat="24.919222455615426" lon="118.56560160163953">
        <ele>25.427978515625</ele>
        <time>2025-11-08T12:28:35Z</time>
      </trkpt>
      <trkpt lat="24.919150494140176" lon="118.56562464054396">
        <ele>25.65093994140625</ele>
        <time>2025-11-08T12:28:38Z</time>
      </trkpt>
      <trkpt lat="24.919072465526998" lon="118.56559259874787">
        <ele>26.72747802734375</ele>
        <time>2025-11-08T12:28:41Z</time>
      </trkpt>
      <trkpt lat="24.91901634700624" lon="118.56549045185096">
        <ele>25.589599609375</ele>
        <time>2025-11-08T12:28:47Z</time>
      </trkpt>
      <trkpt lat="24.918955302150277" lon="118.56544739236179">
        <ele>24.65863037109375</ele>
        <time>2025-11-08T12:28:53Z</time>
      </trkpt>
      <trkpt lat="24.91865318503225" lon="118.56531922308554">
        <ele>24.2496337890625</ele>
        <time>2025-11-08T12:29:05Z</time>
      </trkpt>
      <trkpt lat="24.91851417953914" lon="118.56529920292259">
        <ele>24.41998291015625</ele>
        <time>2025-11-08T12:29:11Z</time>
      </trkpt>
      <trkpt lat="24.9184512083571" lon="118.5653152311184">
        <ele>25.63983154296875</ele>
        <time>2025-11-08T12:29:14Z</time>
      </trkpt>
      <trkpt lat="24.918397318181448" lon="118.56539735680617">
        <ele>27.1534423828125</ele>
        <time>2025-11-08T12:29:17Z</time>
      </trkpt>
      <trkpt lat="24.918399716612356" lon="118.56571983237487">
        <ele>22.783935546875</ele>
        <time>2025-11-08T12:29:29Z</time>
      </trkpt>
      <trkpt lat="24.918345161100127" lon="118.56607735769764">
        <ele>25.307861328125</ele>
        <time>2025-11-08T12:29:41Z</time>
      </trkpt>
      <trkpt lat="24.91820755160704" lon="118.56638481075598">
        <ele>28.476318359375</ele>
        <time>2025-11-08T12:29:53Z</time>
      </trkpt>
      <trkpt lat="24.918149634195114" lon="118.56644690378077">
        <ele>30.47967529296875</ele>
        <time>2025-11-08T12:29:56Z</time>
      </trkpt>
      <trkpt lat="24.918115718038855" lon="118.56651300067989">
        <ele>30.11572265625</ele>
        <time>2025-11-08T12:29:59Z</time>
      </trkpt>
      <trkpt lat="24.91814792469013" lon="118.56669025096562">
        <ele>28.8380126953125</ele>
        <time>2025-11-08T12:30:05Z</time>
      </trkpt>
      <trkpt lat="24.918160144585524" lon="118.56687751523722">
        <ele>27.14324951171875</ele>
        <time>2025-11-08T12:30:11Z</time>
      </trkpt>
      <trkpt lat="24.91818620935539" lon="118.56693559531368">
        <ele>27.30389404296875</ele>
        <time>2025-11-08T12:30:14Z</time>
      </trkpt>
    </trkseg>
  </trk>
</gpx>