<?xml version="1.0" encoding="UTF-8"?>
<gpx xmlns="http://www.topografix.com/GPX/1/1" xmlns:gpxtpx="http://www.garmin.com/xmlschemas/TrackPointExtension/v1" xmlns:xsi="http://www.w3.org/2001/XMLSchema-instance" xsi:schemaLocation="http://www.topografix.com/GPX/1/1 http://www.topografix.com/GPX/1/1/gpx.xsd" version="1.1" creator="gpx.py -- https://github.com/tkrajina/gpxpy">
  <trk>
    <name>gpx from keep</name>
    <type>Run</type>
    <trkseg>
      <trkpt lat="24.911255148746207" lon="118.53739526162275">
        <ele>10.446969331242144</ele>
        <time>2025-06-23T13:01:01Z</time>
      </trkpt>
      <trkpt lat="24.91112959613951" lon="118.53768974742908">
        <ele>10.064978810958564</ele>
        <time>2025-06-23T13:01:11Z</time>
      </trkpt>
      <trkpt lat="24.910953571412204" lon="118.53804160661139">
        <ele>9.952109531499445</ele>
        <time>2025-06-23T13:01:23Z</time>
      </trkpt>
      <trkpt lat="24.910790620671943" lon="118.53839318014734">
        <ele>9.943823429755867</ele>
        <time>2025-06-23T13:01:35Z</time>
      </trkpt>
      <trkpt lat="24.910758917421674" lon="118.53859710229712">
        <ele>9.771461295895278</ele>
        <time>2025-06-23T13:01:41Z</time>
      </trkpt>
      <trkpt lat="24.910826109931136" lon="118.53866802192762">
        <ele>9.777576650492847</ele>
        <time>2025-06-23T13:01:44Z</time>
      </trkpt>
      <trkpt lat="24.910902001614055" lon="118.53870859205293">
        <ele>9.53505204897374</ele>
        <time>2025-06-23T13:01:47Z</time>
      </trkpt>
      <trkpt lat="24.911075511350504" lon="118.53874978976803">
        <ele>9.158697543665767</ele>
        <time>2025-06-23T13:01:53Z</time>
      </trkpt>
      <trkpt lat="24.91114796221248" lon="118.53878683470417">
        <ele>9.619554480537772</ele>
        <time>2025-06-23T13:01:56Z</time>
      </trkpt>
      <trkpt lat="24.91115800660922" lon="118.5388915189723">
        <ele>9.033907493576407</ele>
        <time>2025-06-23T13:01:59Z</time>
      </trkpt>
      <trkpt lat="24.911086981483553" lon="118.53918279820633">
        <ele>7.86263925395906</ele>
        <time>2025-06-23T13:02:08Z</time>
      </trkpt>
      <trkpt lat="24.91099890112005" lon="118.53954638046538">
        <ele>8.004449526779354</ele>
        <time>2025-06-23T13:02:20Z</time>
      </trkpt>
      <trkpt lat="24.910891658028792" lon="118.5399046700376">
        <ele>7.661212085746229</ele>
        <time>2025-06-23T13:02:32Z</time>
      </trkpt>
      <trkpt lat="24.910854579395135" lon="118.54008574882175">
        <ele>7.813931944780052</ele>
        <time>2025-06-23T13:02:38Z</time>
      </trkpt>
      <trkpt lat="24.910754050548885" lon="118.54043431897166">
        <ele>6.976391228847206</ele>
        <time>2025-06-23T13:02:50Z</time>
      </trkpt>
      <trkpt lat="24.91070026455129" lon="118.54073301094625">
        <ele>7.235483472235501</ele>
        <time>2025-06-23T13:03:00Z</time>
      </trkpt>
      <trkpt lat="24.91062680231283" lon="118.54109713981613">
        <ele>7.447247629053891</ele>
        <time>2025-06-23T13:03:12Z</time>
      </trkpt>
      <trkpt lat="24.91059627532961" lon="118.54118715386203">
        <ele>7.222897298634052</ele>
        <time>2025-06-23T13:03:15Z</time>
      </trkpt>
      <trkpt lat="24.910479237330904" lon="118.54138074108258">
        <ele>7.195424015633762</ele>
        <time>2025-06-23T13:03:21Z</time>
      </trkpt>
      <trkpt lat="24.91041696976066" lon="118.54158970443021">
        <ele>7.274592694826424</ele>
        <time>2025-06-23T13:03:27Z</time>
      </trkpt>
      <trkpt lat="24.91028702317665" lon="118.5417842244623">
        <ele>7.720478708855808</ele>
        <time>2025-06-23T13:03:33Z</time>
      </trkpt>
      <trkpt lat="24.910249466645702" lon="118.5418708521654">
        <ele>7.624257830902934</ele>
        <time>2025-06-23T13:03:36Z</time>
      </trkpt>
      <trkpt lat="24.910312779280034" lon="118.54204641315806">
        <ele>6.862067172303796</ele>
        <time>2025-06-23T13:03:42Z</time>
      </trkpt>
      <trkpt lat="24.910318965546303" lon="118.54234476917956">
        <ele>7.675540284253657</ele>
        <time>2025-06-23T13:03:51Z</time>
      </trkpt>
      <trkpt lat="24.910234462196858" lon="118.54262223044363">
        <ele>8.006925291381776</ele>
        <time>2025-06-23T13:04:00Z</time>
      </trkpt>
      <trkpt lat="24.910211829963682" lon="118.54282543127924">
        <ele>8.363515350967646</ele>
        <time>2025-06-23T13:04:06Z</time>
      </trkpt>
      <trkpt lat="24.910169279492354" lon="118.5430016581989">
        <ele>7.704613005742431</ele>
        <time>2025-06-23T13:04:12Z</time>
      </trkpt>
      <trkpt lat="24.910203642248913" lon="118.54318425506855">
        <ele>7.561795120127499</ele>
        <time>2025-06-23T13:04:18Z</time>
      </trkpt>
      <trkpt lat="24.91019590362481" lon="118.54327271609615">
        <ele>7.665924936532974</ele>
        <time>2025-06-23T13:04:21Z</time>
      </trkpt>
      <trkpt lat="24.910209043859783" lon="118.54335236293741">
        <ele>7.818769481964409</ele>
        <time>2025-06-23T13:04:24Z</time>
      </trkpt>
      <trkpt lat="24.910276855076642" lon="118.543388783173">
        <ele>7.975314313545823</ele>
        <time>2025-06-23T13:04:27Z</time>
      </trkpt>
      <trkpt lat="24.910606683298383" lon="118.54332299954552">
        <ele>7.6636604350060225</ele>
        <time>2025-06-23T13:04:39Z</time>
      </trkpt>
      <trkpt lat="24.91071179268912" lon="118.54330790183546">
        <ele>7.79242866486311</ele>
        <time>2025-06-23T13:04:42Z</time>
      </trkpt>
      <trkpt lat="24.91074786826488" lon="118.54335392857851">
        <ele>8.265757467597723</ele>
        <time>2025-06-23T13:04:45Z</time>
      </trkpt>
      <trkpt lat="24.91076184558237" lon="118.54344753091193">
        <ele>7.312221009284258</ele>
        <time>2025-06-23T13:04:48Z</time>
      </trkpt>
      <trkpt lat="24.911020374096918" lon="118.5436780466217">
        <ele>8.860685055144131</ele>
        <time>2025-06-23T13:05:00Z</time>
      </trkpt>
      <trkpt lat="24.911116373843637" lon="118.5436739727295">
        <ele>8.011615523137152</ele>
        <time>2025-06-23T13:05:04Z</time>
      </trkpt>
      <trkpt lat="24.911208278285446" lon="118.54364379264426">
        <ele>8.102974431589246</ele>
        <time>2025-06-23T13:05:08Z</time>
      </trkpt>
      <trkpt lat="24.911505914996383" lon="118.54360270164243">
        <ele>7.610017441213131</ele>
        <time>2025-06-23T13:05:19Z</time>
      </trkpt>
      <trkpt lat="24.91158920143557" lon="118.54356750286168">
        <ele>7.654520806856453</ele>
        <time>2025-06-23T13:05:22Z</time>
      </trkpt>
      <trkpt lat="24.911869204464978" lon="118.54354327509238">
        <ele>7.335061172023416</ele>
        <time>2025-06-23T13:05:31Z</time>
      </trkpt>
      <trkpt lat="24.912054474765487" lon="118.54348076101346">
        <ele>7.548794011585414</ele>
        <time>2025-06-23T13:05:37Z</time>
      </trkpt>
      <trkpt lat="24.912326486788572" lon="118.54339545964942">
        <ele>7.694099756889045</ele>
        <time>2025-06-23T13:05:46Z</time>
      </trkpt>
      <trkpt lat="24.91260030990218" lon="118.54333334618214">
        <ele>7.224365269765258</ele>
        <time>2025-06-23T13:05:55Z</time>
      </trkpt>
      <trkpt lat="24.912887115582578" lon="118.54328858441913">
        <ele>7.442384070716798</ele>
        <time>2025-06-23T13:06:04Z</time>
      </trkpt>
      <trkpt lat="24.913218797884195" lon="118.54317952336528">
        <ele>7.475634445436299</ele>
        <time>2025-06-23T13:06:16Z</time>
      </trkpt>
      <trkpt lat="24.913490894684358" lon="118.54312220658706">
        <ele>7.306551384739578</ele>
        <time>2025-06-23T13:06:25Z</time>
      </trkpt>
      <trkpt lat="24.913782321510986" lon="118.54304751384385">
        <ele>7.704366127029061</ele>
        <time>2025-06-23T13:06:34Z</time>
      </trkpt>
      <trkpt lat="24.913882234600116" lon="118.54305694326834">
        <ele>7.302583853714168</ele>
        <time>2025-06-23T13:06:37Z</time>
      </trkpt>
      <trkpt lat="24.91405545063822" lon="118.5429866615883">
        <ele>7.96869286801666</ele>
        <time>2025-06-23T13:06:43Z</time>
      </trkpt>
      <trkpt lat="24.91416077941749" lon="118.54289164088085">
        <ele>8.752536412328482</ele>
        <time>2025-06-23T13:06:49Z</time>
      </trkpt>
      <trkpt lat="24.914234520090613" lon="118.54286008901774">
        <ele>9.010743023827672</ele>
        <time>2025-06-23T13:06:52Z</time>
      </trkpt>
      <trkpt lat="24.914497864141815" lon="118.54286847060847">
        <ele>9.842434243299067</ele>
        <time>2025-06-23T13:07:01Z</time>
      </trkpt>
      <trkpt lat="24.91468662520286" lon="118.5428130373311">
        <ele>10.029219926334918</ele>
        <time>2025-06-23T13:07:07Z</time>
      </trkpt>
      <trkpt lat="24.91505111092376" lon="118.54275942927488">
        <ele>10.393378058448434</ele>
        <time>2025-06-23T13:07:19Z</time>
      </trkpt>
      <trkpt lat="24.915185076240817" lon="118.54271933493875">
        <ele>10.569889601320028</ele>
        <time>2025-06-23T13:07:23Z</time>
      </trkpt>
      <trkpt lat="24.915408999378233" lon="118.54260501183121">
        <ele>12.119064824655652</ele>
        <time>2025-06-23T13:07:31Z</time>
      </trkpt>
      <trkpt lat="24.915676531153817" lon="118.54255837956136">
        <ele>12.548213024623692</ele>
        <time>2025-06-23T13:07:40Z</time>
      </trkpt>
      <trkpt lat="24.91600936665365" lon="118.54247932213394">
        <ele>12.125591495074332</ele>
        <time>2025-06-23T13:07:52Z</time>
      </trkpt>
      <trkpt lat="24.916332296114618" lon="118.54239609477935">
        <ele>12.459357763640583</ele>
        <time>2025-06-23T13:08:07Z</time>
      </trkpt>
      <trkpt lat="24.91650889541686" lon="118.54242634112524">
        <ele>12.356967019848526</ele>
        <time>2025-06-23T13:08:13Z</time>
      </trkpt>
      <trkpt lat="24.916590542074964" lon="118.54234280282058">
        <ele>12.801112107932568</ele>
        <time>2025-06-23T13:08:48Z</time>
      </trkpt>
      <trkpt lat="24.916931409782276" lon="118.54228960377301">
        <ele>11.989272912032902</ele>
        <time>2025-06-23T13:09:03Z</time>
      </trkpt>
      <trkpt lat="24.917201084988122" lon="118.54219426874762">
        <ele>10.10600508749485</ele>
        <time>2025-06-23T13:09:12Z</time>
      </trkpt>
      <trkpt lat="24.917305947457383" lon="118.54217795646058">
        <ele>9.949787076562643</ele>
        <time>2025-06-23T13:09:15Z</time>
      </trkpt>
      <trkpt lat="24.917399291099002" lon="118.54218358612074">
        <ele>10.482817613519728</ele>
        <time>2025-06-23T13:09:18Z</time>
      </trkpt>
      <trkpt lat="24.91768571093161" lon="118.5421508751605">
        <ele>11.677968608215451</ele>
        <time>2025-06-23T13:09:27Z</time>
      </trkpt>
      <trkpt lat="24.91794899660855" lon="118.54209203409756">
        <ele>12.286037551239133</ele>
        <time>2025-06-23T13:09:36Z</time>
      </trkpt>
      <trkpt lat="24.918237935295448" lon="118.54210894282737">
        <ele>12.695377125404775</ele>
        <time>2025-06-23T13:09:45Z</time>
      </trkpt>
      <trkpt lat="24.918513596381466" lon="118.54211094454497">
        <ele>12.945609394460917</ele>
        <time>2025-06-23T13:09:54Z</time>
      </trkpt>
      <trkpt lat="24.918796436807686" lon="118.54210964834007">
        <ele>13.790026095695794</ele>
        <time>2025-06-23T13:10:03Z</time>
      </trkpt>
      <trkpt lat="24.91898272244927" lon="118.54211077720764">
        <ele>14.718902093358338</ele>
        <time>2025-06-23T13:10:09Z</time>
      </trkpt>
      <trkpt lat="24.919292465744416" lon="118.54214319233847">
        <ele>14.814724172465503</ele>
        <time>2025-06-23T13:10:18Z</time>
      </trkpt>
      <trkpt lat="24.919613066463967" lon="118.54214910118378">
        <ele>14.923269784078002</ele>
        <time>2025-06-23T13:10:30Z</time>
      </trkpt>
      <trkpt lat="24.91995289773314" lon="118.54215881010217">
        <ele>13.851427104324102</ele>
        <time>2025-06-23T13:10:42Z</time>
      </trkpt>
      <trkpt lat="24.92028083819713" lon="118.54217173255539">
        <ele>12.21602864190936</ele>
        <time>2025-06-23T13:10:54Z</time>
      </trkpt>
      <trkpt lat="24.920550073442158" lon="118.54217949266256">
        <ele>12.826081625185907</ele>
        <time>2025-06-23T13:11:03Z</time>
      </trkpt>
      <trkpt lat="24.920905587068262" lon="118.54215857625123">
        <ele>13.260939157567918</ele>
        <time>2025-06-23T13:11:15Z</time>
      </trkpt>
      <trkpt lat="24.921233213379935" lon="118.54215746095637">
        <ele>15.047931370325387</ele>
        <time>2025-06-23T13:11:27Z</time>
      </trkpt>
      <trkpt lat="24.921582716053237" lon="118.54216542893222">
        <ele>15.822619460523129</ele>
        <time>2025-06-23T13:11:39Z</time>
      </trkpt>
      <trkpt lat="24.92175425949601" lon="118.54216909650252">
        <ele>16.543914115987718</ele>
        <time>2025-06-23T13:11:45Z</time>
      </trkpt>
      <trkpt lat="24.921922644680663" lon="118.54221165458458">
        <ele>17.5615968182683</ele>
        <time>2025-06-23T13:11:51Z</time>
      </trkpt>
      <trkpt lat="24.921997518082904" lon="118.54218891891098">
        <ele>17.108034251257777</ele>
        <time>2025-06-23T13:11:54Z</time>
      </trkpt>
      <trkpt lat="24.922107232167395" lon="118.54224396034456">
        <ele>18.04810475744307</ele>
        <time>2025-06-23T13:12:00Z</time>
      </trkpt>
      <trkpt lat="24.922311540165772" lon="118.54226353823827">
        <ele>19.358350477181375</ele>
        <time>2025-06-23T13:12:06Z</time>
      </trkpt>
      <trkpt lat="24.92258332310747" lon="118.54233896263408">
        <ele>20.271238876506686</ele>
        <time>2025-06-23T13:12:15Z</time>
      </trkpt>
      <trkpt lat="24.922843929734952" lon="118.54242470425658">
        <ele>21.81040882691741</ele>
        <time>2025-06-23T13:12:24Z</time>
      </trkpt>
      <trkpt lat="24.92310532055774" lon="118.54252391154822">
        <ele>22.402873039245605</ele>
        <time>2025-06-23T13:12:33Z</time>
      </trkpt>
      <trkpt lat="24.923436932463126" lon="118.54264514944822">
        <ele>23.047699418850243</ele>
        <time>2025-06-23T13:12:45Z</time>
      </trkpt>
      <trkpt lat="24.923752546612654" lon="118.54279983503194">
        <ele>25.085950651206076</ele>
        <time>2025-06-23T13:12:57Z</time>
      </trkpt>
      <trkpt lat="24.924061251811224" lon="118.54299362343522">
        <ele>27.91141201928258</ele>
        <time>2025-06-23T13:13:09Z</time>
      </trkpt>
      <trkpt lat="24.924295426350106" lon="118.54315467203136">
        <ele>28.20644706301391</ele>
        <time>2025-06-23T13:13:18Z</time>
      </trkpt>
      <trkpt lat="24.924587994943575" lon="118.54338824699167">
        <ele>26.250927372835577</ele>
        <time>2025-06-23T13:13:30Z</time>
      </trkpt>
      <trkpt lat="24.92473497227621" lon="118.5435123464025">
        <ele>25.47843756247312</ele>
        <time>2025-06-23T13:13:36Z</time>
      </trkpt>
      <trkpt lat="24.92494745441766" lon="118.54371089417755">
        <ele>23.534977064467967</ele>
        <time>2025-06-23T13:13:45Z</time>
      </trkpt>
      <trkpt lat="24.925142645048997" lon="118.54392378320226">
        <ele>21.799569823779166</ele>
        <time>2025-06-23T13:13:54Z</time>
      </trkpt>
      <trkpt lat="24.92533221696216" lon="118.54414580948915">
        <ele>20.286097339354455</ele>
        <time>2025-06-23T13:14:03Z</time>
      </trkpt>
      <trkpt lat="24.925558606041207" lon="118.54446504630643">
        <ele>18.301751859486103</ele>
        <time>2025-06-23T13:14:15Z</time>
      </trkpt>
      <trkpt lat="24.925723532399882" lon="118.54471357763099">
        <ele>16.446487409994006</ele>
        <time>2025-06-23T13:14:24Z</time>
      </trkpt>
      <trkpt lat="24.925934657923747" lon="118.54503506005788">
        <ele>16.150330500677228</ele>
        <time>2025-06-23T13:14:36Z</time>
      </trkpt>
      <trkpt lat="24.926138241189037" lon="118.54536982072204">
        <ele>14.624804742634296</ele>
        <time>2025-06-23T13:14:48Z</time>
      </trkpt>
      <trkpt lat="24.926302025600496" lon="118.54561772611684">
        <ele>14.135256266221404</ele>
        <time>2025-06-23T13:14:57Z</time>
      </trkpt>
      <trkpt lat="24.92646158924873" lon="118.54587757369808">
        <ele>12.57135804463178</ele>
        <time>2025-06-23T13:15:06Z</time>
      </trkpt>
      <trkpt lat="24.926610473271207" lon="118.54613434479411">
        <ele>11.714599249884486</ele>
        <time>2025-06-23T13:15:15Z</time>
      </trkpt>
      <trkpt lat="24.92675574950637" lon="118.54639869112447">
        <ele>11.904364335350692</ele>
        <time>2025-06-23T13:15:24Z</time>
      </trkpt>
      <trkpt lat="24.92682373100324" lon="118.54668588001094">
        <ele>11.22591935005039</ele>
        <time>2025-06-23T13:15:33Z</time>
      </trkpt>
      <trkpt lat="24.926868389077907" lon="118.54673075648962">
        <ele>11.280894215218723</ele>
        <time>2025-06-23T13:15:36Z</time>
      </trkpt>
      <trkpt lat="24.926932894413312" lon="118.54668800429717">
        <ele>10.45729994494468</ele>
        <time>2025-06-23T13:15:39Z</time>
      </trkpt>
      <trkpt lat="24.927006224893834" lon="118.54668195584456">
        <ele>10.64487915020436</ele>
        <time>2025-06-23T13:15:42Z</time>
      </trkpt>
      <trkpt lat="24.92707372078344" lon="118.5466403865857">
        <ele>10.704674155451357</ele>
        <time>2025-06-23T13:15:45Z</time>
      </trkpt>
      <trkpt lat="24.92709310116629" lon="118.54658314384785">
        <ele>11.14230976626277</ele>
        <time>2025-06-23T13:15:48Z</time>
      </trkpt>
      <trkpt lat="24.927103137696744" lon="118.54659782049694">
        <ele>10.68106857035309</ele>
        <time>2025-06-23T13:15:54Z</time>
      </trkpt>
      <trkpt lat="24.927144839913414" lon="118.54655539659727">
        <ele>10.934005314484239</ele>
        <time>2025-06-23T13:15:57Z</time>
      </trkpt>
      <trkpt lat="24.927211067786555" lon="118.54655425791182">
        <ele>10.086468625813723</ele>
        <time>2025-06-23T13:16:00Z</time>
      </trkpt>
      <trkpt lat="24.927275760827403" lon="118.54652776219326">
        <ele>10.39266435150057</ele>
        <time>2025-06-23T13:16:03Z</time>
      </trkpt>
      <trkpt lat="24.92728783747742" lon="118.54643556385554">
        <ele>9.98795015271753</ele>
        <time>2025-06-23T13:16:06Z</time>
      </trkpt>
      <trkpt lat="24.927202161657576" lon="118.54638370747308">
        <ele>9.735323563218117</ele>
        <time>2025-06-23T13:16:09Z</time>
      </trkpt>
      <trkpt lat="24.92708883110875" lon="118.54624003552263">
        <ele>11.814057322219014</ele>
        <time>2025-06-23T13:16:15Z</time>
      </trkpt>
      <trkpt lat="24.926908459532054" lon="118.54590094985767">
        <ele>12.284753244370222</ele>
        <time>2025-06-23T13:16:27Z</time>
      </trkpt>
      <trkpt lat="24.92675829043269" lon="118.54564799376797">
        <ele>13.192919137887657</ele>
        <time>2025-06-23T13:16:36Z</time>
      </trkpt>
      <trkpt lat="24.926676422344077" lon="118.54548578502892">
        <ele>14.979613171890378</ele>
        <time>2025-06-23T13:16:42Z</time>
      </trkpt>
      <trkpt lat="24.926475635874073" lon="118.5451780646869">
        <ele>14.913237672299147</ele>
        <time>2025-06-23T13:16:54Z</time>
      </trkpt>
      <trkpt lat="24.926282577475533" lon="118.54485716456051">
        <ele>17.119635458104312</ele>
        <time>2025-06-23T13:17:06Z</time>
      </trkpt>
      <trkpt lat="24.926088733015806" lon="118.54454077598105">
        <ele>17.568918619304895</ele>
        <time>2025-06-23T13:17:18Z</time>
      </trkpt>
      <trkpt lat="24.92605061033456" lon="118.54445841554623">
        <ele>17.309849967248738</ele>
        <time>2025-06-23T13:17:21Z</time>
      </trkpt>
      <trkpt lat="24.9258339242059" lon="118.54415429318541">
        <ele>18.919630623422563</ele>
        <time>2025-06-23T13:17:33Z</time>
      </trkpt>
      <trkpt lat="24.92565720834307" lon="118.54392799986763">
        <ele>20.266068040393293</ele>
        <time>2025-06-23T13:17:42Z</time>
      </trkpt>
      <trkpt lat="24.925410807630062" lon="118.54364466693607">
        <ele>23.90014170203358</ele>
        <time>2025-06-23T13:17:54Z</time>
      </trkpt>
      <trkpt lat="24.92516705220011" lon="118.54337066331902">
        <ele>25.410667843185365</ele>
        <time>2025-06-23T13:18:06Z</time>
      </trkpt>
      <trkpt lat="24.924906260810452" lon="118.54312586479077">
        <ele>29.073450540192425</ele>
        <time>2025-06-23T13:18:18Z</time>
      </trkpt>
      <trkpt lat="24.92460432201188" lon="118.54293093984049">
        <ele>31.20004007872194</ele>
        <time>2025-06-23T13:18:30Z</time>
      </trkpt>
      <trkpt lat="24.92433879612191" lon="118.54273588664694">
        <ele>31.456037238240242</ele>
        <time>2025-06-23T13:18:39Z</time>
      </trkpt>
      <trkpt lat="24.924049723739333" lon="118.54254477189347">
        <ele>31.131231606006622</ele>
        <time>2025-06-23T13:18:51Z</time>
      </trkpt>
      <trkpt lat="24.92374780681785" lon="118.54236749835435">
        <ele>28.897351284511387</ele>
        <time>2025-06-23T13:19:03Z</time>
      </trkpt>
      <trkpt lat="24.923496076355416" lon="118.54224898054404">
        <ele>26.005762013606727</ele>
        <time>2025-06-23T13:19:12Z</time>
      </trkpt>
      <trkpt lat="24.923232529635264" lon="118.54213302966993">
        <ele>22.752091256901622</ele>
        <time>2025-06-23T13:19:21Z</time>
      </trkpt>
      <trkpt lat="24.922892757832344" lon="118.54199741082829">
        <ele>21.000682782381773</ele>
        <time>2025-06-23T13:19:33Z</time>
      </trkpt>
      <trkpt lat="24.92262516946179" lon="118.5419085209041">
        <ele>20.357800574973226</ele>
        <time>2025-06-23T13:19:42Z</time>
      </trkpt>
      <trkpt lat="24.922451265912226" lon="118.54184461227686">
        <ele>20.06153725553304</ele>
        <time>2025-06-23T13:19:48Z</time>
      </trkpt>
      <trkpt lat="24.92217123994026" lon="118.54179012782853">
        <ele>19.33012735284865</ele>
        <time>2025-06-23T13:19:57Z</time>
      </trkpt>
      <trkpt lat="24.9218822203762" lon="118.54175664884463">
        <ele>17.654269262216985</ele>
        <time>2025-06-23T13:20:06Z</time>
      </trkpt>
      <trkpt lat="24.9216013574863" lon="118.5417042459584">
        <ele>17.33141757082194</ele>
        <time>2025-06-23T13:20:15Z</time>
      </trkpt>
      <trkpt lat="24.92139347530771" lon="118.54169807348943">
        <ele>16.752998005598783</ele>
        <time>2025-06-23T13:20:21Z</time>
      </trkpt>
      <trkpt lat="24.92103868734696" lon="118.54173223701055">
        <ele>15.313382420688868</ele>
        <time>2025-06-23T13:20:33Z</time>
      </trkpt>
      <trkpt lat="24.92084472246987" lon="118.54174015299964">
        <ele>14.41556042060256</ele>
        <time>2025-06-23T13:20:39Z</time>
      </trkpt>
      <trkpt lat="24.920683731001276" lon="118.54168563731535">
        <ele>14.585647710599005</ele>
        <time>2025-06-23T13:20:45Z</time>
      </trkpt>
      <trkpt lat="24.920683731001276" lon="118.54168563731535">
        <ele>14.585647710599005</ele>
        <time>2025-06-23T13:20:45Z</time>
      </trkpt>
      <trkpt lat="24.920606465920745" lon="118.54157929185239">
        <ele>15.059714402072132</ele>
        <time>2025-06-23T13:20:57Z</time>
      </trkpt>
      <trkpt lat="24.920564084451225" lon="118.54155977355519">
        <ele>14.342750865966082</ele>
        <time>2025-06-23T13:21:00Z</time>
      </trkpt>
      <trkpt lat="24.920459560063417" lon="118.54158002290485">
        <ele>14.616422309540212</ele>
        <time>2025-06-23T13:21:03Z</time>
      </trkpt>
      <trkpt lat="24.920291016299906" lon="118.54167399925478">
        <ele>14.101921937428415</ele>
        <time>2025-06-23T13:21:09Z</time>
      </trkpt>
      <trkpt lat="24.919942176558646" lon="118.54170670912829">
        <ele>13.865042778663337</ele>
        <time>2025-06-23T13:21:21Z</time>
      </trkpt>
      <trkpt lat="24.91964095849711" lon="118.541735212468">
        <ele>14.416207532398403</ele>
        <time>2025-06-23T13:21:30Z</time>
      </trkpt>
      <trkpt lat="24.919362166165627" lon="118.54176168329965">
        <ele>14.712259534746408</ele>
        <time>2025-06-23T13:21:39Z</time>
      </trkpt>
      <trkpt lat="24.919066732177996" lon="118.54175239636652">
        <ele>14.452037706971169</ele>
        <time>2025-06-23T13:21:48Z</time>
      </trkpt>
      <trkpt lat="24.918975556332327" lon="118.54175758787105">
        <ele>14.3394336681813</ele>
        <time>2025-06-23T13:21:51Z</time>
      </trkpt>
      <trkpt lat="24.91868749264835" lon="118.54170977459763">
        <ele>12.45566996280104</ele>
        <time>2025-06-23T13:22:00Z</time>
      </trkpt>
      <trkpt lat="24.918391327777528" lon="118.54171872593552">
        <ele>11.400122881866992</ele>
        <time>2025-06-23T13:22:09Z</time>
      </trkpt>
      <trkpt lat="24.918110863978672" lon="118.54172684532558">
        <ele>10.300507353618741</ele>
        <time>2025-06-23T13:22:18Z</time>
      </trkpt>
      <trkpt lat="24.917833769173935" lon="118.54171577256022">
        <ele>9.806779018603265</ele>
        <time>2025-06-23T13:22:27Z</time>
      </trkpt>
      <trkpt lat="24.91752466671205" lon="118.54172246896745">
        <ele>9.802724179811776</ele>
        <time>2025-06-23T13:22:36Z</time>
      </trkpt>
      <trkpt lat="24.91721936093376" lon="118.54174843367615">
        <ele>9.547731024213135</ele>
        <time>2025-06-23T13:22:45Z</time>
      </trkpt>
      <trkpt lat="24.917021251314612" lon="118.5417722917468">
        <ele>9.774296374991536</ele>
        <time>2025-06-23T13:22:51Z</time>
      </trkpt>
      <trkpt lat="24.916796982413178" lon="118.54174178089872">
        <ele>9.646021557040513</ele>
        <time>2025-06-23T13:22:57Z</time>
      </trkpt>
      <trkpt lat="24.91657766543134" lon="118.54175585871698">
        <ele>11.641767624765635</ele>
        <time>2025-06-23T13:23:03Z</time>
      </trkpt>
      <trkpt lat="24.91627937566619" lon="118.54186632308384">
        <ele>11.612773054279387</ele>
        <time>2025-06-23T13:23:12Z</time>
      </trkpt>
      <trkpt lat="24.916102267663415" lon="118.54192379176395">
        <ele>12.294774058274925</ele>
        <time>2025-06-23T13:23:18Z</time>
      </trkpt>
      <trkpt lat="24.91601328708902" lon="118.54197456956989">
        <ele>12.248330391012132</ele>
        <time>2025-06-23T13:23:21Z</time>
      </trkpt>
      <trkpt lat="24.915731471931128" lon="118.5420563324972">
        <ele>11.969127682037652</ele>
        <time>2025-06-23T13:23:30Z</time>
      </trkpt>
      <trkpt lat="24.91544743317614" lon="118.54218474879755">
        <ele>12.611756600439548</ele>
        <time>2025-06-23T13:23:39Z</time>
      </trkpt>
      <trkpt lat="24.915354505377497" lon="118.54223564898886">
        <ele>12.58592385519296</ele>
        <time>2025-06-23T13:23:42Z</time>
      </trkpt>
      <trkpt lat="24.91516130493696" lon="118.54224341093416">
        <ele>12.51377649512142</ele>
        <time>2025-06-23T13:23:48Z</time>
      </trkpt>
      <trkpt lat="24.914872093017856" lon="118.5423988561169">
        <ele>11.690037777647376</ele>
        <time>2025-06-23T13:23:57Z</time>
      </trkpt>
      <trkpt lat="24.914788293330574" lon="118.5424520067419">
        <ele>11.20478243753314</ele>
        <time>2025-06-23T13:24:00Z</time>
      </trkpt>
      <trkpt lat="24.914617121042838" lon="118.5424662191955">
        <ele>10.512847847305238</ele>
        <time>2025-06-23T13:24:06Z</time>
      </trkpt>
      <trkpt lat="24.914442596746973" lon="118.54246449498577">
        <ele>10.405406809411943</ele>
        <time>2025-06-23T13:24:12Z</time>
      </trkpt>
      <trkpt lat="24.914170275555534" lon="118.54255635766991">
        <ele>9.738054119981825</ele>
        <time>2025-06-23T13:24:21Z</time>
      </trkpt>
      <trkpt lat="24.913894764743656" lon="118.54262724557567">
        <ele>9.458557193167508</ele>
        <time>2025-06-23T13:24:30Z</time>
      </trkpt>
      <trkpt lat="24.913598750597387" lon="118.54273008150987">
        <ele>8.89980630390346</ele>
        <time>2025-06-23T13:24:39Z</time>
      </trkpt>
      <trkpt lat="24.913411881039572" lon="118.54278600899104">
        <ele>8.402152994647622</ele>
        <time>2025-06-23T13:24:45Z</time>
      </trkpt>
      <trkpt lat="24.913313139843186" lon="118.54278575625324">
        <ele>8.478972814045846</ele>
        <time>2025-06-23T13:24:48Z</time>
      </trkpt>
      <trkpt lat="24.91302461185751" lon="118.54285371033228">
        <ele>7.508505016565323</ele>
        <time>2025-06-23T13:24:57Z</time>
      </trkpt>
      <trkpt lat="24.912749010111526" lon="118.54290641566037">
        <ele>8.917720278725028</ele>
        <time>2025-06-23T13:25:06Z</time>
      </trkpt>
      <trkpt lat="24.912465052880297" lon="118.54300259959851">
        <ele>8.426863204687834</ele>
        <time>2025-06-23T13:25:15Z</time>
      </trkpt>
      <trkpt lat="24.912365828387312" lon="118.54304088688697">
        <ele>7.859350726939738</ele>
        <time>2025-06-23T13:25:18Z</time>
      </trkpt>
      <trkpt lat="24.9122643586377" lon="118.54305796019929">
        <ele>7.833994013257325</ele>
        <time>2025-06-23T13:25:21Z</time>
      </trkpt>
      <trkpt lat="24.911967229606912" lon="118.5431629149862">
        <ele>7.587407510727644</ele>
        <time>2025-06-23T13:25:30Z</time>
      </trkpt>
      <trkpt lat="24.911772652711075" lon="118.54319450809575">
        <ele>7.817667633295059</ele>
        <time>2025-06-23T13:25:36Z</time>
      </trkpt>
      <trkpt lat="24.911587193155828" lon="118.54326945220495">
        <ele>8.20963533129543</ele>
        <time>2025-06-23T13:25:42Z</time>
      </trkpt>
      <trkpt lat="24.911371080381862" lon="118.54328508569156">
        <ele>7.967513029463589</ele>
        <time>2025-06-23T13:25:48Z</time>
      </trkpt>
      <trkpt lat="24.911263863097563" lon="118.54327200617283">
        <ele>7.977080835960805</ele>
        <time>2025-06-23T13:25:51Z</time>
      </trkpt>
      <trkpt lat="24.91093631858005" lon="118.54332555554662">
        <ele>7.779020111076534</ele>
        <time>2025-06-23T13:26:00Z</time>
      </trkpt>
      <trkpt lat="24.910634630368236" lon="118.54333056523258">
        <ele>7.411607665941119</ele>
        <time>2025-06-23T13:26:09Z</time>
      </trkpt>
      <trkpt lat="24.910421743142273" lon="118.54332615749595">
        <ele>7.764041815884411</ele>
        <time>2025-06-23T13:26:15Z</time>
      </trkpt>
      <trkpt lat="24.910319665752212" lon="118.54334912375758">
        <ele>7.369221981614828</ele>
        <time>2025-06-23T13:26:18Z</time>
      </trkpt>
      <trkpt lat="24.910259976788833" lon="118.54328640768553">
        <ele>6.8650626093149185</ele>
        <time>2025-06-23T13:26:21Z</time>
      </trkpt>
      <trkpt lat="24.910271246604683" lon="118.54316955292539">
        <ele>7.084588400088251</ele>
        <time>2025-06-23T13:26:24Z</time>
      </trkpt>
      <trkpt lat="24.91024247564821" lon="118.54306067110045">
        <ele>7.197310168296099</ele>
        <time>2025-06-23T13:26:27Z</time>
      </trkpt>
      <trkpt lat="24.910289773353554" lon="118.54271305122464">
        <ele>7.461273751221597</ele>
        <time>2025-06-23T13:26:36Z</time>
      </trkpt>
      <trkpt lat="24.91038226245551" lon="118.54259646219477">
        <ele>10.219201421365142</ele>
        <time>2025-06-23T13:26:39Z</time>
      </trkpt>
      <trkpt lat="24.910442004236227" lon="118.54247721631211">
        <ele>12.157412640750408</ele>
        <time>2025-06-23T13:26:42Z</time>
      </trkpt>
      <trkpt lat="24.910418802378494" lon="118.54219547975693">
        <ele>9.346016366966069</ele>
        <time>2025-06-23T13:26:48Z</time>
      </trkpt>
    </trkseg>
  </trk>
</gpx>