<?xml version="1.0" encoding="UTF-8"?>
<gpx xmlns="http://www.topografix.com/GPX/1/1" xmlns:gpxtpx="http://www.garmin.com/xmlschemas/TrackPointExtension/v1" xmlns:xsi="http://www.w3.org/2001/XMLSchema-instance" xsi:schemaLocation="http://www.topografix.com/GPX/1/1 http://www.topografix.com/GPX/1/1/gpx.xsd" version="1.1" creator="gpx.py -- https://github.com/tkrajina/gpxpy">
  <trk>
    <name>gpx from keep</name>
    <type>Run</type>
    <trkseg>
      <trkpt lat="24.944586876844692" lon="118.5766996721177">
        <ele>16.005845387466252</ele>
        <time>2024-09-25T09:37:41Z</time>
      </trkpt>
      <trkpt lat="24.94452053312543" lon="118.57671840738546">
        <ele>15.745291174389422</ele>
        <time>2024-09-25T09:37:44Z</time>
      </trkpt>
      <trkpt lat="24.944233351032185" lon="118.5767160088116">
        <ele>13.24612708389759</ele>
        <time>2024-09-25T09:37:53Z</time>
      </trkpt>
      <trkpt lat="24.9439743206828" lon="118.57680959243591">
        <ele>12.775432016700506</ele>
        <time>2024-09-25T09:37:59Z</time>
      </trkpt>
      <trkpt lat="24.94383179188846" lon="118.57686583800603">
        <ele>13.910577221773565</ele>
        <time>2024-09-25T09:38:02Z</time>
      </trkpt>
      <trkpt lat="24.943750655390918" lon="118.57693335642203">
        <ele>13.184843964874744</ele>
        <time>2024-09-25T09:38:05Z</time>
      </trkpt>
      <trkpt lat="24.94366258414127" lon="118.57698105315343">
        <ele>15.182900221087039</ele>
        <time>2024-09-25T09:38:08Z</time>
      </trkpt>
      <trkpt lat="24.943336246515077" lon="118.57732851358318">
        <ele>17.45225892122835</ele>
        <time>2024-09-25T09:38:46Z</time>
      </trkpt>
      <trkpt lat="24.94324365204398" lon="118.57745128071676">
        <ele>17.08897339180112</ele>
        <time>2024-09-25T09:38:52Z</time>
      </trkpt>
      <trkpt lat="24.94311428042162" lon="118.5777712890173">
        <ele>17.93612288776785</ele>
        <time>2024-09-25T09:39:01Z</time>
      </trkpt>
      <trkpt lat="24.943058935492658" lon="118.57800803560487">
        <ele>18.378228650428355</ele>
        <time>2024-09-25T09:39:07Z</time>
      </trkpt>
      <trkpt lat="24.94180954700886" lon="118.57755339608474">
        <ele>10.6451127352193</ele>
        <time>2024-09-25T09:40:40Z</time>
      </trkpt>
      <trkpt lat="24.941802344633025" lon="118.57748674802382">
        <ele>9.973648167215288</ele>
        <time>2024-09-25T09:40:43Z</time>
      </trkpt>
      <trkpt lat="24.941881212647537" lon="118.57720219770148">
        <ele>9.791018544696271</ele>
        <time>2024-09-25T09:40:52Z</time>
      </trkpt>
      <trkpt lat="24.941903076218573" lon="118.57707304871064">
        <ele>9.394753425382078</ele>
        <time>2024-09-25T09:40:55Z</time>
      </trkpt>
      <trkpt lat="24.94189770816264" lon="118.576936688415">
        <ele>8.886128326877952</ele>
        <time>2024-09-25T09:40:58Z</time>
      </trkpt>
      <trkpt lat="24.941873482471756" lon="118.57680833257334">
        <ele>8.611859056167305</ele>
        <time>2024-09-25T09:41:01Z</time>
      </trkpt>
      <trkpt lat="24.941718160315077" lon="118.57647679896783">
        <ele>8.839158094488084</ele>
        <time>2024-09-25T09:41:10Z</time>
      </trkpt>
      <trkpt lat="24.941517444650465" lon="118.57616797491187">
        <ele>9.213660050183535</ele>
        <time>2024-09-25T09:41:19Z</time>
      </trkpt>
      <trkpt lat="24.941304913395076" lon="118.57579482282688">
        <ele>8.78186908364296</ele>
        <time>2024-09-25T09:41:31Z</time>
      </trkpt>
      <trkpt lat="24.94118080104257" lon="118.57557101189288">
        <ele>9.128072631545365</ele>
        <time>2024-09-25T09:41:39Z</time>
      </trkpt>
      <trkpt lat="24.941122856470674" lon="118.57542486713604">
        <ele>10.511789050884545</ele>
        <time>2024-09-25T09:41:47Z</time>
      </trkpt>
      <trkpt lat="24.941062752144035" lon="118.57529901159192">
        <ele>9.711763701401651</ele>
        <time>2024-09-25T09:41:53Z</time>
      </trkpt>
      <trkpt lat="24.940886668173405" lon="118.57504359942897">
        <ele>9.682218412868679</ele>
        <time>2024-09-25T09:42:02Z</time>
      </trkpt>
      <trkpt lat="24.940886668173405" lon="118.57504359942897">
        <ele>9.682218412868679</ele>
        <time>2024-09-25T09:42:02Z</time>
      </trkpt>
    </trkseg>
  </trk>
</gpx>