<?xml version="1.0" encoding="UTF-8"?>
<gpx xmlns="http://www.topografix.com/GPX/1/1" xmlns:gpxtpx="http://www.garmin.com/xmlschemas/TrackPointExtension/v1" xmlns:xsi="http://www.w3.org/2001/XMLSchema-instance" xsi:schemaLocation="http://www.topografix.com/GPX/1/1 http://www.topografix.com/GPX/1/1/gpx.xsd" version="1.1" creator="gpx.py -- https://github.com/tkrajina/gpxpy">
  <trk>
    <name>gpx from keep</name>
    <type>Run</type>
    <trkseg>
      <trkpt lat="24.911175620272054" lon="118.53733051764169">
        <ele>23.143960586466406</ele>
        <time>2023-10-10T14:13:32Z</time>
      </trkpt>
      <trkpt lat="24.911230652048435" lon="118.5373475595547">
        <ele>26.041891457615083</ele>
        <time>2023-10-10T14:13:35Z</time>
      </trkpt>
      <trkpt lat="24.911275819632387" lon="118.537422758115">
        <ele>24.376351103970926</ele>
        <time>2023-10-10T14:13:38Z</time>
      </trkpt>
      <trkpt lat="24.911252072998163" lon="118.53753104987685">
        <ele>27.450237436804457</ele>
        <time>2023-10-10T14:13:44Z</time>
      </trkpt>
      <trkpt lat="24.91111470873181" lon="118.53779877486507">
        <ele>27.20182051118577</ele>
        <time>2023-10-10T14:13:59Z</time>
      </trkpt>
      <trkpt lat="24.911017136724528" lon="118.53797926252096">
        <ele>28.831317491328765</ele>
        <time>2023-10-10T14:14:11Z</time>
      </trkpt>
      <trkpt lat="24.910913789108804" lon="118.53825801008082">
        <ele>32.50164744617744</ele>
        <time>2023-10-10T14:14:26Z</time>
      </trkpt>
      <trkpt lat="24.91081719832563" lon="118.53843147612409">
        <ele>30.23708967285481</ele>
        <time>2023-10-10T14:14:35Z</time>
      </trkpt>
      <trkpt lat="24.9107925099348" lon="118.53856683551216">
        <ele>29.823908761126702</ele>
        <time>2023-10-10T14:14:41Z</time>
      </trkpt>
      <trkpt lat="24.910734563601043" lon="118.53858689248054">
        <ele>28.929511582346887</ele>
        <time>2023-10-10T14:14:44Z</time>
      </trkpt>
      <trkpt lat="24.910671567803714" lon="118.53858489157682">
        <ele>28.54285662735502</ele>
        <time>2023-10-10T14:14:47Z</time>
      </trkpt>
      <trkpt lat="24.910595519089892" lon="118.53855882805946">
        <ele>27.417141223346153</ele>
        <time>2023-10-10T14:14:50Z</time>
      </trkpt>
      <trkpt lat="24.91032043413026" lon="118.53850470422111">
        <ele>25.601180699713474</ele>
        <time>2023-10-10T14:15:02Z</time>
      </trkpt>
      <trkpt lat="24.909995319465025" lon="118.5384345413396">
        <ele>20.11299756319901</ele>
        <time>2023-10-10T14:15:17Z</time>
      </trkpt>
      <trkpt lat="24.909750166067475" lon="118.53835234085601">
        <ele>16.408577259021715</ele>
        <time>2023-10-10T14:15:29Z</time>
      </trkpt>
      <trkpt lat="24.909573841981945" lon="118.53562098925582">
        <ele>0.0</ele>
        <time>2023-10-10T14:17:39Z</time>
      </trkpt>
      <trkpt lat="24.909778820621536" lon="118.53562398321675">
        <ele>0.0</ele>
        <time>2023-10-10T14:17:45Z</time>
      </trkpt>
      <trkpt lat="24.909790096697105" lon="118.53540843103218">
        <ele>0.0</ele>
        <time>2023-10-10T14:17:54Z</time>
      </trkpt>
      <trkpt lat="24.909724444391905" lon="118.53504138283785">
        <ele>29.19552824147547</ele>
        <time>2023-10-10T14:18:03Z</time>
      </trkpt>
      <trkpt lat="24.909722301203097" lon="118.53498121666588">
        <ele>22.93956309741751</ele>
        <time>2023-10-10T14:18:06Z</time>
      </trkpt>
      <trkpt lat="24.909748154015773" lon="118.53492104841878">
        <ele>24.637464455259682</ele>
        <time>2023-10-10T14:18:09Z</time>
      </trkpt>
      <trkpt lat="24.90981509682469" lon="118.53490098824145">
        <ele>25.5663830447308</ele>
        <time>2023-10-10T14:18:12Z</time>
      </trkpt>
      <trkpt lat="24.910121451361462" lon="118.53506742718558">
        <ele>25.93436936285051</ele>
        <time>2023-10-10T14:18:27Z</time>
      </trkpt>
      <trkpt lat="24.91037365989538" lon="118.53516969197196">
        <ele>25.63705325729599</ele>
        <time>2023-10-10T14:18:39Z</time>
      </trkpt>
      <trkpt lat="24.910551694795235" lon="118.53519474871162">
        <ele>25.528464859922366</ele>
        <time>2023-10-10T14:18:48Z</time>
      </trkpt>
      <trkpt lat="24.91081199470122" lon="118.53533612019548">
        <ele>27.93462269617957</ele>
        <time>2023-10-10T14:19:00Z</time>
      </trkpt>
      <trkpt lat="24.911060143471435" lon="118.53541331538348">
        <ele>30.121973183762844</ele>
        <time>2023-10-10T14:19:12Z</time>
      </trkpt>
      <trkpt lat="24.91131540512009" lon="118.53553864210532">
        <ele>29.29931347834537</ele>
        <time>2023-10-10T14:19:24Z</time>
      </trkpt>
      <trkpt lat="24.911568642845854" lon="118.53565394093218">
        <ele>29.46398982594101</ele>
        <time>2023-10-10T14:19:36Z</time>
      </trkpt>
      <trkpt lat="24.911694739107926" lon="118.5357020641029">
        <ele>29.063765651637084</ele>
        <time>2023-10-10T14:19:42Z</time>
      </trkpt>
      <trkpt lat="24.911809884196686" lon="118.53577024288596">
        <ele>29.075803144168237</ele>
        <time>2023-10-10T14:19:48Z</time>
      </trkpt>
      <trkpt lat="24.91195097819474" lon="118.53581836481882">
        <ele>29.450923155656966</ele>
        <time>2023-10-10T14:19:54Z</time>
      </trkpt>
      <trkpt lat="24.91219509088092" lon="118.53588051788388">
        <ele>30.155264414487824</ele>
        <time>2023-10-10T14:20:06Z</time>
      </trkpt>
      <trkpt lat="24.912291209883104" lon="118.53593666469388">
        <ele>29.43025640776718</ele>
        <time>2023-10-10T14:20:12Z</time>
      </trkpt>
      <trkpt lat="24.912340167608136" lon="118.53592162017158">
        <ele>29.37459614975141</ele>
        <time>2023-10-10T14:20:15Z</time>
      </trkpt>
      <trkpt lat="24.912438359457884" lon="118.53600885164657">
        <ele>27.368209391877254</ele>
        <time>2023-10-10T14:20:21Z</time>
      </trkpt>
      <trkpt lat="24.912355566860736" lon="118.53609208453811">
        <ele>26.654212533178537</ele>
        <time>2023-10-10T14:20:27Z</time>
      </trkpt>
      <trkpt lat="24.912194203872563" lon="118.53635380841563">
        <ele>22.818612856664572</ele>
        <time>2023-10-10T14:20:39Z</time>
      </trkpt>
      <trkpt lat="24.912039805002443" lon="118.53660149138497">
        <ele>21.227772054468137</ele>
        <time>2023-10-10T14:20:51Z</time>
      </trkpt>
      <trkpt lat="24.911903588402772" lon="118.53692938750137">
        <ele>16.455374702763798</ele>
        <time>2023-10-10T14:21:06Z</time>
      </trkpt>
      <trkpt lat="24.91184387407457" lon="118.53704871337986">
        <ele>15.530411146610023</ele>
        <time>2023-10-10T14:21:12Z</time>
      </trkpt>
      <trkpt lat="24.911817182601013" lon="118.5371800688176">
        <ele>14.550444443027995</ele>
        <time>2023-10-10T14:21:18Z</time>
      </trkpt>
      <trkpt lat="24.911675923735583" lon="118.53749191562522">
        <ele>11.486871458813534</ele>
        <time>2023-10-10T14:21:33Z</time>
      </trkpt>
      <trkpt lat="24.911563570164567" lon="118.53776565530224">
        <ele>12.396250699197322</ele>
        <time>2023-10-10T14:21:45Z</time>
      </trkpt>
      <trkpt lat="24.911434223476192" lon="118.5380424014824">
        <ele>12.3556568574475</ele>
        <time>2023-10-10T14:21:57Z</time>
      </trkpt>
      <trkpt lat="24.911305860478098" lon="118.53831312890598">
        <ele>12.042456579432654</ele>
        <time>2023-10-10T14:22:09Z</time>
      </trkpt>
      <trkpt lat="24.911175436127238" lon="118.53855778501027">
        <ele>12.557702233828673</ele>
        <time>2023-10-10T14:22:21Z</time>
      </trkpt>
      <trkpt lat="24.91116355406402" lon="118.53860892080147">
        <ele>12.71538252670747</ele>
        <time>2023-10-10T14:22:24Z</time>
      </trkpt>
      <trkpt lat="24.911131667867643" lon="118.53865704996062">
        <ele>12.365478753395866</ele>
        <time>2023-10-10T14:22:27Z</time>
      </trkpt>
      <trkpt lat="24.91107770498427" lon="118.53867008808453">
        <ele>12.484435210085474</ele>
        <time>2023-10-10T14:22:30Z</time>
      </trkpt>
      <trkpt lat="24.91092967775177" lon="118.53864904288221">
        <ele>12.117893198984175</ele>
        <time>2023-10-10T14:22:36Z</time>
      </trkpt>
      <trkpt lat="24.910658466992587" lon="118.53853977337019">
        <ele>11.7673018119575</ele>
        <time>2023-10-10T14:22:48Z</time>
      </trkpt>
      <trkpt lat="24.910359255161797" lon="118.53842850007345">
        <ele>12.418094081931631</ele>
        <time>2023-10-10T14:23:03Z</time>
      </trkpt>
      <trkpt lat="24.91002421945574" lon="118.53839242792172">
        <ele>10.387237404889959</ele>
        <time>2023-10-10T14:23:18Z</time>
      </trkpt>
      <trkpt lat="24.909706103550413" lon="118.5383222642686">
        <ele>10.475054987911134</ele>
        <time>2023-10-10T14:23:33Z</time>
      </trkpt>
      <trkpt lat="24.909581049966828" lon="118.53829119063442">
        <ele>10.407118802014548</ele>
        <time>2023-10-10T14:23:39Z</time>
      </trkpt>
      <trkpt lat="24.909310016625547" lon="118.53826012713603">
        <ele>10.707020364469024</ele>
        <time>2023-10-10T14:23:51Z</time>
      </trkpt>
      <trkpt lat="24.90907992484541" lon="118.53820599958065">
        <ele>9.585053098217479</ele>
        <time>2023-10-10T14:24:03Z</time>
      </trkpt>
      <trkpt lat="24.90906969918081" lon="118.53810673677805">
        <ele>10.365435943224234</ele>
        <time>2023-10-10T14:24:09Z</time>
      </trkpt>
      <trkpt lat="24.909136946770914" lon="118.53778286988103">
        <ele>11.187864711876033</ele>
        <time>2023-10-10T14:24:24Z</time>
      </trkpt>
      <trkpt lat="24.90919009801369" lon="118.53741789002837">
        <ele>12.865832302021905</ele>
        <time>2023-10-10T14:24:39Z</time>
      </trkpt>
      <trkpt lat="24.909215635033277" lon="118.53721935527818">
        <ele>13.561078904020967</ele>
        <time>2023-10-10T14:24:48Z</time>
      </trkpt>
      <trkpt lat="24.909243298609237" lon="118.53707596755942">
        <ele>14.569208308187989</ele>
        <time>2023-10-10T14:24:54Z</time>
      </trkpt>
      <trkpt lat="24.909290017198387" lon="118.536957645412">
        <ele>14.821008418868251</ele>
        <time>2023-10-10T14:25:01Z</time>
      </trkpt>
      <trkpt lat="24.909293848702145" lon="118.53688545032496">
        <ele>15.182813927109704</ele>
        <time>2023-10-10T14:25:04Z</time>
      </trkpt>
      <trkpt lat="24.909364371489346" lon="118.53668490328185">
        <ele>10.223944343563877</ele>
        <time>2023-10-10T14:25:13Z</time>
      </trkpt>
      <trkpt lat="24.90938302923895" lon="118.53653950805743">
        <ele>9.450304895308266</ele>
        <time>2023-10-10T14:25:19Z</time>
      </trkpt>
      <trkpt lat="24.90936784836359" lon="118.53646129690617">
        <ele>10.444819584945847</ele>
        <time>2023-10-10T14:25:22Z</time>
      </trkpt>
      <trkpt lat="24.909448150517587" lon="118.53616849499079">
        <ele>14.563557952954882</ele>
        <time>2023-10-10T14:25:31Z</time>
      </trkpt>
      <trkpt lat="24.909474698594178" lon="118.53597797338992">
        <ele>18.9226650297989</ele>
        <time>2023-10-10T14:25:40Z</time>
      </trkpt>
      <trkpt lat="24.909456542788853" lon="118.53591079107602">
        <ele>18.84184015235001</ele>
        <time>2023-10-10T14:25:43Z</time>
      </trkpt>
      <trkpt lat="24.90951374826361" lon="118.53557787511406">
        <ele>14.67576924329851</ele>
        <time>2023-10-10T14:25:58Z</time>
      </trkpt>
      <trkpt lat="24.909551060403427" lon="118.53529008108562">
        <ele>12.921727970100653</ele>
        <time>2023-10-10T14:26:10Z</time>
      </trkpt>
      <trkpt lat="24.909627175612602" lon="118.53492306240607">
        <ele>12.268225299720116</ele>
        <time>2023-10-10T14:26:25Z</time>
      </trkpt>
      <trkpt lat="24.909652992383908" lon="118.53484785238336">
        <ele>11.872681726125903</ele>
        <time>2023-10-10T14:26:28Z</time>
      </trkpt>
      <trkpt lat="24.909770999949696" lon="118.53485787192722">
        <ele>11.06419383517504</ele>
        <time>2023-10-10T14:26:34Z</time>
      </trkpt>
      <trkpt lat="24.91003130371075" lon="118.5350002477978">
        <ele>11.422711585761354</ele>
        <time>2023-10-10T14:26:46Z</time>
      </trkpt>
      <trkpt lat="24.910310604211634" lon="118.53514262165756">
        <ele>10.963851128913067</ele>
        <time>2023-10-10T14:27:01Z</time>
      </trkpt>
      <trkpt lat="24.91061086304058" lon="118.53526894916016">
        <ele>11.0117462949711</ele>
        <time>2023-10-10T14:27:16Z</time>
      </trkpt>
      <trkpt lat="24.910859116709574" lon="118.53539026595143">
        <ele>11.963662349721885</ele>
        <time>2023-10-10T14:27:28Z</time>
      </trkpt>
      <trkpt lat="24.911125279487475" lon="118.53547447903513">
        <ele>12.779765271816586</ele>
        <time>2023-10-10T14:27:40Z</time>
      </trkpt>
      <trkpt lat="24.911414519555223" lon="118.53559278386119">
        <ele>15.567631380963983</ele>
        <time>2023-10-10T14:27:55Z</time>
      </trkpt>
      <trkpt lat="24.911600756934845" lon="118.535704076153">
        <ele>14.145785960712065</ele>
        <time>2023-10-10T14:28:04Z</time>
      </trkpt>
      <trkpt lat="24.911847817324663" lon="118.53574416883164">
        <ele>15.924353559045905</ele>
        <time>2023-10-10T14:28:16Z</time>
      </trkpt>
      <trkpt lat="24.911939773714998" lon="118.53573112670615">
        <ele>16.943635484813676</ele>
        <time>2023-10-10T14:28:19Z</time>
      </trkpt>
      <trkpt lat="24.9120178031254" lon="118.53574816796623">
        <ele>17.1212827217542</ele>
        <time>2023-10-10T14:28:22Z</time>
      </trkpt>
      <trkpt lat="24.912230213655018" lon="118.53593466346621">
        <ele>15.966435878313819</ele>
        <time>2023-10-10T14:28:34Z</time>
      </trkpt>
      <trkpt lat="24.91233634769908" lon="118.53599782864126">
        <ele>14.952827583276108</ele>
        <time>2023-10-10T14:28:40Z</time>
      </trkpt>
      <trkpt lat="24.91232956340833" lon="118.53608907814623">
        <ele>14.642304757448358</ele>
        <time>2023-10-10T14:28:46Z</time>
      </trkpt>
      <trkpt lat="24.912020868052167" lon="118.537056722653">
        <ele>0.0</ele>
        <time>2023-10-10T14:29:40Z</time>
      </trkpt>
      <trkpt lat="24.911882526494686" lon="118.53733247375642">
        <ele>0.0</ele>
        <time>2023-10-10T14:29:46Z</time>
      </trkpt>
      <trkpt lat="24.911813149008285" lon="118.53751042230941">
        <ele>0.0</ele>
        <time>2023-10-10T14:29:52Z</time>
      </trkpt>
      <trkpt lat="24.911710406671794" lon="118.53770347909706">
        <ele>0.0</ele>
        <time>2023-10-10T14:30:52Z</time>
      </trkpt>
    </trkseg>
  </trk>
</gpx>