<?xml version="1.0" encoding="UTF-8"?>
<gpx xmlns="http://www.topografix.com/GPX/1/1" xmlns:gpxtpx="http://www.garmin.com/xmlschemas/TrackPointExtension/v1" xmlns:xsi="http://www.w3.org/2001/XMLSchema-instance" xsi:schemaLocation="http://www.topografix.com/GPX/1/1 http://www.topografix.com/GPX/1/1/gpx.xsd" version="1.1" creator="gpx.py -- https://github.com/tkrajina/gpxpy">
  <trk>
    <name>gpx from keep</name>
    <type>Run</type>
    <trkseg>
      <trkpt lat="24.910811218973024" lon="118.53859522114155">
        <ele>9.95793083589524</ele>
        <time>2024-09-26T14:02:22Z</time>
      </trkpt>
      <trkpt lat="24.910811218973024" lon="118.53859522114155">
        <ele>9.95793083589524</ele>
        <time>2024-09-26T14:02:22Z</time>
      </trkpt>
      <trkpt lat="24.910816282913807" lon="118.53856637163221">
        <ele>10.232452194206417</ele>
        <time>2024-09-26T14:02:52Z</time>
      </trkpt>
      <trkpt lat="24.910509556378774" lon="118.53849172930593">
        <ele>9.90041352249682</ele>
        <time>2024-09-26T14:03:04Z</time>
      </trkpt>
      <trkpt lat="24.910202464298813" lon="118.5384228584462">
        <ele>8.886452136561275</ele>
        <time>2024-09-26T14:03:13Z</time>
      </trkpt>
      <trkpt lat="24.91000614228466" lon="118.53842677555977">
        <ele>9.8230019249022</ele>
        <time>2024-09-26T14:03:19Z</time>
      </trkpt>
      <trkpt lat="24.909914156490597" lon="118.53839884467864">
        <ele>8.934745879843831</ele>
        <time>2024-09-26T14:03:22Z</time>
      </trkpt>
      <trkpt lat="24.909624183876915" lon="118.53838349821878">
        <ele>8.040175214409828</ele>
        <time>2024-09-26T14:03:31Z</time>
      </trkpt>
      <trkpt lat="24.909505337884056" lon="118.53837629303234">
        <ele>7.84674615599215</ele>
        <time>2024-09-26T14:03:34Z</time>
      </trkpt>
      <trkpt lat="24.90939057050383" lon="118.53840554091434">
        <ele>8.00859259814024</ele>
        <time>2024-09-26T14:03:37Z</time>
      </trkpt>
      <trkpt lat="24.9092037990954" lon="118.53833055592378">
        <ele>7.497703523375094</ele>
        <time>2024-09-26T14:03:43Z</time>
      </trkpt>
      <trkpt lat="24.909167428111996" lon="118.53823492401916">
        <ele>7.8991485415026546</ele>
        <time>2024-09-26T14:03:46Z</time>
      </trkpt>
      <trkpt lat="24.909248192647873" lon="118.5379054018587">
        <ele>8.085940632037818</ele>
        <time>2024-09-26T14:03:55Z</time>
      </trkpt>
      <trkpt lat="24.909350608081674" lon="118.53756190850376">
        <ele>9.226779466494918</ele>
        <time>2024-09-26T14:04:04Z</time>
      </trkpt>
      <trkpt lat="24.909415915391147" lon="118.53723541146353">
        <ele>10.6533567532897</ele>
        <time>2024-09-26T14:04:14Z</time>
      </trkpt>
      <trkpt lat="24.909469263236762" lon="118.53710312167621">
        <ele>9.941862552426755</ele>
        <time>2024-09-26T14:04:18Z</time>
      </trkpt>
      <trkpt lat="24.90954905714015" lon="118.53679963994253">
        <ele>9.92690266110003</ele>
        <time>2024-09-26T14:04:26Z</time>
      </trkpt>
      <trkpt lat="24.90964521518552" lon="118.53637487717425">
        <ele>10.4937848392874</ele>
        <time>2024-09-26T14:04:38Z</time>
      </trkpt>
      <trkpt lat="24.909672185641163" lon="118.53624113427841">
        <ele>10.77679827902466</ele>
        <time>2024-09-26T14:04:42Z</time>
      </trkpt>
      <trkpt lat="24.909669106890764" lon="118.5361436430028">
        <ele>10.143379895947874</ele>
        <time>2024-09-26T14:04:45Z</time>
      </trkpt>
      <trkpt lat="24.909704667707377" lon="118.5358265495804">
        <ele>10.185945925302804</ele>
        <time>2024-09-26T14:04:54Z</time>
      </trkpt>
      <trkpt lat="24.909759488391614" lon="118.53551102130673">
        <ele>10.295189061202109</ele>
        <time>2024-09-26T14:05:03Z</time>
      </trkpt>
      <trkpt lat="24.909784573267935" lon="118.53529765154373">
        <ele>10.30126332025975</ele>
        <time>2024-09-26T14:05:09Z</time>
      </trkpt>
      <trkpt lat="24.909783323121275" lon="118.5351264470655">
        <ele>9.903286605142057</ele>
        <time>2024-09-26T14:05:15Z</time>
      </trkpt>
      <trkpt lat="24.909816700971948" lon="118.53501958281893">
        <ele>8.475270022638142</ele>
        <time>2024-09-26T14:05:18Z</time>
      </trkpt>
      <trkpt lat="24.909850186771198" lon="118.53470393252812">
        <ele>8.214857497252524</ele>
        <time>2024-09-26T14:05:27Z</time>
      </trkpt>
      <trkpt lat="24.909907954059424" lon="118.53438821263661">
        <ele>8.257574167102575</ele>
        <time>2024-09-26T14:05:36Z</time>
      </trkpt>
      <trkpt lat="24.909923206632197" lon="118.53405416584206">
        <ele>7.937568443827331</ele>
        <time>2024-09-26T14:05:45Z</time>
      </trkpt>
      <trkpt lat="24.909945194254597" lon="118.53394617336697">
        <ele>8.090879176743329</ele>
        <time>2024-09-26T14:05:48Z</time>
      </trkpt>
      <trkpt lat="24.909990245916955" lon="118.53384975162143">
        <ele>7.783677096478641</ele>
        <time>2024-09-26T14:05:51Z</time>
      </trkpt>
      <trkpt lat="24.9101497646107" lon="118.53375225087163">
        <ele>8.594264670275152</ele>
        <time>2024-09-26T14:05:57Z</time>
      </trkpt>
      <trkpt lat="24.910325890053606" lon="118.53372296437898">
        <ele>10.77316230069846</ele>
        <time>2024-09-26T14:06:03Z</time>
      </trkpt>
      <trkpt lat="24.910413620176094" lon="118.53367903803799">
        <ele>10.039089031517506</ele>
        <time>2024-09-26T14:06:06Z</time>
      </trkpt>
      <trkpt lat="24.910699506927187" lon="118.53368199506477">
        <ele>9.904494584538043</ele>
        <time>2024-09-26T14:06:15Z</time>
      </trkpt>
      <trkpt lat="24.91089602105844" lon="118.53370897702467">
        <ele>9.646029544062912</ele>
        <time>2024-09-26T14:06:21Z</time>
      </trkpt>
      <trkpt lat="24.91118451164868" lon="118.53373815086982">
        <ele>10.183514660224319</ele>
        <time>2024-09-26T14:06:30Z</time>
      </trkpt>
      <trkpt lat="24.911476398548743" lon="118.53372891069743">
        <ele>10.581459145992994</ele>
        <time>2024-09-26T14:06:39Z</time>
      </trkpt>
      <trkpt lat="24.911767961089446" lon="118.53371692799897">
        <ele>10.421363785862923</ele>
        <time>2024-09-26T14:06:48Z</time>
      </trkpt>
      <trkpt lat="24.912066484031907" lon="118.5337074746485">
        <ele>10.957952152006328</ele>
        <time>2024-09-26T14:06:57Z</time>
      </trkpt>
      <trkpt lat="24.91235967025002" lon="118.5337021971327">
        <ele>10.698242696933448</ele>
        <time>2024-09-26T14:07:06Z</time>
      </trkpt>
      <trkpt lat="24.912646984837192" lon="118.53372581865118">
        <ele>10.126637529581785</ele>
        <time>2024-09-26T14:07:15Z</time>
      </trkpt>
      <trkpt lat="24.912929810224306" lon="118.53373730764916">
        <ele>10.509570900350809</ele>
        <time>2024-09-26T14:07:24Z</time>
      </trkpt>
      <trkpt lat="24.913117405248826" lon="118.5338017732507">
        <ele>10.792324696667492</ele>
        <time>2024-09-26T14:07:30Z</time>
      </trkpt>
      <trkpt lat="24.913316262011634" lon="118.53383853514333">
        <ele>10.233238708227873</ele>
        <time>2024-09-26T14:07:36Z</time>
      </trkpt>
      <trkpt lat="24.913510795542855" lon="118.533847686564">
        <ele>10.295680806972086</ele>
        <time>2024-09-26T14:07:42Z</time>
      </trkpt>
      <trkpt lat="24.913606547448538" lon="118.53383397395115">
        <ele>10.128835923038423</ele>
        <time>2024-09-26T14:07:45Z</time>
      </trkpt>
      <trkpt lat="24.91379324907445" lon="118.53391101691534">
        <ele>10.289852856658399</ele>
        <time>2024-09-26T14:07:51Z</time>
      </trkpt>
      <trkpt lat="24.914079120032195" lon="118.53393768416855">
        <ele>10.258130247704685</ele>
        <time>2024-09-26T14:08:00Z</time>
      </trkpt>
      <trkpt lat="24.91435323086399" lon="118.53397280877586">
        <ele>11.119453108869493</ele>
        <time>2024-09-26T14:08:09Z</time>
      </trkpt>
      <trkpt lat="24.914636503781054" lon="118.53403275092735">
        <ele>12.180432166904211</ele>
        <time>2024-09-26T14:08:18Z</time>
      </trkpt>
      <trkpt lat="24.9149208276323" lon="118.53408412980338">
        <ele>12.906372907571495</ele>
        <time>2024-09-26T14:08:27Z</time>
      </trkpt>
      <trkpt lat="24.915218867719698" lon="118.53412740473296">
        <ele>12.868970051407814</ele>
        <time>2024-09-26T14:08:36Z</time>
      </trkpt>
      <trkpt lat="24.915499124040423" lon="118.53415964209539">
        <ele>13.107864211313426</ele>
        <time>2024-09-26T14:08:45Z</time>
      </trkpt>
      <trkpt lat="24.915766121402076" lon="118.5342141514053">
        <ele>12.905889847315848</ele>
        <time>2024-09-26T14:08:54Z</time>
      </trkpt>
      <trkpt lat="24.916120261415436" lon="118.53429306557685">
        <ele>12.959130246192217</ele>
        <time>2024-09-26T14:09:06Z</time>
      </trkpt>
      <trkpt lat="24.916204224812653" lon="118.53431389368212">
        <ele>12.486738419160247</ele>
        <time>2024-09-26T14:09:09Z</time>
      </trkpt>
      <trkpt lat="24.91640108743771" lon="118.53432112220055">
        <ele>12.68785401340574</ele>
        <time>2024-09-26T14:09:15Z</time>
      </trkpt>
      <trkpt lat="24.916681392441014" lon="118.53438334359087">
        <ele>14.310722519643605</ele>
        <time>2024-09-26T14:09:24Z</time>
      </trkpt>
      <trkpt lat="24.916982469198743" lon="118.53444907315496">
        <ele>14.620762499980628</ele>
        <time>2024-09-26T14:09:33Z</time>
      </trkpt>
      <trkpt lat="24.91726286770315" lon="118.53449852219724">
        <ele>15.261383167468011</ele>
        <time>2024-09-26T14:09:42Z</time>
      </trkpt>
      <trkpt lat="24.917535133069666" lon="118.53457101506926">
        <ele>14.667722920887172</ele>
        <time>2024-09-26T14:09:51Z</time>
      </trkpt>
      <trkpt lat="24.91779844096228" lon="118.53465379872934">
        <ele>14.861863096244633</ele>
        <time>2024-09-26T14:10:00Z</time>
      </trkpt>
      <trkpt lat="24.91810003408215" lon="118.53472092927971">
        <ele>13.909363439306617</ele>
        <time>2024-09-26T14:10:09Z</time>
      </trkpt>
      <trkpt lat="24.918194479616147" lon="118.53472814303983">
        <ele>14.143402115441859</ele>
        <time>2024-09-26T14:10:12Z</time>
      </trkpt>
      <trkpt lat="24.91845911963701" lon="118.5348168123761">
        <ele>13.14726749341935</ele>
        <time>2024-09-26T14:10:21Z</time>
      </trkpt>
      <trkpt lat="24.918614073999528" lon="118.53493561019805">
        <ele>12.777642799541354</ele>
        <time>2024-09-26T14:10:27Z</time>
      </trkpt>
      <trkpt lat="24.91866822975058" lon="118.5350130397118">
        <ele>12.69795538391918</ele>
        <time>2024-09-26T14:10:30Z</time>
      </trkpt>
      <trkpt lat="24.91871125509268" lon="118.5351112902827">
        <ele>12.015970940701663</ele>
        <time>2024-09-26T14:10:33Z</time>
      </trkpt>
      <trkpt lat="24.918723894429597" lon="118.53521118152148">
        <ele>11.87409324850887</ele>
        <time>2024-09-26T14:10:36Z</time>
      </trkpt>
      <trkpt lat="24.918699159422793" lon="118.53531721118956">
        <ele>12.414006601087749</ele>
        <time>2024-09-26T14:10:39Z</time>
      </trkpt>
      <trkpt lat="24.918575247469665" lon="118.53560778275111">
        <ele>10.30703044962138</ele>
        <time>2024-09-26T14:10:48Z</time>
      </trkpt>
      <trkpt lat="24.918503831502324" lon="118.53581128689268">
        <ele>10.6697819493711</ele>
        <time>2024-09-26T14:10:54Z</time>
      </trkpt>
      <trkpt lat="24.918454060278577" lon="118.5360077431783">
        <ele>9.485886231996119</ele>
        <time>2024-09-26T14:11:00Z</time>
      </trkpt>
      <trkpt lat="24.918303931560615" lon="118.5362751633839">
        <ele>11.021725613623857</ele>
        <time>2024-09-26T14:11:09Z</time>
      </trkpt>
      <trkpt lat="24.91818188533644" lon="118.53656938057333">
        <ele>10.367659752257168</ele>
        <time>2024-09-26T14:11:18Z</time>
      </trkpt>
      <trkpt lat="24.91802068652485" lon="118.53691495112453">
        <ele>10.171502231620252</ele>
        <time>2024-09-26T14:11:30Z</time>
      </trkpt>
      <trkpt lat="24.917865740066176" lon="118.53716357136648">
        <ele>9.872318600304425</ele>
        <time>2024-09-26T14:11:39Z</time>
      </trkpt>
      <trkpt lat="24.917700734380823" lon="118.53746096367985">
        <ele>9.889962206594646</ele>
        <time>2024-09-26T14:11:48Z</time>
      </trkpt>
      <trkpt lat="24.917599362128662" lon="118.53762631566175">
        <ele>9.953693529590964</ele>
        <time>2024-09-26T14:11:54Z</time>
      </trkpt>
      <trkpt lat="24.91749499298282" lon="118.53793393493578">
        <ele>9.705358292907476</ele>
        <time>2024-09-26T14:12:03Z</time>
      </trkpt>
      <trkpt lat="24.917447379122358" lon="118.53815053110237">
        <ele>10.113553592935205</ele>
        <time>2024-09-26T14:12:09Z</time>
      </trkpt>
      <trkpt lat="24.917321052842166" lon="118.53839929840323">
        <ele>9.970754939131439</ele>
        <time>2024-09-26T14:12:18Z</time>
      </trkpt>
      <trkpt lat="24.917233571885156" lon="118.53869020477539">
        <ele>10.416479235514998</ele>
        <time>2024-09-26T14:12:27Z</time>
      </trkpt>
      <trkpt lat="24.917145405134924" lon="118.53905677769649">
        <ele>10.054283983074129</ele>
        <time>2024-09-26T14:12:39Z</time>
      </trkpt>
      <trkpt lat="24.917037999069052" lon="118.53934624323735">
        <ele>10.035327365621924</ele>
        <time>2024-09-26T14:12:48Z</time>
      </trkpt>
      <trkpt lat="24.91696665003914" lon="118.53954919440447">
        <ele>10.165751591324806</ele>
        <time>2024-09-26T14:12:54Z</time>
      </trkpt>
      <trkpt lat="24.916849669911183" lon="118.5397344779012">
        <ele>10.41330062225461</ele>
        <time>2024-09-26T14:13:00Z</time>
      </trkpt>
      <trkpt lat="24.916808209927336" lon="118.53983797550038">
        <ele>10.006780592724681</ele>
        <time>2024-09-26T14:13:03Z</time>
      </trkpt>
      <trkpt lat="24.91673523110204" lon="118.539931827491">
        <ele>9.952737181447446</ele>
        <time>2024-09-26T14:13:06Z</time>
      </trkpt>
      <trkpt lat="24.916600119098554" lon="118.54021785133035">
        <ele>9.905750676058233</ele>
        <time>2024-09-26T14:13:15Z</time>
      </trkpt>
      <trkpt lat="24.916553970537873" lon="118.54032131478745">
        <ele>10.214354717172682</ele>
        <time>2024-09-26T14:13:18Z</time>
      </trkpt>
      <trkpt lat="24.916501656258184" lon="118.54067693314623">
        <ele>12.783312470652163</ele>
        <time>2024-09-26T14:13:27Z</time>
      </trkpt>
      <trkpt lat="24.91650334223059" lon="118.54089268519874">
        <ele>12.647873864509165</ele>
        <time>2024-09-26T14:13:33Z</time>
      </trkpt>
      <trkpt lat="24.91656926731106" lon="118.54120292429238">
        <ele>12.873943174257874</ele>
        <time>2024-09-26T14:13:42Z</time>
      </trkpt>
      <trkpt lat="24.91663725771345" lon="118.54149854941822">
        <ele>12.08610812947154</ele>
        <time>2024-09-26T14:13:51Z</time>
      </trkpt>
      <trkpt lat="24.916683092584737" lon="118.54159970799645">
        <ele>12.261952108703554</ele>
        <time>2024-09-26T14:13:54Z</time>
      </trkpt>
      <trkpt lat="24.916697018586298" lon="118.54170726003784">
        <ele>13.532713189721107</ele>
        <time>2024-09-26T14:13:57Z</time>
      </trkpt>
      <trkpt lat="24.91663344931453" lon="118.54190014954973">
        <ele>12.825990774668753</ele>
        <time>2024-09-26T14:14:03Z</time>
      </trkpt>
      <trkpt lat="24.916579038362645" lon="118.54196426914683">
        <ele>10.87970357388258</ele>
        <time>2024-09-26T14:14:06Z</time>
      </trkpt>
      <trkpt lat="24.91629842243435" lon="118.5420535724121">
        <ele>12.209313576109707</ele>
        <time>2024-09-26T14:14:15Z</time>
      </trkpt>
      <trkpt lat="24.916062901704397" lon="118.54218383510106">
        <ele>13.009752522222698</ele>
        <time>2024-09-26T14:14:22Z</time>
      </trkpt>
      <trkpt lat="24.91585322313749" lon="118.54233993998604">
        <ele>12.343467717058957</ele>
        <time>2024-09-26T14:14:28Z</time>
      </trkpt>
      <trkpt lat="24.915538013976253" lon="118.54248990187142">
        <ele>12.499011811800301</ele>
        <time>2024-09-26T14:14:37Z</time>
      </trkpt>
      <trkpt lat="24.91535212293348" lon="118.54256818588664">
        <ele>12.279141419567168</ele>
        <time>2024-09-26T14:14:43Z</time>
      </trkpt>
      <trkpt lat="24.91506474086302" lon="118.54260075793535">
        <ele>11.538469244726002</ele>
        <time>2024-09-26T14:14:52Z</time>
      </trkpt>
      <trkpt lat="24.91490206492813" lon="118.5425806509765">
        <ele>10.427929471246898</ele>
        <time>2024-09-26T14:14:58Z</time>
      </trkpt>
      <trkpt lat="24.914817015037528" lon="118.54260108072705">
        <ele>10.546745874918997</ele>
        <time>2024-09-26T14:15:01Z</time>
      </trkpt>
      <trkpt lat="24.914659290503632" lon="118.5425824466057">
        <ele>9.999763504602015</ele>
        <time>2024-09-26T14:15:07Z</time>
      </trkpt>
      <trkpt lat="24.914302883974774" lon="118.54267190277197">
        <ele>10.256498150527477</ele>
        <time>2024-09-26T14:15:19Z</time>
      </trkpt>
      <trkpt lat="24.914133626035664" lon="118.542691759566">
        <ele>9.796519714407623</ele>
        <time>2024-09-26T14:15:25Z</time>
      </trkpt>
      <trkpt lat="24.914036604066016" lon="118.54266156804934">
        <ele>9.833223395049572</ele>
        <time>2024-09-26T14:15:28Z</time>
      </trkpt>
      <trkpt lat="24.91385228539501" lon="118.54268668495456">
        <ele>9.860336234793067</ele>
        <time>2024-09-26T14:15:34Z</time>
      </trkpt>
      <trkpt lat="24.913559264211894" lon="118.5428008028701">
        <ele>8.380754316225648</ele>
        <time>2024-09-26T14:15:43Z</time>
      </trkpt>
      <trkpt lat="24.913284797345465" lon="118.54284158437467">
        <ele>8.05726030562073</ele>
        <time>2024-09-26T14:15:52Z</time>
      </trkpt>
      <trkpt lat="24.913001225823677" lon="118.54289089562575">
        <ele>7.633959086611867</ele>
        <time>2024-09-26T14:16:01Z</time>
      </trkpt>
      <trkpt lat="24.912724932022385" lon="118.54295598985166">
        <ele>8.39651667047292</ele>
        <time>2024-09-26T14:16:10Z</time>
      </trkpt>
      <trkpt lat="24.91238777100761" lon="118.54305896045614">
        <ele>8.12679157126695</ele>
        <time>2024-09-26T14:16:22Z</time>
      </trkpt>
      <trkpt lat="24.912039407828356" lon="118.54315199728336">
        <ele>7.768110119737685</ele>
        <time>2024-09-26T14:16:34Z</time>
      </trkpt>
      <trkpt lat="24.91169486718674" lon="118.54322148680791">
        <ele>8.401235095225275</ele>
        <time>2024-09-26T14:16:46Z</time>
      </trkpt>
      <trkpt lat="24.911414266341364" lon="118.54328086234929">
        <ele>8.27282058633864</ele>
        <time>2024-09-26T14:16:55Z</time>
      </trkpt>
      <trkpt lat="24.911129730931318" lon="118.5433225311531">
        <ele>8.89408327639103</ele>
        <time>2024-09-26T14:17:04Z</time>
      </trkpt>
      <trkpt lat="24.91083209657511" lon="118.54335341950105">
        <ele>7.705457068048418</ele>
        <time>2024-09-26T14:17:13Z</time>
      </trkpt>
      <trkpt lat="24.910735031011594" lon="118.54335741584131">
        <ele>8.216251637786627</ele>
        <time>2024-09-26T14:17:16Z</time>
      </trkpt>
      <trkpt lat="24.910470385470454" lon="118.54331659521084">
        <ele>8.172587811946869</ele>
        <time>2024-09-26T14:17:25Z</time>
      </trkpt>
      <trkpt lat="24.910364553777573" lon="118.5433288339606">
        <ele>8.229888402856886</ele>
        <time>2024-09-26T14:17:28Z</time>
      </trkpt>
      <trkpt lat="24.910249147305713" lon="118.54338104076508">
        <ele>7.841980779543519</ele>
        <time>2024-09-26T14:17:31Z</time>
      </trkpt>
      <trkpt lat="24.90994527975518" lon="118.54341055005511">
        <ele>7.959767545573413</ele>
        <time>2024-09-26T14:17:40Z</time>
      </trkpt>
      <trkpt lat="24.90964508579888" lon="118.54340477662252">
        <ele>7.904992860741913</ele>
        <time>2024-09-26T14:17:49Z</time>
      </trkpt>
      <trkpt lat="24.90934507068889" lon="118.5434211853101">
        <ele>6.986931315623224</ele>
        <time>2024-09-26T14:17:58Z</time>
      </trkpt>
      <trkpt lat="24.909054948325153" lon="118.54339072316293">
        <ele>7.6345100505277514</ele>
        <time>2024-09-26T14:18:07Z</time>
      </trkpt>
      <trkpt lat="24.90874313523531" lon="118.54337530115127">
        <ele>7.515603366307914</ele>
        <time>2024-09-26T14:18:16Z</time>
      </trkpt>
      <trkpt lat="24.90838741901384" lon="118.54338765419861">
        <ele>7.833659840747714</ele>
        <time>2024-09-26T14:18:28Z</time>
      </trkpt>
      <trkpt lat="24.90813865164858" lon="118.54339587334633">
        <ele>7.878091531805694</ele>
        <time>2024-09-26T14:18:37Z</time>
      </trkpt>
      <trkpt lat="24.9079592314676" lon="118.54336696018053">
        <ele>7.84152230899781</ele>
        <time>2024-09-26T14:18:43Z</time>
      </trkpt>
      <trkpt lat="24.907744731448556" lon="118.54337399142635">
        <ele>7.694011000916362</ele>
        <time>2024-09-26T14:18:49Z</time>
      </trkpt>
      <trkpt lat="24.907647502244693" lon="118.54335368138611">
        <ele>7.879859599284828</ele>
        <time>2024-09-26T14:18:52Z</time>
      </trkpt>
      <trkpt lat="24.907571341819203" lon="118.54328222031666">
        <ele>7.910266590304673</ele>
        <time>2024-09-26T14:18:55Z</time>
      </trkpt>
      <trkpt lat="24.907563408390946" lon="118.54317670935663">
        <ele>7.35319544468075</ele>
        <time>2024-09-26T14:18:58Z</time>
      </trkpt>
      <trkpt lat="24.907665214204485" lon="118.54285948712099">
        <ele>7.250513515435159</ele>
        <time>2024-09-26T14:19:07Z</time>
      </trkpt>
      <trkpt lat="24.90777269726877" lon="118.54258617745093">
        <ele>7.709744267165661</ele>
        <time>2024-09-26T14:19:16Z</time>
      </trkpt>
      <trkpt lat="24.907867249620143" lon="118.5422943328017">
        <ele>8.14109256863594</ele>
        <time>2024-09-26T14:19:25Z</time>
      </trkpt>
      <trkpt lat="24.907960973164762" lon="118.54211336339334">
        <ele>8.123481404967606</ele>
        <time>2024-09-26T14:19:31Z</time>
      </trkpt>
      <trkpt lat="24.9080578390762" lon="118.54182311214332">
        <ele>8.280718019232154</ele>
        <time>2024-09-26T14:19:40Z</time>
      </trkpt>
      <trkpt lat="24.908170685668203" lon="118.54149559958555">
        <ele>9.377666253596544</ele>
        <time>2024-09-26T14:19:52Z</time>
      </trkpt>
      <trkpt lat="24.908187800170776" lon="118.54139334835">
        <ele>9.424100614152849</ele>
        <time>2024-09-26T14:19:55Z</time>
      </trkpt>
      <trkpt lat="24.90830386692868" lon="118.54118961285755">
        <ele>8.903120181523263</ele>
        <time>2024-09-26T14:20:01Z</time>
      </trkpt>
      <trkpt lat="24.908338146196787" lon="118.54109147222276">
        <ele>8.429764561355114</ele>
        <time>2024-09-26T14:20:04Z</time>
      </trkpt>
      <trkpt lat="24.90842655395462" lon="118.54099413844999">
        <ele>8.025638001039624</ele>
        <time>2024-09-26T14:20:07Z</time>
      </trkpt>
      <trkpt lat="24.908480538124408" lon="118.54088903300257">
        <ele>8.054979552514851</ele>
        <time>2024-09-26T14:20:10Z</time>
      </trkpt>
      <trkpt lat="24.908560237655852" lon="118.54059540089013">
        <ele>7.8570853704586625</ele>
        <time>2024-09-26T14:20:19Z</time>
      </trkpt>
      <trkpt lat="24.908711770145583" lon="118.54026252302083">
        <ele>7.708447279408574</ele>
        <time>2024-09-26T14:20:28Z</time>
      </trkpt>
      <trkpt lat="24.908811712341315" lon="118.5399240835827">
        <ele>8.014549928717315</ele>
        <time>2024-09-26T14:20:37Z</time>
      </trkpt>
      <trkpt lat="24.908875700332246" lon="118.53959823021516">
        <ele>7.687011205591261</ele>
        <time>2024-09-26T14:20:46Z</time>
      </trkpt>
      <trkpt lat="24.908905833700832" lon="118.53933298556768">
        <ele>7.646516660228372</ele>
        <time>2024-09-26T14:20:55Z</time>
      </trkpt>
      <trkpt lat="24.908952192507382" lon="118.5391489539379">
        <ele>7.707079577259719</ele>
        <time>2024-09-26T14:21:01Z</time>
      </trkpt>
      <trkpt lat="24.909059918420695" lon="118.53885566876554">
        <ele>7.7659485740587115</ele>
        <time>2024-09-26T14:21:10Z</time>
      </trkpt>
      <trkpt lat="24.90912359226862" lon="118.53855736265957">
        <ele>7.919231677427888</ele>
        <time>2024-09-26T14:21:19Z</time>
      </trkpt>
      <trkpt lat="24.90919995319297" lon="118.53823541659635">
        <ele>7.577722903341055</ele>
        <time>2024-09-26T14:21:28Z</time>
      </trkpt>
      <trkpt lat="24.909254254289895" lon="118.53792377159529">
        <ele>8.30831532087177</ele>
        <time>2024-09-26T14:21:37Z</time>
      </trkpt>
      <trkpt lat="24.909285847756284" lon="118.53772719642359">
        <ele>8.313857513479888</ele>
        <time>2024-09-26T14:21:43Z</time>
      </trkpt>
      <trkpt lat="24.909333877321615" lon="118.53761046043691">
        <ele>9.01776944566518</ele>
        <time>2024-09-26T14:21:46Z</time>
      </trkpt>
      <trkpt lat="24.9094017666101" lon="118.53740809326267">
        <ele>10.41118330694735</ele>
        <time>2024-09-26T14:21:52Z</time>
      </trkpt>
      <trkpt lat="24.909420793105472" lon="118.5372115000115">
        <ele>10.086684580892324</ele>
        <time>2024-09-26T14:21:58Z</time>
      </trkpt>
      <trkpt lat="24.909525159478054" lon="118.53684780364127">
        <ele>10.100990150123835</ele>
        <time>2024-09-26T14:22:07Z</time>
      </trkpt>
      <trkpt lat="24.909610803394408" lon="118.5365197656013">
        <ele>10.444794842973351</ele>
        <time>2024-09-26T14:22:16Z</time>
      </trkpt>
      <trkpt lat="24.909662452689062" lon="118.53621592914256">
        <ele>10.804047876037657</ele>
        <time>2024-09-26T14:22:25Z</time>
      </trkpt>
      <trkpt lat="24.909701846346053" lon="118.53591479840195">
        <ele>9.841272183693945</ele>
        <time>2024-09-26T14:22:34Z</time>
      </trkpt>
      <trkpt lat="24.909751004647628" lon="118.53556658769874">
        <ele>9.907815278507769</ele>
        <time>2024-09-26T14:22:43Z</time>
      </trkpt>
      <trkpt lat="24.90979843847886" lon="118.53522834980019">
        <ele>10.12062658648938</ele>
        <time>2024-09-26T14:22:52Z</time>
      </trkpt>
      <trkpt lat="24.909837246578736" lon="118.53482721404785">
        <ele>8.333778835833073</ele>
        <time>2024-09-26T14:23:04Z</time>
      </trkpt>
      <trkpt lat="24.909874582136624" lon="118.53451460020212">
        <ele>7.845655540935695</ele>
        <time>2024-09-26T14:23:13Z</time>
      </trkpt>
      <trkpt lat="24.909897687078985" lon="118.53430144479013">
        <ele>7.413142558187246</ele>
        <time>2024-09-26T14:23:19Z</time>
      </trkpt>
      <trkpt lat="24.90995230740239" lon="118.5339839936459">
        <ele>8.358630853705108</ele>
        <time>2024-09-26T14:23:28Z</time>
      </trkpt>
      <trkpt lat="24.90999746695176" lon="118.53387892217638">
        <ele>7.771976574324071</ele>
        <time>2024-09-26T14:23:31Z</time>
      </trkpt>
      <trkpt lat="24.910074343856135" lon="118.53380040218225">
        <ele>7.903543344698846</ele>
        <time>2024-09-26T14:23:34Z</time>
      </trkpt>
      <trkpt lat="24.910154483109526" lon="118.5337552286854">
        <ele>8.425802206620574</ele>
        <time>2024-09-26T14:23:37Z</time>
      </trkpt>
      <trkpt lat="24.91032378222921" lon="118.53373919964935">
        <ele>9.55560322292149</ele>
        <time>2024-09-26T14:23:43Z</time>
      </trkpt>
      <trkpt lat="24.910406392226047" lon="118.53370800534422">
        <ele>10.032586011104286</ele>
        <time>2024-09-26T14:23:46Z</time>
      </trkpt>
      <trkpt lat="24.91058482727371" lon="118.53359007738753">
        <ele>10.136261695064604</ele>
        <time>2024-09-26T14:23:52Z</time>
      </trkpt>
      <trkpt lat="24.910692950199138" lon="118.53357680982913">
        <ele>11.13153019361198</ele>
        <time>2024-09-26T14:23:55Z</time>
      </trkpt>
      <trkpt lat="24.911005116941453" lon="118.53365028640725">
        <ele>9.962396270595491</ele>
        <time>2024-09-26T14:24:04Z</time>
      </trkpt>
      <trkpt lat="24.91129725942161" lon="118.5336678578171">
        <ele>10.626497666351497</ele>
        <time>2024-09-26T14:24:13Z</time>
      </trkpt>
      <trkpt lat="24.91159055668534" lon="118.53369975395665">
        <ele>10.583966210484505</ele>
        <time>2024-09-26T14:24:22Z</time>
      </trkpt>
      <trkpt lat="24.911924512178313" lon="118.53371796370409">
        <ele>10.58086252771318</ele>
        <time>2024-09-26T14:24:32Z</time>
      </trkpt>
      <trkpt lat="24.912236105170063" lon="118.53371444505326">
        <ele>10.664978144690394</ele>
        <time>2024-09-26T14:24:41Z</time>
      </trkpt>
      <trkpt lat="24.912545423944795" lon="118.53370657593322">
        <ele>10.488440384157002</ele>
        <time>2024-09-26T14:24:50Z</time>
      </trkpt>
      <trkpt lat="24.912640792548526" lon="118.53372144486735">
        <ele>10.32765169814229</ele>
        <time>2024-09-26T14:24:53Z</time>
      </trkpt>
      <trkpt lat="24.912742382617665" lon="118.53370919777788">
        <ele>10.38114914111793</ele>
        <time>2024-09-26T14:24:56Z</time>
      </trkpt>
      <trkpt lat="24.912933664049127" lon="118.53372986513118">
        <ele>9.900869664736092</ele>
        <time>2024-09-26T14:25:02Z</time>
      </trkpt>
      <trkpt lat="24.913202870150805" lon="118.533809753315">
        <ele>10.50712676718831</ele>
        <time>2024-09-26T14:25:11Z</time>
      </trkpt>
      <trkpt lat="24.913533127259672" lon="118.53385326308062">
        <ele>10.352150938473642</ele>
        <time>2024-09-26T14:25:21Z</time>
      </trkpt>
      <trkpt lat="24.91385439497909" lon="118.53389810171107">
        <ele>10.352104935795069</ele>
        <time>2024-09-26T14:25:31Z</time>
      </trkpt>
      <trkpt lat="24.914161078278173" lon="118.53394096667907">
        <ele>10.370951474644244</ele>
        <time>2024-09-26T14:25:40Z</time>
      </trkpt>
      <trkpt lat="24.914440514101617" lon="118.53399125383392">
        <ele>11.37076672166586</ele>
        <time>2024-09-26T14:25:49Z</time>
      </trkpt>
      <trkpt lat="24.914714964977772" lon="118.53405200217412">
        <ele>12.490727447904646</ele>
        <time>2024-09-26T14:25:58Z</time>
      </trkpt>
      <trkpt lat="24.915023244928907" lon="118.53409746942448">
        <ele>12.808843814767897</ele>
        <time>2024-09-26T14:26:07Z</time>
      </trkpt>
      <trkpt lat="24.91531280686938" lon="118.53412073590339">
        <ele>12.872559973970056</ele>
        <time>2024-09-26T14:26:16Z</time>
      </trkpt>
      <trkpt lat="24.915398632576665" lon="118.53414970150291">
        <ele>12.446570075117052</ele>
        <time>2024-09-26T14:26:19Z</time>
      </trkpt>
      <trkpt lat="24.91541946012148" lon="118.53422148500053">
        <ele>12.34343721717596</ele>
        <time>2024-09-26T14:26:22Z</time>
      </trkpt>
    </trkseg>
  </trk>
</gpx>