<?xml version="1.0" encoding="UTF-8"?>
<gpx xmlns="http://www.topografix.com/GPX/1/1" xmlns:gpxtpx="http://www.garmin.com/xmlschemas/TrackPointExtension/v1" xmlns:xsi="http://www.w3.org/2001/XMLSchema-instance" xsi:schemaLocation="http://www.topografix.com/GPX/1/1 http://www.topografix.com/GPX/1/1/gpx.xsd" version="1.1" creator="gpx.py -- https://github.com/tkrajina/gpxpy">
  <trk>
    <name>gpx from keep</name>
    <type>Run</type>
    <trkseg>
      <trkpt lat="24.910767225310657" lon="118.53856202215036">
        <ele>9.759006195701659</ele>
        <time>2024-09-01T14:01:03Z</time>
      </trkpt>
      <trkpt lat="24.910724979049636" lon="118.53854334564274">
        <ele>9.737423780374229</ele>
        <time>2024-09-01T14:01:06Z</time>
      </trkpt>
      <trkpt lat="24.910406631708387" lon="118.53849719580606">
        <ele>9.31759990658611</ele>
        <time>2024-09-01T14:01:15Z</time>
      </trkpt>
      <trkpt lat="24.910117205597174" lon="118.53841609253482">
        <ele>9.026144934818149</ele>
        <time>2024-09-01T14:01:24Z</time>
      </trkpt>
      <trkpt lat="24.90984906408633" lon="118.53835829002307">
        <ele>8.61612307652831</ele>
        <time>2024-09-01T14:01:33Z</time>
      </trkpt>
      <trkpt lat="24.909752617692703" lon="118.53834695436473">
        <ele>7.934667073190212</ele>
        <time>2024-09-01T14:01:36Z</time>
      </trkpt>
      <trkpt lat="24.909650542395052" lon="118.53836457415409">
        <ele>7.722967284731567</ele>
        <time>2024-09-01T14:01:39Z</time>
      </trkpt>
      <trkpt lat="24.909556844697615" lon="118.53833734826853">
        <ele>7.38341629691422</ele>
        <time>2024-09-01T14:01:42Z</time>
      </trkpt>
      <trkpt lat="24.90943754918126" lon="118.53836555748897">
        <ele>7.319852072745562</ele>
        <time>2024-09-01T14:01:45Z</time>
      </trkpt>
      <trkpt lat="24.90934588629234" lon="118.53835101010151">
        <ele>7.729626167565584</ele>
        <time>2024-09-01T14:01:48Z</time>
      </trkpt>
      <trkpt lat="24.909248328126388" lon="118.53836639974959">
        <ele>7.461822293698788</ele>
        <time>2024-09-01T14:01:51Z</time>
      </trkpt>
      <trkpt lat="24.90911762502758" lon="118.53826903507051">
        <ele>7.497227093204856</ele>
        <time>2024-09-01T14:01:57Z</time>
      </trkpt>
      <trkpt lat="24.909163389470745" lon="118.53817793041145">
        <ele>7.397143106907606</ele>
        <time>2024-09-01T14:02:00Z</time>
      </trkpt>
      <trkpt lat="24.909234300971995" lon="118.53790447200068">
        <ele>7.280152791179717</ele>
        <time>2024-09-01T14:02:09Z</time>
      </trkpt>
      <trkpt lat="24.909270678235153" lon="118.53781564623972">
        <ele>7.2225282760336995</ele>
        <time>2024-09-01T14:02:12Z</time>
      </trkpt>
      <trkpt lat="24.909327149567766" lon="118.53750495148981">
        <ele>8.872464396990836</ele>
        <time>2024-09-01T14:02:21Z</time>
      </trkpt>
      <trkpt lat="24.909325636150093" lon="118.53733065713519">
        <ele>9.309322526678443</ele>
        <time>2024-09-01T14:02:27Z</time>
      </trkpt>
      <trkpt lat="24.909352852524673" lon="118.53714801906939">
        <ele>9.026645228266716</ele>
        <time>2024-09-01T14:02:33Z</time>
      </trkpt>
      <trkpt lat="24.909458617012778" lon="118.53683132480732">
        <ele>11.022311557084322</ele>
        <time>2024-09-01T14:02:43Z</time>
      </trkpt>
      <trkpt lat="24.909565664429543" lon="118.53645965213471">
        <ele>10.228052667342126</ele>
        <time>2024-09-01T14:02:56Z</time>
      </trkpt>
      <trkpt lat="24.90959720074116" lon="118.53611668705882">
        <ele>9.787420247681439</ele>
        <time>2024-09-01T14:03:08Z</time>
      </trkpt>
      <trkpt lat="24.90962904838848" lon="118.53592537061704">
        <ele>9.316324819810688</ele>
        <time>2024-09-01T14:03:14Z</time>
      </trkpt>
      <trkpt lat="24.90961790703535" lon="118.53582251311737">
        <ele>9.815103605389595</ele>
        <time>2024-09-01T14:03:17Z</time>
      </trkpt>
      <trkpt lat="24.909696390216148" lon="118.53545563664294">
        <ele>9.59974655508995</ele>
        <time>2024-09-01T14:03:29Z</time>
      </trkpt>
      <trkpt lat="24.909744814377245" lon="118.53514991205483">
        <ele>9.543697553686798</ele>
        <time>2024-09-01T14:03:38Z</time>
      </trkpt>
      <trkpt lat="24.909740125650735" lon="118.53489593932035">
        <ele>8.000238974578679</ele>
        <time>2024-09-01T14:03:47Z</time>
      </trkpt>
      <trkpt lat="24.909796915870295" lon="118.5345887388468">
        <ele>7.366919438354671</ele>
        <time>2024-09-01T14:03:59Z</time>
      </trkpt>
      <trkpt lat="24.909790819637855" lon="118.53450931350355">
        <ele>7.659456514753401</ele>
        <time>2024-09-01T14:04:02Z</time>
      </trkpt>
      <trkpt lat="24.909843401906244" lon="118.53420441834618">
        <ele>7.540618303231895</ele>
        <time>2024-09-01T14:04:11Z</time>
      </trkpt>
      <trkpt lat="24.909859043015345" lon="118.53401895142095">
        <ele>7.2044659573584795</ele>
        <time>2024-09-01T14:04:17Z</time>
      </trkpt>
      <trkpt lat="24.909885964946117" lon="118.53394818725376">
        <ele>6.7905190931633115</ele>
        <time>2024-09-01T14:04:20Z</time>
      </trkpt>
      <trkpt lat="24.909973061670975" lon="118.53382679674942">
        <ele>6.9534286158159375</ele>
        <time>2024-09-01T14:04:26Z</time>
      </trkpt>
      <trkpt lat="24.910055098781086" lon="118.53381351406024">
        <ele>7.6105912029743195</ele>
        <time>2024-09-01T14:04:29Z</time>
      </trkpt>
      <trkpt lat="24.91012623938627" lon="118.53377977258053">
        <ele>7.711862804368138</ele>
        <time>2024-09-01T14:04:32Z</time>
      </trkpt>
      <trkpt lat="24.910206480957758" lon="118.53377474535976">
        <ele>8.808110150508583</ele>
        <time>2024-09-01T14:04:35Z</time>
      </trkpt>
      <trkpt lat="24.910276923789908" lon="118.5337415368472">
        <ele>9.378431755118072</ele>
        <time>2024-09-01T14:04:38Z</time>
      </trkpt>
      <trkpt lat="24.910559159003654" lon="118.53369801227961">
        <ele>10.000787921249866</ele>
        <time>2024-09-01T14:04:48Z</time>
      </trkpt>
      <trkpt lat="24.910687405881415" lon="118.53367493928468">
        <ele>10.153990891762078</ele>
        <time>2024-09-01T14:04:52Z</time>
      </trkpt>
      <trkpt lat="24.91091540552096" lon="118.53370679699785">
        <ele>10.147351096384227</ele>
        <time>2024-09-01T14:05:00Z</time>
      </trkpt>
      <trkpt lat="24.911096820160274" lon="118.53368653647848">
        <ele>9.990323317237198</ele>
        <time>2024-09-01T14:05:06Z</time>
      </trkpt>
      <trkpt lat="24.911167628576226" lon="118.53370797756027">
        <ele>10.428047102876008</ele>
        <time>2024-09-01T14:05:09Z</time>
      </trkpt>
      <trkpt lat="24.91149531555961" lon="118.53373204764597">
        <ele>10.094129086472094</ele>
        <time>2024-09-01T14:05:21Z</time>
      </trkpt>
      <trkpt lat="24.911794564318914" lon="118.53371210669108">
        <ele>10.111531908623874</ele>
        <time>2024-09-01T14:05:33Z</time>
      </trkpt>
      <trkpt lat="24.91212990183632" lon="118.53371280238433">
        <ele>10.369689376093447</ele>
        <time>2024-09-01T14:05:45Z</time>
      </trkpt>
      <trkpt lat="24.91246292137487" lon="118.5336988789956">
        <ele>10.57399898674339</ele>
        <time>2024-09-01T14:05:57Z</time>
      </trkpt>
      <trkpt lat="24.912787466840204" lon="118.53371303102469">
        <ele>10.31831728387624</ele>
        <time>2024-09-01T14:06:09Z</time>
      </trkpt>
      <trkpt lat="24.913003686829715" lon="118.53374814029198">
        <ele>10.368507131934166</ele>
        <time>2024-09-01T14:06:18Z</time>
      </trkpt>
      <trkpt lat="24.913137723588807" lon="118.53382386141928">
        <ele>9.595923205837607</ele>
        <time>2024-09-01T14:06:24Z</time>
      </trkpt>
      <trkpt lat="24.91343459407247" lon="118.53387012052201">
        <ele>9.567407139576972</ele>
        <time>2024-09-01T14:06:36Z</time>
      </trkpt>
      <trkpt lat="24.913584606189126" lon="118.53386348696705">
        <ele>10.307669808156788</ele>
        <time>2024-09-01T14:06:42Z</time>
      </trkpt>
      <trkpt lat="24.913895666038687" lon="118.53391424590072">
        <ele>10.452776952646673</ele>
        <time>2024-09-01T14:06:54Z</time>
      </trkpt>
      <trkpt lat="24.914192443655192" lon="118.53395954631718">
        <ele>10.693063665181398</ele>
        <time>2024-09-01T14:07:06Z</time>
      </trkpt>
      <trkpt lat="24.914497419694037" lon="118.534016309279">
        <ele>11.80314994417131</ele>
        <time>2024-09-01T14:07:18Z</time>
      </trkpt>
      <trkpt lat="24.914811214491415" lon="118.534080874459">
        <ele>12.403405301272869</ele>
        <time>2024-09-01T14:07:30Z</time>
      </trkpt>
      <trkpt lat="24.915143414647975" lon="118.53411697020847">
        <ele>12.593678497709334</ele>
        <time>2024-09-01T14:07:42Z</time>
      </trkpt>
      <trkpt lat="24.915290726321583" lon="118.53414398603789">
        <ele>12.372668286785483</ele>
        <time>2024-09-01T14:07:48Z</time>
      </trkpt>
      <trkpt lat="24.91535455888471" lon="118.53418147731938">
        <ele>12.035027084872127</ele>
        <time>2024-09-01T14:07:51Z</time>
      </trkpt>
      <trkpt lat="24.915357647254012" lon="118.53426308137321">
        <ele>11.599880546331406</ele>
        <time>2024-09-01T14:07:54Z</time>
      </trkpt>
      <trkpt lat="24.915307852469095" lon="118.53443256917048">
        <ele>11.06390760652721</ele>
        <time>2024-09-01T14:08:00Z</time>
      </trkpt>
      <trkpt lat="24.915156803255346" lon="118.53472796111507">
        <ele>12.411676459945738</ele>
        <time>2024-09-01T14:08:12Z</time>
      </trkpt>
      <trkpt lat="24.915079255033653" lon="118.53507212525406">
        <ele>12.885472536087036</ele>
        <time>2024-09-01T14:08:24Z</time>
      </trkpt>
      <trkpt lat="24.915023499661316" lon="118.53531042098359">
        <ele>12.817882555536926</ele>
        <time>2024-09-01T14:08:33Z</time>
      </trkpt>
      <trkpt lat="24.91502662511726" lon="118.53547301629999">
        <ele>13.215873699635267</ele>
        <time>2024-09-01T14:08:39Z</time>
      </trkpt>
      <trkpt lat="24.915052058286967" lon="118.53555826429006">
        <ele>13.013767442665994</ele>
        <time>2024-09-01T14:08:42Z</time>
      </trkpt>
      <trkpt lat="24.9150237735628" lon="118.53589421481034">
        <ele>14.519225923344493</ele>
        <time>2024-09-01T14:08:54Z</time>
      </trkpt>
      <trkpt lat="24.91503964595843" lon="118.53621359787064">
        <ele>14.594177575781941</ele>
        <time>2024-09-01T14:09:06Z</time>
      </trkpt>
      <trkpt lat="24.91505431163421" lon="118.53652711676497">
        <ele>14.500111778266728</ele>
        <time>2024-09-01T14:09:18Z</time>
      </trkpt>
      <trkpt lat="24.915085850691472" lon="118.53683008700341">
        <ele>14.326868788339198</ele>
        <time>2024-09-01T14:09:27Z</time>
      </trkpt>
      <trkpt lat="24.915144344991212" lon="118.53713008969306">
        <ele>14.621507690288126</ele>
        <time>2024-09-01T14:09:36Z</time>
      </trkpt>
      <trkpt lat="24.915228739430912" lon="118.53738511147795">
        <ele>14.548151039518416</ele>
        <time>2024-09-01T14:09:45Z</time>
      </trkpt>
      <trkpt lat="24.915366002765204" lon="118.53767913134915">
        <ele>14.676925740204751</ele>
        <time>2024-09-01T14:09:57Z</time>
      </trkpt>
      <trkpt lat="24.91543900975957" lon="118.53781871336447">
        <ele>14.7725481800735</ele>
        <time>2024-09-01T14:10:03Z</time>
      </trkpt>
      <trkpt lat="24.915546637658124" lon="118.53815215125405">
        <ele>15.104602279141545</ele>
        <time>2024-09-01T14:10:15Z</time>
      </trkpt>
      <trkpt lat="24.915658646029417" lon="118.53843500460768">
        <ele>15.767062320373952</ele>
        <time>2024-09-01T14:10:27Z</time>
      </trkpt>
      <trkpt lat="24.915724101884525" lon="118.53873388586698">
        <ele>15.430682064034045</ele>
        <time>2024-09-01T14:10:39Z</time>
      </trkpt>
      <trkpt lat="24.915787600483736" lon="118.53892569538287">
        <ele>15.211143533699214</ele>
        <time>2024-09-01T14:10:45Z</time>
      </trkpt>
      <trkpt lat="24.91580172027055" lon="118.53902948114163">
        <ele>14.94675868935883</ele>
        <time>2024-09-01T14:10:48Z</time>
      </trkpt>
      <trkpt lat="24.915882852265447" lon="118.53923425662353">
        <ele>14.287670803256333</ele>
        <time>2024-09-01T14:10:54Z</time>
      </trkpt>
      <trkpt lat="24.91596639320004" lon="118.53953378434267">
        <ele>13.447624465450644</ele>
        <time>2024-09-01T14:11:03Z</time>
      </trkpt>
      <trkpt lat="24.91604994023143" lon="118.5398448684603">
        <ele>12.570594404824078</ele>
        <time>2024-09-01T14:11:15Z</time>
      </trkpt>
      <trkpt lat="24.916170053236872" lon="118.54014921675744">
        <ele>11.951342668384314</ele>
        <time>2024-09-01T14:11:24Z</time>
      </trkpt>
      <trkpt lat="24.91623342771714" lon="118.54034000740019">
        <ele>11.921637416817248</ele>
        <time>2024-09-01T14:11:30Z</time>
      </trkpt>
      <trkpt lat="24.916291593105502" lon="118.54041782845474">
        <ele>11.875724846497178</ele>
        <time>2024-09-01T14:11:33Z</time>
      </trkpt>
      <trkpt lat="24.916357882835484" lon="118.5406980840311">
        <ele>12.304829243570566</ele>
        <time>2024-09-01T14:11:42Z</time>
      </trkpt>
      <trkpt lat="24.916351241393745" lon="118.54087627449358">
        <ele>12.46627642493695</ele>
        <time>2024-09-01T14:11:48Z</time>
      </trkpt>
      <trkpt lat="24.916411166548958" lon="118.54106676145207">
        <ele>12.551856907084584</ele>
        <time>2024-09-01T14:11:54Z</time>
      </trkpt>
      <trkpt lat="24.916509671397254" lon="118.54126935382399">
        <ele>12.425556338392198</ele>
        <time>2024-09-01T14:12:00Z</time>
      </trkpt>
      <trkpt lat="24.91655586870144" lon="118.5416438212711">
        <ele>12.386983774602413</ele>
        <time>2024-09-01T14:12:12Z</time>
      </trkpt>
      <trkpt lat="24.916494207014082" lon="118.54182551739308">
        <ele>11.904886757954955</ele>
        <time>2024-09-01T14:12:18Z</time>
      </trkpt>
      <trkpt lat="24.916388073196206" lon="118.54185699430373">
        <ele>11.51752327568829</ele>
        <time>2024-09-01T14:12:21Z</time>
      </trkpt>
      <trkpt lat="24.91602676243409" lon="118.541956196415">
        <ele>12.145429696887732</ele>
        <time>2024-09-01T14:12:33Z</time>
      </trkpt>
      <trkpt lat="24.91574995297563" lon="118.54205030083607">
        <ele>12.01395106408745</ele>
        <time>2024-09-01T14:12:45Z</time>
      </trkpt>
      <trkpt lat="24.915405402089718" lon="118.542161344788">
        <ele>12.028299366123974</ele>
        <time>2024-09-01T14:12:57Z</time>
      </trkpt>
      <trkpt lat="24.915132285278993" lon="118.54224326931435">
        <ele>12.076321745291352</ele>
        <time>2024-09-01T14:13:06Z</time>
      </trkpt>
      <trkpt lat="24.914828910192686" lon="118.54234999248652">
        <ele>11.487510901875794</ele>
        <time>2024-09-01T14:13:18Z</time>
      </trkpt>
      <trkpt lat="24.914598159238473" lon="118.54238696077546">
        <ele>9.99482050165534</ele>
        <time>2024-09-01T14:13:27Z</time>
      </trkpt>
      <trkpt lat="24.91428451493124" lon="118.54248280238438">
        <ele>9.947500091046095</ele>
        <time>2024-09-01T14:13:39Z</time>
      </trkpt>
      <trkpt lat="24.91402392248831" lon="118.54254323836992">
        <ele>9.846211672760546</ele>
        <time>2024-09-01T14:13:48Z</time>
      </trkpt>
      <trkpt lat="24.91369656787817" lon="118.54266142033906">
        <ele>9.052207401953638</ele>
        <time>2024-09-01T14:14:00Z</time>
      </trkpt>
      <trkpt lat="24.91336078040038" lon="118.54273622406473">
        <ele>8.347089959308505</ele>
        <time>2024-09-01T14:14:12Z</time>
      </trkpt>
      <trkpt lat="24.91310865343805" lon="118.54280852403602">
        <ele>7.671379660256207</ele>
        <time>2024-09-01T14:14:21Z</time>
      </trkpt>
      <trkpt lat="24.913026135829426" lon="118.54281309517619">
        <ele>7.504406639374793</ele>
        <time>2024-09-01T14:14:24Z</time>
      </trkpt>
      <trkpt lat="24.912737859150344" lon="118.54287939332397">
        <ele>8.855396524071693</ele>
        <time>2024-09-01T14:14:36Z</time>
      </trkpt>
      <trkpt lat="24.912443122131247" lon="118.54297350128952">
        <ele>8.85334029700607</ele>
        <time>2024-09-01T14:14:48Z</time>
      </trkpt>
      <trkpt lat="24.912141137002344" lon="118.54305807154094">
        <ele>8.04261888191104</ele>
        <time>2024-09-01T14:15:00Z</time>
      </trkpt>
      <trkpt lat="24.912064256744912" lon="118.54306773394376">
        <ele>7.681071716360748</ele>
        <time>2024-09-01T14:15:03Z</time>
      </trkpt>
      <trkpt lat="24.911990325479312" lon="118.54310543997765">
        <ele>7.692977522499859</ele>
        <time>2024-09-01T14:15:06Z</time>
      </trkpt>
      <trkpt lat="24.911688294316626" lon="118.54316815400826">
        <ele>8.061753148213029</ele>
        <time>2024-09-01T14:15:18Z</time>
      </trkpt>
      <trkpt lat="24.911338933489684" lon="118.5432271833626">
        <ele>8.447233404964209</ele>
        <time>2024-09-01T14:15:30Z</time>
      </trkpt>
      <trkpt lat="24.91117131539011" lon="118.54327701233979">
        <ele>8.304808730259538</ele>
        <time>2024-09-01T14:15:36Z</time>
      </trkpt>
      <trkpt lat="24.91081653194012" lon="118.54331293562402">
        <ele>7.77312858402729</ele>
        <time>2024-09-01T14:15:48Z</time>
      </trkpt>
      <trkpt lat="24.910493184375774" lon="118.54332414413042">
        <ele>7.585566438734531</ele>
        <time>2024-09-01T14:16:00Z</time>
      </trkpt>
      <trkpt lat="24.910154441808867" lon="118.54333734391359">
        <ele>7.584081826731563</ele>
        <time>2024-09-01T14:16:12Z</time>
      </trkpt>
      <trkpt lat="24.909974819562827" lon="118.5433262956591">
        <ele>7.648913276381791</ele>
        <time>2024-09-01T14:16:18Z</time>
      </trkpt>
      <trkpt lat="24.909874913938623" lon="118.54335039255557">
        <ele>7.325258689932525</ele>
        <time>2024-09-01T14:16:21Z</time>
      </trkpt>
      <trkpt lat="24.90954069117503" lon="118.54335135387487">
        <ele>6.60974005330354</ele>
        <time>2024-09-01T14:16:33Z</time>
      </trkpt>
      <trkpt lat="24.90948026641461" lon="118.54336655553878">
        <ele>7.06662586890161</ele>
        <time>2024-09-01T14:16:36Z</time>
      </trkpt>
      <trkpt lat="24.909326704859488" lon="118.54333084589832">
        <ele>6.995488394983113</ele>
        <time>2024-09-01T14:16:42Z</time>
      </trkpt>
      <trkpt lat="24.90905354391966" lon="118.5433272006924">
        <ele>7.196913606487215</ele>
        <time>2024-09-01T14:16:51Z</time>
      </trkpt>
      <trkpt lat="24.908777302959038" lon="118.54332090547322">
        <ele>7.2916990565136075</ele>
        <time>2024-09-01T14:17:00Z</time>
      </trkpt>
      <trkpt lat="24.908499630589567" lon="118.5433455967841">
        <ele>6.98070636484772</ele>
        <time>2024-09-01T14:17:09Z</time>
      </trkpt>
      <trkpt lat="24.908196376986336" lon="118.54335458777187">
        <ele>8.28804948553443</ele>
        <time>2024-09-01T14:17:21Z</time>
      </trkpt>
      <trkpt lat="24.908084874091898" lon="118.54336926334659">
        <ele>8.381719036959112</ele>
        <time>2024-09-01T14:17:27Z</time>
      </trkpt>
    </trkseg>
  </trk>
</gpx>