<?xml version="1.0" encoding="UTF-8"?>
<gpx xmlns="http://www.topografix.com/GPX/1/1" xmlns:gpxtpx="http://www.garmin.com/xmlschemas/TrackPointExtension/v1" xmlns:xsi="http://www.w3.org/2001/XMLSchema-instance" xsi:schemaLocation="http://www.topografix.com/GPX/1/1 http://www.topografix.com/GPX/1/1/gpx.xsd" version="1.1" creator="gpx.py -- https://github.com/tkrajina/gpxpy">
  <trk>
    <name>gpx from keep</name>
    <type>Run</type>
    <trkseg>
      <trkpt lat="24.91123610515755" lon="118.5373625945239">
        <ele>10.837753889274833</ele>
        <time>2025-06-10T12:57:05Z</time>
      </trkpt>
      <trkpt lat="24.911091439150905" lon="118.53770398298165">
        <ele>10.504063002765179</ele>
        <time>2025-06-10T12:57:16Z</time>
      </trkpt>
      <trkpt lat="24.910981615890933" lon="118.53796149502823">
        <ele>10.054141905158758</ele>
        <time>2025-06-10T12:57:24Z</time>
      </trkpt>
      <trkpt lat="24.910845369628596" lon="118.53820280903147">
        <ele>10.651435465551913</ele>
        <time>2025-06-10T12:57:33Z</time>
      </trkpt>
      <trkpt lat="24.910774228576244" lon="118.53840911205064">
        <ele>9.969460191205144</ele>
        <time>2025-06-10T12:57:39Z</time>
      </trkpt>
      <trkpt lat="24.910774404176376" lon="118.53849576463642">
        <ele>10.126940630376339</ele>
        <time>2025-06-10T12:57:42Z</time>
      </trkpt>
      <trkpt lat="24.91080408428206" lon="118.53860523646796">
        <ele>10.531666410155594</ele>
        <time>2025-06-10T12:57:45Z</time>
      </trkpt>
      <trkpt lat="24.910880043530916" lon="118.53866847508708">
        <ele>10.408434526063502</ele>
        <time>2025-06-10T12:57:48Z</time>
      </trkpt>
      <trkpt lat="24.911142643320815" lon="118.53876917493105">
        <ele>9.359523211605847</ele>
        <time>2025-06-10T12:57:57Z</time>
      </trkpt>
      <trkpt lat="24.91116599969267" lon="118.53886638302511">
        <ele>8.627698582597077</ele>
        <time>2025-06-10T12:58:00Z</time>
      </trkpt>
      <trkpt lat="24.911074311952138" lon="118.53925060203956">
        <ele>7.668685959652066</ele>
        <time>2025-06-10T12:58:12Z</time>
      </trkpt>
      <trkpt lat="24.91097934796121" lon="118.53963127385782">
        <ele>7.569262160919607</ele>
        <time>2025-06-10T12:58:24Z</time>
      </trkpt>
      <trkpt lat="24.91088331714864" lon="118.53989856963265">
        <ele>7.887389219366014</ele>
        <time>2025-06-10T12:58:33Z</time>
      </trkpt>
      <trkpt lat="24.910838567529574" lon="118.54028708372881">
        <ele>6.941094242967665</ele>
        <time>2025-06-10T12:58:45Z</time>
      </trkpt>
      <trkpt lat="24.910790432845708" lon="118.54037275190039">
        <ele>7.395133411511779</ele>
        <time>2025-06-10T12:58:48Z</time>
      </trkpt>
      <trkpt lat="24.91073965301538" lon="118.54066623130284">
        <ele>7.6497237998992205</ele>
        <time>2025-06-10T12:58:57Z</time>
      </trkpt>
      <trkpt lat="24.910694646294026" lon="118.54096900628731">
        <ele>7.661735061556101</ele>
        <time>2025-06-10T12:59:07Z</time>
      </trkpt>
      <trkpt lat="24.910661864760435" lon="118.54108406708475">
        <ele>7.536891988478601</ele>
        <time>2025-06-10T12:59:11Z</time>
      </trkpt>
      <trkpt lat="24.910606784860132" lon="118.54119783340278">
        <ele>8.192157414741814</ele>
        <time>2025-06-10T12:59:15Z</time>
      </trkpt>
      <trkpt lat="24.910520472034513" lon="118.54130150985502">
        <ele>7.665042573586106</ele>
        <time>2025-06-10T12:59:19Z</time>
      </trkpt>
      <trkpt lat="24.91042079909731" lon="118.54137821698488">
        <ele>7.7624518340453506</ele>
        <time>2025-06-10T12:59:22Z</time>
      </trkpt>
      <trkpt lat="24.910345000435345" lon="118.54147984592716">
        <ele>7.7723434418439865</ele>
        <time>2025-06-10T12:59:25Z</time>
      </trkpt>
      <trkpt lat="24.910140543206474" lon="118.54165933130277">
        <ele>8.00783210247755</ele>
        <time>2025-06-10T12:59:31Z</time>
      </trkpt>
      <trkpt lat="24.91010104292497" lon="118.54176751335655">
        <ele>7.66296296287328</ele>
        <time>2025-06-10T12:59:34Z</time>
      </trkpt>
      <trkpt lat="24.910166282283264" lon="118.54213099954437">
        <ele>7.734363234601915</ele>
        <time>2025-06-10T12:59:43Z</time>
      </trkpt>
      <trkpt lat="24.910185861391206" lon="118.54230660069847">
        <ele>7.500574106350541</ele>
        <time>2025-06-10T12:59:49Z</time>
      </trkpt>
      <trkpt lat="24.910170336039045" lon="118.54239647037912">
        <ele>7.6780752232298255</ele>
        <time>2025-06-10T12:59:52Z</time>
      </trkpt>
      <trkpt lat="24.910184605736802" lon="118.54275433131255">
        <ele>8.261543720960617</ele>
        <time>2025-06-10T13:00:01Z</time>
      </trkpt>
      <trkpt lat="24.910185655937124" lon="118.54285684598614">
        <ele>8.289028076454997</ele>
        <time>2025-06-10T13:00:04Z</time>
      </trkpt>
      <trkpt lat="24.910136328209266" lon="118.54304499375735">
        <ele>7.939904321916401</ele>
        <time>2025-06-10T13:00:10Z</time>
      </trkpt>
      <trkpt lat="24.910167617097063" lon="118.54321653026119">
        <ele>8.16403147391975</ele>
        <time>2025-06-10T13:00:16Z</time>
      </trkpt>
      <trkpt lat="24.9101285534208" lon="118.54329224662601">
        <ele>7.8394200364127755</ele>
        <time>2025-06-10T13:00:19Z</time>
      </trkpt>
      <trkpt lat="24.91017543855291" lon="118.54335854783062">
        <ele>8.364494645036757</ele>
        <time>2025-06-10T13:00:22Z</time>
      </trkpt>
      <trkpt lat="24.910387382940026" lon="118.54338006971774">
        <ele>7.484737568534911</ele>
        <time>2025-06-10T13:00:31Z</time>
      </trkpt>
      <trkpt lat="24.910649804981468" lon="118.54333917660361">
        <ele>7.508177701383829</ele>
        <time>2025-06-10T13:00:40Z</time>
      </trkpt>
      <trkpt lat="24.91073977594249" lon="118.54330909335776">
        <ele>7.751998255960643</ele>
        <time>2025-06-10T13:00:43Z</time>
      </trkpt>
      <trkpt lat="24.910927900555937" lon="118.54332258666125">
        <ele>7.7514732126146555</ele>
        <time>2025-06-10T13:00:49Z</time>
      </trkpt>
      <trkpt lat="24.911260760186344" lon="118.54326314976807">
        <ele>8.242005728185177</ele>
        <time>2025-06-10T13:01:01Z</time>
      </trkpt>
      <trkpt lat="24.911438326184335" lon="118.54324120455139">
        <ele>8.386858450248837</ele>
        <time>2025-06-10T13:01:07Z</time>
      </trkpt>
      <trkpt lat="24.911531476010385" lon="118.54320680712941">
        <ele>8.143956103362143</ele>
        <time>2025-06-10T13:01:10Z</time>
      </trkpt>
      <trkpt lat="24.91189911294905" lon="118.54313635427286">
        <ele>8.756062912754714</ele>
        <time>2025-06-10T13:01:22Z</time>
      </trkpt>
      <trkpt lat="24.912155689127353" lon="118.54309128673744">
        <ele>7.807085660286248</ele>
        <time>2025-06-10T13:01:30Z</time>
      </trkpt>
      <trkpt lat="24.912493603161337" lon="118.54297709583959">
        <ele>8.301192289218307</ele>
        <time>2025-06-10T13:01:41Z</time>
      </trkpt>
      <trkpt lat="24.912780242852467" lon="118.542895020153">
        <ele>8.772884010337293</ele>
        <time>2025-06-10T13:01:50Z</time>
      </trkpt>
      <trkpt lat="24.91304773870381" lon="118.54281503371656">
        <ele>8.55227047111839</ele>
        <time>2025-06-10T13:01:59Z</time>
      </trkpt>
      <trkpt lat="24.91333124394707" lon="118.5427787154343">
        <ele>7.781042301096022</ele>
        <time>2025-06-10T13:02:08Z</time>
      </trkpt>
      <trkpt lat="24.91360661936781" lon="118.54272682667278">
        <ele>8.319495369680226</ele>
        <time>2025-06-10T13:02:17Z</time>
      </trkpt>
      <trkpt lat="24.913876394108584" lon="118.54266106235082">
        <ele>8.999332702718675</ele>
        <time>2025-06-10T13:02:26Z</time>
      </trkpt>
      <trkpt lat="24.914055618696562" lon="118.54260931899304">
        <ele>9.030871932394803</ele>
        <time>2025-06-10T13:02:32Z</time>
      </trkpt>
      <trkpt lat="24.914108808100536" lon="118.54255197271664">
        <ele>10.408607461489737</ele>
        <time>2025-06-10T13:02:35Z</time>
      </trkpt>
      <trkpt lat="24.9144436467806" lon="118.5424322038341">
        <ele>9.773294690996408</ele>
        <time>2025-06-10T13:02:47Z</time>
      </trkpt>
      <trkpt lat="24.914722058555665" lon="118.54237587510724">
        <ele>9.559445890597999</ele>
        <time>2025-06-10T13:02:56Z</time>
      </trkpt>
      <trkpt lat="24.91488746818721" lon="118.54230716841825">
        <ele>10.1849584588781</ele>
        <time>2025-06-10T13:03:02Z</time>
      </trkpt>
      <trkpt lat="24.91509860886992" lon="118.54227696092742">
        <ele>11.383698457852006</ele>
        <time>2025-06-10T13:03:08Z</time>
      </trkpt>
      <trkpt lat="24.915370333131428" lon="118.54218377665309">
        <ele>12.235439128242433</ele>
        <time>2025-06-10T13:03:17Z</time>
      </trkpt>
      <trkpt lat="24.915650858719918" lon="118.54209770622725">
        <ele>12.47513568866998</ele>
        <time>2025-06-10T13:03:26Z</time>
      </trkpt>
      <trkpt lat="24.915987121078786" lon="118.54204242471823">
        <ele>12.592734303325415</ele>
        <time>2025-06-10T13:03:35Z</time>
      </trkpt>
      <trkpt lat="24.916244930463137" lon="118.54192437988735">
        <ele>12.823657185770571</ele>
        <time>2025-06-10T13:03:44Z</time>
      </trkpt>
      <trkpt lat="24.916330573383515" lon="118.54189377685495">
        <ele>12.91927728522569</ele>
        <time>2025-06-10T13:03:47Z</time>
      </trkpt>
      <trkpt lat="24.916429278270417" lon="118.54178975552425">
        <ele>12.376641847193241</ele>
        <time>2025-06-10T13:03:53Z</time>
      </trkpt>
      <trkpt lat="24.916564473680435" lon="118.54174441796336">
        <ele>12.346208062022924</ele>
        <time>2025-06-10T13:03:59Z</time>
      </trkpt>
      <trkpt lat="24.916638278396114" lon="118.54170022965441">
        <ele>12.262523642741144</ele>
        <time>2025-06-10T13:04:02Z</time>
      </trkpt>
      <trkpt lat="24.916814614274518" lon="118.5416601301458">
        <ele>11.94168183580041</ele>
        <time>2025-06-10T13:04:08Z</time>
      </trkpt>
      <trkpt lat="24.916884839737815" lon="118.54167907493023">
        <ele>11.926415546797216</ele>
        <time>2025-06-10T13:04:11Z</time>
      </trkpt>
      <trkpt lat="24.91695293450703" lon="118.54172459141742">
        <ele>11.252669276669621</ele>
        <time>2025-06-10T13:04:14Z</time>
      </trkpt>
      <trkpt lat="24.917186257834995" lon="118.54168411938707">
        <ele>10.194701601751149</ele>
        <time>2025-06-10T13:04:23Z</time>
      </trkpt>
      <trkpt lat="24.91753415132383" lon="118.54166626178363">
        <ele>9.789251798763871</ele>
        <time>2025-06-10T13:04:35Z</time>
      </trkpt>
      <trkpt lat="24.91762053863749" lon="118.54168497829208">
        <ele>10.56761451344937</ele>
        <time>2025-06-10T13:04:38Z</time>
      </trkpt>
      <trkpt lat="24.91790432227976" lon="118.54165934860285">
        <ele>10.17950642760843</ele>
        <time>2025-06-10T13:04:47Z</time>
      </trkpt>
      <trkpt lat="24.91817886488692" lon="118.5416557071495">
        <ele>10.44520394038409</ele>
        <time>2025-06-10T13:04:56Z</time>
      </trkpt>
      <trkpt lat="24.91846345984717" lon="118.54169349342015">
        <ele>12.217680771835148</ele>
        <time>2025-06-10T13:05:05Z</time>
      </trkpt>
      <trkpt lat="24.918754844619905" lon="118.54172126743957">
        <ele>12.707050272263587</ele>
        <time>2025-06-10T13:05:14Z</time>
      </trkpt>
      <trkpt lat="24.91903240363702" lon="118.54171299016126">
        <ele>13.090693048201501</ele>
        <time>2025-06-10T13:05:23Z</time>
      </trkpt>
      <trkpt lat="24.91912781617948" lon="118.5417337559475">
        <ele>13.118634236976504</ele>
        <time>2025-06-10T13:05:26Z</time>
      </trkpt>
      <trkpt lat="24.91949321228148" lon="118.54171007253979">
        <ele>14.44045801460743</ele>
        <time>2025-06-10T13:05:38Z</time>
      </trkpt>
      <trkpt lat="24.919793308413556" lon="118.5417137983006">
        <ele>15.224882671609521</ele>
        <time>2025-06-10T13:05:47Z</time>
      </trkpt>
      <trkpt lat="24.920081201868328" lon="118.54172769907024">
        <ele>14.730675373226404</ele>
        <time>2025-06-10T13:05:56Z</time>
      </trkpt>
      <trkpt lat="24.920369272599615" lon="118.54171455979711">
        <ele>15.016084518283606</ele>
        <time>2025-06-10T13:06:05Z</time>
      </trkpt>
      <trkpt lat="24.920561350307803" lon="118.54168036277711">
        <ele>15.319497024640441</ele>
        <time>2025-06-10T13:06:11Z</time>
      </trkpt>
      <trkpt lat="24.92090833238109" lon="118.54171206750638">
        <ele>14.994391574524343</ele>
        <time>2025-06-10T13:06:23Z</time>
      </trkpt>
      <trkpt lat="24.921261661923985" lon="118.54172300457007">
        <ele>15.656295914202929</ele>
        <time>2025-06-10T13:06:35Z</time>
      </trkpt>
      <trkpt lat="24.92154588746439" lon="118.54173725182959">
        <ele>17.156733462587</ele>
        <time>2025-06-10T13:06:44Z</time>
      </trkpt>
      <trkpt lat="24.921812262186126" lon="118.54176905096533">
        <ele>17.012595218606293</ele>
        <time>2025-06-10T13:06:53Z</time>
      </trkpt>
      <trkpt lat="24.92189244230453" lon="118.54175074223438">
        <ele>17.287764433771372</ele>
        <time>2025-06-10T13:06:56Z</time>
      </trkpt>
      <trkpt lat="24.922158796232477" lon="118.54181445383362">
        <ele>18.265838116407394</ele>
        <time>2025-06-10T13:07:05Z</time>
      </trkpt>
      <trkpt lat="24.92225637618961" lon="118.54180987991758">
        <ele>18.782936460338533</ele>
        <time>2025-06-10T13:07:08Z</time>
      </trkpt>
      <trkpt lat="24.92259503617369" lon="118.54188969964275">
        <ele>19.999995448626578</ele>
        <time>2025-06-10T13:07:20Z</time>
      </trkpt>
      <trkpt lat="24.922931342176934" lon="118.54201321764874">
        <ele>21.739247269928455</ele>
        <time>2025-06-10T13:07:32Z</time>
      </trkpt>
      <trkpt lat="24.923198277602733" lon="118.54207868837408">
        <ele>22.512060208246112</ele>
        <time>2025-06-10T13:07:41Z</time>
      </trkpt>
      <trkpt lat="24.923527237685047" lon="118.54217895952674">
        <ele>23.88385652564466</ele>
        <time>2025-06-10T13:07:53Z</time>
      </trkpt>
      <trkpt lat="24.923595666876633" lon="118.54223515808155">
        <ele>25.365691726095974</ele>
        <time>2025-06-10T13:07:56Z</time>
      </trkpt>
      <trkpt lat="24.92373924726186" lon="118.54229584624325">
        <ele>26.7190130231902</ele>
        <time>2025-06-10T13:08:02Z</time>
      </trkpt>
      <trkpt lat="24.924047400966657" lon="118.54248285630847">
        <ele>29.839786338619888</ele>
        <time>2025-06-10T13:08:14Z</time>
      </trkpt>
      <trkpt lat="24.92436030407786" lon="118.54267038860915">
        <ele>31.968452740460634</ele>
        <time>2025-06-10T13:08:26Z</time>
      </trkpt>
      <trkpt lat="24.924602077748194" lon="118.54283145768622">
        <ele>31.43207942787558</ele>
        <time>2025-06-10T13:08:35Z</time>
      </trkpt>
      <trkpt lat="24.924751380086846" lon="118.54294942796365">
        <ele>30.40896501671523</ele>
        <time>2025-06-10T13:08:41Z</time>
      </trkpt>
      <trkpt lat="24.924837768648416" lon="118.54299735526831">
        <ele>30.67327106371522</ele>
        <time>2025-06-10T13:08:44Z</time>
      </trkpt>
      <trkpt lat="24.92495102977273" lon="118.54309879602609">
        <ele>30.18070230819285</ele>
        <time>2025-06-10T13:08:51Z</time>
      </trkpt>
      <trkpt lat="24.92499424132135" lon="118.54315629607893">
        <ele>30.398196537047625</ele>
        <time>2025-06-10T13:08:53Z</time>
      </trkpt>
      <trkpt lat="24.925057983665507" lon="118.54319364299116">
        <ele>29.401958191767335</ele>
        <time>2025-06-10T13:08:56Z</time>
      </trkpt>
      <trkpt lat="24.925166004900113" lon="118.54329397504958">
        <ele>27.537771506235003</ele>
        <time>2025-06-10T13:09:02Z</time>
      </trkpt>
      <trkpt lat="24.925265314665083" lon="118.54334286629995">
        <ele>26.510742589831352</ele>
        <time>2025-06-10T13:09:05Z</time>
      </trkpt>
      <trkpt lat="24.925400789972482" lon="118.54352176805719">
        <ele>25.224056595936418</ele>
        <time>2025-06-10T13:09:11Z</time>
      </trkpt>
      <trkpt lat="24.925442940078874" lon="118.54361654741678">
        <ele>24.518104108981788</ele>
        <time>2025-06-10T13:09:14Z</time>
      </trkpt>
      <trkpt lat="24.925537263012153" lon="118.54369645001502">
        <ele>24.49485506117344</ele>
        <time>2025-06-10T13:09:17Z</time>
      </trkpt>
      <trkpt lat="24.92573733130395" lon="118.54398865894342">
        <ele>21.711771375499666</ele>
        <time>2025-06-10T13:09:26Z</time>
      </trkpt>
      <trkpt lat="24.925795449796116" lon="118.54408287375092">
        <ele>20.8322689011693</ele>
        <time>2025-06-10T13:09:29Z</time>
      </trkpt>
      <trkpt lat="24.92598986449393" lon="118.5443443573545">
        <ele>18.948979495093226</ele>
        <time>2025-06-10T13:09:38Z</time>
      </trkpt>
      <trkpt lat="24.92610284079228" lon="118.54451904964957">
        <ele>17.276507634669542</ele>
        <time>2025-06-10T13:09:44Z</time>
      </trkpt>
      <trkpt lat="24.9262411547757" lon="118.54479940634955">
        <ele>16.358731873333454</ele>
        <time>2025-06-10T13:09:53Z</time>
      </trkpt>
      <trkpt lat="24.926387719217598" lon="118.54507654702299">
        <ele>16.545605783350766</ele>
        <time>2025-06-10T13:10:02Z</time>
      </trkpt>
      <trkpt lat="24.926487952353515" lon="118.54524069164253">
        <ele>15.662041729316115</ele>
        <time>2025-06-10T13:10:08Z</time>
      </trkpt>
      <trkpt lat="24.926528846786923" lon="118.54534331105366">
        <ele>15.304385888390243</ele>
        <time>2025-06-10T13:10:11Z</time>
      </trkpt>
      <trkpt lat="24.926700374810316" lon="118.54558098786728">
        <ele>14.325195868499577</ele>
        <time>2025-06-10T13:10:20Z</time>
      </trkpt>
      <trkpt lat="24.926836652494593" lon="118.54584616161716">
        <ele>13.374534144066274</ele>
        <time>2025-06-10T13:10:29Z</time>
      </trkpt>
      <trkpt lat="24.927030315589963" lon="118.54615607486905">
        <ele>11.491435097530484</ele>
        <time>2025-06-10T13:10:41Z</time>
      </trkpt>
      <trkpt lat="24.92707885492062" lon="118.54624561546301">
        <ele>11.456848503090441</ele>
        <time>2025-06-10T13:10:44Z</time>
      </trkpt>
      <trkpt lat="24.927203677671596" lon="118.5463984087401">
        <ele>11.052307200618088</ele>
        <time>2025-06-10T13:10:50Z</time>
      </trkpt>
      <trkpt lat="24.927275368441123" lon="118.54644225514046">
        <ele>10.715316149406135</ele>
        <time>2025-06-10T13:10:53Z</time>
      </trkpt>
      <trkpt lat="24.927307815415762" lon="118.54649691362908">
        <ele>10.304649365134537</ele>
        <time>2025-06-10T13:10:56Z</time>
      </trkpt>
      <trkpt lat="24.92726535400612" lon="118.54659262397074">
        <ele>10.399082807824016</ele>
        <time>2025-06-10T13:10:59Z</time>
      </trkpt>
      <trkpt lat="24.927252387124266" lon="118.54659798689761">
        <ele>10.205613038502634</ele>
        <time>2025-06-10T13:11:04Z</time>
      </trkpt>
      <trkpt lat="24.92696962475893" lon="118.54669224921544">
        <ele>9.57858447637409</ele>
        <time>2025-06-10T13:11:16Z</time>
      </trkpt>
      <trkpt lat="24.926880558514092" lon="118.5467085456005">
        <ele>10.405266515910625</ele>
        <time>2025-06-10T13:11:19Z</time>
      </trkpt>
      <trkpt lat="24.92680478456207" lon="118.54666002165911">
        <ele>9.630323466844857</ele>
        <time>2025-06-10T13:11:22Z</time>
      </trkpt>
      <trkpt lat="24.926814194205434" lon="118.54654851904479">
        <ele>11.30498621892184</ele>
        <time>2025-06-10T13:11:25Z</time>
      </trkpt>
      <trkpt lat="24.926741328163672" lon="118.54636456827627">
        <ele>10.737522888928652</ele>
        <time>2025-06-10T13:11:31Z</time>
      </trkpt>
      <trkpt lat="24.92658220083724" lon="118.54611475251089">
        <ele>12.56517048086971</ele>
        <time>2025-06-10T13:11:40Z</time>
      </trkpt>
      <trkpt lat="24.926434786529608" lon="118.54585363363017">
        <ele>12.74501737114042</ele>
        <time>2025-06-10T13:11:49Z</time>
      </trkpt>
      <trkpt lat="24.92634741470905" lon="118.54567220762806">
        <ele>13.319268012419343</ele>
        <time>2025-06-10T13:11:55Z</time>
      </trkpt>
      <trkpt lat="24.926135270466936" lon="118.54536671622273">
        <ele>14.847635935992002</ele>
        <time>2025-06-10T13:12:07Z</time>
      </trkpt>
      <trkpt lat="24.925982295057945" lon="118.54511362191239">
        <ele>15.31675227265805</ele>
        <time>2025-06-10T13:12:19Z</time>
      </trkpt>
      <trkpt lat="24.9259101339702" lon="118.54502485432867">
        <ele>16.25065390765667</ele>
        <time>2025-06-10T13:12:22Z</time>
      </trkpt>
      <trkpt lat="24.925747820933122" lon="118.5447250680855">
        <ele>17.383057666011155</ele>
        <time>2025-06-10T13:12:31Z</time>
      </trkpt>
      <trkpt lat="24.92557014812664" lon="118.54447479567635">
        <ele>17.761312816292048</ele>
        <time>2025-06-10T13:12:40Z</time>
      </trkpt>
      <trkpt lat="24.92540104708779" lon="118.54422694632694">
        <ele>18.181983412243426</ele>
        <time>2025-06-10T13:12:49Z</time>
      </trkpt>
      <trkpt lat="24.925217919136454" lon="118.54400101404357">
        <ele>20.11045654118061</ele>
        <time>2025-06-10T13:12:58Z</time>
      </trkpt>
      <trkpt lat="24.924968882275103" lon="118.5437228964173">
        <ele>23.10565448179841</ele>
        <time>2025-06-10T13:13:10Z</time>
      </trkpt>
      <trkpt lat="24.92471079909874" lon="118.54346605617158">
        <ele>25.328094584867358</ele>
        <time>2025-06-10T13:13:22Z</time>
      </trkpt>
      <trkpt lat="24.92464479375594" lon="118.5433874361453">
        <ele>25.771455724723637</ele>
        <time>2025-06-10T13:13:25Z</time>
      </trkpt>
      <trkpt lat="24.924360771773415" lon="118.5431778078868">
        <ele>27.292316640727222</ele>
        <time>2025-06-10T13:13:37Z</time>
      </trkpt>
      <trkpt lat="24.92430321356291" lon="118.54310933001904">
        <ele>27.990033294074237</ele>
        <time>2025-06-10T13:13:40Z</time>
      </trkpt>
      <trkpt lat="24.92417439982713" lon="118.54306626462136">
        <ele>28.331704042851925</ele>
        <time>2025-06-10T13:13:46Z</time>
      </trkpt>
      <trkpt lat="24.923915384724545" lon="118.5429004992188">
        <ele>28.267326798290014</ele>
        <time>2025-06-10T13:13:55Z</time>
      </trkpt>
      <trkpt lat="24.923668144668106" lon="118.54276163656274">
        <ele>26.89533284213394</ele>
        <time>2025-06-10T13:14:04Z</time>
      </trkpt>
      <trkpt lat="24.92341911945889" lon="118.54261209937653">
        <ele>24.087264876812696</ele>
        <time>2025-06-10T13:14:13Z</time>
      </trkpt>
      <trkpt lat="24.923332962361467" lon="118.54257392121347">
        <ele>22.266767754219472</ele>
        <time>2025-06-10T13:14:16Z</time>
      </trkpt>
      <trkpt lat="24.923236987430567" lon="118.54256774999519">
        <ele>21.84994620643556</ele>
        <time>2025-06-10T13:14:19Z</time>
      </trkpt>
      <trkpt lat="24.923052652526728" lon="118.54250967942593">
        <ele>22.324456430971622</ele>
        <time>2025-06-10T13:14:25Z</time>
      </trkpt>
      <trkpt lat="24.9229758532458" lon="118.54245980568642">
        <ele>22.205610742792487</ele>
        <time>2025-06-10T13:14:28Z</time>
      </trkpt>
      <trkpt lat="24.922707904875466" lon="118.54237082172172">
        <ele>21.23245493043214</ele>
        <time>2025-06-10T13:14:38Z</time>
      </trkpt>
      <trkpt lat="24.92243802406521" lon="118.54231565285538">
        <ele>19.929959254339337</ele>
        <time>2025-06-10T13:14:46Z</time>
      </trkpt>
      <trkpt lat="24.922154610813166" lon="118.54225914663607">
        <ele>19.23019522614777</ele>
        <time>2025-06-10T13:14:55Z</time>
      </trkpt>
      <trkpt lat="24.921978026293086" lon="118.54225391352463">
        <ele>18.142311930656433</ele>
        <time>2025-06-10T13:15:01Z</time>
      </trkpt>
      <trkpt lat="24.92168768170176" lon="118.54218639303419">
        <ele>17.45467069838196</ele>
        <time>2025-06-10T13:15:10Z</time>
      </trkpt>
      <trkpt lat="24.921385496866453" lon="118.54215426647075">
        <ele>15.747054181993008</ele>
        <time>2025-06-10T13:15:19Z</time>
      </trkpt>
      <trkpt lat="24.92109550522854" lon="118.54214944998188">
        <ele>14.18814589176327</ele>
        <time>2025-06-10T13:15:28Z</time>
      </trkpt>
      <trkpt lat="24.92092540769125" lon="118.54212941375754">
        <ele>13.402991852723062</ele>
        <time>2025-06-10T13:15:34Z</time>
      </trkpt>
      <trkpt lat="24.920759238798233" lon="118.54217241157461">
        <ele>13.28287120629102</ele>
        <time>2025-06-10T13:15:40Z</time>
      </trkpt>
      <trkpt lat="24.920595542820482" lon="118.54217928402177">
        <ele>12.387014974839985</ele>
        <time>2025-06-10T13:15:46Z</time>
      </trkpt>
      <trkpt lat="24.9205040392498" lon="118.54215087591946">
        <ele>12.906550000421703</ele>
        <time>2025-06-10T13:15:49Z</time>
      </trkpt>
      <trkpt lat="24.920393996669315" lon="118.54218092474572">
        <ele>12.330011770129204</ele>
        <time>2025-06-10T13:15:53Z</time>
      </trkpt>
      <trkpt lat="24.920096200011447" lon="118.54217142769801">
        <ele>12.573958672583103</ele>
        <time>2025-06-10T13:16:01Z</time>
      </trkpt>
      <trkpt lat="24.91979960206504" lon="118.54215593962472">
        <ele>12.592000026255846</ele>
        <time>2025-06-10T13:16:10Z</time>
      </trkpt>
      <trkpt lat="24.919484474955496" lon="118.5421396832775">
        <ele>13.837939190678298</ele>
        <time>2025-06-10T13:16:19Z</time>
      </trkpt>
      <trkpt lat="24.919157582855064" lon="118.54211452944847">
        <ele>14.531126786954701</ele>
        <time>2025-06-10T13:16:28Z</time>
      </trkpt>
      <trkpt lat="24.91885666932863" lon="118.54210510793192">
        <ele>14.27749141678214</ele>
        <time>2025-06-10T13:16:37Z</time>
      </trkpt>
      <trkpt lat="24.91876645802577" lon="118.54208517628823">
        <ele>14.57355600874871</ele>
        <time>2025-06-10T13:16:40Z</time>
      </trkpt>
      <trkpt lat="24.918559496707473" lon="118.54209359978779">
        <ele>13.641711234115064</ele>
        <time>2025-06-10T13:16:46Z</time>
      </trkpt>
      <trkpt lat="24.918360787065364" lon="118.54207311371117">
        <ele>13.192837435752153</ele>
        <time>2025-06-10T13:16:53Z</time>
      </trkpt>
      <trkpt lat="24.918046334250704" lon="118.5421064966633">
        <ele>12.16469164006412</ele>
        <time>2025-06-10T13:17:01Z</time>
      </trkpt>
      <trkpt lat="24.917941460897687" lon="118.54212070044224">
        <ele>11.758963849395514</ele>
        <time>2025-06-10T13:17:04Z</time>
      </trkpt>
      <trkpt lat="24.91784043227124" lon="118.54215495189011">
        <ele>11.476102171465755</ele>
        <time>2025-06-10T13:17:08Z</time>
      </trkpt>
      <trkpt lat="24.917516798505257" lon="118.54215855897995">
        <ele>11.304497730918229</ele>
        <time>2025-06-10T13:17:16Z</time>
      </trkpt>
      <trkpt lat="24.917407232901756" lon="118.54215579856069">
        <ele>11.295555493794382</ele>
        <time>2025-06-10T13:17:19Z</time>
      </trkpt>
      <trkpt lat="24.917315354685496" lon="118.54218491879799">
        <ele>11.28802999574691</ele>
        <time>2025-06-10T13:17:22Z</time>
      </trkpt>
      <trkpt lat="24.917240662748444" lon="118.54223905932966">
        <ele>10.971679869107902</ele>
        <time>2025-06-10T13:17:25Z</time>
      </trkpt>
      <trkpt lat="24.917140802177823" lon="118.54224433569848">
        <ele>9.877597911283374</ele>
        <time>2025-06-10T13:17:28Z</time>
      </trkpt>
      <trkpt lat="24.917037374366178" lon="118.54228771115964">
        <ele>10.775349652394652</ele>
        <time>2025-06-10T13:17:31Z</time>
      </trkpt>
      <trkpt lat="24.916944057794794" lon="118.5422974279322">
        <ele>11.060823983512819</ele>
        <time>2025-06-10T13:17:34Z</time>
      </trkpt>
      <trkpt lat="24.91689293500419" lon="118.54232185808127">
        <ele>10.164723636582494</ele>
        <time>2025-06-10T13:17:37Z</time>
      </trkpt>
      <trkpt lat="24.916761086010116" lon="118.54234476952168">
        <ele>11.062051544897258</ele>
        <time>2025-06-10T13:17:40Z</time>
      </trkpt>
      <trkpt lat="24.91666254553653" lon="118.54238690784739">
        <ele>11.439311261288822</ele>
        <time>2025-06-10T13:17:43Z</time>
      </trkpt>
      <trkpt lat="24.91656389677993" lon="118.54239458192097">
        <ele>11.451530921272933</ele>
        <time>2025-06-10T13:17:46Z</time>
      </trkpt>
      <trkpt lat="24.916487771139685" lon="118.5423531195104">
        <ele>11.959498795680702</ele>
        <time>2025-06-10T13:17:49Z</time>
      </trkpt>
      <trkpt lat="24.91638879232583" lon="118.54234633902077">
        <ele>12.158219616860151</ele>
        <time>2025-06-10T13:17:52Z</time>
      </trkpt>
      <trkpt lat="24.91610572199249" lon="118.54246897701584">
        <ele>11.498149757273495</ele>
        <time>2025-06-10T13:18:01Z</time>
      </trkpt>
      <trkpt lat="24.91601158255239" lon="118.54252025010771">
        <ele>11.591581017710268</ele>
        <time>2025-06-10T13:18:04Z</time>
      </trkpt>
      <trkpt lat="24.91572047873788" lon="118.54257586754767">
        <ele>11.728070737794042</ele>
        <time>2025-06-10T13:18:13Z</time>
      </trkpt>
      <trkpt lat="24.91550207021422" lon="118.54259303994077">
        <ele>11.79220280982554</ele>
        <time>2025-06-10T13:18:19Z</time>
      </trkpt>
      <trkpt lat="24.915190914271715" lon="118.54267215689751">
        <ele>12.67098490986973</ele>
        <time>2025-06-10T13:18:28Z</time>
      </trkpt>
      <trkpt lat="24.91491415101382" lon="118.54281095567252">
        <ele>10.495603097602725</ele>
        <time>2025-06-10T13:18:37Z</time>
      </trkpt>
      <trkpt lat="24.914795720694574" lon="118.54286212453357">
        <ele>10.522416195832193</ele>
        <time>2025-06-10T13:18:40Z</time>
      </trkpt>
      <trkpt lat="24.914601531726987" lon="118.5428999685632">
        <ele>9.762606034055352</ele>
        <time>2025-06-10T13:18:46Z</time>
      </trkpt>
      <trkpt lat="24.914412515434744" lon="118.54299918883046">
        <ele>10.105725983157754</ele>
        <time>2025-06-10T13:18:52Z</time>
      </trkpt>
      <trkpt lat="24.91430692155026" lon="118.54302923880056">
        <ele>9.935551340691745</ele>
        <time>2025-06-10T13:18:55Z</time>
      </trkpt>
      <trkpt lat="24.914197224201562" lon="118.54303406313107">
        <ele>9.877852221950889</ele>
        <time>2025-06-10T13:18:58Z</time>
      </trkpt>
      <trkpt lat="24.914109045994074" lon="118.54305819849853">
        <ele>8.494360631331801</ele>
        <time>2025-06-10T13:19:01Z</time>
      </trkpt>
      <trkpt lat="24.91381304073896" lon="118.54307907938595">
        <ele>8.058657614514232</ele>
        <time>2025-06-10T13:19:10Z</time>
      </trkpt>
      <trkpt lat="24.913711887241064" lon="118.54307855357014">
        <ele>7.892417690716684</ele>
        <time>2025-06-10T13:19:13Z</time>
      </trkpt>
      <trkpt lat="24.913520937332407" lon="118.543175029759">
        <ele>7.808076698333025</ele>
        <time>2025-06-10T13:19:19Z</time>
      </trkpt>
      <trkpt lat="24.91321885441389" lon="118.54323764520221">
        <ele>7.5842505088075995</ele>
        <time>2025-06-10T13:19:28Z</time>
      </trkpt>
      <trkpt lat="24.912914657389273" lon="118.5432875363301">
        <ele>7.844962970353663</ele>
        <time>2025-06-10T13:19:37Z</time>
      </trkpt>
      <trkpt lat="24.912616134352497" lon="118.5433402413634">
        <ele>7.852488569915295</ele>
        <time>2025-06-10T13:19:46Z</time>
      </trkpt>
      <trkpt lat="24.91233369839084" lon="118.54343346094691">
        <ele>8.056405384093523</ele>
        <time>2025-06-10T13:19:55Z</time>
      </trkpt>
      <trkpt lat="24.9120359754072" lon="118.54351636358169">
        <ele>7.439076107926667</ele>
        <time>2025-06-10T13:20:04Z</time>
      </trkpt>
      <trkpt lat="24.911924532573604" lon="118.54350152192951">
        <ele>8.642807951197028</ele>
        <time>2025-06-10T13:20:07Z</time>
      </trkpt>
      <trkpt lat="24.91163213061764" lon="118.54358242056345">
        <ele>8.569569244980812</ele>
        <time>2025-06-10T13:20:16Z</time>
      </trkpt>
      <trkpt lat="24.911449003676694" lon="118.54363861661358">
        <ele>7.4069938734173775</ele>
        <time>2025-06-10T13:20:22Z</time>
      </trkpt>
      <trkpt lat="24.9111473845425" lon="118.54368237605283">
        <ele>7.750780580565333</ele>
        <time>2025-06-10T13:20:31Z</time>
      </trkpt>
      <trkpt lat="24.9109634606785" lon="118.54373290218274">
        <ele>7.882513070479035</ele>
        <time>2025-06-10T13:20:37Z</time>
      </trkpt>
      <trkpt lat="24.910768092887192" lon="118.54373622383996">
        <ele>8.37359004188329</ele>
        <time>2025-06-10T13:20:43Z</time>
      </trkpt>
      <trkpt lat="24.910673278063356" lon="118.54371963163015">
        <ele>7.401383895426989</ele>
        <time>2025-06-10T13:20:46Z</time>
      </trkpt>
      <trkpt lat="24.91036232448448" lon="118.5437614579858">
        <ele>7.4272902412340045</ele>
        <time>2025-06-10T13:20:55Z</time>
      </trkpt>
      <trkpt lat="24.910022458792472" lon="118.54377290872164">
        <ele>6.99970010202378</ele>
        <time>2025-06-10T13:21:04Z</time>
      </trkpt>
      <trkpt lat="24.90979299469167" lon="118.54373467330632">
        <ele>7.643130361102521</ele>
        <time>2025-06-10T13:21:10Z</time>
      </trkpt>
      <trkpt lat="24.909560887910747" lon="118.54373911379622">
        <ele>7.831488269381225</ele>
        <time>2025-06-10T13:21:16Z</time>
      </trkpt>
    </trkseg>
  </trk>
</gpx>