<?xml version="1.0" encoding="UTF-8"?>
<gpx xmlns="http://www.topografix.com/GPX/1/1" xmlns:gpxtpx="http://www.garmin.com/xmlschemas/TrackPointExtension/v1" xmlns:xsi="http://www.w3.org/2001/XMLSchema-instance" xsi:schemaLocation="http://www.topografix.com/GPX/1/1 http://www.topografix.com/GPX/1/1/gpx.xsd" version="1.1" creator="gpx.py -- https://github.com/tkrajina/gpxpy">
  <trk>
    <name>gpx from keep</name>
    <type>Run</type>
    <trkseg>
      <trkpt lat="24.91082067241433" lon="118.53864002667927">
        <ele>52.27748066761462</ele>
        <time>2024-02-20T14:13:11Z</time>
      </trkpt>
      <trkpt lat="24.91061955907671" lon="118.53857787667529">
        <ele>50.97187453278769</ele>
        <time>2024-02-20T14:13:17Z</time>
      </trkpt>
      <trkpt lat="24.910500539141637" lon="118.538561842618">
        <ele>49.678982900769604</ele>
        <time>2024-02-20T14:13:20Z</time>
      </trkpt>
      <trkpt lat="24.9101913790131" lon="118.53847262841971">
        <ele>44.97619557248536</ele>
        <time>2024-02-20T14:13:29Z</time>
      </trkpt>
      <trkpt lat="24.90995421089541" lon="118.53838441157203">
        <ele>37.758307799328584</ele>
        <time>2024-02-20T14:13:38Z</time>
      </trkpt>
      <trkpt lat="24.909679182792654" lon="118.53835535376531">
        <ele>35.22543962905753</ele>
        <time>2024-02-20T14:13:47Z</time>
      </trkpt>
      <trkpt lat="24.909408110617324" lon="118.538307245189">
        <ele>33.36518631982315</ele>
        <time>2024-02-20T14:13:56Z</time>
      </trkpt>
      <trkpt lat="24.909332130325886" lon="118.53831126110752">
        <ele>32.601519088183885</ele>
        <time>2024-02-20T14:13:59Z</time>
      </trkpt>
      <trkpt lat="24.90929105361241" lon="118.5382751683235">
        <ele>32.689282822436105</ele>
        <time>2024-02-20T14:14:02Z</time>
      </trkpt>
      <trkpt lat="24.909355735189646" lon="118.53813980472685">
        <ele>31.614092341770686</ele>
        <time>2024-02-20T14:14:08Z</time>
      </trkpt>
      <trkpt lat="24.909458823656845" lon="118.53774875647471">
        <ele>33.247233272430506</ele>
        <time>2024-02-20T14:14:20Z</time>
      </trkpt>
      <trkpt lat="24.90946040770264" lon="118.5375682740259">
        <ele>33.07155396708324</ele>
        <time>2024-02-20T14:14:26Z</time>
      </trkpt>
      <trkpt lat="24.909537771428173" lon="118.53729754295318">
        <ele>35.857882465753484</ele>
        <time>2024-02-20T14:14:35Z</time>
      </trkpt>
      <trkpt lat="24.909581251668474" lon="118.53707594400572">
        <ele>37.27289940231044</ele>
        <time>2024-02-20T14:14:41Z</time>
      </trkpt>
      <trkpt lat="24.909547025797124" lon="118.53697667887944">
        <ele>38.7793513412114</ele>
        <time>2024-02-20T14:14:44Z</time>
      </trkpt>
      <trkpt lat="24.90946892704917" lon="118.53692955720078">
        <ele>38.948112535523435</ele>
        <time>2024-02-20T14:14:47Z</time>
      </trkpt>
      <trkpt lat="24.90947672057785" lon="118.5368413184319">
        <ele>38.54776266795323</ele>
        <time>2024-02-20T14:14:50Z</time>
      </trkpt>
      <trkpt lat="24.90954528784426" lon="118.53665982280614">
        <ele>38.297386337192826</ele>
        <time>2024-02-20T14:14:56Z</time>
      </trkpt>
      <trkpt lat="24.90958040760977" lon="118.53628580520137">
        <ele>36.01466175608833</ele>
        <time>2024-02-20T14:15:08Z</time>
      </trkpt>
      <trkpt lat="24.909578203123903" lon="118.53619856787515">
        <ele>35.94056750468895</ele>
        <time>2024-02-20T14:15:11Z</time>
      </trkpt>
      <trkpt lat="24.909612972044634" lon="118.53610230309788">
        <ele>35.85898428309623</ele>
        <time>2024-02-20T14:15:14Z</time>
      </trkpt>
      <trkpt lat="24.909659072025946" lon="118.53572326375219">
        <ele>36.719024572826044</ele>
        <time>2024-02-20T14:15:26Z</time>
      </trkpt>
      <trkpt lat="24.90969385852667" lon="118.53563501940044">
        <ele>37.58261160228503</ele>
        <time>2024-02-20T14:15:29Z</time>
      </trkpt>
      <trkpt lat="24.909721417631296" lon="118.53545051076956">
        <ele>37.838708341946464</ele>
        <time>2024-02-20T14:15:35Z</time>
      </trkpt>
      <trkpt lat="24.909716168485563" lon="118.53534522145871">
        <ele>37.03911345283291</ele>
        <time>2024-02-20T14:15:38Z</time>
      </trkpt>
      <trkpt lat="24.909753287328048" lon="118.53497720341247">
        <ele>35.382641792510945</ele>
        <time>2024-02-20T14:15:50Z</time>
      </trkpt>
      <trkpt lat="24.909771071807775" lon="118.53488795522394">
        <ele>35.10843653762522</ele>
        <time>2024-02-20T14:15:53Z</time>
      </trkpt>
      <trkpt lat="24.9098300660053" lon="118.53488895388574">
        <ele>34.17941205419591</ele>
        <time>2024-02-20T14:15:56Z</time>
      </trkpt>
      <trkpt lat="24.909993332904527" lon="118.53501027816823">
        <ele>33.10050487029955</ele>
        <time>2024-02-20T14:16:02Z</time>
      </trkpt>
      <trkpt lat="24.910066401650734" lon="118.53504336453199">
        <ele>32.64018753327147</ele>
        <time>2024-02-20T14:16:05Z</time>
      </trkpt>
      <trkpt lat="24.910139525305635" lon="118.53509951455155">
        <ele>32.52193672724954</ele>
        <time>2024-02-20T14:16:08Z</time>
      </trkpt>
      <trkpt lat="24.91046272863934" lon="118.5352037798066">
        <ele>32.65843301651001</ele>
        <time>2024-02-20T14:16:20Z</time>
      </trkpt>
      <trkpt lat="24.910598838490806" lon="118.5352579196008">
        <ele>29.558590597936167</ele>
        <time>2024-02-20T14:16:26Z</time>
      </trkpt>
      <trkpt lat="24.91067385427935" lon="118.53526894476738">
        <ele>28.516960341328218</ele>
        <time>2024-02-20T14:16:29Z</time>
      </trkpt>
      <trkpt lat="24.910978176289063" lon="118.53542234592288">
        <ele>28.32516423013736</ele>
        <time>2024-02-20T14:16:41Z</time>
      </trkpt>
      <trkpt lat="24.91130648948421" lon="118.53557373909688">
        <ele>28.37318257856436</ele>
        <time>2024-02-20T14:16:53Z</time>
      </trkpt>
      <trkpt lat="24.911591722632668" lon="118.53568903555399">
        <ele>28.822348560967967</ele>
        <time>2024-02-20T14:17:05Z</time>
      </trkpt>
      <trkpt lat="24.911775941021414" lon="118.53579230565771">
        <ele>30.936580450236555</ele>
        <time>2024-02-20T14:17:11Z</time>
      </trkpt>
      <trkpt lat="24.912120129702437" lon="118.53589255601527">
        <ele>32.54672622453692</ele>
        <time>2024-02-20T14:17:23Z</time>
      </trkpt>
      <trkpt lat="24.91228122545365" lon="118.53594268183132">
        <ele>29.930680027604986</ele>
        <time>2024-02-20T14:17:29Z</time>
      </trkpt>
      <trkpt lat="24.91246750172602" lon="118.53607101929245">
        <ele>28.0199931890494</ele>
        <time>2024-02-20T14:17:38Z</time>
      </trkpt>
      <trkpt lat="24.91242292267881" lon="118.53624750333697">
        <ele>29.273883124846225</ele>
        <time>2024-02-20T14:17:44Z</time>
      </trkpt>
      <trkpt lat="24.912317529528547" lon="118.53650019741306">
        <ele>29.107614017909444</ele>
        <time>2024-02-20T14:17:53Z</time>
      </trkpt>
      <trkpt lat="24.91226870047206" lon="118.53657039117978">
        <ele>29.85271362936721</ele>
        <time>2024-02-20T14:17:56Z</time>
      </trkpt>
      <trkpt lat="24.912205814671733" lon="118.53661551784872">
        <ele>29.607428729888532</ele>
        <time>2024-02-20T14:17:59Z</time>
      </trkpt>
      <trkpt lat="24.91204960771325" lon="118.53694642331337">
        <ele>30.25829637617667</ele>
        <time>2024-02-20T14:18:11Z</time>
      </trkpt>
      <trkpt lat="24.91191542676868" lon="118.53729136108898">
        <ele>30.50280166963427</ele>
        <time>2024-02-20T14:18:23Z</time>
      </trkpt>
      <trkpt lat="24.9117592197379" lon="118.53762526669507">
        <ele>30.341042516270765</ele>
        <time>2024-02-20T14:18:35Z</time>
      </trkpt>
      <trkpt lat="24.911631922332734" lon="118.53792307020633">
        <ele>29.465114522245905</ele>
        <time>2024-02-20T14:18:47Z</time>
      </trkpt>
      <trkpt lat="24.911469752958034" lon="118.53827601918451">
        <ele>30.489066897034448</ele>
        <time>2024-02-20T14:18:59Z</time>
      </trkpt>
      <trkpt lat="24.911295528858087" lon="118.5386059036706">
        <ele>29.81087659485455</ele>
        <time>2024-02-20T14:19:11Z</time>
      </trkpt>
      <trkpt lat="24.91126173401801" lon="118.53869413868976">
        <ele>29.425980762725608</ele>
        <time>2024-02-20T14:19:14Z</time>
      </trkpt>
      <trkpt lat="24.911208898372074" lon="118.53876332460307">
        <ele>29.008190859881292</ele>
        <time>2024-02-20T14:19:17Z</time>
      </trkpt>
      <trkpt lat="24.91089680983879" lon="118.53870519317579">
        <ele>29.154796384443646</ele>
        <time>2024-02-20T14:19:29Z</time>
      </trkpt>
      <trkpt lat="24.9108087469603" lon="118.53867211210813">
        <ele>28.55144420129391</ele>
        <time>2024-02-20T14:19:32Z</time>
      </trkpt>
      <trkpt lat="24.91073962216513" lon="118.53861296091712">
        <ele>28.068662485511894</ele>
        <time>2024-02-20T14:19:35Z</time>
      </trkpt>
      <trkpt lat="24.91039643269312" lon="118.53850870952286">
        <ele>27.753358184005492</ele>
        <time>2024-02-20T14:19:47Z</time>
      </trkpt>
      <trkpt lat="24.910121317944533" lon="118.5384415511226">
        <ele>25.89946642488218</ele>
        <time>2024-02-20T14:19:57Z</time>
      </trkpt>
      <trkpt lat="24.909871204138636" lon="118.53837639612561">
        <ele>24.172298984475457</ele>
        <time>2024-02-20T14:20:06Z</time>
      </trkpt>
      <trkpt lat="24.909622218153594" lon="118.53836738958643">
        <ele>23.91630162723161</ele>
        <time>2024-02-20T14:20:15Z</time>
      </trkpt>
      <trkpt lat="24.90929707338487" lon="118.53828419181994">
        <ele>25.659129491354754</ele>
        <time>2024-02-20T14:20:27Z</time>
      </trkpt>
      <trkpt lat="24.909282951656117" lon="118.53823004926461">
        <ele>25.78129684050329</ele>
        <time>2024-02-20T14:20:30Z</time>
      </trkpt>
      <trkpt lat="24.90939725611513" lon="118.5379332526189">
        <ele>25.199260965103658</ele>
        <time>2024-02-20T14:20:42Z</time>
      </trkpt>
      <trkpt lat="24.90949459940038" lon="118.537653499559">
        <ele>25.262455999501288</ele>
        <time>2024-02-20T14:20:51Z</time>
      </trkpt>
      <trkpt lat="24.909567737089187" lon="118.53728450585898">
        <ele>25.72283748405151</ele>
        <time>2024-02-20T14:21:03Z</time>
      </trkpt>
      <trkpt lat="24.909600269977084" lon="118.53708496698225">
        <ele>27.83006678384871</ele>
        <time>2024-02-20T14:21:09Z</time>
      </trkpt>
      <trkpt lat="24.90955611076464" lon="118.537013778266">
        <ele>28.97116032262944</ele>
        <time>2024-02-20T14:21:12Z</time>
      </trkpt>
      <trkpt lat="24.909496011902423" lon="118.53696765809853">
        <ele>29.158176351271955</ele>
        <time>2024-02-20T14:21:15Z</time>
      </trkpt>
      <trkpt lat="24.90952853580389" lon="118.53676510885975">
        <ele>29.7129024988775</ele>
        <time>2024-02-20T14:21:21Z</time>
      </trkpt>
      <trkpt lat="24.9095888082818" lon="118.53645727061516">
        <ele>30.502687177692103</ele>
        <time>2024-02-20T14:21:30Z</time>
      </trkpt>
      <trkpt lat="24.90962491142022" lon="118.53607723389159">
        <ele>30.014394031476996</ele>
        <time>2024-02-20T14:21:42Z</time>
      </trkpt>
      <trkpt lat="24.909619451585712" lon="118.53588170020976">
        <ele>30.761887552653292</ele>
        <time>2024-02-20T14:21:48Z</time>
      </trkpt>
      <trkpt lat="24.909694592507353" lon="118.5355227110565">
        <ele>30.958694867858494</ele>
        <time>2024-02-20T14:22:00Z</time>
      </trkpt>
      <trkpt lat="24.90974109833172" lon="118.53531714240916">
        <ele>31.915068497313015</ele>
        <time>2024-02-20T14:22:06Z</time>
      </trkpt>
      <trkpt lat="24.90976619459899" lon="118.53493909710673">
        <ele>34.302838710358294</ele>
        <time>2024-02-20T14:22:18Z</time>
      </trkpt>
      <trkpt lat="24.90979604438473" lon="118.53487792571845">
        <ele>35.5631157441016</ele>
        <time>2024-02-20T14:22:21Z</time>
      </trkpt>
      <trkpt lat="24.909871084254938" lon="118.53489897878517">
        <ele>34.86123791019994</ele>
        <time>2024-02-20T14:22:24Z</time>
      </trkpt>
      <trkpt lat="24.910131421296377" lon="118.53505539324637">
        <ele>34.00101900453366</ele>
        <time>2024-02-20T14:22:33Z</time>
      </trkpt>
      <trkpt lat="24.91049372194372" lon="118.5352027748797">
        <ele>34.08214985969903</ele>
        <time>2024-02-20T14:22:45Z</time>
      </trkpt>
      <trkpt lat="24.91069890799378" lon="118.53529300932856">
        <ele>33.403600279436404</ele>
        <time>2024-02-20T14:22:54Z</time>
      </trkpt>
      <trkpt lat="24.910782020304413" lon="118.53534514713303">
        <ele>35.21024865903782</ele>
        <time>2024-02-20T14:22:57Z</time>
      </trkpt>
      <trkpt lat="24.9109600812415" lon="118.53538123407733">
        <ele>32.03992018603814</ele>
        <time>2024-02-20T14:23:03Z</time>
      </trkpt>
      <trkpt lat="24.911286432905932" lon="118.53554867166416">
        <ele>30.35097383942301</ele>
        <time>2024-02-20T14:23:15Z</time>
      </trkpt>
      <trkpt lat="24.911598733510644" lon="118.53569404880898">
        <ele>30.89107192865125</ele>
        <time>2024-02-20T14:23:27Z</time>
      </trkpt>
      <trkpt lat="24.911785925423985" lon="118.5357862884891">
        <ele>33.11857204926291</ele>
        <time>2024-02-20T14:23:33Z</time>
      </trkpt>
      <trkpt lat="24.912061069341373" lon="118.53586348060547">
        <ele>35.88583516209836</ele>
        <time>2024-02-20T14:23:42Z</time>
      </trkpt>
      <trkpt lat="24.912164066820413" lon="118.53586848713752">
        <ele>35.86632972174996</ele>
        <time>2024-02-20T14:23:45Z</time>
      </trkpt>
      <trkpt lat="24.91246336541727" lon="118.53601286085402">
        <ele>32.870718789883554</ele>
        <time>2024-02-20T14:23:57Z</time>
      </trkpt>
      <trkpt lat="24.912479521282467" lon="118.53608004307395">
        <ele>32.58140603039462</ele>
        <time>2024-02-20T14:24:00Z</time>
      </trkpt>
      <trkpt lat="24.912453762965505" lon="118.53618132096223">
        <ele>33.4179328615008</ele>
        <time>2024-02-20T14:24:03Z</time>
      </trkpt>
      <trkpt lat="24.912308401726456" lon="118.53644504835806">
        <ele>35.176680749816526</ele>
        <time>2024-02-20T14:24:12Z</time>
      </trkpt>
      <trkpt lat="24.912161083053007" lon="118.53672782501131">
        <ele>33.434521200121445</ele>
        <time>2024-02-20T14:24:21Z</time>
      </trkpt>
      <trkpt lat="24.91201581751897" lon="118.53703466357207">
        <ele>32.8671925341584</ele>
        <time>2024-02-20T14:24:30Z</time>
      </trkpt>
      <trkpt lat="24.91194017244568" lon="118.53718306833535">
        <ele>32.59924534833181</ele>
        <time>2024-02-20T14:24:36Z</time>
      </trkpt>
      <trkpt lat="24.91191138554436" lon="118.53727331289465">
        <ele>32.69429563716347</ele>
        <time>2024-02-20T14:24:39Z</time>
      </trkpt>
      <trkpt lat="24.911714068825578" lon="118.53755708745841">
        <ele>29.826062902819924</ele>
        <time>2024-02-20T14:24:48Z</time>
      </trkpt>
      <trkpt lat="24.9115937641785" lon="118.53785188318936">
        <ele>24.66864521144291</ele>
        <time>2024-02-20T14:25:00Z</time>
      </trkpt>
      <trkpt lat="24.911566970492373" lon="118.53794012012082">
        <ele>24.723927260387157</ele>
        <time>2024-02-20T14:25:03Z</time>
      </trkpt>
      <trkpt lat="24.91143269398609" lon="118.53824794734273">
        <ele>23.909282393353454</ele>
        <time>2024-02-20T14:25:12Z</time>
      </trkpt>
      <trkpt lat="24.911302085146783" lon="118.53841138929684">
        <ele>21.937615775232803</ele>
        <time>2024-02-20T14:25:18Z</time>
      </trkpt>
      <trkpt lat="24.911193643298024" lon="118.53865002713644">
        <ele>21.503393305810082</ele>
        <time>2024-02-20T14:25:27Z</time>
      </trkpt>
    </trkseg>
  </trk>
</gpx>