<?xml version="1.0" encoding="UTF-8"?>
<gpx xmlns="http://www.topografix.com/GPX/1/1" xmlns:gpxtpx="http://www.garmin.com/xmlschemas/TrackPointExtension/v1" xmlns:xsi="http://www.w3.org/2001/XMLSchema-instance" xsi:schemaLocation="http://www.topografix.com/GPX/1/1 http://www.topografix.com/GPX/1/1/gpx.xsd" version="1.1" creator="gpx.py -- https://github.com/tkrajina/gpxpy">
  <trk>
    <name>gpx from keep</name>
    <type>Run</type>
    <trkseg>
      <trkpt lat="24.911296890830123" lon="118.53745484264758">
        <ele>31.38287353515625</ele>
        <time>2025-08-16T13:32:11Z</time>
      </trkpt>
      <trkpt lat="24.91115859655231" lon="118.53775264873403">
        <ele>28.91082763671875</ele>
        <time>2025-08-16T13:32:20Z</time>
      </trkpt>
      <trkpt lat="24.911016318393756" lon="118.5380584732519">
        <ele>29.78985595703125</ele>
        <time>2025-08-16T13:32:29Z</time>
      </trkpt>
      <trkpt lat="24.910896988312228" lon="118.53834423971651">
        <ele>30.5433349609375</ele>
        <time>2025-08-16T13:32:38Z</time>
      </trkpt>
      <trkpt lat="24.910809423177785" lon="118.5385297363723">
        <ele>29.201416015625</ele>
        <time>2025-08-16T13:32:44Z</time>
      </trkpt>
      <trkpt lat="24.91082563298956" lon="118.53862298137575">
        <ele>27.4442138671875</ele>
        <time>2025-08-16T13:32:47Z</time>
      </trkpt>
      <trkpt lat="24.910912746154253" lon="118.5386781207209">
        <ele>26.70880126953125</ele>
        <time>2025-08-16T13:32:50Z</time>
      </trkpt>
      <trkpt lat="24.911191868899465" lon="118.53874928882883">
        <ele>24.25140380859375</ele>
        <time>2025-08-16T13:32:59Z</time>
      </trkpt>
      <trkpt lat="24.911220076380864" lon="118.53884253225351">
        <ele>25.1251220703125</ele>
        <time>2025-08-16T13:33:02Z</time>
      </trkpt>
      <trkpt lat="24.911139864818068" lon="118.53918644013865">
        <ele>27.4791259765625</ele>
        <time>2025-08-16T13:33:11Z</time>
      </trkpt>
      <trkpt lat="24.911078565783313" lon="118.53949424832942">
        <ele>28.2005615234375</ele>
        <time>2025-08-16T13:33:20Z</time>
      </trkpt>
      <trkpt lat="24.910997217146097" lon="118.53977999718265">
        <ele>27.4176025390625</ele>
        <time>2025-08-16T13:33:29Z</time>
      </trkpt>
      <trkpt lat="24.910935630807238" lon="118.53996147189254">
        <ele>27.899658203125</ele>
        <time>2025-08-16T13:33:35Z</time>
      </trkpt>
      <trkpt lat="24.910911309898516" lon="118.54026525834784">
        <ele>30.322998046875</ele>
        <time>2025-08-16T13:33:44Z</time>
      </trkpt>
      <trkpt lat="24.910829982789455" lon="118.54056403246372">
        <ele>29.3314208984375</ele>
        <time>2025-08-16T13:33:53Z</time>
      </trkpt>
      <trkpt lat="24.910749850863308" lon="118.54095303356003">
        <ele>26.1190185546875</ele>
        <time>2025-08-16T13:34:05Z</time>
      </trkpt>
      <trkpt lat="24.91068666991297" lon="118.54132297942907">
        <ele>24.63958740234375</ele>
        <time>2025-08-16T13:34:17Z</time>
      </trkpt>
      <trkpt lat="24.910593331707574" lon="118.54162073992318">
        <ele>23.146240234375</ele>
        <time>2025-08-16T13:34:26Z</time>
      </trkpt>
      <trkpt lat="24.91051398855182" lon="118.54191849606107">
        <ele>22.94732666015625</ele>
        <time>2025-08-16T13:34:35Z</time>
      </trkpt>
      <trkpt lat="24.910433821586828" lon="118.54229945706774">
        <ele>25.71136474609375</ele>
        <time>2025-08-16T13:34:47Z</time>
      </trkpt>
      <trkpt lat="24.910356647092733" lon="118.54267940977965">
        <ele>27.25042724609375</ele>
        <time>2025-08-16T13:34:59Z</time>
      </trkpt>
      <trkpt lat="24.910235456703568" lon="118.54305134013666">
        <ele>26.18426513671875</ele>
        <time>2025-08-16T13:35:11Z</time>
      </trkpt>
      <trkpt lat="24.91025964918716" lon="118.54314356623749">
        <ele>26.73712158203125</ele>
        <time>2025-08-16T13:35:14Z</time>
      </trkpt>
      <trkpt lat="24.91025501730948" lon="118.54331699399333">
        <ele>27.66412353515625</ele>
        <time>2025-08-16T13:35:20Z</time>
      </trkpt>
      <trkpt lat="24.910292143590507" lon="118.54337914430829">
        <ele>28.0545654296875</ele>
        <time>2025-08-16T13:35:23Z</time>
      </trkpt>
      <trkpt lat="24.910381141809992" lon="118.54338415044035">
        <ele>28.05975341796875</ele>
        <time>2025-08-16T13:35:26Z</time>
      </trkpt>
      <trkpt lat="24.910693005176316" lon="118.54334002025868">
        <ele>23.82916259765625</ele>
        <time>2025-08-16T13:35:38Z</time>
      </trkpt>
      <trkpt lat="24.911000898715187" lon="118.54330992482663">
        <ele>24.03814697265625</ele>
        <time>2025-08-16T13:35:47Z</time>
      </trkpt>
      <trkpt lat="24.911293777317706" lon="118.54327181065172">
        <ele>23.7210693359375</ele>
        <time>2025-08-16T13:35:56Z</time>
      </trkpt>
      <trkpt lat="24.91157161971225" lon="118.5432156529884">
        <ele>21.919677734375</ele>
        <time>2025-08-16T13:36:05Z</time>
      </trkpt>
      <trkpt lat="24.91185648227244" lon="118.54316951944585">
        <ele>23.92578125</ele>
        <time>2025-08-16T13:36:14Z</time>
      </trkpt>
      <trkpt lat="24.912198243159704" lon="118.54307927292551">
        <ele>19.1160888671875</ele>
        <time>2025-08-16T13:36:26Z</time>
      </trkpt>
      <trkpt lat="24.912460044743746" lon="118.54300306636905">
        <ele>19.20123291015625</ele>
        <time>2025-08-16T13:36:35Z</time>
      </trkpt>
      <trkpt lat="24.91273780973203" lon="118.5429108187478">
        <ele>18.134765625</ele>
        <time>2025-08-16T13:36:44Z</time>
      </trkpt>
      <trkpt lat="24.913004608016976" lon="118.54283360885593">
        <ele>20.1273193359375</ele>
        <time>2025-08-16T13:36:53Z</time>
      </trkpt>
      <trkpt lat="24.91329643255992" lon="118.54277043183585">
        <ele>21.64208984375</ele>
        <time>2025-08-16T13:37:02Z</time>
      </trkpt>
      <trkpt lat="24.91357327618047" lon="118.54271527563083">
        <ele>24.55889892578125</ele>
        <time>2025-08-16T13:37:11Z</time>
      </trkpt>
      <trkpt lat="24.91392302587099" lon="118.54262101697577">
        <ele>24.4560546875</ele>
        <time>2025-08-16T13:37:23Z</time>
      </trkpt>
      <trkpt lat="24.914272755903454" lon="118.5425177354912">
        <ele>22.92376708984375</ele>
        <time>2025-08-16T13:37:35Z</time>
      </trkpt>
      <trkpt lat="24.914538520953744" lon="118.5424254869625">
        <ele>23.78192138671875</ele>
        <time>2025-08-16T13:37:44Z</time>
      </trkpt>
      <trkpt lat="24.914885289471062" lon="118.54234025000504">
        <ele>22.93310546875</ele>
        <time>2025-08-16T13:37:56Z</time>
      </trkpt>
      <trkpt lat="24.915162078291733" lon="118.5422600301803">
        <ele>22.728271484375</ele>
        <time>2025-08-16T13:38:05Z</time>
      </trkpt>
      <trkpt lat="24.915427825210045" lon="118.54215976063489">
        <ele>21.63751220703125</ele>
        <time>2025-08-16T13:38:14Z</time>
      </trkpt>
      <trkpt lat="24.915748535948204" lon="118.54204645416075">
        <ele>23.311279296875</ele>
        <time>2025-08-16T13:38:26Z</time>
      </trkpt>
      <trkpt lat="24.916042299878484" lon="118.54195620704424">
        <ele>23.31396484375</ele>
        <time>2025-08-16T13:38:35Z</time>
      </trkpt>
      <trkpt lat="24.916312042996" lon="118.5418549335233">
        <ele>22.6007080078125</ele>
        <time>2025-08-16T13:38:44Z</time>
      </trkpt>
      <trkpt lat="24.916411896499163" lon="118.54179377252693">
        <ele>22.7490234375</ele>
        <time>2025-08-16T13:38:50Z</time>
      </trkpt>
      <trkpt lat="24.91643485415657" lon="118.54177572544545">
        <ele>22.98956298828125</ele>
        <time>2025-08-16T13:38:59Z</time>
      </trkpt>
      <trkpt lat="24.91671165878878" lon="118.54170352411691">
        <ele>23.5242919921875</ele>
        <time>2025-08-16T13:39:08Z</time>
      </trkpt>
      <trkpt lat="24.91680962548557" lon="118.54169449452517">
        <ele>24.44915771484375</ele>
        <time>2025-08-16T13:39:11Z</time>
      </trkpt>
      <trkpt lat="24.916987715888162" lon="118.5417476161789">
        <ele>24.68536376953125</ele>
        <time>2025-08-16T13:39:17Z</time>
      </trkpt>
      <trkpt lat="24.917262575133957" lon="118.54170047817128">
        <ele>25.91143798828125</ele>
        <time>2025-08-16T13:39:26Z</time>
      </trkpt>
      <trkpt lat="24.917540510086134" lon="118.54168842845688">
        <ele>27.73614501953125</ele>
        <time>2025-08-16T13:39:35Z</time>
      </trkpt>
      <trkpt lat="24.917829491374587" lon="118.54169843364069">
        <ele>32.05938720703125</ele>
        <time>2025-08-16T13:39:44Z</time>
      </trkpt>
      <trkpt lat="24.91810645909615" lon="118.54170142194747">
        <ele>33.559814453125</ele>
        <time>2025-08-16T13:39:53Z</time>
      </trkpt>
      <trkpt lat="24.918377408060202" lon="118.54169538790164">
        <ele>31.5379638671875</ele>
        <time>2025-08-16T13:40:02Z</time>
      </trkpt>
      <trkpt lat="24.918669410656204" lon="118.5417154181693">
        <ele>30.9454345703125</ele>
        <time>2025-08-16T13:40:11Z</time>
      </trkpt>
      <trkpt lat="24.91902739527134" lon="118.54173143371213">
        <ele>28.344482421875</ele>
        <time>2025-08-16T13:40:23Z</time>
      </trkpt>
      <trkpt lat="24.919317361124353" lon="118.54173442110952">
        <ele>29.1400146484375</ele>
        <time>2025-08-16T13:40:32Z</time>
      </trkpt>
      <trkpt lat="24.919607252990026" lon="118.54170332251313">
        <ele>27.11944580078125</ele>
        <time>2025-08-16T13:40:41Z</time>
      </trkpt>
      <trkpt lat="24.919913183932092" lon="118.54169127084862">
        <ele>28.21185302734375</ele>
        <time>2025-08-16T13:40:50Z</time>
      </trkpt>
      <trkpt lat="24.920208149056" lon="118.5416942579017">
        <ele>27.89190673828125</ele>
        <time>2025-08-16T13:40:59Z</time>
      </trkpt>
      <trkpt lat="24.920490026726604" lon="118.54165614209242">
        <ele>26.47601318359375</ele>
        <time>2025-08-16T13:41:08Z</time>
      </trkpt>
      <trkpt lat="24.92076099956012" lon="118.54166113588293">
        <ele>26.4793701171875</ele>
        <time>2025-08-16T13:41:17Z</time>
      </trkpt>
      <trkpt lat="24.92103401129487" lon="118.54168417509054">
        <ele>29.37396240234375</ele>
        <time>2025-08-16T13:41:26Z</time>
      </trkpt>
      <trkpt lat="24.921318971254554" lon="118.54168415524813">
        <ele>30.7236328125</ele>
        <time>2025-08-16T13:41:35Z</time>
      </trkpt>
      <trkpt lat="24.92160498112648" lon="118.54170719353033">
        <ele>34.07635498046875</ele>
        <time>2025-08-16T13:41:44Z</time>
      </trkpt>
      <trkpt lat="24.921879003534624" lon="118.54173524527164">
        <ele>33.71856689453125</ele>
        <time>2025-08-16T13:41:53Z</time>
      </trkpt>
      <trkpt lat="24.922155040845624" lon="118.54177031453605">
        <ele>35.367919921875</ele>
        <time>2025-08-16T13:42:02Z</time>
      </trkpt>
      <trkpt lat="24.92244409800502" lon="118.54181540810657">
        <ele>37.25732421875</ele>
        <time>2025-08-16T13:42:11Z</time>
      </trkpt>
      <trkpt lat="24.922710171346665" lon="118.54186651834354">
        <ele>37.53717041015625</ele>
        <time>2025-08-16T13:42:20Z</time>
      </trkpt>
      <trkpt lat="24.922971323358805" lon="118.54195371958525">
        <ele>37.37286376953125</ele>
        <time>2025-08-16T13:42:29Z</time>
      </trkpt>
      <trkpt lat="24.92330951621462" lon="118.54206497557139">
        <ele>36.7088623046875</ele>
        <time>2025-08-16T13:42:41Z</time>
      </trkpt>
      <trkpt lat="24.923473666144808" lon="118.54214516531374">
        <ele>37.2008056640625</ele>
        <time>2025-08-16T13:42:47Z</time>
      </trkpt>
      <trkpt lat="24.923540790647387" lon="118.54220731637834">
        <ele>37.069580078125</ele>
        <time>2025-08-16T13:42:50Z</time>
      </trkpt>
      <trkpt lat="24.923860107991363" lon="118.54237571539888">
        <ele>36.6339111328125</ele>
        <time>2025-08-16T13:43:02Z</time>
      </trkpt>
      <trkpt lat="24.92410136229886" lon="118.54251003381762">
        <ele>36.69354248046875</ele>
        <time>2025-08-16T13:43:11Z</time>
      </trkpt>
      <trkpt lat="24.924339661421612" lon="118.5426654041067">
        <ele>37.8939208984375</ele>
        <time>2025-08-16T13:43:20Z</time>
      </trkpt>
      <trkpt lat="24.924574000886555" lon="118.54283982098175">
        <ele>38.69921875</ele>
        <time>2025-08-16T13:43:29Z</time>
      </trkpt>
      <trkpt lat="24.924800329765368" lon="118.54300922483593">
        <ele>37.86419677734375</ele>
        <time>2025-08-16T13:43:38Z</time>
      </trkpt>
      <trkpt lat="24.92505867226489" lon="118.54318764759977">
        <ele>37.32147216796875</ele>
        <time>2025-08-16T13:43:47Z</time>
      </trkpt>
      <trkpt lat="24.925274079033166" lon="118.54339414113231">
        <ele>36.3062744140625</ele>
        <time>2025-08-16T13:43:56Z</time>
      </trkpt>
      <trkpt lat="24.925483510485524" lon="118.54361266288538">
        <ele>35.63787841796875</ele>
        <time>2025-08-16T13:44:05Z</time>
      </trkpt>
      <trkpt lat="24.92567596368788" lon="118.54384120841556">
        <ele>34.666015625</ele>
        <time>2025-08-16T13:44:14Z</time>
      </trkpt>
      <trkpt lat="24.925856490029325" lon="118.54410483801806">
        <ele>34.7666015625</ele>
        <time>2025-08-16T13:44:23Z</time>
      </trkpt>
      <trkpt lat="24.926028983788235" lon="118.54435342903493">
        <ele>33.15155029296875</ele>
        <time>2025-08-16T13:44:32Z</time>
      </trkpt>
      <trkpt lat="24.926203512433418" lon="118.54462006094988">
        <ele>31.60467529296875</ele>
        <time>2025-08-16T13:44:41Z</time>
      </trkpt>
      <trkpt lat="24.92637509266655" lon="118.54491275275979">
        <ele>30.29302978515625</ele>
        <time>2025-08-16T13:44:50Z</time>
      </trkpt>
      <trkpt lat="24.926543670269595" lon="118.54520544134944">
        <ele>29.4727783203125</ele>
        <time>2025-08-16T13:44:59Z</time>
      </trkpt>
      <trkpt lat="24.926718227611104" lon="118.54549010703352">
        <ele>28.78704833984375</ele>
        <time>2025-08-16T13:45:08Z</time>
      </trkpt>
      <trkpt lat="24.9268808121997" lon="118.54578880344907">
        <ele>28.2479248046875</ele>
        <time>2025-08-16T13:45:17Z</time>
      </trkpt>
      <trkpt lat="24.926965238633485" lon="118.54600530829973">
        <ele>27.05438232421875</ele>
        <time>2025-08-16T13:45:23Z</time>
      </trkpt>
      <trkpt lat="24.927130774930063" lon="118.54628294895201">
        <ele>25.7191162109375</ele>
        <time>2025-08-16T13:45:32Z</time>
      </trkpt>
      <trkpt lat="24.927174951943954" lon="118.54637415944345">
        <ele>25.21221923828125</ele>
        <time>2025-08-16T13:45:35Z</time>
      </trkpt>
      <trkpt lat="24.927190174917946" lon="118.54648642076654">
        <ele>25.2303466796875</ele>
        <time>2025-08-16T13:45:38Z</time>
      </trkpt>
      <trkpt lat="24.927187401977324" lon="118.54659968516164">
        <ele>25.0826416015625</ele>
        <time>2025-08-16T13:45:41Z</time>
      </trkpt>
      <trkpt lat="24.927120571600753" lon="118.54667987653811">
        <ele>26.84246826171875</ele>
        <time>2025-08-16T13:45:44Z</time>
      </trkpt>
      <trkpt lat="24.92702264943223" lon="118.54671195796632">
        <ele>27.29376220703125</ele>
        <time>2025-08-16T13:45:47Z</time>
      </trkpt>
      <trkpt lat="24.926933671988248" lon="118.54671697581014">
        <ele>27.8983154296875</ele>
        <time>2025-08-16T13:45:50Z</time>
      </trkpt>
      <trkpt lat="24.926869562998153" lon="118.54665784267291">
        <ele>27.994384765625</ele>
        <time>2025-08-16T13:45:53Z</time>
      </trkpt>
      <trkpt lat="24.92685733027267" lon="118.5465405702395">
        <ele>28.0147705078125</ele>
        <time>2025-08-16T13:45:56Z</time>
      </trkpt>
      <trkpt lat="24.926826115806065" lon="118.54643131730597">
        <ele>28.51190185546875</ele>
        <time>2025-08-16T13:45:59Z</time>
      </trkpt>
      <trkpt lat="24.926666566011924" lon="118.54614666143816">
        <ele>28.85028076171875</ele>
        <time>2025-08-16T13:46:08Z</time>
      </trkpt>
      <trkpt lat="24.926509049538698" lon="118.54588004470966">
        <ele>30.53173828125</ele>
        <time>2025-08-16T13:46:17Z</time>
      </trkpt>
      <trkpt lat="24.92634751882474" lon="118.54560741112049">
        <ele>30.606201171875</ele>
        <time>2025-08-16T13:46:26Z</time>
      </trkpt>
      <trkpt lat="24.92618101482838" lon="118.5453488082909">
        <ele>30.9034423828125</ele>
        <time>2025-08-16T13:46:35Z</time>
      </trkpt>
      <trkpt lat="24.926026510857174" lon="118.54509220672739">
        <ele>31.18377685546875</ele>
        <time>2025-08-16T13:46:44Z</time>
      </trkpt>
      <trkpt lat="24.925926174568737" lon="118.54492180563362">
        <ele>31.47332763671875</ele>
        <time>2025-08-16T13:46:50Z</time>
      </trkpt>
      <trkpt lat="24.92591313924116" lon="118.54490376326457">
        <ele>29.0992431640625</ele>
        <time>2025-08-16T13:48:08Z</time>
      </trkpt>
      <trkpt lat="24.925740598470085" lon="118.54463011732096">
        <ele>30.16180419921875</ele>
        <time>2025-08-16T13:48:20Z</time>
      </trkpt>
      <trkpt lat="24.92557810989273" lon="118.54438353319236">
        <ele>33.3966064453125</ele>
        <time>2025-08-16T13:48:29Z</time>
      </trkpt>
      <trkpt lat="24.925394613755763" lon="118.54413293836895">
        <ele>34.61236572265625</ele>
        <time>2025-08-16T13:48:38Z</time>
      </trkpt>
      <trkpt lat="24.92520516246319" lon="118.54390439526074">
        <ele>35.9102783203125</ele>
        <time>2025-08-16T13:48:47Z</time>
      </trkpt>
      <trkpt lat="24.92500173871103" lon="118.54368888295568">
        <ele>36.664306640625</ele>
        <time>2025-08-16T13:48:56Z</time>
      </trkpt>
      <trkpt lat="24.924798315445294" lon="118.54347437128544">
        <ele>37.29937744140625</ele>
        <time>2025-08-16T13:49:05Z</time>
      </trkpt>
      <trkpt lat="24.924514846636303" lon="118.54323379915556">
        <ele>37.401123046875</ele>
        <time>2025-08-16T13:49:17Z</time>
      </trkpt>
      <trkpt lat="24.92427751422847" lon="118.54306139011754">
        <ele>38.2279052734375</ele>
        <time>2025-08-16T13:49:26Z</time>
      </trkpt>
      <trkpt lat="24.92402721251108" lon="118.54290301560064">
        <ele>39.68511962890625</ele>
        <time>2025-08-16T13:49:35Z</time>
      </trkpt>
      <trkpt lat="24.923755919298216" lon="118.5427476490401">
        <ele>38.9808349609375</ele>
        <time>2025-08-16T13:49:44Z</time>
      </trkpt>
      <trkpt lat="24.923489661016767" lon="118.54260932361656">
        <ele>38.35614013671875</ele>
        <time>2025-08-16T13:49:53Z</time>
      </trkpt>
      <trkpt lat="24.923395607725347" lon="118.54257825279628">
        <ele>38.0308837890625</ele>
        <time>2025-08-16T13:49:56Z</time>
      </trkpt>
      <trkpt lat="24.923198577484264" lon="118.54255119909793">
        <ele>37.028564453125</ele>
        <time>2025-08-16T13:50:02Z</time>
      </trkpt>
      <trkpt lat="24.922920326396248" lon="118.54241588096731">
        <ele>36.72711181640625</ele>
        <time>2025-08-16T13:50:11Z</time>
      </trkpt>
      <trkpt lat="24.922631155990768" lon="118.54231765565552">
        <ele>37.17071533203125</ele>
        <time>2025-08-16T13:50:20Z</time>
      </trkpt>
      <trkpt lat="24.9223140884484" lon="118.54226554734414">
        <ele>37.86163330078125</ele>
        <time>2025-08-16T13:50:29Z</time>
      </trkpt>
      <trkpt lat="24.922000052760218" lon="118.54222847636976">
        <ele>39.40960693359375</ele>
        <time>2025-08-16T13:50:38Z</time>
      </trkpt>
      <trkpt lat="24.921701006266392" lon="118.54218739425349">
        <ele>38.2467041015625</ele>
        <time>2025-08-16T13:50:47Z</time>
      </trkpt>
      <trkpt lat="24.921393030111478" lon="118.5421783930913">
        <ele>37.20953369140625</ele>
        <time>2025-08-16T13:50:56Z</time>
      </trkpt>
      <trkpt lat="24.921044012164135" lon="118.54214733950701">
        <ele>35.1402587890625</ele>
        <time>2025-08-16T13:51:06Z</time>
      </trkpt>
      <trkpt lat="24.92076103894664" lon="118.54214134412979">
        <ele>34.0184326171875</ele>
        <time>2025-08-16T13:51:15Z</time>
      </trkpt>
      <trkpt lat="24.92042512070746" lon="118.54215740772338">
        <ele>33.30303955078125</ele>
        <time>2025-08-16T13:51:24Z</time>
      </trkpt>
      <trkpt lat="24.920134107527613" lon="118.54213236515741">
        <ele>32.2994384765625</ele>
        <time>2025-08-16T13:51:33Z</time>
      </trkpt>
      <trkpt lat="24.919840096899694" lon="118.54210832529056">
        <ele>31.2076416015625</ele>
        <time>2025-08-16T13:51:42Z</time>
      </trkpt>
      <trkpt lat="24.919531161880883" lon="118.54211837194138">
        <ele>31.724609375</ele>
        <time>2025-08-16T13:51:51Z</time>
      </trkpt>
      <trkpt lat="24.919221192393007" lon="118.54211237843616">
        <ele>33.88201904296875</ele>
        <time>2025-08-16T13:52:00Z</time>
      </trkpt>
      <trkpt lat="24.918921199861924" lon="118.5420963590876">
        <ele>34.54638671875</ele>
        <time>2025-08-16T13:52:09Z</time>
      </trkpt>
      <trkpt lat="24.918617214361976" lon="118.5420833475535">
        <ele>34.4503173828125</ele>
        <time>2025-08-16T13:52:18Z</time>
      </trkpt>
      <trkpt lat="24.918317210972113" lon="118.5420623156071">
        <ele>29.47314453125</ele>
        <time>2025-08-16T13:52:27Z</time>
      </trkpt>
      <trkpt lat="24.91821220620813" lon="118.54205330026981">
        <ele>28.8060302734375</ele>
        <time>2025-08-16T13:52:30Z</time>
      </trkpt>
      <trkpt lat="24.917902364310066" lon="118.54210645516325">
        <ele>27.697021484375</ele>
        <time>2025-08-16T13:52:39Z</time>
      </trkpt>
      <trkpt lat="24.917578474556585" lon="118.54213655312861">
        <ele>27.69464111328125</ele>
        <time>2025-08-16T13:52:48Z</time>
      </trkpt>
      <trkpt lat="24.91724962434332" lon="118.54218469661677">
        <ele>28.24102783203125</ele>
        <time>2025-08-16T13:52:57Z</time>
      </trkpt>
      <trkpt lat="24.91714567129882" lon="118.54219974152102">
        <ele>27.85736083984375</ele>
        <time>2025-08-16T13:53:00Z</time>
      </trkpt>
      <trkpt lat="24.917076819091307" lon="118.54226390693209">
        <ele>28.4158935546875</ele>
        <time>2025-08-16T13:53:03Z</time>
      </trkpt>
      <trkpt lat="24.91698194236342" lon="118.54231504141546">
        <ele>29.4276123046875</ele>
        <time>2025-08-16T13:53:06Z</time>
      </trkpt>
      <trkpt lat="24.91680807660138" lon="118.54236618129613">
        <ele>30.05206298828125</ele>
        <time>2025-08-16T13:53:12Z</time>
      </trkpt>
      <trkpt lat="24.91677008191942" lon="118.54236618394087">
        <ele>27.4461669921875</ele>
        <time>2025-08-16T13:54:12Z</time>
      </trkpt>
      <trkpt lat="24.9166841714659" lon="118.54240228005635">
        <ele>27.653564453125</ele>
        <time>2025-08-16T13:54:15Z</time>
      </trkpt>
      <trkpt lat="24.916586133509405" lon="118.54237822679583">
        <ele>27.6552734375</ele>
        <time>2025-08-16T13:54:18Z</time>
      </trkpt>
      <trkpt lat="24.91650001412635" lon="118.54231707997478">
        <ele>28.30767822265625</ele>
        <time>2025-08-16T13:54:21Z</time>
      </trkpt>
      <trkpt lat="24.916208212227506" lon="118.54239028314679">
        <ele>28.84967041015625</ele>
        <time>2025-08-16T13:54:30Z</time>
      </trkpt>
      <trkpt lat="24.91589945766116" lon="118.54248453979679">
        <ele>29.84454345703125</ele>
        <time>2025-08-16T13:54:39Z</time>
      </trkpt>
      <trkpt lat="24.915696541923197" lon="118.54251061890366">
        <ele>28.90301513671875</ele>
        <time>2025-08-16T13:54:45Z</time>
      </trkpt>
      <trkpt lat="24.91538078792459" lon="118.54260487560052">
        <ele>29.01678466796875</ele>
        <time>2025-08-16T13:54:54Z</time>
      </trkpt>
      <trkpt lat="24.915071017772004" lon="118.54269211409407">
        <ele>30.65362548828125</ele>
        <time>2025-08-16T13:55:03Z</time>
      </trkpt>
      <trkpt lat="24.91474321562212" lon="118.542763313727">
        <ele>35.752685546875</ele>
        <time>2025-08-16T13:55:12Z</time>
      </trkpt>
      <trkpt lat="24.91443649796211" lon="118.54287561359797">
        <ele>38.22979736328125</ele>
        <time>2025-08-16T13:55:21Z</time>
      </trkpt>
      <trkpt lat="24.914140737798743" lon="118.54296886508281">
        <ele>38.57464599609375</ele>
        <time>2025-08-16T13:55:30Z</time>
      </trkpt>
      <trkpt lat="24.914014932298866" lon="118.54305207962565">
        <ele>34.82464599609375</ele>
        <time>2025-08-16T13:55:36Z</time>
      </trkpt>
      <trkpt lat="24.913663055948902" lon="118.5430871908089">
        <ele>30.76708984375</ele>
        <time>2025-08-16T13:55:51Z</time>
      </trkpt>
      <trkpt lat="24.913365288972493" lon="118.54317743424343">
        <ele>30.63604736328125</ele>
        <time>2025-08-16T13:56:00Z</time>
      </trkpt>
      <trkpt lat="24.913033469120172" lon="118.543240613043">
        <ele>27.7618408203125</ele>
        <time>2025-08-16T13:56:09Z</time>
      </trkpt>
      <trkpt lat="24.912698677105336" lon="118.5433168239714">
        <ele>26.871826171875</ele>
        <time>2025-08-16T13:56:18Z</time>
      </trkpt>
      <trkpt lat="24.912372928092317" lon="118.54341408578519">
        <ele>25.7857666015625</ele>
        <time>2025-08-16T13:56:27Z</time>
      </trkpt>
      <trkpt lat="24.912039116411616" lon="118.54348127397888">
        <ele>25.35284423828125</ele>
        <time>2025-08-16T13:56:36Z</time>
      </trkpt>
      <trkpt lat="24.91171533062757" lon="118.54356149325079">
        <ele>27.184326171875</ele>
        <time>2025-08-16T13:56:45Z</time>
      </trkpt>
      <trkpt lat="24.911378529535853" lon="118.54363369353655">
        <ele>28.359375</ele>
        <time>2025-08-16T13:56:54Z</time>
      </trkpt>
      <trkpt lat="24.911260560726262" lon="118.54364071892687">
        <ele>29.6378173828125</ele>
        <time>2025-08-16T13:56:57Z</time>
      </trkpt>
      <trkpt lat="24.911172431555876" lon="118.54357356051119">
        <ele>30.03955078125</ele>
        <time>2025-08-16T13:57:00Z</time>
      </trkpt>
      <trkpt lat="24.91108235112291" lon="118.54352945862125">
        <ele>29.45660400390625</ele>
        <time>2025-08-16T13:57:03Z</time>
      </trkpt>
      <trkpt lat="24.910983373350536" lon="118.5435334753429">
        <ele>29.995849609375</ele>
        <time>2025-08-16T13:57:06Z</time>
      </trkpt>
      <trkpt lat="24.910983373350536" lon="118.5435334753429">
        <ele>29.995849609375</ele>
        <time>2025-08-16T13:57:08Z</time>
      </trkpt>
      <trkpt lat="24.910846233815228" lon="118.54345830036158">
        <ele>22.9915771484375</ele>
        <time>2025-08-16T13:57:39Z</time>
      </trkpt>
      <trkpt lat="24.910797033104622" lon="118.54336006234155">
        <ele>22.6878662109375</ele>
        <time>2025-08-16T13:57:42Z</time>
      </trkpt>
      <trkpt lat="24.910606991693893" lon="118.54332799664317">
        <ele>22.74810791015625</ele>
        <time>2025-08-16T13:57:48Z</time>
      </trkpt>
      <trkpt lat="24.9103330849129" lon="118.54335407982566">
        <ele>24.9178466796875</ele>
        <time>2025-08-16T13:57:54Z</time>
      </trkpt>
      <trkpt lat="24.9102550385161" lon="118.54332701866304">
        <ele>24.2716064453125</ele>
        <time>2025-08-16T13:57:57Z</time>
      </trkpt>
      <trkpt lat="24.91027567673573" lon="118.54315759975604">
        <ele>21.0106201171875</ele>
        <time>2025-08-16T13:58:03Z</time>
      </trkpt>
      <trkpt lat="24.910256357895495" lon="118.54300622714545">
        <ele>21.9334716796875</ele>
        <time>2025-08-16T13:58:06Z</time>
      </trkpt>
      <trkpt lat="24.910270035811507" lon="118.54285585383175">
        <ele>20.87396240234375</ele>
        <time>2025-08-16T13:58:09Z</time>
      </trkpt>
      <trkpt lat="24.910312717483002" lon="118.54270948758536">
        <ele>22.80322265625</ele>
        <time>2025-08-16T13:58:12Z</time>
      </trkpt>
      <trkpt lat="24.910371067301643" lon="118.54240973696342">
        <ele>25.6451416015625</ele>
        <time>2025-08-16T13:58:18Z</time>
      </trkpt>
      <trkpt lat="24.910462405125056" lon="118.54210797554772">
        <ele>27.917724609375</ele>
        <time>2025-08-16T13:58:24Z</time>
      </trkpt>
      <trkpt lat="24.910510708874686" lon="118.54178917068099">
        <ele>28.57110595703125</ele>
        <time>2025-08-16T13:58:30Z</time>
      </trkpt>
    </trkseg>
  </trk>
</gpx>