<?xml version="1.0" encoding="UTF-8"?>
<gpx xmlns="http://www.topografix.com/GPX/1/1" xmlns:gpxtpx="http://www.garmin.com/xmlschemas/TrackPointExtension/v1" xmlns:xsi="http://www.w3.org/2001/XMLSchema-instance" xsi:schemaLocation="http://www.topografix.com/GPX/1/1 http://www.topografix.com/GPX/1/1/gpx.xsd" version="1.1" creator="gpx.py -- https://github.com/tkrajina/gpxpy">
  <trk>
    <name>gpx from keep</name>
    <type>Run</type>
    <trkseg>
      <trkpt lat="24.911323622871333" lon="118.53734053423881">
        <ele>24.11932373046875</ele>
        <time>2026-05-16T11:14:50Z</time>
      </trkpt>
      <trkpt lat="24.911170449521062" lon="118.53768947922859">
        <ele>24.44317626953125</ele>
        <time>2026-05-16T11:14:59Z</time>
      </trkpt>
      <trkpt lat="24.910990149677087" lon="118.53798327507388">
        <ele>21.93804931640625</ele>
        <time>2026-05-16T11:15:08Z</time>
      </trkpt>
      <trkpt lat="24.910847002129643" lon="118.53834725116407">
        <ele>21.2198486328125</ele>
        <time>2026-05-16T11:15:17Z</time>
      </trkpt>
      <trkpt lat="24.910812208159395" lon="118.53843548707886">
        <ele>22.09698486328125</ele>
        <time>2026-05-16T11:15:20Z</time>
      </trkpt>
      <trkpt lat="24.910801476755893" lon="118.53855279782678">
        <ele>23.72918701171875</ele>
        <time>2026-05-16T11:15:23Z</time>
      </trkpt>
      <trkpt lat="24.9109016338096" lon="118.53862798930501">
        <ele>23.9093017578125</ele>
        <time>2026-05-16T11:15:26Z</time>
      </trkpt>
      <trkpt lat="24.911143714015477" lon="118.5386781046302">
        <ele>22.56353759765625</ele>
        <time>2026-05-16T11:15:32Z</time>
      </trkpt>
      <trkpt lat="24.911228822806446" lon="118.53873123872307">
        <ele>23.3956298828125</ele>
        <time>2026-05-16T11:15:35Z</time>
      </trkpt>
      <trkpt lat="24.91122905468479" lon="118.5388335078945">
        <ele>24.9556884765625</ele>
        <time>2026-05-16T11:15:38Z</time>
      </trkpt>
      <trkpt lat="24.91115454824797" lon="118.5390470739826">
        <ele>25.61981201171875</ele>
        <time>2026-05-16T11:15:44Z</time>
      </trkpt>
      <trkpt lat="24.911087330338866" lon="118.53938997577087">
        <ele>26.2083740234375</ele>
        <time>2026-05-16T11:15:53Z</time>
      </trkpt>
      <trkpt lat="24.91106860542233" lon="118.53951129343815">
        <ele>25.88836669921875</ele>
        <time>2026-05-16T11:15:56Z</time>
      </trkpt>
      <trkpt lat="24.910969346472136" lon="118.53983614479864">
        <ele>25.64361572265625</ele>
        <time>2026-05-16T11:16:05Z</time>
      </trkpt>
      <trkpt lat="24.91089207207859" lon="118.54015698036453">
        <ele>25.09661865234375</ele>
        <time>2026-05-16T11:16:14Z</time>
      </trkpt>
      <trkpt lat="24.910825752829005" lon="118.54045976495279">
        <ele>26.42535400390625</ele>
        <time>2026-05-16T11:16:23Z</time>
      </trkpt>
      <trkpt lat="24.910740464086444" lon="118.54077658334434">
        <ele>24.13055419921875</ele>
        <time>2026-05-16T11:16:32Z</time>
      </trkpt>
      <trkpt lat="24.910733720923226" lon="118.54089288110943">
        <ele>24.9793701171875</ele>
        <time>2026-05-16T11:16:35Z</time>
      </trkpt>
      <trkpt lat="24.91065144910452" lon="118.54121971960704">
        <ele>20.96832275390625</ele>
        <time>2026-05-16T11:16:44Z</time>
      </trkpt>
      <trkpt lat="24.910575214303133" lon="118.5415656018099">
        <ele>17.9765625</ele>
        <time>2026-05-16T11:16:53Z</time>
      </trkpt>
      <trkpt lat="24.910494982517257" lon="118.54191448729716">
        <ele>17.6767578125</ele>
        <time>2026-05-16T11:17:02Z</time>
      </trkpt>
      <trkpt lat="24.910418398266717" lon="118.54210196352385">
        <ele>15.43682861328125</ele>
        <time>2026-05-16T11:17:08Z</time>
      </trkpt>
      <trkpt lat="24.910327196040942" lon="118.54246688260562">
        <ele>20.42510986328125</ele>
        <time>2026-05-16T11:17:17Z</time>
      </trkpt>
      <trkpt lat="24.91023998441193" lon="118.54282979129064">
        <ele>23.19189453125</ele>
        <time>2026-05-16T11:17:26Z</time>
      </trkpt>
      <trkpt lat="24.91022023280487" lon="118.54294507833802">
        <ele>22.75726318359375</ele>
        <time>2026-05-16T11:17:29Z</time>
      </trkpt>
      <trkpt lat="24.910241668703293" lon="118.54315158728014">
        <ele>23.04632568359375</ele>
        <time>2026-05-16T11:17:35Z</time>
      </trkpt>
      <trkpt lat="24.910238894343532" lon="118.54325784947505">
        <ele>23.02337646484375</ele>
        <time>2026-05-16T11:17:38Z</time>
      </trkpt>
      <trkpt lat="24.910323999233484" lon="118.54331297932441">
        <ele>23.12640380859375</ele>
        <time>2026-05-16T11:17:41Z</time>
      </trkpt>
      <trkpt lat="24.910637902536667" lon="118.54328789578551">
        <ele>22.6051025390625</ele>
        <time>2026-05-16T11:17:50Z</time>
      </trkpt>
      <trkpt lat="24.910987798671748" lon="118.54326180724777">
        <ele>21.52484130859375</ele>
        <time>2026-05-16T11:17:59Z</time>
      </trkpt>
      <trkpt lat="24.911274656803606" lon="118.54321366870796">
        <ele>23.91632080078125</ele>
        <time>2026-05-16T11:18:08Z</time>
      </trkpt>
      <trkpt lat="24.91157949745322" lon="118.54315851151185">
        <ele>20.61370849609375</ele>
        <time>2026-05-16T11:18:17Z</time>
      </trkpt>
      <trkpt lat="24.91194231500736" lon="118.5430963328311">
        <ele>19.737060546875</ele>
        <time>2026-05-16T11:18:26Z</time>
      </trkpt>
      <trkpt lat="24.91225311195108" lon="118.54302112539553">
        <ele>17.7955322265625</ele>
        <time>2026-05-16T11:18:35Z</time>
      </trkpt>
      <trkpt lat="24.912573890220337" lon="118.54293789718776">
        <ele>19.1610107421875</ele>
        <time>2026-05-16T11:18:44Z</time>
      </trkpt>
      <trkpt lat="24.91287561958865" lon="118.54283061037323">
        <ele>17.8958740234375</ele>
        <time>2026-05-16T11:18:53Z</time>
      </trkpt>
      <trkpt lat="24.913170398766482" lon="118.54274638086625">
        <ele>18.47528076171875</ele>
        <time>2026-05-16T11:19:02Z</time>
      </trkpt>
      <trkpt lat="24.913501234813697" lon="118.54269122085232">
        <ele>20.389892578125</ele>
        <time>2026-05-16T11:19:11Z</time>
      </trkpt>
      <trkpt lat="24.91378400665317" lon="118.54260298174297">
        <ele>18.32940673828125</ele>
        <time>2026-05-16T11:19:20Z</time>
      </trkpt>
      <trkpt lat="24.914096769728935" lon="118.54251273524638">
        <ele>19.7012939453125</ele>
        <time>2026-05-16T11:19:29Z</time>
      </trkpt>
      <trkpt lat="24.914262643379654" lon="118.54246460371719">
        <ele>19.09759521484375</ele>
        <time>2026-05-16T11:19:35Z</time>
      </trkpt>
      <trkpt lat="24.91444545860969" lon="118.5423904058415">
        <ele>18.15936279296875</ele>
        <time>2026-05-16T11:19:41Z</time>
      </trkpt>
      <trkpt lat="24.91474626147689" lon="118.54231820455304">
        <ele>20.7095947265625</ele>
        <time>2026-05-16T11:19:50Z</time>
      </trkpt>
      <trkpt lat="24.915043062554137" lon="118.54224500083212">
        <ele>20.10528564453125</ele>
        <time>2026-05-16T11:19:59Z</time>
      </trkpt>
      <trkpt lat="24.91525791593672" lon="118.54219085032808">
        <ele>18.7562255859375</ele>
        <time>2026-05-16T11:20:05Z</time>
      </trkpt>
      <trkpt lat="24.915454698214653" lon="118.54210261549407">
        <ele>17.8333740234375</ele>
        <time>2026-05-16T11:20:11Z</time>
      </trkpt>
      <trkpt lat="24.915752500749683" lon="118.54203041361131">
        <ele>16.65655517578125</ele>
        <time>2026-05-16T11:20:20Z</time>
      </trkpt>
      <trkpt lat="24.916040230772257" lon="118.54192412652034">
        <ele>15.156005859375</ele>
        <time>2026-05-16T11:20:29Z</time>
      </trkpt>
      <trkpt lat="24.916255009709946" lon="118.54183588952797">
        <ele>13.53961181640625</ele>
        <time>2026-05-16T11:20:35Z</time>
      </trkpt>
      <trkpt lat="24.91634587312882" lon="118.54177873922157">
        <ele>13.3934326171875</ele>
        <time>2026-05-16T11:20:38Z</time>
      </trkpt>
      <trkpt lat="24.91639963278164" lon="118.54167146486206">
        <ele>12.8494873046875</ele>
        <time>2026-05-16T11:20:41Z</time>
      </trkpt>
      <trkpt lat="24.916416366681677" lon="118.54155015714319">
        <ele>13.421630859375</ele>
        <time>2026-05-16T11:20:44Z</time>
      </trkpt>
      <trkpt lat="24.91634065540549" lon="118.54121932351282">
        <ele>12.39263916015625</ele>
        <time>2026-05-16T11:20:53Z</time>
      </trkpt>
      <trkpt lat="24.91631814665174" lon="118.54098573026519">
        <ele>13.028076171875</ele>
        <time>2026-05-16T11:20:59Z</time>
      </trkpt>
      <trkpt lat="24.916386371356474" lon="118.54063783585738">
        <ele>14.25787353515625</ele>
        <time>2026-05-16T11:21:08Z</time>
      </trkpt>
      <trkpt lat="24.91649684167693" lon="118.54040523081355">
        <ele>16.60150146484375</ele>
        <time>2026-05-16T11:21:14Z</time>
      </trkpt>
      <trkpt lat="24.916608044720828" lon="118.5400533154738">
        <ele>17.906494140625</ele>
        <time>2026-05-16T11:21:23Z</time>
      </trkpt>
      <trkpt lat="24.916743294148926" lon="118.53972545637136">
        <ele>17.641845703125</ele>
        <time>2026-05-16T11:21:32Z</time>
      </trkpt>
      <trkpt lat="24.91690454091584" lon="118.53939959671425">
        <ele>16.26922607421875</ele>
        <time>2026-05-16T11:21:41Z</time>
      </trkpt>
      <trkpt lat="24.91701182799186" lon="118.5390897789616">
        <ele>15.0489501953125</ele>
        <time>2026-05-16T11:21:50Z</time>
      </trkpt>
      <trkpt lat="24.917037570655683" lon="118.53897748260688">
        <ele>14.68218994140625</ele>
        <time>2026-05-16T11:21:53Z</time>
      </trkpt>
      <trkpt lat="24.917122075154182" lon="118.53876391525681">
        <ele>16.84222412109375</ele>
        <time>2026-05-16T11:21:59Z</time>
      </trkpt>
      <trkpt lat="24.917218640349994" lon="118.53857841952633">
        <ele>20.678466796875</ele>
        <time>2026-05-16T11:22:05Z</time>
      </trkpt>
      <trkpt lat="24.917252386890773" lon="118.53846912847578">
        <ele>22.603515625</ele>
        <time>2026-05-16T11:22:08Z</time>
      </trkpt>
      <trkpt lat="24.91741864493268" lon="118.53815428281075">
        <ele>24.55499267578125</ele>
        <time>2026-05-16T11:22:17Z</time>
      </trkpt>
      <trkpt lat="24.917547794383893" lon="118.53779130780188">
        <ele>21.95050048828125</ele>
        <time>2026-05-16T11:22:29Z</time>
      </trkpt>
      <trkpt lat="24.91764403691746" lon="118.53746843786689">
        <ele>21.3583984375</ele>
        <time>2026-05-16T11:22:38Z</time>
      </trkpt>
      <trkpt lat="24.917811303424855" lon="118.53716160243854">
        <ele>21.1417236328125</ele>
        <time>2026-05-16T11:22:47Z</time>
      </trkpt>
      <trkpt lat="24.917967514818425" lon="118.53683170215002">
        <ele>19.79559326171875</ele>
        <time>2026-05-16T11:22:56Z</time>
      </trkpt>
      <trkpt lat="24.918122739380664" lon="118.53650881714954">
        <ele>18.11895751953125</ele>
        <time>2026-05-16T11:23:05Z</time>
      </trkpt>
      <trkpt lat="24.918286964165507" lon="118.53618793334282">
        <ele>18.388671875</ele>
        <time>2026-05-16T11:23:14Z</time>
      </trkpt>
      <trkpt lat="24.918451282726572" lon="118.53590815838152">
        <ele>18.8653564453125</ele>
        <time>2026-05-16T11:23:23Z</time>
      </trkpt>
      <trkpt lat="24.91855146783909" lon="118.53556922281624">
        <ele>21.41595458984375</ele>
        <time>2026-05-16T11:23:32Z</time>
      </trkpt>
      <trkpt lat="24.918697685930876" lon="118.53524832985893">
        <ele>21.471435546875</ele>
        <time>2026-05-16T11:23:41Z</time>
      </trkpt>
      <trkpt lat="24.918732401896953" lon="118.53513100380145">
        <ele>22.59625244140625</ele>
        <time>2026-05-16T11:23:44Z</time>
      </trkpt>
      <trkpt lat="24.918742154424812" lon="118.53502771782364">
        <ele>22.55810546875</ele>
        <time>2026-05-16T11:23:47Z</time>
      </trkpt>
      <trkpt lat="24.918707953489236" lon="118.53494148172277">
        <ele>23.44378662109375</ele>
        <time>2026-05-16T11:23:50Z</time>
      </trkpt>
      <trkpt lat="24.91878782257711" lon="118.53489133737982">
        <ele>23.571044921875</ele>
        <time>2026-05-16T11:23:53Z</time>
      </trkpt>
      <trkpt lat="24.918855841777436" lon="118.53490336594732">
        <ele>24.13623046875</ele>
        <time>2026-05-16T11:23:56Z</time>
      </trkpt>
      <trkpt lat="24.9188528805034" lon="118.53491941056335">
        <ele>23.6214599609375</ele>
        <time>2026-05-16T11:24:08Z</time>
      </trkpt>
      <trkpt lat="24.91907694721637" lon="118.53496050869113">
        <ele>22.69287109375</ele>
        <time>2026-05-16T11:24:14Z</time>
      </trkpt>
      <trkpt lat="24.9191800284518" lon="118.5350006124297">
        <ele>23.35784912109375</ele>
        <time>2026-05-16T11:24:17Z</time>
      </trkpt>
      <trkpt lat="24.919291058314837" lon="118.53501965735651">
        <ele>22.57464599609375</ele>
        <time>2026-05-16T11:24:20Z</time>
      </trkpt>
      <trkpt lat="24.91951696683274" lon="118.53499457228754">
        <ele>21.7579345703125</ele>
        <time>2026-05-16T11:24:26Z</time>
      </trkpt>
      <trkpt lat="24.91985009700446" lon="118.53506875413956">
        <ele>22.82818603515625</ele>
        <time>2026-05-16T11:24:35Z</time>
      </trkpt>
      <trkpt lat="24.920164186691363" lon="118.53512488730885">
        <ele>21.56378173828125</ele>
        <time>2026-05-16T11:24:44Z</time>
      </trkpt>
      <trkpt lat="24.920465292412" lon="118.53518703787533">
        <ele>25.42083740234375</ele>
        <time>2026-05-16T11:24:53Z</time>
      </trkpt>
      <trkpt lat="24.920775439646707" lon="118.53526723742874">
        <ele>24.2391357421875</ele>
        <time>2026-05-16T11:25:02Z</time>
      </trkpt>
      <trkpt lat="24.921089555159423" lon="118.53533440059387">
        <ele>25.0604248046875</ele>
        <time>2026-05-16T11:25:11Z</time>
      </trkpt>
      <trkpt lat="24.921400687599977" lon="118.53540858312529">
        <ele>26.99285888671875</ele>
        <time>2026-05-16T11:25:20Z</time>
      </trkpt>
      <trkpt lat="24.921704873129094" lon="118.53550482658062">
        <ele>28.81451416015625</ele>
        <time>2026-05-16T11:25:29Z</time>
      </trkpt>
      <trkpt lat="24.922032100218782" lon="118.53562012039562">
        <ele>26.771484375</ele>
        <time>2026-05-16T11:25:38Z</time>
      </trkpt>
      <trkpt lat="24.922357315327485" lon="118.53573040015809">
        <ele>26.30126953125</ele>
        <time>2026-05-16T11:25:47Z</time>
      </trkpt>
      <trkpt lat="24.922642509653254" lon="118.53582965211068">
        <ele>27.0087890625</ele>
        <time>2026-05-16T11:25:56Z</time>
      </trkpt>
      <trkpt lat="24.922935742713594" lon="118.53594594975218">
        <ele>27.71392822265625</ele>
        <time>2026-05-16T11:26:05Z</time>
      </trkpt>
      <trkpt lat="24.923221988130745" lon="118.53606726109531">
        <ele>29.3480224609375</ele>
        <time>2026-05-16T11:26:14Z</time>
      </trkpt>
      <trkpt lat="24.923511289181494" lon="118.53621263726954">
        <ele>26.71270751953125</ele>
        <time>2026-05-16T11:26:23Z</time>
      </trkpt>
      <trkpt lat="24.923802532883123" lon="118.53633394714461">
        <ele>28.267333984375</ele>
        <time>2026-05-16T11:26:32Z</time>
      </trkpt>
      <trkpt lat="24.924087887240066" lon="118.53650238483752">
        <ele>27.5125732421875</ele>
        <time>2026-05-16T11:26:41Z</time>
      </trkpt>
      <trkpt lat="24.9244111955695" lon="118.53665377273549">
        <ele>27.2275390625</ele>
        <time>2026-05-16T11:26:50Z</time>
      </trkpt>
      <trkpt lat="24.924715505853612" lon="118.53680516115746">
        <ele>26.93035888671875</ele>
        <time>2026-05-16T11:26:59Z</time>
      </trkpt>
      <trkpt lat="24.924902743286257" lon="118.53691845412925">
        <ele>26.41180419921875</ele>
        <time>2026-05-16T11:27:05Z</time>
      </trkpt>
      <trkpt lat="24.92504214537898" lon="118.53709993365557">
        <ele>26.56854248046875</ele>
        <time>2026-05-16T11:27:11Z</time>
      </trkpt>
      <trkpt lat="24.92512531973204" lon="118.53718014372741">
        <ele>26.51763916015625</ele>
        <time>2026-05-16T11:27:14Z</time>
      </trkpt>
      <trkpt lat="24.92522443821741" lon="118.5372372904857">
        <ele>26.21331787109375</ele>
        <time>2026-05-16T11:27:17Z</time>
      </trkpt>
      <trkpt lat="24.9254275721081" lon="118.53730746488056">
        <ele>26.2938232421875</ele>
        <time>2026-05-16T11:27:23Z</time>
      </trkpt>
      <trkpt lat="24.925643504530502" lon="118.53729140673936">
        <ele>26.5733642578125</ele>
        <time>2026-05-16T11:27:29Z</time>
      </trkpt>
      <trkpt lat="24.925747510755105" lon="118.53730042372274">
        <ele>26.238525390625</ele>
        <time>2026-05-16T11:27:32Z</time>
      </trkpt>
      <trkpt lat="24.926045906760613" lon="118.5374899112032">
        <ele>24.83843994140625</ele>
        <time>2026-05-16T11:27:41Z</time>
      </trkpt>
      <trkpt lat="24.926329315283734" lon="118.53768441184927">
        <ele>24.99517822265625</ele>
        <time>2026-05-16T11:27:50Z</time>
      </trkpt>
      <trkpt lat="24.926632639182262" lon="118.537843816214">
        <ele>25.51654052734375</ele>
        <time>2026-05-16T11:27:59Z</time>
      </trkpt>
      <trkpt lat="24.926915064025724" lon="118.53804633580167">
        <ele>23.41400146484375</ele>
        <time>2026-05-16T11:28:08Z</time>
      </trkpt>
      <trkpt lat="24.927179492385992" lon="118.5382498578313">
        <ele>22.337646484375</ele>
        <time>2026-05-16T11:28:17Z</time>
      </trkpt>
      <trkpt lat="24.927476933027446" lon="118.5384613972777">
        <ele>21.651123046875</ele>
        <time>2026-05-16T11:28:26Z</time>
      </trkpt>
      <trkpt lat="24.927772413484014" lon="118.53869098281834">
        <ele>21.2833251953125</ele>
        <time>2026-05-16T11:28:35Z</time>
      </trkpt>
      <trkpt lat="24.928044918167977" lon="118.53893059438917">
        <ele>21.9072265625</ele>
        <time>2026-05-16T11:28:44Z</time>
      </trkpt>
      <trkpt lat="24.92832943511622" lon="118.53917722140565">
        <ele>21.26556396484375</ele>
        <time>2026-05-16T11:28:53Z</time>
      </trkpt>
      <trkpt lat="24.928610918967273" lon="118.53940980978138">
        <ele>21.47943115234375</ele>
        <time>2026-05-16T11:29:02Z</time>
      </trkpt>
      <trkpt lat="24.928903437655446" lon="118.53965943972722">
        <ele>21.445556640625</ele>
        <time>2026-05-16T11:29:11Z</time>
      </trkpt>
      <trkpt lat="24.929173928325742" lon="118.5398960351325">
        <ele>21.80419921875</ele>
        <time>2026-05-16T11:29:20Z</time>
      </trkpt>
      <trkpt lat="24.92943638037929" lon="118.54011558499556">
        <ele>22.10809326171875</ele>
        <time>2026-05-16T11:29:29Z</time>
      </trkpt>
      <trkpt lat="24.92969685333866" lon="118.54034515902217">
        <ele>20.94842529296875</ele>
        <time>2026-05-16T11:29:38Z</time>
      </trkpt>
      <trkpt lat="24.929956360110783" lon="118.540590772312">
        <ele>21.7105712890625</ele>
        <time>2026-05-16T11:29:47Z</time>
      </trkpt>
      <trkpt lat="24.930221795630164" lon="118.5408053034512">
        <ele>20.06280517578125</ele>
        <time>2026-05-16T11:29:56Z</time>
      </trkpt>
      <trkpt lat="24.93045830846784" lon="118.5410539217642">
        <ele>16.652099609375</ele>
        <time>2026-05-16T11:30:05Z</time>
      </trkpt>
      <trkpt lat="24.930732778808736" lon="118.54128649436535">
        <ele>16.91070556640625</ele>
        <time>2026-05-16T11:30:14Z</time>
      </trkpt>
      <trkpt lat="24.930991267044117" lon="118.5415270863263">
        <ele>16.93109130859375</ele>
        <time>2026-05-16T11:30:23Z</time>
      </trkpt>
      <trkpt lat="24.931258741171785" lon="118.5417626628194">
        <ele>18.1082763671875</ele>
        <time>2026-05-16T11:30:32Z</time>
      </trkpt>
      <trkpt lat="24.931532225557454" lon="118.54200425188698">
        <ele>19.9776611328125</ele>
        <time>2026-05-16T11:30:41Z</time>
      </trkpt>
      <trkpt lat="24.931806725067663" lon="118.54225385871989">
        <ele>19.25787353515625</ele>
        <time>2026-05-16T11:30:50Z</time>
      </trkpt>
      <trkpt lat="24.932081190202005" lon="118.54248842566197">
        <ele>20.580810546875</ele>
        <time>2026-05-16T11:30:59Z</time>
      </trkpt>
      <trkpt lat="24.932347680267394" lon="118.54273502092202">
        <ele>20.02752685546875</ele>
        <time>2026-05-16T11:31:08Z</time>
      </trkpt>
      <trkpt lat="24.932598138506233" lon="118.54296657772434">
        <ele>19.8099365234375</ele>
        <time>2026-05-16T11:31:17Z</time>
      </trkpt>
      <trkpt lat="24.93268229500557" lon="118.54304576777189">
        <ele>19.47637939453125</ele>
        <time>2026-05-16T11:31:20Z</time>
      </trkpt>
      <trkpt lat="24.93274848999754" lon="118.54314200089867">
        <ele>19.7591552734375</ele>
        <time>2026-05-16T11:31:23Z</time>
      </trkpt>
      <trkpt lat="24.93277972784168" lon="118.54325628056567">
        <ele>20.50152587890625</ele>
        <time>2026-05-16T11:31:26Z</time>
      </trkpt>
      <trkpt lat="24.93278596665336" lon="118.54336955899713">
        <ele>21.41021728515625</ele>
        <time>2026-05-16T11:31:29Z</time>
      </trkpt>
      <trkpt lat="24.932743209842332" lon="118.54348183787616">
        <ele>22.0941162109375</ele>
        <time>2026-05-16T11:31:32Z</time>
      </trkpt>
      <trkpt lat="24.9325327968578" lon="118.54374650090716">
        <ele>21.2783203125</ele>
        <time>2026-05-16T11:31:41Z</time>
      </trkpt>
      <trkpt lat="24.93227942104454" lon="118.54402720320769">
        <ele>20.66998291015625</ele>
        <time>2026-05-16T11:31:51Z</time>
      </trkpt>
      <trkpt lat="24.932021036907063" lon="118.54430489545251">
        <ele>20.635498046875</ele>
        <time>2026-05-16T11:32:00Z</time>
      </trkpt>
      <trkpt lat="24.93173158589626" lon="118.5445495069946">
        <ele>22.59027099609375</ele>
        <time>2026-05-16T11:32:09Z</time>
      </trkpt>
      <trkpt lat="24.931439118702844" lon="118.54478709949557">
        <ele>24.1766357421875</ele>
        <time>2026-05-16T11:32:18Z</time>
      </trkpt>
      <trkpt lat="24.93112759447787" lon="118.54499662385311">
        <ele>24.20458984375</ele>
        <time>2026-05-16T11:32:27Z</time>
      </trkpt>
      <trkpt lat="24.930920909961028" lon="118.54513597157808">
        <ele>25.61712646484375</ele>
        <time>2026-05-16T11:32:33Z</time>
      </trkpt>
      <trkpt lat="24.930588306148174" lon="118.54530640134608">
        <ele>28.841796875</ele>
        <time>2026-05-16T11:32:42Z</time>
      </trkpt>
      <trkpt lat="24.930276714669787" lon="118.54548484753158">
        <ele>29.24981689453125</ele>
        <time>2026-05-16T11:32:51Z</time>
      </trkpt>
      <trkpt lat="24.929974110580012" lon="118.54565827993395">
        <ele>27.82940673828125</ele>
        <time>2026-05-16T11:33:00Z</time>
      </trkpt>
      <trkpt lat="24.929668410305972" lon="118.54578460003123">
        <ele>26.44195556640625</ele>
        <time>2026-05-16T11:33:09Z</time>
      </trkpt>
    </trkseg>
  </trk>
</gpx>