<?xml version="1.0" encoding="UTF-8"?>
<gpx xmlns="http://www.topografix.com/GPX/1/1" xmlns:gpxtpx="http://www.garmin.com/xmlschemas/TrackPointExtension/v1" xmlns:xsi="http://www.w3.org/2001/XMLSchema-instance" xsi:schemaLocation="http://www.topografix.com/GPX/1/1 http://www.topografix.com/GPX/1/1/gpx.xsd" version="1.1" creator="gpx.py -- https://github.com/tkrajina/gpxpy">
  <trk>
    <name>gpx from keep</name>
    <type>Run</type>
    <trkseg>
      <trkpt lat="24.911328506681876" lon="118.53738414666616">
        <ele>10.293154973717446</ele>
        <time>2025-05-08T13:11:22Z</time>
      </trkpt>
      <trkpt lat="24.911284124907883" lon="118.53740789389751">
        <ele>10.405823227584033</ele>
        <time>2025-05-08T13:11:26Z</time>
      </trkpt>
      <trkpt lat="24.91113453406164" lon="118.53773787559246">
        <ele>9.75516786891967</ele>
        <time>2025-05-08T13:11:36Z</time>
      </trkpt>
      <trkpt lat="24.91104998244134" lon="118.53793977796984">
        <ele>8.426775068975985</ele>
        <time>2025-05-08T13:11:42Z</time>
      </trkpt>
      <trkpt lat="24.910917334529326" lon="118.53811745349171">
        <ele>9.661199418827891</ele>
        <time>2025-05-08T13:11:48Z</time>
      </trkpt>
      <trkpt lat="24.910862801308138" lon="118.53821473390533">
        <ele>9.657710835337639</ele>
        <time>2025-05-08T13:11:51Z</time>
      </trkpt>
      <trkpt lat="24.910791069763903" lon="118.53841487436365">
        <ele>9.428247437812388</ele>
        <time>2025-05-08T13:11:57Z</time>
      </trkpt>
      <trkpt lat="24.910775700875732" lon="118.53850799755385">
        <ele>9.410303022712469</ele>
        <time>2025-05-08T13:12:00Z</time>
      </trkpt>
      <trkpt lat="24.910807188231978" lon="118.53860484369535">
        <ele>9.982691965065897</ele>
        <time>2025-05-08T13:12:03Z</time>
      </trkpt>
      <trkpt lat="24.910882534607207" lon="118.53866674061251">
        <ele>10.480029955506325</ele>
        <time>2025-05-08T13:12:06Z</time>
      </trkpt>
      <trkpt lat="24.911142361006554" lon="118.53875954592102">
        <ele>9.613366724923253</ele>
        <time>2025-05-08T13:12:15Z</time>
      </trkpt>
      <trkpt lat="24.911127627768085" lon="118.53902953262198">
        <ele>7.627923217602074</ele>
        <time>2025-05-08T13:12:24Z</time>
      </trkpt>
      <trkpt lat="24.91109323963994" lon="118.53911848019972">
        <ele>7.482159411534667</ele>
        <time>2025-05-08T13:12:27Z</time>
      </trkpt>
      <trkpt lat="24.911067936654728" lon="118.53931152938276">
        <ele>8.191257389262319</ele>
        <time>2025-05-08T13:12:33Z</time>
      </trkpt>
      <trkpt lat="24.91103392388621" lon="118.53939418703133">
        <ele>7.5388033566996455</ele>
        <time>2025-05-08T13:12:36Z</time>
      </trkpt>
      <trkpt lat="24.911020910791475" lon="118.53948456647763">
        <ele>7.683943006210029</ele>
        <time>2025-05-08T13:12:39Z</time>
      </trkpt>
      <trkpt lat="24.910892712827096" lon="118.53984865091138">
        <ele>7.501619684509933</ele>
        <time>2025-05-08T13:12:51Z</time>
      </trkpt>
      <trkpt lat="24.910872032330314" lon="118.53994044344678">
        <ele>7.230158908292651</ele>
        <time>2025-05-08T13:12:54Z</time>
      </trkpt>
      <trkpt lat="24.910879090040304" lon="118.54004626490575">
        <ele>7.812104620970786</ele>
        <time>2025-05-08T13:12:57Z</time>
      </trkpt>
      <trkpt lat="24.910832063609" lon="118.54013414821176">
        <ele>7.9539478765800595</ele>
        <time>2025-05-08T13:13:00Z</time>
      </trkpt>
      <trkpt lat="24.910786040299648" lon="118.54043711732676">
        <ele>7.426137148402631</ele>
        <time>2025-05-08T13:13:09Z</time>
      </trkpt>
      <trkpt lat="24.910737199345107" lon="118.54079568678338">
        <ele>6.964046685025096</ele>
        <time>2025-05-08T13:13:21Z</time>
      </trkpt>
      <trkpt lat="24.91072525017412" lon="118.54089246469812">
        <ele>7.211101436987519</ele>
        <time>2025-05-08T13:13:24Z</time>
      </trkpt>
      <trkpt lat="24.91068579914105" lon="118.54100183373696">
        <ele>7.663037930615246</ele>
        <time>2025-05-08T13:13:28Z</time>
      </trkpt>
      <trkpt lat="24.910526250068436" lon="118.54122853208644">
        <ele>7.367566934786737</ele>
        <time>2025-05-08T13:13:36Z</time>
      </trkpt>
      <trkpt lat="24.910325098301456" lon="118.54144815905308">
        <ele>7.654022173024714</ele>
        <time>2025-05-08T13:13:43Z</time>
      </trkpt>
      <trkpt lat="24.910169981546336" lon="118.54160777193717">
        <ele>7.224541981704533</ele>
        <time>2025-05-08T13:13:49Z</time>
      </trkpt>
      <trkpt lat="24.91013821738191" lon="118.54167569425609">
        <ele>7.19035242125392</ele>
        <time>2025-05-08T13:13:52Z</time>
      </trkpt>
      <trkpt lat="24.91014080553407" lon="118.54179416642802">
        <ele>7.392957353964448</ele>
        <time>2025-05-08T13:13:55Z</time>
      </trkpt>
      <trkpt lat="24.910186269470714" lon="118.54192437425849">
        <ele>7.515468372032046</ele>
        <time>2025-05-08T13:13:58Z</time>
      </trkpt>
      <trkpt lat="24.91025556190728" lon="118.54203902275543">
        <ele>7.496566922403872</ele>
        <time>2025-05-08T13:14:01Z</time>
      </trkpt>
      <trkpt lat="24.910274415274323" lon="118.54224955155685">
        <ele>8.021863882429898</ele>
        <time>2025-05-08T13:14:07Z</time>
      </trkpt>
      <trkpt lat="24.910236926107324" lon="118.54233732430419">
        <ele>7.779732747934759</ele>
        <time>2025-05-08T13:14:10Z</time>
      </trkpt>
      <trkpt lat="24.910238404722293" lon="118.54270733193185">
        <ele>7.6903441390022635</ele>
        <time>2025-05-08T13:14:19Z</time>
      </trkpt>
      <trkpt lat="24.91019000429264" lon="118.54302408876414">
        <ele>7.346592660062015</ele>
        <time>2025-05-08T13:14:28Z</time>
      </trkpt>
      <trkpt lat="24.910216646880077" lon="118.5431844525672">
        <ele>7.371366919018328</ele>
        <time>2025-05-08T13:14:34Z</time>
      </trkpt>
      <trkpt lat="24.910186017047252" lon="118.54326393606802">
        <ele>7.883724835701287</ele>
        <time>2025-05-08T13:14:37Z</time>
      </trkpt>
      <trkpt lat="24.91024159904453" lon="118.54335145283977">
        <ele>7.857524153776467</ele>
        <time>2025-05-08T13:14:40Z</time>
      </trkpt>
      <trkpt lat="24.910402498141" lon="118.54334371114098">
        <ele>7.791206004098058</ele>
        <time>2025-05-08T13:14:46Z</time>
      </trkpt>
      <trkpt lat="24.910486870201158" lon="118.54335543939567">
        <ele>8.177318076603115</ele>
        <time>2025-05-08T13:14:49Z</time>
      </trkpt>
      <trkpt lat="24.910582876877623" lon="118.54332812859205">
        <ele>7.567594546824694</ele>
        <time>2025-05-08T13:14:52Z</time>
      </trkpt>
      <trkpt lat="24.91068222619868" lon="118.54332851605841">
        <ele>7.9441014509648085</ele>
        <time>2025-05-08T13:14:55Z</time>
      </trkpt>
      <trkpt lat="24.910724317391633" lon="118.54343114317165">
        <ele>7.743094487115741</ele>
        <time>2025-05-08T13:14:58Z</time>
      </trkpt>
      <trkpt lat="24.910789104314272" lon="118.54350685001992">
        <ele>8.310976934619248</ele>
        <time>2025-05-08T13:15:01Z</time>
      </trkpt>
      <trkpt lat="24.910895981024762" lon="118.5435087097084">
        <ele>7.597108197398484</ele>
        <time>2025-05-08T13:15:04Z</time>
      </trkpt>
      <trkpt lat="24.91086281288673" lon="118.54368527251752">
        <ele>7.044373732060194</ele>
        <time>2025-05-08T13:15:10Z</time>
      </trkpt>
      <trkpt lat="24.91078704517917" lon="118.54370802215499">
        <ele>6.904731918126345</ele>
        <time>2025-05-08T13:15:13Z</time>
      </trkpt>
      <trkpt lat="24.910707401202945" lon="118.54368814153146">
        <ele>7.180499855428934</ele>
        <time>2025-05-08T13:15:16Z</time>
      </trkpt>
      <trkpt lat="24.91035012738136" lon="118.54371033733544">
        <ele>7.118962344713509</ele>
        <time>2025-05-08T13:15:28Z</time>
      </trkpt>
      <trkpt lat="24.91007341955134" lon="118.5437220595499">
        <ele>7.3117421772331</ele>
        <time>2025-05-08T13:15:37Z</time>
      </trkpt>
      <trkpt lat="24.909785424098036" lon="118.54371912293516">
        <ele>7.063518181443214</ele>
        <time>2025-05-08T13:15:46Z</time>
      </trkpt>
      <trkpt lat="24.90948221401356" lon="118.54371522391095">
        <ele>7.884082975797355</ele>
        <time>2025-05-08T13:15:55Z</time>
      </trkpt>
      <trkpt lat="24.909125542333843" lon="118.54372590045497">
        <ele>7.312353691086173</ele>
        <time>2025-05-08T13:16:07Z</time>
      </trkpt>
      <trkpt lat="24.908925971240414" lon="118.54376953383881">
        <ele>7.762061691842973</ele>
        <time>2025-05-08T13:16:13Z</time>
      </trkpt>
      <trkpt lat="24.90863003784549" lon="118.54378128865808">
        <ele>7.618098543025553</ele>
        <time>2025-05-08T13:16:22Z</time>
      </trkpt>
      <trkpt lat="24.908345521670164" lon="118.54379252058459">
        <ele>7.163568534888327</ele>
        <time>2025-05-08T13:16:31Z</time>
      </trkpt>
      <trkpt lat="24.908264401342265" lon="118.543770799615">
        <ele>7.681470091454685</ele>
        <time>2025-05-08T13:16:34Z</time>
      </trkpt>
      <trkpt lat="24.907910992165814" lon="118.54377853668737">
        <ele>8.11774889100343</ele>
        <time>2025-05-08T13:16:46Z</time>
      </trkpt>
      <trkpt lat="24.907733545989107" lon="118.54379828559831">
        <ele>8.281440893188119</ele>
        <time>2025-05-08T13:16:52Z</time>
      </trkpt>
      <trkpt lat="24.907566517729087" lon="118.54390003807443">
        <ele>7.727083605714142</ele>
        <time>2025-05-08T13:16:58Z</time>
      </trkpt>
      <trkpt lat="24.907490676935122" lon="118.54407140300212">
        <ele>7.546763122081757</ele>
        <time>2025-05-08T13:17:04Z</time>
      </trkpt>
      <trkpt lat="24.907490037753572" lon="118.54416173263512">
        <ele>7.2835031021386385</ele>
        <time>2025-05-08T13:17:07Z</time>
      </trkpt>
      <trkpt lat="24.90757898386048" lon="118.54441656422631">
        <ele>7.42866650596261</ele>
        <time>2025-05-08T13:17:16Z</time>
      </trkpt>
      <trkpt lat="24.907623698315295" lon="118.54448735273112">
        <ele>7.151141677051783</ele>
        <time>2025-05-08T13:17:19Z</time>
      </trkpt>
      <trkpt lat="24.90768455746962" lon="118.54462941913023">
        <ele>6.616735965013504</ele>
        <time>2025-05-08T13:17:25Z</time>
      </trkpt>
      <trkpt lat="24.90774213069167" lon="118.5446883651668">
        <ele>6.464629787951708</ele>
        <time>2025-05-08T13:17:28Z</time>
      </trkpt>
      <trkpt lat="24.907782276335467" lon="118.54492412599635">
        <ele>7.034589735791087</ele>
        <time>2025-05-08T13:17:34Z</time>
      </trkpt>
      <trkpt lat="24.907863372098927" lon="118.54523425866797">
        <ele>7.739108121953905</ele>
        <time>2025-05-08T13:17:43Z</time>
      </trkpt>
      <trkpt lat="24.907924570047737" lon="118.5454411267482">
        <ele>7.891946092247963</ele>
        <time>2025-05-08T13:17:49Z</time>
      </trkpt>
      <trkpt lat="24.90804723847602" lon="118.54574860895654">
        <ele>8.187297800555825</ele>
        <time>2025-05-08T13:17:58Z</time>
      </trkpt>
      <trkpt lat="24.90817312154763" lon="118.54605295343958">
        <ele>7.999987269751728</ele>
        <time>2025-05-08T13:18:07Z</time>
      </trkpt>
      <trkpt lat="24.908240538238672" lon="118.54625163457357">
        <ele>8.237756118178368</ele>
        <time>2025-05-08T13:18:13Z</time>
      </trkpt>
      <trkpt lat="24.90828592446261" lon="118.5463419590716">
        <ele>7.974811416119337</ele>
        <time>2025-05-08T13:18:16Z</time>
      </trkpt>
      <trkpt lat="24.908350490313445" lon="118.546543111909">
        <ele>7.961230790242553</ele>
        <time>2025-05-08T13:18:22Z</time>
      </trkpt>
      <trkpt lat="24.908467863415527" lon="118.54682216656306">
        <ele>8.06760374456644</ele>
        <time>2025-05-08T13:18:31Z</time>
      </trkpt>
      <trkpt lat="24.9085889255535" lon="118.54710094405418">
        <ele>7.849592670798302</ele>
        <time>2025-05-08T13:18:40Z</time>
      </trkpt>
      <trkpt lat="24.908738657036615" lon="118.54744256309348">
        <ele>7.666212348267436</ele>
        <time>2025-05-08T13:18:52Z</time>
      </trkpt>
      <trkpt lat="24.908835821126694" lon="118.54759106319028">
        <ele>7.66803733445704</ele>
        <time>2025-05-08T13:18:58Z</time>
      </trkpt>
      <trkpt lat="24.908890647975717" lon="118.54779142631897">
        <ele>7.907115248963237</ele>
        <time>2025-05-08T13:19:04Z</time>
      </trkpt>
      <trkpt lat="24.90901201627813" lon="118.54792162562295">
        <ele>6.987584103830159</ele>
        <time>2025-05-08T13:19:10Z</time>
      </trkpt>
      <trkpt lat="24.909023697690564" lon="118.54813658454094">
        <ele>7.449663446284831</ele>
        <time>2025-05-08T13:19:16Z</time>
      </trkpt>
      <trkpt lat="24.9090467841469" lon="118.54824445659528">
        <ele>7.250939408317208</ele>
        <time>2025-05-08T13:19:19Z</time>
      </trkpt>
      <trkpt lat="24.909212292826524" lon="118.54852819496534">
        <ele>7.827828164212406</ele>
        <time>2025-05-08T13:19:28Z</time>
      </trkpt>
      <trkpt lat="24.909326127397236" lon="118.54881921461197">
        <ele>7.466247413307428</ele>
        <time>2025-05-08T13:19:37Z</time>
      </trkpt>
      <trkpt lat="24.909441322267625" lon="118.54911635997026">
        <ele>7.892292395234108</ele>
        <time>2025-05-08T13:19:46Z</time>
      </trkpt>
      <trkpt lat="24.909559398684173" lon="118.54941260901624">
        <ele>7.889885398559272</ele>
        <time>2025-05-08T13:19:55Z</time>
      </trkpt>
      <trkpt lat="24.909707838413272" lon="118.54969207174284">
        <ele>7.328788323327899</ele>
        <time>2025-05-08T13:20:04Z</time>
      </trkpt>
      <trkpt lat="24.90981215183762" lon="118.55001680933184">
        <ele>7.232826586812735</ele>
        <time>2025-05-08T13:20:13Z</time>
      </trkpt>
      <trkpt lat="24.9098788237012" lon="118.55023875451936">
        <ele>7.4344814559444785</ele>
        <time>2025-05-08T13:20:19Z</time>
      </trkpt>
      <trkpt lat="24.90992903277553" lon="118.5503182532699">
        <ele>8.013349721208215</ele>
        <time>2025-05-08T13:20:22Z</time>
      </trkpt>
      <trkpt lat="24.9100448104102" lon="118.5506185393134">
        <ele>7.380512028001249</ele>
        <time>2025-05-08T13:20:31Z</time>
      </trkpt>
      <trkpt lat="24.910100057735356" lon="118.55071637809358">
        <ele>7.03823768813163</ele>
        <time>2025-05-08T13:20:34Z</time>
      </trkpt>
      <trkpt lat="24.910119532690366" lon="118.55082599732108">
        <ele>6.6884774984791875</ele>
        <time>2025-05-08T13:20:37Z</time>
      </trkpt>
      <trkpt lat="24.910171481903458" lon="118.55102714476328">
        <ele>7.199328554794192</ele>
        <time>2025-05-08T13:20:43Z</time>
      </trkpt>
      <trkpt lat="24.91025404739618" lon="118.55122136921393">
        <ele>7.776126066222787</ele>
        <time>2025-05-08T13:20:49Z</time>
      </trkpt>
      <trkpt lat="24.91026850448097" lon="118.55132938879466">
        <ele>7.385040023364127</ele>
        <time>2025-05-08T13:20:52Z</time>
      </trkpt>
      <trkpt lat="24.91039260221739" lon="118.55162694698765">
        <ele>7.276139534078538</ele>
        <time>2025-05-08T13:21:01Z</time>
      </trkpt>
      <trkpt lat="24.910481676112234" lon="118.55182003984328">
        <ele>7.209399615414441</ele>
        <time>2025-05-08T13:21:07Z</time>
      </trkpt>
      <trkpt lat="24.91062867703049" lon="118.55204833259359">
        <ele>6.494942001067102</ele>
        <time>2025-05-08T13:21:16Z</time>
      </trkpt>
      <trkpt lat="24.910742767362883" lon="118.55235906829854">
        <ele>7.525223475880921</ele>
        <time>2025-05-08T13:21:25Z</time>
      </trkpt>
      <trkpt lat="24.91078218435469" lon="118.55245618535675">
        <ele>7.954548016190529</ele>
        <time>2025-05-08T13:21:28Z</time>
      </trkpt>
      <trkpt lat="24.91086090325583" lon="118.55253031875687">
        <ele>8.176119400188327</ele>
        <time>2025-05-08T13:21:31Z</time>
      </trkpt>
      <trkpt lat="24.910939637323114" lon="118.55256198944059">
        <ele>7.804306427948177</ele>
        <time>2025-05-08T13:21:34Z</time>
      </trkpt>
      <trkpt lat="24.911117872604947" lon="118.55256894137707">
        <ele>8.57357400842011</ele>
        <time>2025-05-08T13:21:40Z</time>
      </trkpt>
      <trkpt lat="24.911455953588934" lon="118.55250099113135">
        <ele>6.663120428100228</ele>
        <time>2025-05-08T13:21:52Z</time>
      </trkpt>
      <trkpt lat="24.911746086878708" lon="118.55245376912411">
        <ele>7.0237981248646975</ele>
        <time>2025-05-08T13:22:01Z</time>
      </trkpt>
      <trkpt lat="24.911945036471362" lon="118.5524087743154">
        <ele>7.551345331594348</ele>
        <time>2025-05-08T13:22:07Z</time>
      </trkpt>
      <trkpt lat="24.912019279767517" lon="118.55236803327898">
        <ele>7.7809051694348454</ele>
        <time>2025-05-08T13:22:10Z</time>
      </trkpt>
      <trkpt lat="24.91232912536778" lon="118.55227445263904">
        <ele>6.944400284439325</ele>
        <time>2025-05-08T13:22:19Z</time>
      </trkpt>
      <trkpt lat="24.91261522232044" lon="118.5521646944637">
        <ele>8.56857738737017</ele>
        <time>2025-05-08T13:22:28Z</time>
      </trkpt>
      <trkpt lat="24.912774332708217" lon="118.55207753242834">
        <ele>8.644940616562963</ele>
        <time>2025-05-08T13:22:34Z</time>
      </trkpt>
      <trkpt lat="24.912871973884247" lon="118.55204820699652">
        <ele>9.023546194657683</ele>
        <time>2025-05-08T13:22:37Z</time>
      </trkpt>
      <trkpt lat="24.912947894700316" lon="118.5519910174231">
        <ele>9.443735731765628</ele>
        <time>2025-05-08T13:22:40Z</time>
      </trkpt>
      <trkpt lat="24.91321805700935" lon="118.55186027396711">
        <ele>9.463207961060107</ele>
        <time>2025-05-08T13:22:49Z</time>
      </trkpt>
      <trkpt lat="24.913383272404253" lon="118.55176744825349">
        <ele>10.145891783758998</ele>
        <time>2025-05-08T13:22:55Z</time>
      </trkpt>
      <trkpt lat="24.913484681678277" lon="118.55174222557984">
        <ele>10.488032655790448</ele>
        <time>2025-05-08T13:22:58Z</time>
      </trkpt>
      <trkpt lat="24.9136452217314" lon="118.55161032357246">
        <ele>10.38911357242614</ele>
        <time>2025-05-08T13:23:04Z</time>
      </trkpt>
      <trkpt lat="24.913692227834687" lon="118.55153365561587">
        <ele>10.757439744658768</ele>
        <time>2025-05-08T13:23:07Z</time>
      </trkpt>
      <trkpt lat="24.913717022649518" lon="118.55143731917029">
        <ele>10.645122922025621</ele>
        <time>2025-05-08T13:23:10Z</time>
      </trkpt>
      <trkpt lat="24.913761465124516" lon="118.55134043153838">
        <ele>9.5707389395684</ele>
        <time>2025-05-08T13:23:13Z</time>
      </trkpt>
      <trkpt lat="24.91381814278926" lon="118.55102167825312">
        <ele>8.635210406966507</ele>
        <time>2025-05-08T13:23:22Z</time>
      </trkpt>
      <trkpt lat="24.913866328244296" lon="118.55071172767482">
        <ele>9.099366332404315</ele>
        <time>2025-05-08T13:23:31Z</time>
      </trkpt>
      <trkpt lat="24.913899798625227" lon="118.55050820531285">
        <ele>10.305113696493208</ele>
        <time>2025-05-08T13:23:37Z</time>
      </trkpt>
      <trkpt lat="24.913893324697145" lon="118.5501665092636">
        <ele>11.425400330685079</ele>
        <time>2025-05-08T13:23:46Z</time>
      </trkpt>
      <trkpt lat="24.91393181287393" lon="118.5499503670536">
        <ele>12.070351959206164</ele>
        <time>2025-05-08T13:23:52Z</time>
      </trkpt>
      <trkpt lat="24.913967414242162" lon="118.54985410222599">
        <ele>10.681648660451174</ele>
        <time>2025-05-08T13:23:55Z</time>
      </trkpt>
      <trkpt lat="24.914011574270866" lon="118.54955285169662">
        <ele>9.957305637188256</ele>
        <time>2025-05-08T13:24:04Z</time>
      </trkpt>
      <trkpt lat="24.914051777743584" lon="118.54924885705819">
        <ele>10.024104692973197</ele>
        <time>2025-05-08T13:24:13Z</time>
      </trkpt>
      <trkpt lat="24.914088560186425" lon="118.54891253081738">
        <ele>9.879304882138968</ele>
        <time>2025-05-08T13:24:22Z</time>
      </trkpt>
      <trkpt lat="24.914164720977148" lon="118.54862226284327">
        <ele>9.78681217879057</ele>
        <time>2025-05-08T13:24:31Z</time>
      </trkpt>
      <trkpt lat="24.914192331602" lon="118.54852201264644">
        <ele>9.582898396067321</ele>
        <time>2025-05-08T13:24:34Z</time>
      </trkpt>
      <trkpt lat="24.914208249722996" lon="118.54832593875715">
        <ele>8.154327563941479</ele>
        <time>2025-05-08T13:24:40Z</time>
      </trkpt>
      <trkpt lat="24.914232084971598" lon="118.54823220847393">
        <ele>7.814779638312757</ele>
        <time>2025-05-08T13:24:43Z</time>
      </trkpt>
      <trkpt lat="24.91431960068277" lon="118.5480605897104">
        <ele>8.167489030398428</ele>
        <time>2025-05-08T13:24:49Z</time>
      </trkpt>
      <trkpt lat="24.914435605943577" lon="118.54779331018634">
        <ele>7.783374402672052</ele>
        <time>2025-05-08T13:24:58Z</time>
      </trkpt>
      <trkpt lat="24.91458153662682" lon="118.5475137233454">
        <ele>6.760101223364472</ele>
        <time>2025-05-08T13:25:07Z</time>
      </trkpt>
      <trkpt lat="24.91466559171662" lon="118.54730295796206">
        <ele>6.487071232870221</ele>
        <time>2025-05-08T13:25:13Z</time>
      </trkpt>
      <trkpt lat="24.914782977569924" lon="118.54713532747361">
        <ele>6.9547608364373446</ele>
        <time>2025-05-08T13:25:19Z</time>
      </trkpt>
      <trkpt lat="24.914976513091396" lon="118.54689862553965">
        <ele>7.503559954464436</ele>
        <time>2025-05-08T13:25:28Z</time>
      </trkpt>
      <trkpt lat="24.91514602136953" lon="118.5466385924811">
        <ele>7.1955922450870275</ele>
        <time>2025-05-08T13:25:37Z</time>
      </trkpt>
      <trkpt lat="24.915181501016235" lon="118.54654829466861">
        <ele>6.688726552762091</ele>
        <time>2025-05-08T13:25:40Z</time>
      </trkpt>
      <trkpt lat="24.91519327287259" lon="118.54643446911216">
        <ele>6.900892060250044</ele>
        <time>2025-05-08T13:25:43Z</time>
      </trkpt>
      <trkpt lat="24.91518257783562" lon="118.54633009015492">
        <ele>7.688887733966112</ele>
        <time>2025-05-08T13:25:46Z</time>
      </trkpt>
      <trkpt lat="24.91512550818213" lon="118.54626058690585">
        <ele>7.185926599428058</ele>
        <time>2025-05-08T13:25:49Z</time>
      </trkpt>
      <trkpt lat="24.915044585123944" lon="118.54604876213882">
        <ele>7.897483814507723</ele>
        <time>2025-05-08T13:25:55Z</time>
      </trkpt>
      <trkpt lat="24.914992201164342" lon="118.5459679224687">
        <ele>8.135073160752654</ele>
        <time>2025-05-08T13:25:58Z</time>
      </trkpt>
      <trkpt lat="24.914931279803266" lon="118.54591165800969">
        <ele>7.755847256630659</ele>
        <time>2025-05-08T13:26:01Z</time>
      </trkpt>
      <trkpt lat="24.914862015410563" lon="118.54571137942267">
        <ele>7.9555640844628215</ele>
        <time>2025-05-08T13:26:07Z</time>
      </trkpt>
      <trkpt lat="24.914811853617614" lon="118.54562652398383">
        <ele>8.151331415399909</ele>
        <time>2025-05-08T13:26:10Z</time>
      </trkpt>
      <trkpt lat="24.914740593470494" lon="118.54555869638148">
        <ele>8.056571810506284</ele>
        <time>2025-05-08T13:26:13Z</time>
      </trkpt>
      <trkpt lat="24.91471741468494" lon="118.54545120876273">
        <ele>7.771121467463672</ele>
        <time>2025-05-08T13:26:16Z</time>
      </trkpt>
      <trkpt lat="24.91467369818454" lon="118.54534438984071">
        <ele>8.201221520081162</ele>
        <time>2025-05-08T13:26:19Z</time>
      </trkpt>
      <trkpt lat="24.91465804987233" lon="118.5452322530534">
        <ele>8.368800524622202</ele>
        <time>2025-05-08T13:26:22Z</time>
      </trkpt>
      <trkpt lat="24.914598399306456" lon="118.54514724502992">
        <ele>6.93941384460777</ele>
        <time>2025-05-08T13:26:25Z</time>
      </trkpt>
      <trkpt lat="24.914567394912027" lon="118.5450456786572">
        <ele>6.1519547970965505</ele>
        <time>2025-05-08T13:26:28Z</time>
      </trkpt>
      <trkpt lat="24.91443650093977" lon="118.54488402684767">
        <ele>6.790166658349335</ele>
        <time>2025-05-08T13:26:34Z</time>
      </trkpt>
      <trkpt lat="24.91434313549919" lon="118.54469812971921">
        <ele>6.937775561586022</ele>
        <time>2025-05-08T13:26:40Z</time>
      </trkpt>
      <trkpt lat="24.914329309689794" lon="118.54458833001483">
        <ele>7.552692295983434</ele>
        <time>2025-05-08T13:26:43Z</time>
      </trkpt>
      <trkpt lat="24.91422553356265" lon="118.54432180701585">
        <ele>7.532429222948849</ele>
        <time>2025-05-08T13:26:52Z</time>
      </trkpt>
      <trkpt lat="24.91417697546047" lon="118.54402837268319">
        <ele>8.11070327181369</ele>
        <time>2025-05-08T13:27:01Z</time>
      </trkpt>
      <trkpt lat="24.914172316366408" lon="118.5439225192272">
        <ele>7.739012209698558</ele>
        <time>2025-05-08T13:27:04Z</time>
      </trkpt>
      <trkpt lat="24.91411457888122" lon="118.54357532721382">
        <ele>7.861880062147975</ele>
        <time>2025-05-08T13:27:13Z</time>
      </trkpt>
      <trkpt lat="24.914115522135926" lon="118.54340333605599">
        <ele>7.801923142746091</ele>
        <time>2025-05-08T13:27:19Z</time>
      </trkpt>
      <trkpt lat="24.914091243258966" lon="118.54331198817769">
        <ele>7.341601009480655</ele>
        <time>2025-05-08T13:27:22Z</time>
      </trkpt>
      <trkpt lat="24.914013164948" lon="118.54320840791088">
        <ele>6.9872091840952635</ele>
        <time>2025-05-08T13:27:25Z</time>
      </trkpt>
      <trkpt lat="24.913966847487984" lon="118.54310222055138">
        <ele>7.049228567630053</ele>
        <time>2025-05-08T13:27:28Z</time>
      </trkpt>
      <trkpt lat="24.91389359050406" lon="118.54303813889189">
        <ele>7.671251174993813</ele>
        <time>2025-05-08T13:27:31Z</time>
      </trkpt>
      <trkpt lat="24.91380807836292" lon="118.54302825160615">
        <ele>8.898933222517371</ele>
        <time>2025-05-08T13:27:34Z</time>
      </trkpt>
      <trkpt lat="24.913530343416372" lon="118.54310085267633">
        <ele>8.115023432299495</ele>
        <time>2025-05-08T13:27:43Z</time>
      </trkpt>
      <trkpt lat="24.913246722490225" lon="118.54318345892881">
        <ele>7.66218694858253</ele>
        <time>2025-05-08T13:27:52Z</time>
      </trkpt>
      <trkpt lat="24.912947493304035" lon="118.54326163298693">
        <ele>7.83447131793946</ele>
        <time>2025-05-08T13:28:01Z</time>
      </trkpt>
      <trkpt lat="24.912649533167553" lon="118.54332162610989">
        <ele>7.682180760428309</ele>
        <time>2025-05-08T13:28:10Z</time>
      </trkpt>
      <trkpt lat="24.91255971144951" lon="118.54335467276051">
        <ele>8.653175502084196</ele>
        <time>2025-05-08T13:28:13Z</time>
      </trkpt>
      <trkpt lat="24.912374621189517" lon="118.54339526593331">
        <ele>7.6024429416283965</ele>
        <time>2025-05-08T13:28:19Z</time>
      </trkpt>
      <trkpt lat="24.912189780763327" lon="118.54346425983984">
        <ele>7.952373161911964</ele>
        <time>2025-05-08T13:28:25Z</time>
      </trkpt>
      <trkpt lat="24.911877488507045" lon="118.54350958478426">
        <ele>7.937727457843721</ele>
        <time>2025-05-08T13:28:34Z</time>
      </trkpt>
      <trkpt lat="24.91152712267562" lon="118.54359719516516">
        <ele>7.615066567435861</ele>
        <time>2025-05-08T13:28:46Z</time>
      </trkpt>
      <trkpt lat="24.91122805132563" lon="118.54364271442597">
        <ele>7.458929346874356</ele>
        <time>2025-05-08T13:28:55Z</time>
      </trkpt>
      <trkpt lat="24.91093356313029" lon="118.54373478889502">
        <ele>8.050116666592658</ele>
        <time>2025-05-08T13:29:04Z</time>
      </trkpt>
      <trkpt lat="24.91064829244758" lon="118.54370355691296">
        <ele>8.594948590733111</ele>
        <time>2025-05-08T13:29:13Z</time>
      </trkpt>
      <trkpt lat="24.910366299086792" lon="118.54370093357817">
        <ele>7.291964594274759</ele>
        <time>2025-05-08T13:29:22Z</time>
      </trkpt>
      <trkpt lat="24.910071348095844" lon="118.54372704152635">
        <ele>7.520194978453219</ele>
        <time>2025-05-08T13:29:31Z</time>
      </trkpt>
      <trkpt lat="24.909773835995544" lon="118.54374489549276">
        <ele>7.662362149916589</ele>
        <time>2025-05-08T13:29:40Z</time>
      </trkpt>
      <trkpt lat="24.909454333340896" lon="118.54373648588947">
        <ele>7.732508230023086</ele>
        <time>2025-05-08T13:29:49Z</time>
      </trkpt>
      <trkpt lat="24.90918107118664" lon="118.54373592992019">
        <ele>9.3016162449494</ele>
        <time>2025-05-08T13:29:58Z</time>
      </trkpt>
      <trkpt lat="24.90895708113271" lon="118.54376204001022">
        <ele>8.007515791803598</ele>
        <time>2025-05-08T13:30:04Z</time>
      </trkpt>
      <trkpt lat="24.90877532437194" lon="118.54379502288248">
        <ele>7.954156411811709</ele>
        <time>2025-05-08T13:30:10Z</time>
      </trkpt>
      <trkpt lat="24.908527546320215" lon="118.54377079760516">
        <ele>7.473351402208209</ele>
        <time>2025-05-08T13:30:17Z</time>
      </trkpt>
      <trkpt lat="24.90832510778484" lon="118.54378952823915">
        <ele>7.856833836995065</ele>
        <time>2025-05-08T13:30:23Z</time>
      </trkpt>
      <trkpt lat="24.908228526173268" lon="118.54376069853485">
        <ele>7.738022119738162</ele>
        <time>2025-05-08T13:30:26Z</time>
      </trkpt>
      <trkpt lat="24.90794940453369" lon="118.54376856999593">
        <ele>7.607527018524706</ele>
        <time>2025-05-08T13:30:35Z</time>
      </trkpt>
      <trkpt lat="24.907752491884022" lon="118.54379118931861">
        <ele>8.011146721430123</ele>
        <time>2025-05-08T13:30:41Z</time>
      </trkpt>
      <trkpt lat="24.90765343546668" lon="118.54383129422254">
        <ele>7.683703946880996</ele>
        <time>2025-05-08T13:30:44Z</time>
      </trkpt>
      <trkpt lat="24.907571159747842" lon="118.54389492988074">
        <ele>7.552447239868343</ele>
        <time>2025-05-08T13:30:47Z</time>
      </trkpt>
      <trkpt lat="24.907486314709683" lon="118.5440611174208">
        <ele>7.382942703552544</ele>
        <time>2025-05-08T13:30:53Z</time>
      </trkpt>
      <trkpt lat="24.907490536540312" lon="118.54415692811838">
        <ele>7.375760051421821</ele>
        <time>2025-05-08T13:30:56Z</time>
      </trkpt>
      <trkpt lat="24.907595412271075" lon="118.54444157069936">
        <ele>7.210322182625532</ele>
        <time>2025-05-08T13:31:05Z</time>
      </trkpt>
      <trkpt lat="24.907658988511947" lon="118.54462749153807">
        <ele>7.598913658410311</ele>
        <time>2025-05-08T13:31:11Z</time>
      </trkpt>
      <trkpt lat="24.907725784418822" lon="118.54469923416994">
        <ele>7.752288817428052</ele>
        <time>2025-05-08T13:31:14Z</time>
      </trkpt>
      <trkpt lat="24.907777178424542" lon="118.54479318991216">
        <ele>7.601848594844341</ele>
        <time>2025-05-08T13:31:17Z</time>
      </trkpt>
      <trkpt lat="24.907817185857915" lon="118.54501669109966">
        <ele>7.308156734332442</ele>
        <time>2025-05-08T13:31:23Z</time>
      </trkpt>
      <trkpt lat="24.907858265395355" lon="118.5451211307586">
        <ele>7.900069982744753</ele>
        <time>2025-05-08T13:31:26Z</time>
      </trkpt>
      <trkpt lat="24.907850207156848" lon="118.54518567745241">
        <ele>7.892485963180661</ele>
        <time>2025-05-08T13:31:29Z</time>
      </trkpt>
      <trkpt lat="24.907867650494975" lon="118.54529611181326">
        <ele>7.876852844841778</ele>
        <time>2025-05-08T13:31:32Z</time>
      </trkpt>
      <trkpt lat="24.907970683213133" lon="118.54550069974437">
        <ele>7.888480752706528</ele>
        <time>2025-05-08T13:31:38Z</time>
      </trkpt>
      <trkpt lat="24.9080772430649" lon="118.54581727162562">
        <ele>7.499928895384073</ele>
        <time>2025-05-08T13:31:47Z</time>
      </trkpt>
      <trkpt lat="24.908192515512965" lon="118.54613736421388">
        <ele>8.670935936272144</ele>
        <time>2025-05-08T13:31:56Z</time>
      </trkpt>
      <trkpt lat="24.90831397625489" lon="118.54643545364522">
        <ele>8.374514997936785</ele>
        <time>2025-05-08T13:32:05Z</time>
      </trkpt>
      <trkpt lat="24.908433574800394" lon="118.5467355804249">
        <ele>7.703554805368185</ele>
        <time>2025-05-08T13:32:14Z</time>
      </trkpt>
      <trkpt lat="24.908473253160626" lon="118.54683209825306">
        <ele>7.461716827005148</ele>
        <time>2025-05-08T13:32:17Z</time>
      </trkpt>
      <trkpt lat="24.908530880732645" lon="118.54691972820437">
        <ele>8.087324069812894</ele>
        <time>2025-05-08T13:32:20Z</time>
      </trkpt>
      <trkpt lat="24.908628041914607" lon="118.54719722641245">
        <ele>7.208540583029389</ele>
        <time>2025-05-08T13:32:29Z</time>
      </trkpt>
      <trkpt lat="24.90878418983689" lon="118.54752576524545">
        <ele>7.249278829433024</ele>
        <time>2025-05-08T13:32:41Z</time>
      </trkpt>
      <trkpt lat="24.90889154302" lon="118.5478172716513">
        <ele>7.630032426677644</ele>
        <time>2025-05-08T13:32:50Z</time>
      </trkpt>
      <trkpt lat="24.90894907082679" lon="118.54787286345505">
        <ele>7.307686645537615</ele>
        <time>2025-05-08T13:32:53Z</time>
      </trkpt>
      <trkpt lat="24.909027771812084" lon="118.54789056765887">
        <ele>6.78306972514838</ele>
        <time>2025-05-08T13:32:56Z</time>
      </trkpt>
      <trkpt lat="24.909172826807385" lon="118.54784344241634">
        <ele>8.225827867165208</ele>
        <time>2025-05-08T13:33:02Z</time>
      </trkpt>
      <trkpt lat="24.90933705824381" lon="118.54774972614732">
        <ele>7.659233833663166</ele>
        <time>2025-05-08T13:33:08Z</time>
      </trkpt>
      <trkpt lat="24.909516571101012" lon="118.54767574064316">
        <ele>7.696900368668139</ele>
        <time>2025-05-08T13:33:14Z</time>
      </trkpt>
      <trkpt lat="24.90976618047415" lon="118.5475208960275">
        <ele>8.05637441854924</ele>
        <time>2025-05-08T13:33:23Z</time>
      </trkpt>
      <trkpt lat="24.910014593628865" lon="118.54737019583318">
        <ele>7.170301951467991</ele>
        <time>2025-05-08T13:33:32Z</time>
      </trkpt>
      <trkpt lat="24.910199492051476" lon="118.54725328746858">
        <ele>7.340487839654088</ele>
        <time>2025-05-08T13:33:38Z</time>
      </trkpt>
      <trkpt lat="24.91032485611664" lon="118.54715389156827">
        <ele>7.720853228121996</ele>
        <time>2025-05-08T13:33:42Z</time>
      </trkpt>
      <trkpt lat="24.91062317593573" lon="118.54702053932115">
        <ele>8.165633587166667</ele>
        <time>2025-05-08T13:33:51Z</time>
      </trkpt>
      <trkpt lat="24.910893686948004" lon="118.54685830724839">
        <ele>7.690239955671132</ele>
        <time>2025-05-08T13:34:00Z</time>
      </trkpt>
      <trkpt lat="24.911061933274247" lon="118.54676646234898">
        <ele>7.818234139122069</ele>
        <time>2025-05-08T13:34:06Z</time>
      </trkpt>
      <trkpt lat="24.91112634938262" lon="118.54670043209475">
        <ele>7.442666339688003</ele>
        <time>2025-05-08T13:34:09Z</time>
      </trkpt>
      <trkpt lat="24.91130492561238" lon="118.54661234454983">
        <ele>7.630941433832049</ele>
        <time>2025-05-08T13:34:15Z</time>
      </trkpt>
      <trkpt lat="24.91157368067366" lon="118.54646413269053">
        <ele>7.684134933166206</ele>
        <time>2025-05-08T13:34:24Z</time>
      </trkpt>
      <trkpt lat="24.911607513354763" lon="118.54638834717223">
        <ele>7.794340617023408</ele>
        <time>2025-05-08T13:34:28Z</time>
      </trkpt>
      <trkpt lat="24.91167630141682" lon="118.54631333856463">
        <ele>7.7633261596784</ele>
        <time>2025-05-08T13:34:32Z</time>
      </trkpt>
      <trkpt lat="24.91173921776795" lon="118.54618841011671">
        <ele>7.480671126395464</ele>
        <time>2025-05-08T13:34:36Z</time>
      </trkpt>
      <trkpt lat="24.911754887799223" lon="118.54608244513143">
        <ele>7.690199868753552</ele>
        <time>2025-05-08T13:34:39Z</time>
      </trkpt>
      <trkpt lat="24.911642587758212" lon="118.54574787746778">
        <ele>7.321070934645832</ele>
        <time>2025-05-08T13:34:49Z</time>
      </trkpt>
      <trkpt lat="24.911536975193414" lon="118.54544285456011">
        <ele>5.630514201708138</ele>
        <time>2025-05-08T13:34:58Z</time>
      </trkpt>
      <trkpt lat="24.911442363946634" lon="118.54513763406503">
        <ele>5.521592877805233</ele>
        <time>2025-05-08T13:35:07Z</time>
      </trkpt>
      <trkpt lat="24.91135978361587" lon="118.544947734072">
        <ele>7.41432296577841</ele>
        <time>2025-05-08T13:35:13Z</time>
      </trkpt>
    </trkseg>
  </trk>
</gpx>