<?xml version="1.0" encoding="UTF-8"?>
<gpx xmlns="http://www.topografix.com/GPX/1/1" xmlns:gpxtpx="http://www.garmin.com/xmlschemas/TrackPointExtension/v1" xmlns:xsi="http://www.w3.org/2001/XMLSchema-instance" xsi:schemaLocation="http://www.topografix.com/GPX/1/1 http://www.topografix.com/GPX/1/1/gpx.xsd" version="1.1" creator="gpx.py -- https://github.com/tkrajina/gpxpy">
  <trk>
    <name>gpx from keep</name>
    <type>Run</type>
    <trkseg>
      <trkpt lat="24.911272105830236" lon="118.53739216626529">
        <ele>10.435346973128617</ele>
        <time>2025-07-01T13:04:06Z</time>
      </trkpt>
      <trkpt lat="24.91110087909868" lon="118.53771416057181">
        <ele>9.117536245845258</ele>
        <time>2025-07-01T13:04:18Z</time>
      </trkpt>
      <trkpt lat="24.91101403993455" lon="118.53791441889973">
        <ele>9.475623397156596</ele>
        <time>2025-07-01T13:04:24Z</time>
      </trkpt>
      <trkpt lat="24.910961856280874" lon="118.53799885423497">
        <ele>9.590214625932276</ele>
        <time>2025-07-01T13:04:27Z</time>
      </trkpt>
      <trkpt lat="24.910821780438233" lon="118.53828213962046">
        <ele>10.294491541571915</ele>
        <time>2025-07-01T13:04:36Z</time>
      </trkpt>
      <trkpt lat="24.910769313434564" lon="118.53837721995671">
        <ele>9.23016956448555</ele>
        <time>2025-07-01T13:04:39Z</time>
      </trkpt>
      <trkpt lat="24.910741764209078" lon="118.53847051667495">
        <ele>9.445237200707197</ele>
        <time>2025-07-01T13:04:42Z</time>
      </trkpt>
      <trkpt lat="24.91075813984554" lon="118.53857955820463">
        <ele>9.889240426011384</ele>
        <time>2025-07-01T13:04:45Z</time>
      </trkpt>
      <trkpt lat="24.91080862934934" lon="118.53865676152094">
        <ele>10.113616877235472</ele>
        <time>2025-07-01T13:04:48Z</time>
      </trkpt>
      <trkpt lat="24.911089885058153" lon="118.53874101743374">
        <ele>9.209096102043986</ele>
        <time>2025-07-01T13:04:57Z</time>
      </trkpt>
      <trkpt lat="24.911174341893958" lon="118.53878151074018">
        <ele>9.434129091911018</ele>
        <time>2025-07-01T13:05:00Z</time>
      </trkpt>
      <trkpt lat="24.911191503866085" lon="118.53888356693334">
        <ele>8.670910119079053</ele>
        <time>2025-07-01T13:05:03Z</time>
      </trkpt>
      <trkpt lat="24.91111010138779" lon="118.53917523767853">
        <ele>7.975196296349168</ele>
        <time>2025-07-01T13:05:12Z</time>
      </trkpt>
      <trkpt lat="24.911030669253662" lon="118.53946034611904">
        <ele>7.741731321439147</ele>
        <time>2025-07-01T13:05:21Z</time>
      </trkpt>
      <trkpt lat="24.910945247937384" lon="118.53974770130982">
        <ele>8.024784319102764</ele>
        <time>2025-07-01T13:05:30Z</time>
      </trkpt>
      <trkpt lat="24.910879471223048" lon="118.53990770836461">
        <ele>7.831719589419663</ele>
        <time>2025-07-01T13:05:36Z</time>
      </trkpt>
      <trkpt lat="24.910861065735617" lon="118.53999265038802">
        <ele>7.905758961103857</ele>
        <time>2025-07-01T13:05:39Z</time>
      </trkpt>
      <trkpt lat="24.91084997676074" lon="118.54020779812937">
        <ele>7.670337550342083</ele>
        <time>2025-07-01T13:05:46Z</time>
      </trkpt>
      <trkpt lat="24.910809522615136" lon="118.54032782984152">
        <ele>7.713985447771847</ele>
        <time>2025-07-01T13:05:50Z</time>
      </trkpt>
      <trkpt lat="24.91073864174952" lon="118.54067368447741">
        <ele>7.960179093293846</ele>
        <time>2025-07-01T13:06:01Z</time>
      </trkpt>
      <trkpt lat="24.910656303368828" lon="118.54103811190745">
        <ele>7.456284059211612</ele>
        <time>2025-07-01T13:06:13Z</time>
      </trkpt>
      <trkpt lat="24.910625483730307" lon="118.54123368269418">
        <ele>7.51767595205456</ele>
        <time>2025-07-01T13:06:19Z</time>
      </trkpt>
      <trkpt lat="24.910457253014048" lon="118.5415050484347">
        <ele>8.010034992359579</ele>
        <time>2025-07-01T13:06:28Z</time>
      </trkpt>
      <trkpt lat="24.910357537443765" lon="118.54160047544349">
        <ele>8.046853232197464</ele>
        <time>2025-07-01T13:06:31Z</time>
      </trkpt>
      <trkpt lat="24.91030552267861" lon="118.54170645721724">
        <ele>7.675761453807354</ele>
        <time>2025-07-01T13:06:34Z</time>
      </trkpt>
      <trkpt lat="24.91020508107557" lon="118.54179095700431">
        <ele>8.173547049984336</ele>
        <time>2025-07-01T13:06:37Z</time>
      </trkpt>
      <trkpt lat="24.91011586209448" lon="118.54182305565284">
        <ele>7.188070206902921</ele>
        <time>2025-07-01T13:06:40Z</time>
      </trkpt>
      <trkpt lat="24.910250018090693" lon="118.54205148315474">
        <ele>7.128735504113138</ele>
        <time>2025-07-01T13:06:49Z</time>
      </trkpt>
      <trkpt lat="24.91027655790512" lon="118.54223954523444">
        <ele>7.512594765983522</ele>
        <time>2025-07-01T13:06:55Z</time>
      </trkpt>
      <trkpt lat="24.910239708636908" lon="118.54254527977243">
        <ele>7.598488360643387</ele>
        <time>2025-07-01T13:07:04Z</time>
      </trkpt>
      <trkpt lat="24.910204065408593" lon="118.5428785493579">
        <ele>7.4264158280566335</ele>
        <time>2025-07-01T13:07:13Z</time>
      </trkpt>
      <trkpt lat="24.910186428271892" lon="118.54297971712415">
        <ele>7.415850254707038</ele>
        <time>2025-07-01T13:07:16Z</time>
      </trkpt>
      <trkpt lat="24.91018935909915" lon="118.54308155853188">
        <ele>7.963658203370869</ele>
        <time>2025-07-01T13:07:19Z</time>
      </trkpt>
      <trkpt lat="24.91023835313264" lon="118.54326169289114">
        <ele>7.669927746988833</ele>
        <time>2025-07-01T13:07:25Z</time>
      </trkpt>
      <trkpt lat="24.91020768947773" lon="118.54334633188903">
        <ele>8.440767311491072</ele>
        <time>2025-07-01T13:07:28Z</time>
      </trkpt>
      <trkpt lat="24.91026646830557" lon="118.54341106861096">
        <ele>8.220979949459434</ele>
        <time>2025-07-01T13:07:31Z</time>
      </trkpt>
      <trkpt lat="24.910422763447407" lon="118.54337510162244">
        <ele>7.441826310008764</ele>
        <time>2025-07-01T13:07:37Z</time>
      </trkpt>
      <trkpt lat="24.91079169527017" lon="118.5433216586443">
        <ele>7.968633592128754</ele>
        <time>2025-07-01T13:07:50Z</time>
      </trkpt>
      <trkpt lat="24.911118714894517" lon="118.54326568490447">
        <ele>8.584409452974796</ele>
        <time>2025-07-01T13:08:02Z</time>
      </trkpt>
      <trkpt lat="24.911390034297227" lon="118.54321415691342">
        <ele>8.820436934009194</ele>
        <time>2025-07-01T13:08:12Z</time>
      </trkpt>
      <trkpt lat="24.911673793191536" lon="118.54317555311403">
        <ele>9.040229817852378</ele>
        <time>2025-07-01T13:08:21Z</time>
      </trkpt>
      <trkpt lat="24.91195513076745" lon="118.54312037557926">
        <ele>8.185424411669374</ele>
        <time>2025-07-01T13:08:30Z</time>
      </trkpt>
      <trkpt lat="24.912312051157738" lon="118.54302065091801">
        <ele>7.943815260194242</ele>
        <time>2025-07-01T13:08:42Z</time>
      </trkpt>
      <trkpt lat="24.912590246837482" lon="118.54295276462337">
        <ele>7.428264717571437</ele>
        <time>2025-07-01T13:08:51Z</time>
      </trkpt>
      <trkpt lat="24.91285577155613" lon="118.54285244694118">
        <ele>8.655296781100333</ele>
        <time>2025-07-01T13:09:00Z</time>
      </trkpt>
      <trkpt lat="24.91302577449502" lon="118.54279656871718">
        <ele>8.545084906741977</ele>
        <time>2025-07-01T13:09:06Z</time>
      </trkpt>
      <trkpt lat="24.913295190397324" lon="118.54274913374256">
        <ele>7.940400362946093</ele>
        <time>2025-07-01T13:09:15Z</time>
      </trkpt>
      <trkpt lat="24.91348240786998" lon="118.54271958245445">
        <ele>7.875657653436065</ele>
        <time>2025-07-01T13:09:21Z</time>
      </trkpt>
      <trkpt lat="24.91382246445886" lon="118.54264525947292">
        <ele>8.396875807084143</ele>
        <time>2025-07-01T13:09:33Z</time>
      </trkpt>
      <trkpt lat="24.913901412831656" lon="118.54260733185573">
        <ele>9.104844636283815</ele>
        <time>2025-07-01T13:09:36Z</time>
      </trkpt>
      <trkpt lat="24.91399142895664" lon="118.54259245048202">
        <ele>9.897752722725272</ele>
        <time>2025-07-01T13:09:39Z</time>
      </trkpt>
      <trkpt lat="24.914030003628284" lon="118.54253270050904">
        <ele>9.612440071068704</ele>
        <time>2025-07-01T13:09:44Z</time>
      </trkpt>
      <trkpt lat="24.9140415564062" lon="118.54264507392534">
        <ele>9.418651852756739</ele>
        <time>2025-07-01T13:09:50Z</time>
      </trkpt>
      <trkpt lat="24.91401893683077" lon="118.54293332314046">
        <ele>8.523416478186846</ele>
        <time>2025-07-01T13:09:57Z</time>
      </trkpt>
      <trkpt lat="24.914110837800862" lon="118.542915011786">
        <ele>8.246252896264195</ele>
        <time>2025-07-01T13:10:01Z</time>
      </trkpt>
      <trkpt lat="24.91418517609649" lon="118.54285908902345">
        <ele>8.424424956552684</ele>
        <time>2025-07-01T13:10:05Z</time>
      </trkpt>
      <trkpt lat="24.914398892259392" lon="118.54282378112445">
        <ele>9.305316793732345</ele>
        <time>2025-07-01T13:10:13Z</time>
      </trkpt>
      <trkpt lat="24.91458466894651" lon="118.54281115835731">
        <ele>9.889781271107495</ele>
        <time>2025-07-01T13:10:20Z</time>
      </trkpt>
      <trkpt lat="24.914872705359105" lon="118.54271652683437">
        <ele>10.098087766207755</ele>
        <time>2025-07-01T13:10:29Z</time>
      </trkpt>
      <trkpt lat="24.91514273298049" lon="118.54265009182222">
        <ele>10.597146661952138</ele>
        <time>2025-07-01T13:10:37Z</time>
      </trkpt>
      <trkpt lat="24.915338472353852" lon="118.54260515058617">
        <ele>11.710340857505798</ele>
        <time>2025-07-01T13:10:43Z</time>
      </trkpt>
      <trkpt lat="24.91550350213702" lon="118.54254126800086">
        <ele>12.450609193183482</ele>
        <time>2025-07-01T13:10:49Z</time>
      </trkpt>
      <trkpt lat="24.915853023634995" lon="118.54248795649478">
        <ele>12.808160899206996</ele>
        <time>2025-07-01T13:11:01Z</time>
      </trkpt>
      <trkpt lat="24.916177648962265" lon="118.54239203837085">
        <ele>12.181611442938447</ele>
        <time>2025-07-01T13:11:13Z</time>
      </trkpt>
      <trkpt lat="24.916423209456063" lon="118.54234480526365">
        <ele>12.671781311742961</ele>
        <time>2025-07-01T13:11:22Z</time>
      </trkpt>
      <trkpt lat="24.91658599966636" lon="118.54235561884445">
        <ele>13.267821215093136</ele>
        <time>2025-07-01T13:11:28Z</time>
      </trkpt>
      <trkpt lat="24.91665334380931" lon="118.54237662507805">
        <ele>12.613508738577366</ele>
        <time>2025-07-01T13:11:31Z</time>
      </trkpt>
      <trkpt lat="24.916608131891778" lon="118.54239880041631">
        <ele>12.848054281435907</ele>
        <time>2025-07-01T13:12:52Z</time>
      </trkpt>
      <trkpt lat="24.916931185002642" lon="118.54227738572936">
        <ele>11.770720615051687</ele>
        <time>2025-07-01T13:13:07Z</time>
      </trkpt>
      <trkpt lat="24.917215580338393" lon="118.54218681542551">
        <ele>9.97920236364007</ele>
        <time>2025-07-01T13:13:16Z</time>
      </trkpt>
      <trkpt lat="24.917398566164447" lon="118.54216513105465">
        <ele>10.415617431513965</ele>
        <time>2025-07-01T13:13:23Z</time>
      </trkpt>
      <trkpt lat="24.917674139171783" lon="118.54211318270822">
        <ele>11.356088006868958</ele>
        <time>2025-07-01T13:13:31Z</time>
      </trkpt>
      <trkpt lat="24.91802587518214" lon="118.54206467767769">
        <ele>12.064625988714397</ele>
        <time>2025-07-01T13:13:43Z</time>
      </trkpt>
      <trkpt lat="24.91830078297715" lon="118.542065753653">
        <ele>12.798829641193151</ele>
        <time>2025-07-01T13:13:52Z</time>
      </trkpt>
      <trkpt lat="24.91857345521771" lon="118.54206981560532">
        <ele>12.803512983955443</ele>
        <time>2025-07-01T13:14:01Z</time>
      </trkpt>
      <trkpt lat="24.918859902952367" lon="118.54207288749099">
        <ele>14.268519464880228</ele>
        <time>2025-07-01T13:14:10Z</time>
      </trkpt>
      <trkpt lat="24.919137003671146" lon="118.54209686006868">
        <ele>14.703728440217674</ele>
        <time>2025-07-01T13:14:19Z</time>
      </trkpt>
      <trkpt lat="24.919489169557114" lon="118.54211628036059">
        <ele>15.054645490832627</ele>
        <time>2025-07-01T13:14:31Z</time>
      </trkpt>
      <trkpt lat="24.919837386267695" lon="118.54211971038328">
        <ele>15.118641807697713</ele>
        <time>2025-07-01T13:14:43Z</time>
      </trkpt>
      <trkpt lat="24.92001159900589" lon="118.54212801757497">
        <ele>13.455722733400762</ele>
        <time>2025-07-01T13:14:49Z</time>
      </trkpt>
      <trkpt lat="24.92011037878938" lon="118.5421123712651">
        <ele>13.1948117967695</ele>
        <time>2025-07-01T13:14:52Z</time>
      </trkpt>
      <trkpt lat="24.920384883259054" lon="118.54211460452586">
        <ele>12.714322875253856</ele>
        <time>2025-07-01T13:15:01Z</time>
      </trkpt>
      <trkpt lat="24.9206637161143" lon="118.54212725845146">
        <ele>12.898778217844665</ele>
        <time>2025-07-01T13:15:10Z</time>
      </trkpt>
      <trkpt lat="24.921012444034496" lon="118.54212367738857">
        <ele>14.679583772085607</ele>
        <time>2025-07-01T13:15:22Z</time>
      </trkpt>
      <trkpt lat="24.92135545563353" lon="118.54213537618651">
        <ele>15.108537828549743</ele>
        <time>2025-07-01T13:15:34Z</time>
      </trkpt>
      <trkpt lat="24.92147819762281" lon="118.54211332277566">
        <ele>15.69293533731252</ele>
        <time>2025-07-01T13:15:40Z</time>
      </trkpt>
      <trkpt lat="24.92182578882832" lon="118.54216218942977">
        <ele>17.32526693865657</ele>
        <time>2025-07-01T13:15:52Z</time>
      </trkpt>
      <trkpt lat="24.921993945602395" lon="118.54218792629568">
        <ele>17.52483600191772</ele>
        <time>2025-07-01T13:15:58Z</time>
      </trkpt>
      <trkpt lat="24.92217296710258" lon="118.54223887700472">
        <ele>17.693281339481473</ele>
        <time>2025-07-01T13:16:04Z</time>
      </trkpt>
      <trkpt lat="24.922448981674794" lon="118.5422829029693">
        <ele>19.957056660205126</ele>
        <time>2025-07-01T13:16:13Z</time>
      </trkpt>
      <trkpt lat="24.922778598650268" lon="118.5423656354224">
        <ele>21.939475137740374</ele>
        <time>2025-07-01T13:16:25Z</time>
      </trkpt>
      <trkpt lat="24.92302192690238" lon="118.54248371719633">
        <ele>22.261323089711368</ele>
        <time>2025-07-01T13:16:34Z</time>
      </trkpt>
      <trkpt lat="24.923238393948328" lon="118.54256640762104">
        <ele>21.946065614931285</ele>
        <time>2025-07-01T13:16:43Z</time>
      </trkpt>
      <trkpt lat="24.92334234810264" lon="118.54257666243039">
        <ele>22.52419045753777</ele>
        <time>2025-07-01T13:16:49Z</time>
      </trkpt>
      <trkpt lat="24.923496221628437" lon="118.54263817083142">
        <ele>22.72651080414653</ele>
        <time>2025-07-01T13:16:55Z</time>
      </trkpt>
      <trkpt lat="24.92374250991001" lon="118.54278401490926">
        <ele>24.58536313008517</ele>
        <time>2025-07-01T13:17:04Z</time>
      </trkpt>
      <trkpt lat="24.92406070943511" lon="118.5429766275772">
        <ele>28.048848127946258</ele>
        <time>2025-07-01T13:17:16Z</time>
      </trkpt>
      <trkpt lat="24.924319535271152" lon="118.54314126002582">
        <ele>28.465946161188185</ele>
        <time>2025-07-01T13:17:25Z</time>
      </trkpt>
      <trkpt lat="24.924592840108588" lon="118.54336795055636">
        <ele>26.886084150522947</ele>
        <time>2025-07-01T13:17:37Z</time>
      </trkpt>
      <trkpt lat="24.924801374982746" lon="118.5435644497735">
        <ele>25.068338856101036</ele>
        <time>2025-07-01T13:17:46Z</time>
      </trkpt>
      <trkpt lat="24.925002574708447" lon="118.54376429014549">
        <ele>23.24515459034592</ele>
        <time>2025-07-01T13:17:55Z</time>
      </trkpt>
      <trkpt lat="24.925253571785998" lon="118.54405340787882">
        <ele>21.44884004816413</ele>
        <time>2025-07-01T13:18:07Z</time>
      </trkpt>
      <trkpt lat="24.925434669452482" lon="118.54427680835296">
        <ele>20.689170131459832</ele>
        <time>2025-07-01T13:18:16Z</time>
      </trkpt>
      <trkpt lat="24.92565898501659" lon="118.54459116187834">
        <ele>16.993724988773465</ele>
        <time>2025-07-01T13:18:28Z</time>
      </trkpt>
      <trkpt lat="24.92587053132175" lon="118.5449129937014">
        <ele>17.003876271657646</ele>
        <time>2025-07-01T13:18:40Z</time>
      </trkpt>
      <trkpt lat="24.92601489582513" lon="118.54517349315115">
        <ele>16.103236879222095</ele>
        <time>2025-07-01T13:18:49Z</time>
      </trkpt>
      <trkpt lat="24.92617852403838" lon="118.5454100786542">
        <ele>14.689248095266521</ele>
        <time>2025-07-01T13:18:58Z</time>
      </trkpt>
      <trkpt lat="24.926362479959767" lon="118.54573402022517">
        <ele>13.510970028117299</ele>
        <time>2025-07-01T13:19:10Z</time>
      </trkpt>
      <trkpt lat="24.92654465733785" lon="118.54607076426316">
        <ele>12.811823323369026</ele>
        <time>2025-07-01T13:19:22Z</time>
      </trkpt>
      <trkpt lat="24.926688943072442" lon="118.54631411179584">
        <ele>11.567372978664935</ele>
        <time>2025-07-01T13:19:31Z</time>
      </trkpt>
      <trkpt lat="24.926762047146383" lon="118.5465034731494">
        <ele>11.689828662201762</ele>
        <time>2025-07-01T13:19:37Z</time>
      </trkpt>
      <trkpt lat="24.926800765376406" lon="118.54669454615227">
        <ele>10.706508218310773</ele>
        <time>2025-07-01T13:19:43Z</time>
      </trkpt>
      <trkpt lat="24.92698848547417" lon="118.54666861673506">
        <ele>9.941714201122522</ele>
        <time>2025-07-01T13:19:49Z</time>
      </trkpt>
      <trkpt lat="24.92707941725259" lon="118.54663461285035">
        <ele>9.824992768466473</ele>
        <time>2025-07-01T13:19:52Z</time>
      </trkpt>
      <trkpt lat="24.92715408675629" lon="118.54658436269501">
        <ele>10.084381521679461</ele>
        <time>2025-07-01T13:19:56Z</time>
      </trkpt>
      <trkpt lat="24.92716893682262" lon="118.54648281654657">
        <ele>10.0667135566473</ele>
        <time>2025-07-01T13:19:58Z</time>
      </trkpt>
      <trkpt lat="24.927007403914477" lon="118.546156244249">
        <ele>12.28378554712981</ele>
        <time>2025-07-01T13:20:10Z</time>
      </trkpt>
      <trkpt lat="24.926907422664655" lon="118.54599890153152">
        <ele>13.273028433322906</ele>
        <time>2025-07-01T13:20:16Z</time>
      </trkpt>
      <trkpt lat="24.92684575184723" lon="118.54582066327097">
        <ele>12.696861412376165</ele>
        <time>2025-07-01T13:20:22Z</time>
      </trkpt>
      <trkpt lat="24.926657659390305" lon="118.54551351771609">
        <ele>14.664568614214659</ele>
        <time>2025-07-01T13:20:34Z</time>
      </trkpt>
      <trkpt lat="24.92648681990762" lon="118.545193596934">
        <ele>15.170061166398227</ele>
        <time>2025-07-01T13:20:46Z</time>
      </trkpt>
      <trkpt lat="24.92630129009982" lon="118.54488720863326">
        <ele>17.61092797573656</ele>
        <time>2025-07-01T13:20:58Z</time>
      </trkpt>
      <trkpt lat="24.926264557572804" lon="118.54480258290641">
        <ele>17.783413836732507</ele>
        <time>2025-07-01T13:21:01Z</time>
      </trkpt>
      <trkpt lat="24.92607719595831" lon="118.5444979575758">
        <ele>17.29111742693931</ele>
        <time>2025-07-01T13:21:13Z</time>
      </trkpt>
      <trkpt lat="24.92589711718704" lon="118.54419640110251">
        <ele>18.759162662550807</ele>
        <time>2025-07-01T13:21:25Z</time>
      </trkpt>
      <trkpt lat="24.925685390214216" lon="118.54391898155643">
        <ele>21.383927876129746</ele>
        <time>2025-07-01T13:21:37Z</time>
      </trkpt>
      <trkpt lat="24.92551493449675" lon="118.54371342087272">
        <ele>22.951771529391408</ele>
        <time>2025-07-01T13:21:46Z</time>
      </trkpt>
      <trkpt lat="24.925479368212486" lon="118.54363555928134">
        <ele>23.936355281621218</ele>
        <time>2025-07-01T13:21:49Z</time>
      </trkpt>
      <trkpt lat="24.92546136989577" lon="118.54354294807722">
        <ele>24.35352263879031</ele>
        <time>2025-07-01T13:21:52Z</time>
      </trkpt>
      <trkpt lat="24.925408143267774" lon="118.54349340718986">
        <ele>24.967073356732726</ele>
        <time>2025-07-01T13:21:55Z</time>
      </trkpt>
      <trkpt lat="24.925360770865648" lon="118.54341898833104">
        <ele>25.41391703952104</ele>
        <time>2025-07-01T13:21:58Z</time>
      </trkpt>
      <trkpt lat="24.925285729858103" lon="118.54340067751788">
        <ele>25.309361519291997</ele>
        <time>2025-07-01T13:22:01Z</time>
      </trkpt>
      <trkpt lat="24.925218056921288" lon="118.54336062631093">
        <ele>25.28720643091947</ele>
        <time>2025-07-01T13:22:04Z</time>
      </trkpt>
      <trkpt lat="24.924965202543294" lon="118.54313447083395">
        <ele>27.80221265181899</ele>
        <time>2025-07-01T13:22:16Z</time>
      </trkpt>
      <trkpt lat="24.92468935231168" lon="118.54292229736426">
        <ele>30.944865126162767</ele>
        <time>2025-07-01T13:22:28Z</time>
      </trkpt>
      <trkpt lat="24.924405091130463" lon="118.54271598854793">
        <ele>31.82974974811077</ele>
        <time>2025-07-01T13:22:40Z</time>
      </trkpt>
      <trkpt lat="24.924117766976202" lon="118.54251222099566">
        <ele>31.801727355457842</ele>
        <time>2025-07-01T13:22:52Z</time>
      </trkpt>
      <trkpt lat="24.923973322510257" lon="118.54241515746021">
        <ele>30.52284412831068</ele>
        <time>2025-07-01T13:22:58Z</time>
      </trkpt>
      <trkpt lat="24.923640806522638" lon="118.54227882376597">
        <ele>28.36690681707114</ele>
        <time>2025-07-01T13:23:10Z</time>
      </trkpt>
      <trkpt lat="24.923318747370363" lon="118.54213180835097">
        <ele>23.684027849696577</ele>
        <time>2025-07-01T13:23:22Z</time>
      </trkpt>
      <trkpt lat="24.922985549591488" lon="118.54200740219929">
        <ele>22.25448474753648</ele>
        <time>2025-07-01T13:23:34Z</time>
      </trkpt>
      <trkpt lat="24.92265915365738" lon="118.54188434367356">
        <ele>21.204543560743332</ele>
        <time>2025-07-01T13:23:46Z</time>
      </trkpt>
      <trkpt lat="24.922401070067664" lon="118.54181285831457">
        <ele>19.62711799237877</ele>
        <time>2025-07-01T13:23:55Z</time>
      </trkpt>
      <trkpt lat="24.92213101368573" lon="118.54176997986514">
        <ele>19.357093451544642</ele>
        <time>2025-07-01T13:24:04Z</time>
      </trkpt>
      <trkpt lat="24.92177170207785" lon="118.54172928016514">
        <ele>16.746613026596606</ele>
        <time>2025-07-01T13:24:16Z</time>
      </trkpt>
      <trkpt lat="24.921494135095383" lon="118.54171307121432">
        <ele>16.72744499333203</ele>
        <time>2025-07-01T13:24:25Z</time>
      </trkpt>
      <trkpt lat="24.921416209826504" lon="118.54169548007397">
        <ele>16.79799179919064</ele>
        <time>2025-07-01T13:24:28Z</time>
      </trkpt>
      <trkpt lat="24.921145218552795" lon="118.54170137694466">
        <ele>15.386418684385717</ele>
        <time>2025-07-01T13:24:37Z</time>
      </trkpt>
      <trkpt lat="24.92080338140019" lon="118.54168053338402">
        <ele>14.291889573447406</ele>
        <time>2025-07-01T13:24:49Z</time>
      </trkpt>
      <trkpt lat="24.92061636210143" lon="118.54164618764167">
        <ele>14.311876490712166</ele>
        <time>2025-07-01T13:24:55Z</time>
      </trkpt>
      <trkpt lat="24.92042644491013" lon="118.54166708275108">
        <ele>14.68390744086355</ele>
        <time>2025-07-01T13:25:01Z</time>
      </trkpt>
      <trkpt lat="24.920338292744507" lon="118.54170127141597">
        <ele>14.50178017001599</ele>
        <time>2025-07-01T13:25:04Z</time>
      </trkpt>
      <trkpt lat="24.920058091491747" lon="118.5417069622492">
        <ele>14.415843667462468</ele>
        <time>2025-07-01T13:25:13Z</time>
      </trkpt>
      <trkpt lat="24.919727730145365" lon="118.54167121838655">
        <ele>14.232694422826171</ele>
        <time>2025-07-01T13:25:26Z</time>
      </trkpt>
      <trkpt lat="24.919534908321523" lon="118.5416727933795">
        <ele>14.701807019300759</ele>
        <time>2025-07-01T13:25:31Z</time>
      </trkpt>
      <trkpt lat="24.91924503842531" lon="118.54172769161673">
        <ele>14.493237526156008</ele>
        <time>2025-07-01T13:25:40Z</time>
      </trkpt>
      <trkpt lat="24.91906546237089" lon="118.54170392083462">
        <ele>14.562292315997183</ele>
        <time>2025-07-01T13:25:46Z</time>
      </trkpt>
      <trkpt lat="24.918787863147195" lon="118.54170864467524">
        <ele>13.077463439665735</ele>
        <time>2025-07-01T13:25:55Z</time>
      </trkpt>
      <trkpt lat="24.918513565134464" lon="118.54169202730469">
        <ele>12.036925769411027</ele>
        <time>2025-07-01T13:26:04Z</time>
      </trkpt>
      <trkpt lat="24.918229832149972" lon="118.54170347295785">
        <ele>12.018395071849227</ele>
        <time>2025-07-01T13:26:13Z</time>
      </trkpt>
      <trkpt lat="24.917994821943257" lon="118.54169758279352">
        <ele>10.320846770890057</ele>
        <time>2025-07-01T13:26:22Z</time>
      </trkpt>
      <trkpt lat="24.917676523657644" lon="118.54168277680404">
        <ele>9.44157666247338</ele>
        <time>2025-07-01T13:26:34Z</time>
      </trkpt>
      <trkpt lat="24.91757151795095" lon="118.54167795937667">
        <ele>9.402659557759762</ele>
        <time>2025-07-01T13:26:37Z</time>
      </trkpt>
      <trkpt lat="24.917262892041453" lon="118.5417268916245">
        <ele>9.959128477610648</ele>
        <time>2025-07-01T13:26:46Z</time>
      </trkpt>
      <trkpt lat="24.916961538728785" lon="118.5417296484085">
        <ele>10.048078270629048</ele>
        <time>2025-07-01T13:26:55Z</time>
      </trkpt>
      <trkpt lat="24.916634157005124" lon="118.54172587487412">
        <ele>11.19660663139075</ele>
        <time>2025-07-01T13:27:05Z</time>
      </trkpt>
      <trkpt lat="24.9164332258502" lon="118.54177463013784">
        <ele>11.804182764142752</ele>
        <time>2025-07-01T13:27:10Z</time>
      </trkpt>
      <trkpt lat="24.91618248022385" lon="118.54190756248143">
        <ele>11.894404402934015</ele>
        <time>2025-07-01T13:27:19Z</time>
      </trkpt>
      <trkpt lat="24.91591532460083" lon="118.54203307302645">
        <ele>12.60551633592695</ele>
        <time>2025-07-01T13:27:28Z</time>
      </trkpt>
      <trkpt lat="24.915579042910153" lon="118.54216777971456">
        <ele>12.907205319032073</ele>
        <time>2025-07-01T13:27:40Z</time>
      </trkpt>
      <trkpt lat="24.915489081044473" lon="118.54218394408701">
        <ele>12.764530849643052</ele>
        <time>2025-07-01T13:27:43Z</time>
      </trkpt>
      <trkpt lat="24.91521589671368" lon="118.54227086212859">
        <ele>12.697624066844583</ele>
        <time>2025-07-01T13:27:52Z</time>
      </trkpt>
      <trkpt lat="24.91505075344422" lon="118.54234464291461">
        <ele>13.23125006724149</ele>
        <time>2025-07-01T13:27:58Z</time>
      </trkpt>
      <trkpt lat="24.91495491045505" lon="118.54235945364566">
        <ele>10.977879229933023</ele>
        <time>2025-07-01T13:28:01Z</time>
      </trkpt>
      <trkpt lat="24.91488620265804" lon="118.54240796706141">
        <ele>11.289835518226027</ele>
        <time>2025-07-01T13:28:04Z</time>
      </trkpt>
      <trkpt lat="24.914555847681466" lon="118.5425036886326">
        <ele>10.499689455144107</ele>
        <time>2025-07-01T13:28:16Z</time>
      </trkpt>
      <trkpt lat="24.914364433887613" lon="118.54248673785207">
        <ele>10.113403337076306</ele>
        <time>2025-07-01T13:28:22Z</time>
      </trkpt>
      <trkpt lat="24.914188882859236" lon="118.5425141457584">
        <ele>9.656537190079689</ele>
        <time>2025-07-01T13:28:28Z</time>
      </trkpt>
      <trkpt lat="24.914019907932087" lon="118.54258965967341">
        <ele>10.248448538593948</ele>
        <time>2025-07-01T13:28:34Z</time>
      </trkpt>
      <trkpt lat="24.913930919591373" lon="118.54259976172058">
        <ele>9.672616736963391</ele>
        <time>2025-07-01T13:28:37Z</time>
      </trkpt>
      <trkpt lat="24.913825710050062" lon="118.54263703207792">
        <ele>9.547280251979828</ele>
        <time>2025-07-01T13:28:40Z</time>
      </trkpt>
      <trkpt lat="24.913667963000865" lon="118.54274628247632">
        <ele>8.870770752429962</ele>
        <time>2025-07-01T13:28:46Z</time>
      </trkpt>
      <trkpt lat="24.91337759944655" lon="118.54276791872826">
        <ele>8.632323022000492</ele>
        <time>2025-07-01T13:28:55Z</time>
      </trkpt>
      <trkpt lat="24.91309266457907" lon="118.54281523904608">
        <ele>8.126349983736873</ele>
        <time>2025-07-01T13:29:04Z</time>
      </trkpt>
      <trkpt lat="24.912912889166858" lon="118.54283476861437">
        <ele>8.065254387445748</ele>
        <time>2025-07-01T13:29:10Z</time>
      </trkpt>
      <trkpt lat="24.912652464022162" lon="118.54292981190316">
        <ele>9.093067526817322</ele>
        <time>2025-07-01T13:29:19Z</time>
      </trkpt>
      <trkpt lat="24.912306685483184" lon="118.54304091472433">
        <ele>8.27469036448747</ele>
        <time>2025-07-01T13:29:31Z</time>
      </trkpt>
      <trkpt lat="24.912044971637258" lon="118.5431240733886">
        <ele>8.051256496459246</ele>
        <time>2025-07-01T13:29:40Z</time>
      </trkpt>
      <trkpt lat="24.911692739235086" lon="118.54320027487316">
        <ele>8.432480127550662</ele>
        <time>2025-07-01T13:29:52Z</time>
      </trkpt>
      <trkpt lat="24.911398979837713" lon="118.54324152897247">
        <ele>8.542766607366502</ele>
        <time>2025-07-01T13:30:04Z</time>
      </trkpt>
      <trkpt lat="24.91107709295813" lon="118.54326827416493">
        <ele>7.574115025810897</ele>
        <time>2025-07-01T13:30:14Z</time>
      </trkpt>
      <trkpt lat="24.910970888136198" lon="118.54326768068769">
        <ele>7.714406909421086</ele>
        <time>2025-07-01T13:30:17Z</time>
      </trkpt>
      <trkpt lat="24.910665252445828" lon="118.5433226040299">
        <ele>8.22939663566649</ele>
        <time>2025-07-01T13:30:26Z</time>
      </trkpt>
      <trkpt lat="24.91048873396451" lon="118.54333963151035">
        <ele>7.656875410117209</ele>
        <time>2025-07-01T13:30:32Z</time>
      </trkpt>
      <trkpt lat="24.910297349192636" lon="118.54331800192551">
        <ele>7.680520457215607</ele>
        <time>2025-07-01T13:30:39Z</time>
      </trkpt>
      <trkpt lat="24.910230710746973" lon="118.54326294912164">
        <ele>7.255558886565268</ele>
        <time>2025-07-01T13:30:41Z</time>
      </trkpt>
      <trkpt lat="24.910239194014316" lon="118.54317210171679">
        <ele>7.047935943119228</ele>
        <time>2025-07-01T13:30:44Z</time>
      </trkpt>
      <trkpt lat="24.910221590936448" lon="118.54300877771702">
        <ele>7.27313794568181</ele>
        <time>2025-07-01T13:30:50Z</time>
      </trkpt>
      <trkpt lat="24.910238320812972" lon="118.54290876411741">
        <ele>7.551179093308747</ele>
        <time>2025-07-01T13:30:53Z</time>
      </trkpt>
      <trkpt lat="24.910238320812972" lon="118.54290876411741">
        <ele>7.551179093308747</ele>
        <time>2025-07-01T13:30:55Z</time>
      </trkpt>
    </trkseg>
  </trk>
</gpx>