<?xml version="1.0" encoding="UTF-8"?>
<gpx xmlns="http://www.topografix.com/GPX/1/1" xmlns:gpxtpx="http://www.garmin.com/xmlschemas/TrackPointExtension/v1" xmlns:xsi="http://www.w3.org/2001/XMLSchema-instance" xsi:schemaLocation="http://www.topografix.com/GPX/1/1 http://www.topografix.com/GPX/1/1/gpx.xsd" version="1.1" creator="gpx.py -- https://github.com/tkrajina/gpxpy">
  <trk>
    <name>gpx from keep</name>
    <type>Run</type>
    <trkseg>
      <trkpt lat="24.91136890628095" lon="118.53746586718309">
        <ele>20.54791259765625</ele>
        <time>2025-10-01T13:00:42Z</time>
      </trkpt>
      <trkpt lat="24.91136576771735" lon="118.53740570614329">
        <ele>30.30718994140625</ele>
        <time>2025-10-01T13:00:45Z</time>
      </trkpt>
      <trkpt lat="24.911280087607306" lon="118.53753906939731">
        <ele>27.16552734375</ele>
        <time>2025-10-01T13:00:51Z</time>
      </trkpt>
      <trkpt lat="24.911115833008495" lon="118.5378529191663">
        <ele>27.92913818359375</ele>
        <time>2025-10-01T13:01:00Z</time>
      </trkpt>
      <trkpt lat="24.9109735194701" lon="118.53814370265674">
        <ele>21.8309326171875</ele>
        <time>2025-10-01T13:01:09Z</time>
      </trkpt>
      <trkpt lat="24.910863928841877" lon="118.53831616766534">
        <ele>21.14447021484375</ele>
        <time>2025-10-01T13:01:15Z</time>
      </trkpt>
      <trkpt lat="24.91081543831273" lon="118.53853675449031">
        <ele>26.77008056640625</ele>
        <time>2025-10-01T13:01:21Z</time>
      </trkpt>
      <trkpt lat="24.910826696634885" lon="118.53865105534437">
        <ele>27.85601806640625</ele>
        <time>2025-10-01T13:01:24Z</time>
      </trkpt>
      <trkpt lat="24.910913800646327" lon="118.53870218406625">
        <ele>25.17242431640625</ele>
        <time>2025-10-01T13:01:27Z</time>
      </trkpt>
      <trkpt lat="24.911199849590094" lon="118.53874126714926">
        <ele>20.4228515625</ele>
        <time>2025-10-01T13:01:36Z</time>
      </trkpt>
      <trkpt lat="24.911236030992423" lon="118.53882348103438">
        <ele>20.5592041015625</ele>
        <time>2025-10-01T13:01:39Z</time>
      </trkpt>
      <trkpt lat="24.911223277986647" lon="118.53893176656933">
        <ele>20.696533203125</ele>
        <time>2025-10-01T13:01:42Z</time>
      </trkpt>
      <trkpt lat="24.911132012775067" lon="118.53925161118725">
        <ele>24.5682373046875</ele>
        <time>2025-10-01T13:01:51Z</time>
      </trkpt>
      <trkpt lat="24.911061748054756" lon="118.5395744584191">
        <ele>27.055908203125</ele>
        <time>2025-10-01T13:02:00Z</time>
      </trkpt>
      <trkpt lat="24.911007193345622" lon="118.53976997046219">
        <ele>27.9189453125</ele>
        <time>2025-10-01T13:02:06Z</time>
      </trkpt>
      <trkpt lat="24.91092458539998" lon="118.53994041814516">
        <ele>28.4686279296875</ele>
        <time>2025-10-01T13:02:12Z</time>
      </trkpt>
      <trkpt lat="24.910914253852944" lon="118.54024019352362">
        <ele>27.88983154296875</ele>
        <time>2025-10-01T13:02:21Z</time>
      </trkpt>
      <trkpt lat="24.91083591328092" lon="118.54053295226677">
        <ele>29.74462890625</ele>
        <time>2025-10-01T13:02:30Z</time>
      </trkpt>
      <trkpt lat="24.910788331518656" lon="118.54071943374012">
        <ele>26.82220458984375</ele>
        <time>2025-10-01T13:02:36Z</time>
      </trkpt>
      <trkpt lat="24.910693874063444" lon="118.54096005536519">
        <ele>17.51593017578125</ele>
        <time>2025-10-01T13:02:45Z</time>
      </trkpt>
      <trkpt lat="24.910667110989607" lon="118.5410663281797">
        <ele>17.50262451171875</ele>
        <time>2025-10-01T13:02:48Z</time>
      </trkpt>
      <trkpt lat="24.91063278246976" lon="118.54137110526679">
        <ele>12.52325439453125</ele>
        <time>2025-10-01T13:02:57Z</time>
      </trkpt>
      <trkpt lat="24.910617018580357" lon="118.5414783781985">
        <ele>14.1722412109375</ele>
        <time>2025-10-01T13:03:00Z</time>
      </trkpt>
      <trkpt lat="24.91053076259245" lon="118.54181523496317">
        <ele>16.0137939453125</ele>
        <time>2025-10-01T13:03:09Z</time>
      </trkpt>
      <trkpt lat="24.91042160963939" lon="118.5422002095412">
        <ele>18.3873291015625</ele>
        <time>2025-10-01T13:03:21Z</time>
      </trkpt>
      <trkpt lat="24.910392230002717" lon="118.5424869280813">
        <ele>22.74737548828125</ele>
        <time>2025-10-01T13:03:30Z</time>
      </trkpt>
      <trkpt lat="24.9102959274494" lon="118.54280673020133">
        <ele>20.16900634765625</ele>
        <time>2025-10-01T13:03:39Z</time>
      </trkpt>
      <trkpt lat="24.910255131884824" lon="118.54289996418615">
        <ele>19.25433349609375</ele>
        <time>2025-10-01T13:03:42Z</time>
      </trkpt>
      <trkpt lat="24.910242364104903" lon="118.54300823307803">
        <ele>22.2232666015625</ele>
        <time>2025-10-01T13:03:45Z</time>
      </trkpt>
      <trkpt lat="24.910273783289504" lon="118.5432077235168">
        <ele>23.69635009765625</ele>
        <time>2025-10-01T13:03:51Z</time>
      </trkpt>
      <trkpt lat="24.910254968521" lon="118.54329393723806">
        <ele>24.1683349609375</ele>
        <time>2025-10-01T13:03:54Z</time>
      </trkpt>
      <trkpt lat="24.910271144391217" lon="118.54337814330437">
        <ele>23.48126220703125</ele>
        <time>2025-10-01T13:03:57Z</time>
      </trkpt>
      <trkpt lat="24.910586047614668" lon="118.54335305976028">
        <ele>18.48016357421875</ele>
        <time>2025-10-01T13:04:09Z</time>
      </trkpt>
      <trkpt lat="24.910888935505714" lon="118.54331995729059">
        <ele>17.71173095703125</ele>
        <time>2025-10-01T13:04:18Z</time>
      </trkpt>
      <trkpt lat="24.911193823066434" lon="118.54328685463835">
        <ele>18.31793212890625</ele>
        <time>2025-10-01T13:04:27Z</time>
      </trkpt>
      <trkpt lat="24.911473705562713" lon="118.5432497438029">
        <ele>16.6494140625</ele>
        <time>2025-10-01T13:04:36Z</time>
      </trkpt>
      <trkpt lat="24.911801506937977" lon="118.54317754305477">
        <ele>15.07867431640625</ele>
        <time>2025-10-01T13:04:48Z</time>
      </trkpt>
      <trkpt lat="24.912106332600505" lon="118.5431153684551">
        <ele>15.460693359375</ele>
        <time>2025-10-01T13:04:57Z</time>
      </trkpt>
      <trkpt lat="24.91237914127235" lon="118.54304317115287">
        <ele>14.49658203125</ele>
        <time>2025-10-01T13:05:06Z</time>
      </trkpt>
      <trkpt lat="24.912667892056774" lon="118.5429449080208">
        <ele>13.85498046875</ele>
        <time>2025-10-01T13:05:15Z</time>
      </trkpt>
      <trkpt lat="24.912947648024343" lon="118.54284865010918">
        <ele>15.15740966796875</ele>
        <time>2025-10-01T13:05:24Z</time>
      </trkpt>
      <trkpt lat="24.913213478367613" lon="118.54278647742328">
        <ele>16.177734375</ele>
        <time>2025-10-01T13:05:33Z</time>
      </trkpt>
      <trkpt lat="24.91349433216928" lon="118.54273633342444">
        <ele>17.65032958984375</ele>
        <time>2025-10-01T13:05:42Z</time>
      </trkpt>
      <trkpt lat="24.913763125394368" lon="118.54265711788224">
        <ele>17.05548095703125</ele>
        <time>2025-10-01T13:05:51Z</time>
      </trkpt>
      <trkpt lat="24.91403693057347" lon="118.54258391672376">
        <ele>19.2913818359375</ele>
        <time>2025-10-01T13:06:00Z</time>
      </trkpt>
      <trkpt lat="24.914298702848633" lon="118.54249467620834">
        <ele>17.51556396484375</ele>
        <time>2025-10-01T13:06:09Z</time>
      </trkpt>
      <trkpt lat="24.91458250835408" lon="118.54242247639435">
        <ele>18.5015869140625</ele>
        <time>2025-10-01T13:06:18Z</time>
      </trkpt>
      <trkpt lat="24.914765416073767" lon="118.54239138607524">
        <ele>16.6258544921875</ele>
        <time>2025-10-01T13:06:24Z</time>
      </trkpt>
      <trkpt lat="24.91504617861071" lon="118.54229913605104">
        <ele>15.47808837890625</ele>
        <time>2025-10-01T13:06:33Z</time>
      </trkpt>
      <trkpt lat="24.915380857706076" lon="118.54217179405036">
        <ele>15.06610107421875</ele>
        <time>2025-10-01T13:06:45Z</time>
      </trkpt>
      <trkpt lat="24.915652627275573" lon="118.54208255141614">
        <ele>14.63677978515625</ele>
        <time>2025-10-01T13:06:54Z</time>
      </trkpt>
      <trkpt lat="24.91593243443621" lon="118.54201135324814">
        <ele>14.8814697265625</ele>
        <time>2025-10-01T13:07:03Z</time>
      </trkpt>
      <trkpt lat="24.91621114177511" lon="118.54189403896025">
        <ele>15.11700439453125</ele>
        <time>2025-10-01T13:07:12Z</time>
      </trkpt>
      <trkpt lat="24.91629002435957" lon="118.54184490981274">
        <ele>15.3773193359375</ele>
        <time>2025-10-01T13:07:15Z</time>
      </trkpt>
      <trkpt lat="24.916351846201295" lon="118.5417667084781">
        <ele>14.91253662109375</ele>
        <time>2025-10-01T13:07:18Z</time>
      </trkpt>
      <trkpt lat="24.916375631784128" lon="118.54166946147058">
        <ele>14.32989501953125</ele>
        <time>2025-10-01T13:07:21Z</time>
      </trkpt>
      <trkpt lat="24.91632398194229" lon="118.54136770142269">
        <ele>14.9097900390625</ele>
        <time>2025-10-01T13:07:30Z</time>
      </trkpt>
      <trkpt lat="24.916303318098617" lon="118.54106292809577">
        <ele>18.0989990234375</ele>
        <time>2025-10-01T13:07:39Z</time>
      </trkpt>
      <trkpt lat="24.91634963955718" lon="118.54075714402708">
        <ele>17.6903076171875</ele>
        <time>2025-10-01T13:07:48Z</time>
      </trkpt>
      <trkpt lat="24.91642499598215" lon="118.54047040338271">
        <ele>17.01922607421875</ele>
        <time>2025-10-01T13:07:57Z</time>
      </trkpt>
      <trkpt lat="24.916471818531694" lon="118.54039320160376">
        <ele>16.6761474609375</ele>
        <time>2025-10-01T13:08:00Z</time>
      </trkpt>
      <trkpt lat="24.916561133847853" lon="118.54009041463122">
        <ele>18.548095703125</ele>
        <time>2025-10-01T13:08:09Z</time>
      </trkpt>
      <trkpt lat="24.91668447274226" lon="118.53980165830367">
        <ele>17.53118896484375</ele>
        <time>2025-10-01T13:08:18Z</time>
      </trkpt>
      <trkpt lat="24.916852690081345" lon="118.53946276509609">
        <ele>14.3046875</ele>
        <time>2025-10-01T13:08:30Z</time>
      </trkpt>
      <trkpt lat="24.91697700707017" lon="118.53916698363084">
        <ele>13.93511962890625</ele>
        <time>2025-10-01T13:08:39Z</time>
      </trkpt>
      <trkpt lat="24.917085332536022" lon="118.5388752106173">
        <ele>14.84991455078125</ele>
        <time>2025-10-01T13:08:48Z</time>
      </trkpt>
      <trkpt lat="24.917206692179597" lon="118.53860047857592">
        <ele>14.26715087890625</ele>
        <time>2025-10-01T13:08:57Z</time>
      </trkpt>
      <trkpt lat="24.917313051494176" lon="118.5383257448409">
        <ele>11.765716552734375</ele>
        <time>2025-10-01T13:09:06Z</time>
      </trkpt>
      <trkpt lat="24.91742136676432" lon="118.53803296025518">
        <ele>11.07366943359375</ele>
        <time>2025-10-01T13:09:15Z</time>
      </trkpt>
      <trkpt lat="24.91753690883466" lon="118.53784043959492">
        <ele>12.14013671875</ele>
        <time>2025-10-01T13:09:21Z</time>
      </trkpt>
      <trkpt lat="24.917654239140624" lon="118.5375566734375">
        <ele>11.0703125</ele>
        <time>2025-10-01T13:09:30Z</time>
      </trkpt>
      <trkpt lat="24.917784574369172" lon="118.53727691427937">
        <ele>10.76995849609375</ele>
        <time>2025-10-01T13:09:39Z</time>
      </trkpt>
      <trkpt lat="24.917928900517925" lon="118.53699514596558">
        <ele>11.012542724609375</ele>
        <time>2025-10-01T13:09:48Z</time>
      </trkpt>
      <trkpt lat="24.918067234382228" lon="118.53671738612357">
        <ele>9.89556884765625</ele>
        <time>2025-10-01T13:09:57Z</time>
      </trkpt>
      <trkpt lat="24.918177569772322" lon="118.53643962552805">
        <ele>11.519866943359375</ele>
        <time>2025-10-01T13:10:06Z</time>
      </trkpt>
      <trkpt lat="24.918308878629848" lon="118.53615283618352">
        <ele>12.31341552734375</ele>
        <time>2025-10-01T13:10:15Z</time>
      </trkpt>
      <trkpt lat="24.918447236004145" lon="118.53588810382844">
        <ele>12.27587890625</ele>
        <time>2025-10-01T13:10:24Z</time>
      </trkpt>
      <trkpt lat="24.918491768044095" lon="118.5356925653519">
        <ele>13.02410888671875</ele>
        <time>2025-10-01T13:10:30Z</time>
      </trkpt>
      <trkpt lat="24.918618097217458" lon="118.53541679929762">
        <ele>14.48651123046875</ele>
        <time>2025-10-01T13:10:39Z</time>
      </trkpt>
      <trkpt lat="24.91869564806447" lon="118.53523228577086">
        <ele>15.3504638671875</ele>
        <time>2025-10-01T13:10:45Z</time>
      </trkpt>
      <trkpt lat="24.91871239515061" lon="118.53512699412437">
        <ele>16.197021484375</ele>
        <time>2025-10-01T13:10:48Z</time>
      </trkpt>
      <trkpt lat="24.918707171284026" lon="118.53503273412186">
        <ele>17.000732421875</ele>
        <time>2025-10-01T13:10:51Z</time>
      </trkpt>
      <trkpt lat="24.918764998140997" lon="118.5349635387754">
        <ele>17.75048828125</ele>
        <time>2025-10-01T13:10:54Z</time>
      </trkpt>
      <trkpt lat="24.918854959203415" lon="118.53495250198533">
        <ele>17.51080322265625</ele>
        <time>2025-10-01T13:10:57Z</time>
      </trkpt>
      <trkpt lat="24.91915406079282" lon="118.53501264750962">
        <ele>16.93212890625</ele>
        <time>2025-10-01T13:11:06Z</time>
      </trkpt>
      <trkpt lat="24.919447026869175" lon="118.53501563538764">
        <ele>17.47198486328125</ele>
        <time>2025-10-01T13:11:15Z</time>
      </trkpt>
      <trkpt lat="24.919738110331146" lon="118.53506775918186">
        <ele>19.81854248046875</ele>
        <time>2025-10-01T13:11:24Z</time>
      </trkpt>
      <trkpt lat="24.920023242293265" lon="118.53513993866298">
        <ele>21.3541259765625</ele>
        <time>2025-10-01T13:11:33Z</time>
      </trkpt>
      <trkpt lat="24.920319312909506" lon="118.53518704805921">
        <ele>21.137451171875</ele>
        <time>2025-10-01T13:11:42Z</time>
      </trkpt>
      <trkpt lat="24.92060743225271" lon="118.53525421322074">
        <ele>22.10577392578125</ele>
        <time>2025-10-01T13:11:51Z</time>
      </trkpt>
      <trkpt lat="24.920899548506366" lon="118.53532037518855">
        <ele>22.98577880859375</ele>
        <time>2025-10-01T13:12:00Z</time>
      </trkpt>
      <trkpt lat="24.921199677771657" lon="118.5353925530045">
        <ele>21.79803466796875</ele>
        <time>2025-10-01T13:12:09Z</time>
      </trkpt>
      <trkpt lat="24.921483854281547" lon="118.53548378412803">
        <ele>23.00482177734375</ele>
        <time>2025-10-01T13:12:18Z</time>
      </trkpt>
      <trkpt lat="24.921774991557818" lon="118.53555897042986">
        <ele>23.0738525390625</ele>
        <time>2025-10-01T13:12:27Z</time>
      </trkpt>
      <trkpt lat="24.921862098015758" lon="118.53560910198674">
        <ele>23.012451171875</ele>
        <time>2025-10-01T13:12:30Z</time>
      </trkpt>
      <trkpt lat="24.921936258388282" lon="118.53568129485394">
        <ele>23.77386474609375</ele>
        <time>2025-10-01T13:12:33Z</time>
      </trkpt>
      <trkpt lat="24.922036656380666" lon="118.53585576570863">
        <ele>22.63214111328125</ele>
        <time>2025-10-01T13:12:39Z</time>
      </trkpt>
      <trkpt lat="24.92210680259141" lon="118.53592194179794">
        <ele>22.90924072265625</ele>
        <time>2025-10-01T13:12:42Z</time>
      </trkpt>
      <trkpt lat="24.922258380673597" lon="118.53617662632055">
        <ele>24.2515869140625</ele>
        <time>2025-10-01T13:12:51Z</time>
      </trkpt>
      <trkpt lat="24.92231654439323" lon="118.53624982161953">
        <ele>24.46954345703125</ele>
        <time>2025-10-01T13:12:54Z</time>
      </trkpt>
      <trkpt lat="24.922478752089074" lon="118.53634807764212">
        <ele>27.198486328125</ele>
        <time>2025-10-01T13:13:00Z</time>
      </trkpt>
      <trkpt lat="24.92274283713054" lon="118.53640020093934">
        <ele>25.5853271484375</ele>
        <time>2025-10-01T13:13:09Z</time>
      </trkpt>
      <trkpt lat="24.923022713167306" lon="118.5363640833191">
        <ele>23.5465087890625</ele>
        <time>2025-10-01T13:13:18Z</time>
      </trkpt>
      <trkpt lat="24.92310859059238" lon="118.5363169491852">
        <ele>23.72271728515625</ele>
        <time>2025-10-01T13:13:21Z</time>
      </trkpt>
      <trkpt lat="24.923195587755323" lon="118.53632095402648">
        <ele>23.48846435546875</ele>
        <time>2025-10-01T13:13:24Z</time>
      </trkpt>
      <trkpt lat="24.92337277432297" lon="118.53641118697158">
        <ele>23.97174072265625</ele>
        <time>2025-10-01T13:13:30Z</time>
      </trkpt>
      <trkpt lat="24.92354381834446" lon="118.53644025402401">
        <ele>24.21038818359375</ele>
        <time>2025-10-01T13:13:36Z</time>
      </trkpt>
      <trkpt lat="24.923720779344247" lon="118.53643422534336">
        <ele>24.09228515625</ele>
        <time>2025-10-01T13:13:42Z</time>
      </trkpt>
      <trkpt lat="24.92388793650862" lon="118.5365114232689">
        <ele>22.21337890625</ele>
        <time>2025-10-01T13:13:48Z</time>
      </trkpt>
      <trkpt lat="24.9241093644584" lon="118.5367079403728">
        <ele>23.37841796875</ele>
        <time>2025-10-01T13:13:57Z</time>
      </trkpt>
      <trkpt lat="24.924319736752143" lon="118.53688039192436">
        <ele>25.20947265625</ele>
        <time>2025-10-01T13:14:06Z</time>
      </trkpt>
      <trkpt lat="24.924575966537898" lon="118.53699468248834">
        <ele>24.14697265625</ele>
        <time>2025-10-01T13:14:15Z</time>
      </trkpt>
      <trkpt lat="24.92490911292058" lon="118.5370778835279">
        <ele>23.01104736328125</ele>
        <time>2025-10-01T13:14:27Z</time>
      </trkpt>
      <trkpt lat="24.924966295643753" lon="118.53716010086991">
        <ele>24.2349853515625</ele>
        <time>2025-10-01T13:14:30Z</time>
      </trkpt>
      <trkpt lat="24.92498253501731" lon="118.53726438010452">
        <ele>24.4794921875</ele>
        <time>2025-10-01T13:14:33Z</time>
      </trkpt>
      <trkpt lat="24.92497878382291" lon="118.53737166841866">
        <ele>24.98419189453125</ele>
        <time>2025-10-01T13:14:36Z</time>
      </trkpt>
      <trkpt lat="24.924839432962806" lon="118.53764440853963">
        <ele>24.9677734375</ele>
        <time>2025-10-01T13:14:45Z</time>
      </trkpt>
      <trkpt lat="24.92475787587498" lon="118.53783191484075">
        <ele>25.33154296875</ele>
        <time>2025-10-01T13:14:51Z</time>
      </trkpt>
      <trkpt lat="24.924775108297222" lon="118.53793418617207">
        <ele>25.546630859375</ele>
        <time>2025-10-01T13:14:54Z</time>
      </trkpt>
      <trkpt lat="24.92467384115648" lon="118.53824802718904">
        <ele>26.7598876953125</ele>
        <time>2025-10-01T13:15:03Z</time>
      </trkpt>
      <trkpt lat="24.924547556144734" lon="118.53855384521792">
        <ele>27.430908203125</ele>
        <time>2025-10-01T13:15:12Z</time>
      </trkpt>
      <trkpt lat="24.924409240293638" lon="118.53884662641649">
        <ele>28.06396484375</ele>
        <time>2025-10-01T13:15:21Z</time>
      </trkpt>
      <trkpt lat="24.924271941884655" lon="118.53914842805466">
        <ele>29.4910888671875</ele>
        <time>2025-10-01T13:15:30Z</time>
      </trkpt>
      <trkpt lat="24.92410854733054" lon="118.53940711570299">
        <ele>28.78857421875</ele>
        <time>2025-10-01T13:15:39Z</time>
      </trkpt>
      <trkpt lat="24.923942186920183" lon="118.5396818427996">
        <ele>31.1055908203125</ele>
        <time>2025-10-01T13:15:48Z</time>
      </trkpt>
      <trkpt lat="24.92376080155879" lon="118.53994553959349">
        <ele>32.33465576171875</ele>
        <time>2025-10-01T13:15:57Z</time>
      </trkpt>
      <trkpt lat="24.92359740246407" lon="118.54020522220475">
        <ele>30.9044189453125</ele>
        <time>2025-10-01T13:16:06Z</time>
      </trkpt>
      <trkpt lat="24.92350283830081" lon="118.54039571960035">
        <ele>32.91033935546875</ele>
        <time>2025-10-01T13:16:13Z</time>
      </trkpt>
      <trkpt lat="24.923436014162125" lon="118.54047091762196">
        <ele>33.0919189453125</ele>
        <time>2025-10-01T13:16:16Z</time>
      </trkpt>
      <trkpt lat="24.923350101652748" lon="118.54050501119642">
        <ele>33.04547119140625</ele>
        <time>2025-10-01T13:16:19Z</time>
      </trkpt>
      <trkpt lat="24.92325613261395" lon="118.54051303834537">
        <ele>34.0477294921875</ele>
        <time>2025-10-01T13:16:22Z</time>
      </trkpt>
      <trkpt lat="24.923162101506488" lon="118.54049299338362">
        <ele>35.1644287109375</ele>
        <time>2025-10-01T13:16:25Z</time>
      </trkpt>
      <trkpt lat="24.922897787933827" lon="118.54033460432306">
        <ele>38.9056396484375</ele>
        <time>2025-10-01T13:16:34Z</time>
      </trkpt>
      <trkpt lat="24.92274460040783" lon="118.54024037212942">
        <ele>37.70159912109375</ele>
        <time>2025-10-01T13:16:40Z</time>
      </trkpt>
      <trkpt lat="24.922462388378598" lon="118.54012709939677">
        <ele>38.69708251953125</ele>
        <time>2025-10-01T13:16:49Z</time>
      </trkpt>
      <trkpt lat="24.922178209688894" lon="118.54002886522834">
        <ele>41.16015625</ele>
        <time>2025-10-01T13:16:58Z</time>
      </trkpt>
      <trkpt lat="24.92190903750576" lon="118.5399346400441">
        <ele>39.66009521484375</ele>
        <time>2025-10-01T13:17:07Z</time>
      </trkpt>
      <trkpt lat="24.921640831296664" lon="118.53982537545473">
        <ele>39.6748046875</ele>
        <time>2025-10-01T13:17:16Z</time>
      </trkpt>
      <trkpt lat="24.921359689299518" lon="118.53974418424868">
        <ele>40.21783447265625</ele>
        <time>2025-10-01T13:17:25Z</time>
      </trkpt>
      <trkpt lat="24.921078580741565" lon="118.53967803189629">
        <ele>41.91192626953125</ele>
        <time>2025-10-01T13:17:34Z</time>
      </trkpt>
      <trkpt lat="24.920911646831424" lon="118.53969709304043">
        <ele>45.79425048828125</ele>
        <time>2025-10-01T13:17:40Z</time>
      </trkpt>
      <trkpt lat="24.920831785890872" lon="118.53975424706475">
        <ele>44.939697265625</ele>
        <time>2025-10-01T13:17:43Z</time>
      </trkpt>
      <trkpt lat="24.920748779614218" lon="118.5397462320185">
        <ele>45.31146240234375</ele>
        <time>2025-10-01T13:17:46Z</time>
      </trkpt>
      <trkpt lat="24.920496532268647" lon="118.53961992121866">
        <ele>37.95849609375</ele>
        <time>2025-10-01T13:17:58Z</time>
      </trkpt>
      <trkpt lat="24.92039753044598" lon="118.53961290985598">
        <ele>39.03338623046875</ele>
        <time>2025-10-01T13:18:01Z</time>
      </trkpt>
      <trkpt lat="24.920326380849637" lon="118.5395417294993">
        <ele>40.0274658203125</ele>
        <time>2025-10-01T13:18:04Z</time>
      </trkpt>
      <trkpt lat="24.920221280871004" lon="118.53949060359398">
        <ele>40.263427734375</ele>
        <time>2025-10-01T13:18:07Z</time>
      </trkpt>
      <trkpt lat="24.91994717299567" lon="118.53942545275237">
        <ele>37.91650390625</ele>
        <time>2025-10-01T13:18:19Z</time>
      </trkpt>
      <trkpt lat="24.919891939681523" lon="118.53935031376339">
        <ele>38.9954833984375</ele>
        <time>2025-10-01T13:18:22Z</time>
      </trkpt>
      <trkpt lat="24.919789906457236" lon="118.53929712860337">
        <ele>36.4854736328125</ele>
        <time>2025-10-01T13:18:25Z</time>
      </trkpt>
      <trkpt lat="24.919660836527544" lon="118.53925803537356">
        <ele>37.1341552734375</ele>
        <time>2025-10-01T13:18:28Z</time>
      </trkpt>
      <trkpt lat="24.919425864981186" lon="118.53925604650176">
        <ele>35.43988037109375</ele>
        <time>2025-10-01T13:18:34Z</time>
      </trkpt>
      <trkpt lat="24.91912761750044" lon="118.53912773137961">
        <ele>38.57513427734375</ele>
        <time>2025-10-01T13:18:43Z</time>
      </trkpt>
      <trkpt lat="24.91883945190099" lon="118.53903651228617">
        <ele>36.5615234375</ele>
        <time>2025-10-01T13:18:52Z</time>
      </trkpt>
      <trkpt lat="24.91860231969134" lon="118.53896333672628">
        <ele>34.4971923828125</ele>
        <time>2025-10-01T13:19:01Z</time>
      </trkpt>
      <trkpt lat="24.918271241325773" lon="118.53890821494677">
        <ele>25.83709716796875</ele>
        <time>2025-10-01T13:19:10Z</time>
      </trkpt>
      <trkpt lat="24.918021074266942" lon="118.5388189977522">
        <ele>30.418212890625</ele>
        <time>2025-10-01T13:19:19Z</time>
      </trkpt>
      <trkpt lat="24.917928080479673" lon="118.5388159963183">
        <ele>31.3006591796875</ele>
        <time>2025-10-01T13:19:22Z</time>
      </trkpt>
      <trkpt lat="24.91766229487319" lon="118.53889422048951">
        <ele>33.88580322265625</ele>
        <time>2025-10-01T13:19:31Z</time>
      </trkpt>
      <trkpt lat="24.917499528640057" lon="118.53898747673843">
        <ele>35.17132568359375</ele>
        <time>2025-10-01T13:19:37Z</time>
      </trkpt>
      <trkpt lat="24.917366189816907" lon="118.53927223195076">
        <ele>35.59442138671875</ele>
        <time>2025-10-01T13:19:46Z</time>
      </trkpt>
      <trkpt lat="24.91727390554505" lon="118.53958505441264">
        <ele>35.2928466796875</ele>
        <time>2025-10-01T13:19:55Z</time>
      </trkpt>
      <trkpt lat="24.917113632062772" lon="118.53989988319537">
        <ele>37.96490478515625</ele>
        <time>2025-10-01T13:20:04Z</time>
      </trkpt>
      <trkpt lat="24.916982244352695" lon="118.54016658210298">
        <ele>37.701171875</ele>
        <time>2025-10-01T13:20:13Z</time>
      </trkpt>
      <trkpt lat="24.91689860771325" lon="118.54032499637898">
        <ele>37.130859375</ele>
        <time>2025-10-01T13:20:19Z</time>
      </trkpt>
      <trkpt lat="24.916765866184953" lon="118.5404332842788">
        <ele>34.71868896484375</ele>
        <time>2025-10-01T13:20:25Z</time>
      </trkpt>
      <trkpt lat="24.916722122888153" lon="118.54054657841091">
        <ele>33.7109375</ele>
        <time>2025-10-01T13:20:28Z</time>
      </trkpt>
      <trkpt lat="24.916704366679333" lon="118.54065585997327">
        <ele>32.12921142578125</ele>
        <time>2025-10-01T13:20:31Z</time>
      </trkpt>
      <trkpt lat="24.916720160810232" lon="118.54101778408506">
        <ele>35.24310302734375</ele>
        <time>2025-10-01T13:20:40Z</time>
      </trkpt>
      <trkpt lat="24.91670638035969" lon="118.54111703790971">
        <ele>34.745849609375</ele>
        <time>2025-10-01T13:20:43Z</time>
      </trkpt>
      <trkpt lat="24.91674510232043" lon="118.54144988048147">
        <ele>31.83551025390625</ele>
        <time>2025-10-01T13:20:52Z</time>
      </trkpt>
      <trkpt lat="24.91677652122755" lon="118.54164437026658">
        <ele>30.26446533203125</ele>
        <time>2025-10-01T13:20:58Z</time>
      </trkpt>
      <trkpt lat="24.916789663106986" lon="118.541710536395">
        <ele>32.67034912109375</ele>
        <time>2025-10-01T13:22:31Z</time>
      </trkpt>
      <trkpt lat="24.916487935843374" lon="118.54181682533255">
        <ele>33.0166015625</ele>
        <time>2025-10-01T13:22:43Z</time>
      </trkpt>
      <trkpt lat="24.916390053795038" lon="118.54186495333204">
        <ele>33.70892333984375</ele>
        <time>2025-10-01T13:22:46Z</time>
      </trkpt>
      <trkpt lat="24.916087280577965" lon="118.54195018879071">
        <ele>32.88812255859375</ele>
        <time>2025-10-01T13:22:55Z</time>
      </trkpt>
      <trkpt lat="24.915784528750287" lon="118.54204544913843">
        <ele>32.705322265625</ele>
        <time>2025-10-01T13:23:04Z</time>
      </trkpt>
      <trkpt lat="24.91559361172332" lon="118.54207152785266">
        <ele>32.98309326171875</ele>
        <time>2025-10-01T13:23:10Z</time>
      </trkpt>
      <trkpt lat="24.91530289020911" lon="118.54218182459506">
        <ele>29.93414306640625</ele>
        <time>2025-10-01T13:23:19Z</time>
      </trkpt>
      <trkpt lat="24.914990145463687" lon="118.54228009231079">
        <ele>30.0867919921875</ele>
        <time>2025-10-01T13:23:28Z</time>
      </trkpt>
      <trkpt lat="24.914704362146193" lon="118.54236231770831">
        <ele>29.3468017578125</ele>
        <time>2025-10-01T13:23:37Z</time>
      </trkpt>
      <trkpt lat="24.914608483203494" lon="118.54241244956205">
        <ele>28.91357421875</ele>
        <time>2025-10-01T13:23:40Z</time>
      </trkpt>
      <trkpt lat="24.914508546658155" lon="118.5424355140681">
        <ele>29.32586669921875</ele>
        <time>2025-10-01T13:23:43Z</time>
      </trkpt>
      <trkpt lat="24.914452509291866" lon="118.54241446542326">
        <ele>29.2509765625</ele>
        <time>2025-10-01T13:23:46Z</time>
      </trkpt>
      <trkpt lat="24.914298584584376" lon="118.54243953868828">
        <ele>30.03192138671875</ele>
        <time>2025-10-01T13:23:52Z</time>
      </trkpt>
      <trkpt lat="24.914081795456134" lon="118.54252376377238">
        <ele>29.2589111328125</ele>
        <time>2025-10-01T13:23:58Z</time>
      </trkpt>
      <trkpt lat="24.91380398884249" lon="118.54259596288469">
        <ele>29.6893310546875</ele>
        <time>2025-10-01T13:24:07Z</time>
      </trkpt>
      <trkpt lat="24.913722034613027" lon="118.54261200851153">
        <ele>27.68731689453125</ele>
        <time>2025-10-01T13:24:10Z</time>
      </trkpt>
      <trkpt lat="24.913647175874363" lon="118.54267316583686">
        <ele>25.53948974609375</ele>
        <time>2025-10-01T13:24:13Z</time>
      </trkpt>
      <trkpt lat="24.913543252520515" lon="118.54270224533565">
        <ele>25.4879150390625</ele>
        <time>2025-10-01T13:24:16Z</time>
      </trkpt>
      <trkpt lat="24.913461261817098" lon="118.54270124855027">
        <ele>25.9437255859375</ele>
        <time>2025-10-01T13:24:19Z</time>
      </trkpt>
      <trkpt lat="24.91315146775896" lon="118.54277745934424">
        <ele>26.23016357421875</ele>
        <time>2025-10-01T13:24:28Z</time>
      </trkpt>
      <trkpt lat="24.912849725783808" lon="118.54287873147597">
        <ele>26.1375732421875</ele>
        <time>2025-10-01T13:24:37Z</time>
      </trkpt>
      <trkpt lat="24.91275083353682" lon="118.5429228476376">
        <ele>27.57305908203125</ele>
        <time>2025-10-01T13:24:40Z</time>
      </trkpt>
      <trkpt lat="24.912482045941516" lon="118.54300506979729">
        <ele>26.8109130859375</ele>
        <time>2025-10-01T13:24:49Z</time>
      </trkpt>
      <trkpt lat="24.912197296515682" lon="118.54310433489556">
        <ele>26.38623046875</ele>
        <time>2025-10-01T13:24:58Z</time>
      </trkpt>
      <trkpt lat="24.912054318563378" lon="118.54310534731995">
        <ele>23.82806396484375</ele>
        <time>2025-10-01T13:25:04Z</time>
      </trkpt>
      <trkpt lat="24.911717522885674" lon="118.54317955384391">
        <ele>22.2186279296875</ele>
        <time>2025-10-01T13:25:13Z</time>
      </trkpt>
      <trkpt lat="24.911510653693902" lon="118.54322768688323">
        <ele>22.59039306640625</ele>
        <time>2025-10-01T13:25:19Z</time>
      </trkpt>
      <trkpt lat="24.91119577609823" lon="118.54326480018567">
        <ele>21.740966796875</ele>
        <time>2025-10-01T13:25:28Z</time>
      </trkpt>
      <trkpt lat="24.91087492897006" lon="118.54331594839594">
        <ele>20.93927001953125</ele>
        <time>2025-10-01T13:25:37Z</time>
      </trkpt>
      <trkpt lat="24.910557026210057" lon="118.54334103218572">
        <ele>23.77593994140625</ele>
        <time>2025-10-01T13:25:46Z</time>
      </trkpt>
      <trkpt lat="24.91036211478927" lon="118.54337011725471">
        <ele>23.84625244140625</ele>
        <time>2025-10-01T13:25:52Z</time>
      </trkpt>
      <trkpt lat="24.910281096381095" lon="118.54335608837431">
        <ele>22.1912841796875</ele>
        <time>2025-10-01T13:25:55Z</time>
      </trkpt>
      <trkpt lat="24.910255891980302" lon="118.54325784829244">
        <ele>21.989990234375</ele>
        <time>2025-10-01T13:25:58Z</time>
      </trkpt>
      <trkpt lat="24.91027863165687" lon="118.543136547597">
        <ele>22.583984375</ele>
        <time>2025-10-01T13:26:01Z</time>
      </trkpt>
    </trkseg>
  </trk>
</gpx>