<?xml version="1.0" encoding="UTF-8"?>
<gpx xmlns="http://www.topografix.com/GPX/1/1" xmlns:gpxtpx="http://www.garmin.com/xmlschemas/TrackPointExtension/v1" xmlns:xsi="http://www.w3.org/2001/XMLSchema-instance" xsi:schemaLocation="http://www.topografix.com/GPX/1/1 http://www.topografix.com/GPX/1/1/gpx.xsd" version="1.1" creator="gpx.py -- https://github.com/tkrajina/gpxpy">
  <trk>
    <name>gpx from keep</name>
    <type>Run</type>
    <trkseg>
      <trkpt lat="24.9107894350853" lon="118.53853374835768">
        <ele>36.678620698094036</ele>
        <time>2024-03-07T14:11:57Z</time>
      </trkpt>
      <trkpt lat="24.910460295943633" lon="118.53845255667028">
        <ele>35.99781085721035</ele>
        <time>2024-03-07T14:12:06Z</time>
      </trkpt>
      <trkpt lat="24.910243232442717" lon="118.53841146306837">
        <ele>33.594087361901266</ele>
        <time>2024-03-07T14:12:12Z</time>
      </trkpt>
      <trkpt lat="24.910057141704428" lon="118.53836034070541">
        <ele>34.79199636546545</ele>
        <time>2024-03-07T14:12:18Z</time>
      </trkpt>
      <trkpt lat="24.90969216497629" lon="118.53834833427786">
        <ele>32.35214804612841</ele>
        <time>2024-03-07T14:12:30Z</time>
      </trkpt>
      <trkpt lat="24.909380139678834" lon="118.53831827635507">
        <ele>30.777094320771834</ele>
        <time>2024-03-07T14:12:39Z</time>
      </trkpt>
      <trkpt lat="24.909280119237692" lon="118.53830324348054">
        <ele>29.954195820697596</ele>
        <time>2024-03-07T14:12:42Z</time>
      </trkpt>
      <trkpt lat="24.909262000387773" lon="118.53825010389929">
        <ele>31.076190485077632</ele>
        <time>2024-03-07T14:12:45Z</time>
      </trkpt>
      <trkpt lat="24.90934923747265" lon="118.53792222659466">
        <ele>27.760209250284067</ele>
        <time>2024-03-07T14:13:03Z</time>
      </trkpt>
      <trkpt lat="24.909411966209543" lon="118.53780791758653">
        <ele>24.58212873856082</ele>
        <time>2024-03-07T14:13:06Z</time>
      </trkpt>
      <trkpt lat="24.909428456072458" lon="118.53758732722076">
        <ele>27.186023816387028</ele>
        <time>2024-03-07T14:13:12Z</time>
      </trkpt>
      <trkpt lat="24.90947205653667" lon="118.537416867691">
        <ele>25.996585785054677</ele>
        <time>2024-03-07T14:13:18Z</time>
      </trkpt>
      <trkpt lat="24.9094707992987" lon="118.53730556915959">
        <ele>27.03427206634068</ele>
        <time>2024-03-07T14:13:21Z</time>
      </trkpt>
      <trkpt lat="24.909536229984624" lon="118.53706391473638">
        <ele>24.6224465114486</ele>
        <time>2024-03-07T14:13:27Z</time>
      </trkpt>
      <trkpt lat="24.90947609391842" lon="118.5370017514094">
        <ele>24.048625972360483</ele>
        <time>2024-03-07T14:13:30Z</time>
      </trkpt>
      <trkpt lat="24.909465843484142" lon="118.53689345999283">
        <ele>23.029298285550635</ele>
        <time>2024-03-07T14:13:33Z</time>
      </trkpt>
      <trkpt lat="24.90953909195138" lon="118.53657559504977">
        <ele>23.87286458104695</ele>
        <time>2024-03-07T14:13:42Z</time>
      </trkpt>
      <trkpt lat="24.9095578876745" lon="118.53648935986132">
        <ele>23.461241702575563</ele>
        <time>2024-03-07T14:13:45Z</time>
      </trkpt>
      <trkpt lat="24.90957318733301" lon="118.53619154910575">
        <ele>24.926705705040412</ele>
        <time>2024-03-07T14:13:54Z</time>
      </trkpt>
      <trkpt lat="24.909660337082272" lon="118.53583557118273">
        <ele>24.46466338669746</ele>
        <time>2024-03-07T14:14:03Z</time>
      </trkpt>
      <trkpt lat="24.909724588339657" lon="118.53552270896495">
        <ele>28.69957458645529</ele>
        <time>2024-03-07T14:14:12Z</time>
      </trkpt>
      <trkpt lat="24.909747670517085" lon="118.53513764707687">
        <ele>30.52063857038007</ele>
        <time>2024-03-07T14:14:24Z</time>
      </trkpt>
      <trkpt lat="24.909783027028976" lon="118.53486990441277">
        <ele>30.89606833237741</ele>
        <time>2024-03-07T14:14:33Z</time>
      </trkpt>
      <trkpt lat="24.90982991747063" lon="118.53482678170752">
        <ele>30.53500990861141</ele>
        <time>2024-03-07T14:14:36Z</time>
      </trkpt>
      <trkpt lat="24.909899970047153" lon="118.53485284904585">
        <ele>30.869935788672425</ele>
        <time>2024-03-07T14:14:39Z</time>
      </trkpt>
      <trkpt lat="24.90992018516771" lon="118.53494410023923">
        <ele>28.211350851155256</ele>
        <time>2024-03-07T14:14:42Z</time>
      </trkpt>
      <trkpt lat="24.910072360180042" lon="118.53502631700553">
        <ele>26.70097208621163</ele>
        <time>2024-03-07T14:14:48Z</time>
      </trkpt>
      <trkpt lat="24.910154398980378" lon="118.53504736947858">
        <ele>25.881587713054333</ele>
        <time>2024-03-07T14:14:51Z</time>
      </trkpt>
      <trkpt lat="24.91023250043628" lon="118.53509449422201">
        <ele>26.01447929320691</ele>
        <time>2024-03-07T14:14:54Z</time>
      </trkpt>
      <trkpt lat="24.91032052402898" lon="118.53510952961754">
        <ele>25.672610901470176</ele>
        <time>2024-03-07T14:14:57Z</time>
      </trkpt>
      <trkpt lat="24.910655806725913" lon="118.53524788798998">
        <ele>22.72384400519659</ele>
        <time>2024-03-07T14:15:09Z</time>
      </trkpt>
      <trkpt lat="24.910805031390954" lon="118.53535116209166">
        <ele>24.637331625734213</ele>
        <time>2024-03-07T14:15:15Z</time>
      </trkpt>
      <trkpt lat="24.91097908573793" lon="118.53538424103017">
        <ele>23.43848931016294</ele>
        <time>2024-03-07T14:15:21Z</time>
      </trkpt>
      <trkpt lat="24.911319326166826" lon="118.53550555093024">
        <ele>22.80876428624524</ele>
        <time>2024-03-07T14:15:33Z</time>
      </trkpt>
      <trkpt lat="24.911611648717596" lon="118.53565895168326">
        <ele>21.85158280831944</ele>
        <time>2024-03-07T14:15:45Z</time>
      </trkpt>
      <trkpt lat="24.91176381006904" lon="118.53573615271262">
        <ele>19.72465012316584</ele>
        <time>2024-03-07T14:15:51Z</time>
      </trkpt>
      <trkpt lat="24.912032914701538" lon="118.53579629872031">
        <ele>21.12665661389508</ele>
        <time>2024-03-07T14:16:00Z</time>
      </trkpt>
      <trkpt lat="24.9121299674631" lon="118.53582436880406">
        <ele>22.097109974843956</ele>
        <time>2024-03-07T14:16:03Z</time>
      </trkpt>
      <trkpt lat="24.91241133016603" lon="118.53599481519835">
        <ele>21.008179961138104</ele>
        <time>2024-03-07T14:16:15Z</time>
      </trkpt>
      <trkpt lat="24.912435470798393" lon="118.53605598048696">
        <ele>21.05680656161574</ele>
        <time>2024-03-07T14:16:18Z</time>
      </trkpt>
      <trkpt lat="24.912382874114975" lon="118.53622444334093">
        <ele>20.120986587928147</ele>
        <time>2024-03-07T14:16:24Z</time>
      </trkpt>
      <trkpt lat="24.912216611608915" lon="118.53652928333386">
        <ele>20.05869014569441</ele>
        <time>2024-03-07T14:16:36Z</time>
      </trkpt>
      <trkpt lat="24.9120551796476" lon="118.53676292731687">
        <ele>20.053770791176287</ele>
        <time>2024-03-07T14:16:45Z</time>
      </trkpt>
      <trkpt lat="24.912019366887808" lon="118.53684114120074">
        <ele>19.682992746485585</ele>
        <time>2024-03-07T14:16:48Z</time>
      </trkpt>
      <trkpt lat="24.911931180671832" lon="118.53718607705183">
        <ele>19.81423426271195</ele>
        <time>2024-03-07T14:17:00Z</time>
      </trkpt>
      <trkpt lat="24.911863603351815" lon="118.53736456117953">
        <ele>20.15347777013952</ele>
        <time>2024-03-07T14:17:06Z</time>
      </trkpt>
      <trkpt lat="24.911704331329794" lon="118.5376703911239">
        <ele>18.72469923970502</ele>
        <time>2024-03-07T14:17:18Z</time>
      </trkpt>
      <trkpt lat="24.91154006623975" lon="118.53798022875075">
        <ele>19.565345697954594</ele>
        <time>2024-03-07T14:17:31Z</time>
      </trkpt>
      <trkpt lat="24.91138986022901" lon="118.53831813633359">
        <ele>20.500665403807535</ele>
        <time>2024-03-07T14:17:43Z</time>
      </trkpt>
      <trkpt lat="24.91128920346331" lon="118.53846252542893">
        <ele>20.8160241156717</ele>
        <time>2024-03-07T14:17:49Z</time>
      </trkpt>
      <trkpt lat="24.91121679262358" lon="118.53871720258415">
        <ele>21.536178782235023</ele>
        <time>2024-03-07T14:17:58Z</time>
      </trkpt>
      <trkpt lat="24.911152808355475" lon="118.53872021496593">
        <ele>20.553949943206447</ele>
        <time>2024-03-07T14:18:01Z</time>
      </trkpt>
      <trkpt lat="24.910885743079994" lon="118.53867511467327">
        <ele>19.902097261073223</ele>
        <time>2024-03-07T14:18:10Z</time>
      </trkpt>
      <trkpt lat="24.910765689175864" lon="118.53864404108656">
        <ele>17.984157558991615</ele>
        <time>2024-03-07T14:18:16Z</time>
      </trkpt>
      <trkpt lat="24.910627469022593" lon="118.53853877288184">
        <ele>17.654352472541483</ele>
        <time>2024-03-07T14:18:22Z</time>
      </trkpt>
      <trkpt lat="24.9103153275225" lon="118.53845758002507">
        <ele>17.30370368870721</ele>
        <time>2024-03-07T14:18:34Z</time>
      </trkpt>
      <trkpt lat="24.90995821262569" lon="118.53838541394676">
        <ele>16.3193787066133</ele>
        <time>2024-03-07T14:18:46Z</time>
      </trkpt>
      <trkpt lat="24.909903211123765" lon="118.5383814071644">
        <ele>16.30709457467649</ele>
        <time>2024-03-07T14:18:49Z</time>
      </trkpt>
      <trkpt lat="24.90980313583044" lon="118.53834231061681">
        <ele>15.46695267498365</ele>
        <time>2024-03-07T14:18:52Z</time>
      </trkpt>
      <trkpt lat="24.909491108244133" lon="118.53831125003155">
        <ele>14.48511628938244</ele>
        <time>2024-03-07T14:19:04Z</time>
      </trkpt>
      <trkpt lat="24.90931098442157" lon="118.53824608985269">
        <ele>14.060672744169457</ele>
        <time>2024-03-07T14:19:10Z</time>
      </trkpt>
      <trkpt lat="24.909266823232738" lon="118.53817289876011">
        <ele>14.609166067868692</ele>
        <time>2024-03-07T14:19:16Z</time>
      </trkpt>
      <trkpt lat="24.90933102815108" lon="118.53782998205233">
        <ele>16.757944600345574</ele>
        <time>2024-03-07T14:19:28Z</time>
      </trkpt>
      <trkpt lat="24.909392602018723" lon="118.53764849326689">
        <ele>17.32494719027255</ele>
        <time>2024-03-07T14:19:34Z</time>
      </trkpt>
      <trkpt lat="24.909391012170005" lon="118.53739280880983">
        <ele>20.81394107147868</ele>
        <time>2024-03-07T14:19:43Z</time>
      </trkpt>
      <trkpt lat="24.909410596338812" lon="118.53721432821399">
        <ele>23.511688329782107</ele>
        <time>2024-03-07T14:19:49Z</time>
      </trkpt>
      <trkpt lat="24.909489122400235" lon="118.53701478563745">
        <ele>21.247938511168424</ele>
        <time>2024-03-07T14:19:55Z</time>
      </trkpt>
      <trkpt lat="24.909479958169975" lon="118.53694359430622">
        <ele>20.650183741399573</ele>
        <time>2024-03-07T14:19:58Z</time>
      </trkpt>
      <trkpt lat="24.909425863039235" lon="118.53689947901975">
        <ele>19.617122003900693</ele>
        <time>2024-03-07T14:20:01Z</time>
      </trkpt>
      <trkpt lat="24.909495240945326" lon="118.5366367638392">
        <ele>18.919452020689288</ele>
        <time>2024-03-07T14:20:10Z</time>
      </trkpt>
      <trkpt lat="24.909535355044117" lon="118.53626074012783">
        <ele>19.509634703506162</ele>
        <time>2024-03-07T14:20:22Z</time>
      </trkpt>
      <trkpt lat="24.909532155341257" lon="118.53617550825913">
        <ele>19.66257741707526</ele>
        <time>2024-03-07T14:20:25Z</time>
      </trkpt>
      <trkpt lat="24.90961250457373" lon="118.53590376101342">
        <ele>19.189470820530122</ele>
        <time>2024-03-07T14:20:34Z</time>
      </trkpt>
      <trkpt lat="24.909629045386858" lon="118.53571023012351">
        <ele>19.333415283267275</ele>
        <time>2024-03-07T14:20:40Z</time>
      </trkpt>
      <trkpt lat="24.909655828218785" lon="118.53561998078803">
        <ele>19.647703427893315</ele>
        <time>2024-03-07T14:20:43Z</time>
      </trkpt>
      <trkpt lat="24.909706883793923" lon="118.5352248905835">
        <ele>19.758204930887004</ele>
        <time>2024-03-07T14:20:55Z</time>
      </trkpt>
      <trkpt lat="24.909741190892248" lon="118.53493609052693">
        <ele>19.134139432681238</ele>
        <time>2024-03-07T14:21:04Z</time>
      </trkpt>
      <trkpt lat="24.909781012934147" lon="118.53486388789167">
        <ele>18.235721659056953</ele>
        <time>2024-03-07T14:21:07Z</time>
      </trkpt>
      <trkpt lat="24.910029256153813" lon="118.53498019248566">
        <ele>18.482441782808923</ele>
        <time>2024-03-07T14:21:16Z</time>
      </trkpt>
      <trkpt lat="24.910185459191183" lon="118.53507444211176">
        <ele>17.400960741639924</ele>
        <time>2024-03-07T14:21:22Z</time>
      </trkpt>
      <trkpt lat="24.910492676755926" lon="118.53518372240164">
        <ele>17.502581491124065</ele>
        <time>2024-03-07T14:21:34Z</time>
      </trkpt>
      <trkpt lat="24.910737900187083" lon="118.53529200384695">
        <ele>19.697484254540388</ele>
        <time>2024-03-07T14:21:43Z</time>
      </trkpt>
      <trkpt lat="24.91079799426719" lon="118.53533511841083">
        <ele>19.783938604400046</ele>
        <time>2024-03-07T14:21:46Z</time>
      </trkpt>
      <trkpt lat="24.911140220341128" lon="118.53545041183388">
        <ele>21.135455480372215</ele>
        <time>2024-03-07T14:21:58Z</time>
      </trkpt>
      <trkpt lat="24.911452511892584" lon="118.53559177845973">
        <ele>21.31542041858356</ele>
        <time>2024-03-07T14:22:10Z</time>
      </trkpt>
      <trkpt lat="24.91179178247752" lon="118.53572612328803">
        <ele>22.026947498838368</ele>
        <time>2024-03-07T14:22:22Z</time>
      </trkpt>
      <trkpt lat="24.911879829450047" lon="118.53575118582737">
        <ele>21.23998621473006</ele>
        <time>2024-03-07T14:22:25Z</time>
      </trkpt>
      <trkpt lat="24.911948961906198" lon="118.53581134574775">
        <ele>19.92183558608618</ele>
        <time>2024-03-07T14:22:28Z</time>
      </trkpt>
      <trkpt lat="24.912129031484874" lon="118.53585144295">
        <ele>22.361486547898682</ele>
        <time>2024-03-07T14:22:34Z</time>
      </trkpt>
      <trkpt lat="24.912292231009477" lon="118.5359456892841">
        <ele>21.17998276050546</ele>
        <time>2024-03-07T14:22:40Z</time>
      </trkpt>
    </trkseg>
  </trk>
</gpx>