<?xml version="1.0" encoding="UTF-8"?>
<gpx xmlns="http://www.topografix.com/GPX/1/1" xmlns:gpxtpx="http://www.garmin.com/xmlschemas/TrackPointExtension/v1" xmlns:xsi="http://www.w3.org/2001/XMLSchema-instance" xsi:schemaLocation="http://www.topografix.com/GPX/1/1 http://www.topografix.com/GPX/1/1/gpx.xsd" version="1.1" creator="gpx.py -- https://github.com/tkrajina/gpxpy">
  <trk>
    <name>gpx from keep</name>
    <type>Run</type>
    <trkseg>
      <trkpt lat="24.911231765437808" lon="118.53744036352357">
        <ele>10.470747348583743</ele>
        <time>2025-06-30T13:03:21Z</time>
      </trkpt>
      <trkpt lat="24.911160847303254" lon="118.53757404335246">
        <ele>10.28096306975931</ele>
        <time>2025-06-30T13:03:29Z</time>
      </trkpt>
      <trkpt lat="24.911128818073713" lon="118.53767903063553">
        <ele>10.038814226165414</ele>
        <time>2025-06-30T13:03:32Z</time>
      </trkpt>
      <trkpt lat="24.910988904959236" lon="118.53792649836713">
        <ele>9.297091344371438</ele>
        <time>2025-06-30T13:03:41Z</time>
      </trkpt>
      <trkpt lat="24.910944260116338" lon="118.53797246121177">
        <ele>9.437091656960547</ele>
        <time>2025-06-30T13:03:44Z</time>
      </trkpt>
      <trkpt lat="24.910798534361632" lon="118.53822753211077">
        <ele>9.982830218039453</ele>
        <time>2025-06-30T13:03:53Z</time>
      </trkpt>
      <trkpt lat="24.91072898831047" lon="118.53843282892552">
        <ele>9.20993892941624</ele>
        <time>2025-06-30T13:04:02Z</time>
      </trkpt>
      <trkpt lat="24.91077417133334" lon="118.53851779093537">
        <ele>9.653874362818897</ele>
        <time>2025-06-30T13:04:05Z</time>
      </trkpt>
      <trkpt lat="24.911018960692388" lon="118.53868132003224">
        <ele>9.963559965603054</ele>
        <time>2025-06-30T13:04:14Z</time>
      </trkpt>
      <trkpt lat="24.911175632007964" lon="118.53878299011835">
        <ele>9.80613642372191</ele>
        <time>2025-06-30T13:04:20Z</time>
      </trkpt>
      <trkpt lat="24.911119377441977" lon="118.53908706018203">
        <ele>8.478637149557471</ele>
        <time>2025-06-30T13:04:29Z</time>
      </trkpt>
      <trkpt lat="24.911031438143123" lon="118.53947196585783">
        <ele>7.434354305267334</ele>
        <time>2025-06-30T13:04:41Z</time>
      </trkpt>
      <trkpt lat="24.91092410515115" lon="118.53982889256207">
        <ele>7.8316962430253625</ele>
        <time>2025-06-30T13:04:53Z</time>
      </trkpt>
      <trkpt lat="24.910852631975786" lon="118.5401855644929">
        <ele>7.821754428558052</ele>
        <time>2025-06-30T13:05:05Z</time>
      </trkpt>
      <trkpt lat="24.910834093194822" lon="118.5402853997611">
        <ele>7.402843367308378</ele>
        <time>2025-06-30T13:05:08Z</time>
      </trkpt>
      <trkpt lat="24.91074681850677" lon="118.540640006908">
        <ele>7.473693645559251</ele>
        <time>2025-06-30T13:05:20Z</time>
      </trkpt>
      <trkpt lat="24.91069446864506" lon="118.54094242942553">
        <ele>7.367378806695342</ele>
        <time>2025-06-30T13:05:30Z</time>
      </trkpt>
      <trkpt lat="24.91066082132262" lon="118.54113327997347">
        <ele>7.430995286442339</ele>
        <time>2025-06-30T13:05:36Z</time>
      </trkpt>
      <trkpt lat="24.91050901557124" lon="118.54141157872617">
        <ele>7.3145850002765656</ele>
        <time>2025-06-30T13:05:45Z</time>
      </trkpt>
      <trkpt lat="24.91030192648614" lon="118.54169450917237">
        <ele>7.875543316826224</ele>
        <time>2025-06-30T13:05:54Z</time>
      </trkpt>
      <trkpt lat="24.91016767065801" lon="118.54186007885005">
        <ele>7.338278763927519</ele>
        <time>2025-06-30T13:06:00Z</time>
      </trkpt>
      <trkpt lat="24.91023318748131" lon="118.54197623076116">
        <ele>7.699548725970089</ele>
        <time>2025-06-30T13:06:03Z</time>
      </trkpt>
      <trkpt lat="24.910299226701376" lon="118.54227915014907">
        <ele>7.624047529883683</ele>
        <time>2025-06-30T13:06:12Z</time>
      </trkpt>
      <trkpt lat="24.910302185783664" lon="118.54237745385375">
        <ele>7.646433614194393</ele>
        <time>2025-06-30T13:06:15Z</time>
      </trkpt>
      <trkpt lat="24.910269021078648" lon="118.54247000802445">
        <ele>7.7623131182044744</ele>
        <time>2025-06-30T13:06:18Z</time>
      </trkpt>
      <trkpt lat="24.910236148394194" lon="118.54285640496322">
        <ele>7.774259625934064</ele>
        <time>2025-06-30T13:06:30Z</time>
      </trkpt>
      <trkpt lat="24.91019017657292" lon="118.54302082360222">
        <ele>7.541866588406265</ele>
        <time>2025-06-30T13:06:36Z</time>
      </trkpt>
      <trkpt lat="24.910218283557878" lon="118.54310094279133">
        <ele>7.822789727710187</ele>
        <time>2025-06-30T13:06:39Z</time>
      </trkpt>
      <trkpt lat="24.910264586230266" lon="118.54317306215518">
        <ele>7.810529110953212</ele>
        <time>2025-06-30T13:06:42Z</time>
      </trkpt>
      <trkpt lat="24.910284543680067" lon="118.54324568970064">
        <ele>7.535833654925227</ele>
        <time>2025-06-30T13:06:45Z</time>
      </trkpt>
      <trkpt lat="24.91024747900341" lon="118.5433176803883">
        <ele>7.861354387365282</ele>
        <time>2025-06-30T13:06:48Z</time>
      </trkpt>
      <trkpt lat="24.91025630110612" lon="118.54340299913426">
        <ele>8.038847178220749</ele>
        <time>2025-06-30T13:06:51Z</time>
      </trkpt>
      <trkpt lat="24.910332129167422" lon="118.54341719933487">
        <ele>8.110440175049007</ele>
        <time>2025-06-30T13:06:54Z</time>
      </trkpt>
      <trkpt lat="24.910648710971444" lon="118.54334453827421">
        <ele>8.04931251425296</ele>
        <time>2025-06-30T13:07:06Z</time>
      </trkpt>
      <trkpt lat="24.910971111531545" lon="118.54329692134125">
        <ele>8.395860151387751</ele>
        <time>2025-06-30T13:07:18Z</time>
      </trkpt>
      <trkpt lat="24.911131422247028" lon="118.54325564108699">
        <ele>8.431453683413565</ele>
        <time>2025-06-30T13:07:24Z</time>
      </trkpt>
      <trkpt lat="24.911437966850038" lon="118.54322646802233">
        <ele>8.480811698362231</ele>
        <time>2025-06-30T13:07:35Z</time>
      </trkpt>
      <trkpt lat="24.91178135286136" lon="118.54317343212941">
        <ele>8.603417546488345</ele>
        <time>2025-06-30T13:07:47Z</time>
      </trkpt>
      <trkpt lat="24.912050667226428" lon="118.5431102952241">
        <ele>8.207717528566718</ele>
        <time>2025-06-30T13:07:56Z</time>
      </trkpt>
      <trkpt lat="24.91239590024773" lon="118.54303139949863">
        <ele>7.765395041555166</ele>
        <time>2025-06-30T13:08:08Z</time>
      </trkpt>
      <trkpt lat="24.912662414042916" lon="118.54293872693046">
        <ele>8.263711879961193</ele>
        <time>2025-06-30T13:08:17Z</time>
      </trkpt>
      <trkpt lat="24.912827721783806" lon="118.54287321524359">
        <ele>8.804892522282898</ele>
        <time>2025-06-30T13:08:23Z</time>
      </trkpt>
      <trkpt lat="24.91309913777327" lon="118.54280631337892">
        <ele>8.269218664616346</ele>
        <time>2025-06-30T13:08:32Z</time>
      </trkpt>
      <trkpt lat="24.913180884859592" lon="118.54278475878867">
        <ele>8.029795702546835</ele>
        <time>2025-06-30T13:08:35Z</time>
      </trkpt>
      <trkpt lat="24.913266944369024" lon="118.5427846433457">
        <ele>8.215128938667476</ele>
        <time>2025-06-30T13:08:38Z</time>
      </trkpt>
      <trkpt lat="24.9135952664409" lon="118.54269839350545">
        <ele>8.290669843554497</ele>
        <time>2025-06-30T13:08:50Z</time>
      </trkpt>
      <trkpt lat="24.9136793468772" lon="118.5426824473308">
        <ele>8.498993946239352</ele>
        <time>2025-06-30T13:08:53Z</time>
      </trkpt>
      <trkpt lat="24.913827896376304" lon="118.54261878720965">
        <ele>8.774712591432035</ele>
        <time>2025-06-30T13:08:59Z</time>
      </trkpt>
      <trkpt lat="24.913909093900504" lon="118.54263451245927">
        <ele>9.707530037499964</ele>
        <time>2025-06-30T13:09:02Z</time>
      </trkpt>
      <trkpt lat="24.91394616000824" lon="118.54274417505077">
        <ele>8.729456229135394</ele>
        <time>2025-06-30T13:09:05Z</time>
      </trkpt>
      <trkpt lat="24.913955578219262" lon="118.54295051910674">
        <ele>8.445370583795011</ele>
        <time>2025-06-30T13:09:11Z</time>
      </trkpt>
      <trkpt lat="24.913993592873627" lon="118.54300560418244">
        <ele>8.178890469484031</ele>
        <time>2025-06-30T13:09:14Z</time>
      </trkpt>
      <trkpt lat="24.914133443516793" lon="118.54289038926528">
        <ele>8.47067351732403</ele>
        <time>2025-06-30T13:09:20Z</time>
      </trkpt>
      <trkpt lat="24.91428785840498" lon="118.5428345904159">
        <ele>9.304160010069609</ele>
        <time>2025-06-30T13:09:26Z</time>
      </trkpt>
      <trkpt lat="24.91456661580051" lon="118.54282273692745">
        <ele>9.65658644773066</ele>
        <time>2025-06-30T13:09:36Z</time>
      </trkpt>
      <trkpt lat="24.914946826168478" lon="118.54272788212505">
        <ele>10.498830432072282</ele>
        <time>2025-06-30T13:09:48Z</time>
      </trkpt>
      <trkpt lat="24.915066960721983" lon="118.54270985829659">
        <ele>10.08822503965348</ele>
        <time>2025-06-30T13:09:52Z</time>
      </trkpt>
      <trkpt lat="24.915401564715093" lon="118.54261381092029">
        <ele>12.09410443995148</ele>
        <time>2025-06-30T13:10:03Z</time>
      </trkpt>
      <trkpt lat="24.91573956133347" lon="118.54250901411555">
        <ele>12.669219462201</ele>
        <time>2025-06-30T13:10:15Z</time>
      </trkpt>
      <trkpt lat="24.915834749897112" lon="118.54247440992002">
        <ele>12.332655648700893</ele>
        <time>2025-06-30T13:10:18Z</time>
      </trkpt>
      <trkpt lat="24.91608408777796" lon="118.5424653689696">
        <ele>12.589903793297708</ele>
        <time>2025-06-30T13:10:27Z</time>
      </trkpt>
      <trkpt lat="24.916410587381456" lon="118.54237992637242">
        <ele>12.412714391946793</ele>
        <time>2025-06-30T13:10:39Z</time>
      </trkpt>
      <trkpt lat="24.916494902091923" lon="118.54237762534376">
        <ele>12.328816706314683</ele>
        <time>2025-06-30T13:10:42Z</time>
      </trkpt>
      <trkpt lat="24.916578669297717" lon="118.54240470419901">
        <ele>12.632390067912638</ele>
        <time>2025-06-30T13:10:45Z</time>
      </trkpt>
      <trkpt lat="24.91665924012199" lon="118.54240036673914">
        <ele>12.682649432681501</ele>
        <time>2025-06-30T13:10:48Z</time>
      </trkpt>
      <trkpt lat="24.916700035014532" lon="118.54242018855679">
        <ele>12.36782338656485</ele>
        <time>2025-06-30T13:10:53Z</time>
      </trkpt>
      <trkpt lat="24.916891270956064" lon="118.54229281334422">
        <ele>11.709231092594564</ele>
        <time>2025-06-30T13:11:05Z</time>
      </trkpt>
      <trkpt lat="24.917209980466637" lon="118.542209560814">
        <ele>9.947691762819886</ele>
        <time>2025-06-30T13:11:17Z</time>
      </trkpt>
      <trkpt lat="24.917384432411623" lon="118.54215607674426">
        <ele>10.545572497881949</ele>
        <time>2025-06-30T13:11:23Z</time>
      </trkpt>
      <trkpt lat="24.91765047418533" lon="118.54216609329299">
        <ele>12.260613141581416</ele>
        <time>2025-06-30T13:11:32Z</time>
      </trkpt>
      <trkpt lat="24.917914301159115" lon="118.54207779811907">
        <ele>12.67714498564601</ele>
        <time>2025-06-30T13:11:42Z</time>
      </trkpt>
      <trkpt lat="24.918275265131626" lon="118.54211601463655">
        <ele>13.047064494341612</ele>
        <time>2025-06-30T13:11:54Z</time>
      </trkpt>
      <trkpt lat="24.918576088978117" lon="118.54208913047988">
        <ele>13.175903044641018</ele>
        <time>2025-06-30T13:12:04Z</time>
      </trkpt>
      <trkpt lat="24.918878443927934" lon="118.54209841497844">
        <ele>14.032668826170266</ele>
        <time>2025-06-30T13:12:14Z</time>
      </trkpt>
      <trkpt lat="24.919238440530915" lon="118.54211916751686">
        <ele>14.723407119512558</ele>
        <time>2025-06-30T13:12:26Z</time>
      </trkpt>
      <trkpt lat="24.919346419006125" lon="118.54209872175137">
        <ele>14.938892902806401</ele>
        <time>2025-06-30T13:12:30Z</time>
      </trkpt>
      <trkpt lat="24.919526663026833" lon="118.54211342468685">
        <ele>14.944613410159945</ele>
        <time>2025-06-30T13:12:36Z</time>
      </trkpt>
      <trkpt lat="24.919877580652777" lon="118.54211017542373">
        <ele>14.668735708110034</ele>
        <time>2025-06-30T13:12:48Z</time>
      </trkpt>
      <trkpt lat="24.920222530492826" lon="118.54212647675145">
        <ele>13.234025911428034</ele>
        <time>2025-06-30T13:13:00Z</time>
      </trkpt>
      <trkpt lat="24.920398990101724" lon="118.54210646398508">
        <ele>12.313408807851374</ele>
        <time>2025-06-30T13:13:06Z</time>
      </trkpt>
      <trkpt lat="24.920671393519783" lon="118.54212314238794">
        <ele>13.202900990843773</ele>
        <time>2025-06-30T13:13:15Z</time>
      </trkpt>
      <trkpt lat="24.921013190167745" lon="118.54213535329457">
        <ele>14.455320876091719</ele>
        <time>2025-06-30T13:13:27Z</time>
      </trkpt>
      <trkpt lat="24.92135793240377" lon="118.54213112833934">
        <ele>15.144614069722593</ele>
        <time>2025-06-30T13:13:39Z</time>
      </trkpt>
      <trkpt lat="24.921663935478804" lon="118.54215276015681">
        <ele>16.308647670783103</ele>
        <time>2025-06-30T13:13:50Z</time>
      </trkpt>
      <trkpt lat="24.92199176346213" lon="118.54220098812665">
        <ele>17.849699090234935</ele>
        <time>2025-06-30T13:14:02Z</time>
      </trkpt>
      <trkpt lat="24.92226559661875" lon="118.54226111378874">
        <ele>19.330086606554687</ele>
        <time>2025-06-30T13:14:12Z</time>
      </trkpt>
      <trkpt lat="24.92259450279677" lon="118.54233481516391">
        <ele>20.19566110242158</ele>
        <time>2025-06-30T13:14:24Z</time>
      </trkpt>
      <trkpt lat="24.922757998510303" lon="118.54237809916064">
        <ele>21.338190292939544</ele>
        <time>2025-06-30T13:14:30Z</time>
      </trkpt>
      <trkpt lat="24.92300029132916" lon="118.54247246317433">
        <ele>22.112657853402197</ele>
        <time>2025-06-30T13:14:39Z</time>
      </trkpt>
      <trkpt lat="24.92333001053575" lon="118.54256560023349">
        <ele>22.5920130033046</ele>
        <time>2025-06-30T13:14:51Z</time>
      </trkpt>
      <trkpt lat="24.92355051036658" lon="118.54265587723714">
        <ele>23.796908310614526</ele>
        <time>2025-06-30T13:15:00Z</time>
      </trkpt>
      <trkpt lat="24.92384679562724" lon="118.54282409759549">
        <ele>26.49243868328631</ele>
        <time>2025-06-30T13:15:12Z</time>
      </trkpt>
      <trkpt lat="24.924144786436383" lon="118.54300329539895">
        <ele>29.242501630447805</ele>
        <time>2025-06-30T13:15:24Z</time>
      </trkpt>
      <trkpt lat="24.924351454398668" lon="118.54314954106734">
        <ele>28.67920481134206</ele>
        <time>2025-06-30T13:15:33Z</time>
      </trkpt>
      <trkpt lat="24.92443192403902" lon="118.54319009811171">
        <ele>28.265006101690233</ele>
        <time>2025-06-30T13:15:36Z</time>
      </trkpt>
      <trkpt lat="24.92456206198363" lon="118.54332307154455">
        <ele>27.451913743279874</ele>
        <time>2025-06-30T13:15:42Z</time>
      </trkpt>
      <trkpt lat="24.92479883339101" lon="118.54352182905156">
        <ele>25.63395693898201</ele>
        <time>2025-06-30T13:15:52Z</time>
      </trkpt>
      <trkpt lat="24.925065449492653" lon="118.5438033481268">
        <ele>23.48456203751266</ele>
        <time>2025-06-30T13:16:04Z</time>
      </trkpt>
      <trkpt lat="24.925257232848352" lon="118.54402092155844">
        <ele>21.22473620902747</ele>
        <time>2025-06-30T13:16:13Z</time>
      </trkpt>
      <trkpt lat="24.925481106438315" lon="118.54430636538095">
        <ele>18.980168471112847</ele>
        <time>2025-06-30T13:16:25Z</time>
      </trkpt>
      <trkpt lat="24.925541362732208" lon="118.54437416660525">
        <ele>18.35093585960567</ele>
        <time>2025-06-30T13:16:28Z</time>
      </trkpt>
      <trkpt lat="24.925749491778905" lon="118.54469804645045">
        <ele>16.870833746157587</ele>
        <time>2025-06-30T13:16:40Z</time>
      </trkpt>
      <trkpt lat="24.925939486192824" lon="118.545028888694">
        <ele>16.71120540704578</ele>
        <time>2025-06-30T13:16:52Z</time>
      </trkpt>
      <trkpt lat="24.926029742662195" lon="118.54519141295475">
        <ele>16.879356130957603</ele>
        <time>2025-06-30T13:16:58Z</time>
      </trkpt>
      <trkpt lat="24.926207115210865" lon="118.54542821962337">
        <ele>14.155110119841993</ele>
        <time>2025-06-30T13:17:07Z</time>
      </trkpt>
      <trkpt lat="24.92638366083568" lon="118.54575787564568">
        <ele>13.05538182798773</ele>
        <time>2025-06-30T13:17:19Z</time>
      </trkpt>
      <trkpt lat="24.9265426620936" lon="118.54602801221377">
        <ele>11.93569668289274</ele>
        <time>2025-06-30T13:17:28Z</time>
      </trkpt>
      <trkpt lat="24.926710894690743" lon="118.5463008647274">
        <ele>12.321648507378995</ele>
        <time>2025-06-30T13:17:37Z</time>
      </trkpt>
      <trkpt lat="24.926803757107024" lon="118.54649108242478">
        <ele>12.061191053129733</ele>
        <time>2025-06-30T13:17:43Z</time>
      </trkpt>
      <trkpt lat="24.926868574565194" lon="118.54670164252916">
        <ele>11.045025506988168</ele>
        <time>2025-06-30T13:17:49Z</time>
      </trkpt>
      <trkpt lat="24.926969149226174" lon="118.54667674682906">
        <ele>10.472276453860104</ele>
        <time>2025-06-30T13:17:52Z</time>
      </trkpt>
      <trkpt lat="24.927064117684182" lon="118.54663063606965">
        <ele>10.399342738091946</ele>
        <time>2025-06-30T13:17:55Z</time>
      </trkpt>
      <trkpt lat="24.927169142248285" lon="118.54653803448767">
        <ele>10.11723308172077</ele>
        <time>2025-06-30T13:17:59Z</time>
      </trkpt>
      <trkpt lat="24.927136504117698" lon="118.54641565380415">
        <ele>8.9195527844131</ele>
        <time>2025-06-30T13:18:03Z</time>
      </trkpt>
      <trkpt lat="24.927070983031996" lon="118.54630998494333">
        <ele>10.768755598925054</ele>
        <time>2025-06-30T13:18:07Z</time>
      </trkpt>
      <trkpt lat="24.92703483633496" lon="118.54619120965766">
        <ele>11.670189650729299</ele>
        <time>2025-06-30T13:18:11Z</time>
      </trkpt>
      <trkpt lat="24.926915833533126" lon="118.54597806577817">
        <ele>12.908194862306118</ele>
        <time>2025-06-30T13:18:19Z</time>
      </trkpt>
      <trkpt lat="24.926805597376656" lon="118.54571029684307">
        <ele>13.311796078458428</ele>
        <time>2025-06-30T13:18:28Z</time>
      </trkpt>
      <trkpt lat="24.92662245421358" lon="118.54539653226779">
        <ele>15.156366964802146</ele>
        <time>2025-06-30T13:18:40Z</time>
      </trkpt>
      <trkpt lat="24.926432658961918" lon="118.54508766475169">
        <ele>16.494404276832938</ele>
        <time>2025-06-30T13:18:52Z</time>
      </trkpt>
      <trkpt lat="24.926252601019947" lon="118.54476812916191">
        <ele>17.927054352127016</ele>
        <time>2025-06-30T13:19:04Z</time>
      </trkpt>
      <trkpt lat="24.92610037539979" lon="118.54454770898862">
        <ele>17.860205184668303</ele>
        <time>2025-06-30T13:19:13Z</time>
      </trkpt>
      <trkpt lat="24.925909168435535" lon="118.54424208179668">
        <ele>18.158046600408852</ele>
        <time>2025-06-30T13:19:25Z</time>
      </trkpt>
      <trkpt lat="24.925697663806687" lon="118.54393389560495">
        <ele>20.894664207473397</ele>
        <time>2025-06-30T13:19:37Z</time>
      </trkpt>
      <trkpt lat="24.925466405841366" lon="118.5436638367609">
        <ele>23.437664257362485</ele>
        <time>2025-06-30T13:19:49Z</time>
      </trkpt>
      <trkpt lat="24.925231382286352" lon="118.54339660217386">
        <ele>25.4932976718992</ele>
        <time>2025-06-30T13:20:01Z</time>
      </trkpt>
      <trkpt lat="24.92497712130046" lon="118.54316500588226">
        <ele>27.38242267537862</ele>
        <time>2025-06-30T13:20:13Z</time>
      </trkpt>
      <trkpt lat="24.924692084271744" lon="118.54296444272691">
        <ele>30.842362170107663</ele>
        <time>2025-06-30T13:20:25Z</time>
      </trkpt>
      <trkpt lat="24.924475034922118" lon="118.5428000011999">
        <ele>31.167164152488112</ele>
        <time>2025-06-30T13:20:34Z</time>
      </trkpt>
      <trkpt lat="24.924179829335017" lon="118.54262125772324">
        <ele>32.1219819849357</ele>
        <time>2025-06-30T13:20:49Z</time>
      </trkpt>
      <trkpt lat="24.9239256733193" lon="118.54245542367265">
        <ele>30.17832838650793</ele>
        <time>2025-06-30T13:20:58Z</time>
      </trkpt>
      <trkpt lat="24.9236695115218" lon="118.54231693885706">
        <ele>28.531605899333954</ele>
        <time>2025-06-30T13:21:07Z</time>
      </trkpt>
      <trkpt lat="24.92339517161929" lon="118.54218102957243">
        <ele>25.069479654543102</ele>
        <time>2025-06-30T13:21:16Z</time>
      </trkpt>
      <trkpt lat="24.923128243401955" lon="118.54205601274559">
        <ele>23.555620011873543</ele>
        <time>2025-06-30T13:21:25Z</time>
      </trkpt>
      <trkpt lat="24.92286009955502" lon="118.54195371587014">
        <ele>22.09458284918219</ele>
        <time>2025-06-30T13:21:34Z</time>
      </trkpt>
      <trkpt lat="24.922601692771895" lon="118.54185595268821">
        <ele>21.59517164621502</ele>
        <time>2025-06-30T13:21:43Z</time>
      </trkpt>
      <trkpt lat="24.922308279410053" lon="118.54180485905363">
        <ele>19.447101301513612</ele>
        <time>2025-06-30T13:21:52Z</time>
      </trkpt>
      <trkpt lat="24.922032938175207" lon="118.54177229701452">
        <ele>18.6115267528221</ele>
        <time>2025-06-30T13:22:01Z</time>
      </trkpt>
      <trkpt lat="24.92174041460044" lon="118.54174291931099">
        <ele>17.923147927969694</ele>
        <time>2025-06-30T13:22:10Z</time>
      </trkpt>
      <trkpt lat="24.92140587853332" lon="118.54173722294843">
        <ele>15.92971167806536</ele>
        <time>2025-06-30T13:22:22Z</time>
      </trkpt>
      <trkpt lat="24.921058823150393" lon="118.54174315675517">
        <ele>14.981039021164179</ele>
        <time>2025-06-30T13:22:34Z</time>
      </trkpt>
      <trkpt lat="24.920766828300472" lon="118.54172054852177">
        <ele>14.42961301188916</ele>
        <time>2025-06-30T13:22:43Z</time>
      </trkpt>
      <trkpt lat="24.920564177609055" lon="118.54160013343463">
        <ele>15.170044078491628</ele>
        <time>2025-06-30T13:22:52Z</time>
      </trkpt>
      <trkpt lat="24.920539195766573" lon="118.54156617377136">
        <ele>15.64839970972389</ele>
        <time>2025-06-30T13:23:01Z</time>
      </trkpt>
      <trkpt lat="24.920425835974818" lon="118.54162665792198">
        <ele>14.461097998544574</ele>
        <time>2025-06-30T13:23:07Z</time>
      </trkpt>
      <trkpt lat="24.92037075269879" lon="118.54167917548234">
        <ele>13.865035062655807</ele>
        <time>2025-06-30T13:23:10Z</time>
      </trkpt>
      <trkpt lat="24.920052618365872" lon="118.5416751002643">
        <ele>13.507055569440126</ele>
        <time>2025-06-30T13:23:22Z</time>
      </trkpt>
      <trkpt lat="24.919736512625988" lon="118.54166103526175">
        <ele>13.573041079565883</ele>
        <time>2025-06-30T13:23:31Z</time>
      </trkpt>
      <trkpt lat="24.919432240600255" lon="118.54170029339836">
        <ele>14.697845876216888</ele>
        <time>2025-06-30T13:23:40Z</time>
      </trkpt>
      <trkpt lat="24.919323444408757" lon="118.54171487952698">
        <ele>14.56553947366774</ele>
        <time>2025-06-30T13:23:43Z</time>
      </trkpt>
      <trkpt lat="24.9190221901636" lon="118.5417177341966">
        <ele>14.388152577914298</ele>
        <time>2025-06-30T13:23:52Z</time>
      </trkpt>
      <trkpt lat="24.918713839441697" lon="118.54169885141422">
        <ele>12.527630981057882</ele>
        <time>2025-06-30T13:24:01Z</time>
      </trkpt>
      <trkpt lat="24.918512549843946" lon="118.5416727842984">
        <ele>11.982797561213374</ele>
        <time>2025-06-30T13:24:07Z</time>
      </trkpt>
      <trkpt lat="24.918312485363828" lon="118.54167496879616">
        <ele>12.05962841026485</ele>
        <time>2025-06-30T13:24:13Z</time>
      </trkpt>
      <trkpt lat="24.918026668281858" lon="118.5416571976309">
        <ele>10.626760713756084</ele>
        <time>2025-06-30T13:24:22Z</time>
      </trkpt>
      <trkpt lat="24.917745114857023" lon="118.54168423440319">
        <ele>9.921905904076993</ele>
        <time>2025-06-30T13:24:31Z</time>
      </trkpt>
      <trkpt lat="24.917557305777365" lon="118.5416786010542">
        <ele>9.679695225320756</ele>
        <time>2025-06-30T13:24:37Z</time>
      </trkpt>
      <trkpt lat="24.917261734503107" lon="118.54172297022076">
        <ele>10.597593861632049</ele>
        <time>2025-06-30T13:24:46Z</time>
      </trkpt>
      <trkpt lat="24.917077876102894" lon="118.54176488210916">
        <ele>10.277333359234035</ele>
        <time>2025-06-30T13:24:52Z</time>
      </trkpt>
      <trkpt lat="24.916857846582552" lon="118.54174227536745">
        <ele>10.25017771590501</ele>
        <time>2025-06-30T13:24:58Z</time>
      </trkpt>
      <trkpt lat="24.916557547369624" lon="118.54179660089014">
        <ele>11.992294468916953</ele>
        <time>2025-06-30T13:25:07Z</time>
      </trkpt>
      <trkpt lat="24.916480995649298" lon="118.54178841329458">
        <ele>11.899561096914113</ele>
        <time>2025-06-30T13:25:10Z</time>
      </trkpt>
      <trkpt lat="24.916317331740252" lon="118.54186285244779">
        <ele>12.460113673470914</ele>
        <time>2025-06-30T13:25:16Z</time>
      </trkpt>
      <trkpt lat="24.916151980201942" lon="118.5419668071272">
        <ele>12.169351733289659</ele>
        <time>2025-06-30T13:25:22Z</time>
      </trkpt>
      <trkpt lat="24.91596755842637" lon="118.54199656839332">
        <ele>12.26277551613748</ele>
        <time>2025-06-30T13:25:28Z</time>
      </trkpt>
      <trkpt lat="24.915889333512165" lon="118.54203910382118">
        <ele>13.060856810770929</ele>
        <time>2025-06-30T13:25:31Z</time>
      </trkpt>
      <trkpt lat="24.915794361491354" lon="118.54206514582461">
        <ele>12.306299797259271</ele>
        <time>2025-06-30T13:25:34Z</time>
      </trkpt>
      <trkpt lat="24.915620789077618" lon="118.54210668954296">
        <ele>12.572512443177402</ele>
        <time>2025-06-30T13:25:40Z</time>
      </trkpt>
      <trkpt lat="24.915357482988664" lon="118.5422241175195">
        <ele>13.407780171371996</ele>
        <time>2025-06-30T13:25:49Z</time>
      </trkpt>
      <trkpt lat="24.915092548246037" lon="118.54232244664699">
        <ele>12.549036326818168</ele>
        <time>2025-06-30T13:25:58Z</time>
      </trkpt>
      <trkpt lat="24.914809163574393" lon="118.54239645856786">
        <ele>11.219182814471424</ele>
        <time>2025-06-30T13:26:07Z</time>
      </trkpt>
      <trkpt lat="24.9145355565942" lon="118.5424288007202">
        <ele>11.179391017183661</ele>
        <time>2025-06-30T13:26:16Z</time>
      </trkpt>
      <trkpt lat="24.91426353559465" lon="118.54249122775936">
        <ele>9.91046599112451</ele>
        <time>2025-06-30T13:26:25Z</time>
      </trkpt>
      <trkpt lat="24.913987365370506" lon="118.54259810565968">
        <ele>9.44648648891598</ele>
        <time>2025-06-30T13:26:34Z</time>
      </trkpt>
      <trkpt lat="24.91371330985011" lon="118.54267608498235">
        <ele>8.977272894233465</ele>
        <time>2025-06-30T13:26:43Z</time>
      </trkpt>
      <trkpt lat="24.91340132702381" lon="118.54274670342873">
        <ele>8.22175856307149</ele>
        <time>2025-06-30T13:26:52Z</time>
      </trkpt>
      <trkpt lat="24.913121684832753" lon="118.5428117575233">
        <ele>8.348643261939287</ele>
        <time>2025-06-30T13:27:01Z</time>
      </trkpt>
      <trkpt lat="24.912989135042128" lon="118.54281823917643">
        <ele>7.510056060738862</ele>
        <time>2025-06-30T13:27:07Z</time>
      </trkpt>
      <trkpt lat="24.912820489897506" lon="118.54286586426365">
        <ele>8.37929646205157</ele>
        <time>2025-06-30T13:27:13Z</time>
      </trkpt>
      <trkpt lat="24.912523827529064" lon="118.5429760083722">
        <ele>8.647933403030038</ele>
        <time>2025-06-30T13:27:22Z</time>
      </trkpt>
      <trkpt lat="24.912334803614435" lon="118.5430382307268">
        <ele>8.170785326510668</ele>
        <time>2025-06-30T13:27:28Z</time>
      </trkpt>
      <trkpt lat="24.91202595070897" lon="118.54310955157982">
        <ele>7.548348572105169</ele>
        <time>2025-06-30T13:27:37Z</time>
      </trkpt>
      <trkpt lat="24.911825721183753" lon="118.54316800074018">
        <ele>8.273097162134945</ele>
        <time>2025-06-30T13:27:43Z</time>
      </trkpt>
      <trkpt lat="24.911548604044135" lon="118.54319989777807">
        <ele>8.627939594909549</ele>
        <time>2025-06-30T13:27:52Z</time>
      </trkpt>
      <trkpt lat="24.91123695554764" lon="118.54323468722384">
        <ele>8.456995909102261</ele>
        <time>2025-06-30T13:28:01Z</time>
      </trkpt>
      <trkpt lat="24.91101871250186" lon="118.5432928555222">
        <ele>7.936017137020826</ele>
        <time>2025-06-30T13:28:07Z</time>
      </trkpt>
      <trkpt lat="24.910798353570794" lon="118.54333426034152">
        <ele>7.444434097968042</ele>
        <time>2025-06-30T13:28:13Z</time>
      </trkpt>
      <trkpt lat="24.91046906935786" lon="118.54331141073796">
        <ele>8.839629079215229</ele>
        <time>2025-06-30T13:28:22Z</time>
      </trkpt>
      <trkpt lat="24.910359841056895" lon="118.54328733362641">
        <ele>7.977920250967145</ele>
        <time>2025-06-30T13:28:25Z</time>
      </trkpt>
      <trkpt lat="24.910321348797428" lon="118.54319513998502">
        <ele>7.6306326212361455</ele>
        <time>2025-06-30T13:28:28Z</time>
      </trkpt>
      <trkpt lat="24.910304923807942" lon="118.5429604408982">
        <ele>8.041268208064139</ele>
        <time>2025-06-30T13:28:34Z</time>
      </trkpt>
      <trkpt lat="24.910375999981664" lon="118.54270012657521">
        <ele>9.109380012378097</ele>
        <time>2025-06-30T13:28:40Z</time>
      </trkpt>
      <trkpt lat="24.910382480816523" lon="118.54227875194762">
        <ele>10.369452087208629</ele>
        <time>2025-06-30T13:28:49Z</time>
      </trkpt>
      <trkpt lat="24.9103402516365" lon="118.54211697693295">
        <ele>8.430212176404893</ele>
        <time>2025-06-30T13:28:52Z</time>
      </trkpt>
      <trkpt lat="24.9103586089111" lon="118.54200135641149">
        <ele>8.47794255707413</ele>
        <time>2025-06-30T13:28:55Z</time>
      </trkpt>
    </trkseg>
  </trk>
</gpx>