<?xml version="1.0" encoding="UTF-8"?>
<gpx xmlns="http://www.topografix.com/GPX/1/1" xmlns:gpxtpx="http://www.garmin.com/xmlschemas/TrackPointExtension/v1" xmlns:xsi="http://www.w3.org/2001/XMLSchema-instance" xsi:schemaLocation="http://www.topografix.com/GPX/1/1 http://www.topografix.com/GPX/1/1/gpx.xsd" version="1.1" creator="gpx.py -- https://github.com/tkrajina/gpxpy">
  <trk>
    <name>gpx from keep</name>
    <type>Run</type>
    <trkseg>
      <trkpt lat="24.911182186259616" lon="118.53733037262859">
        <ele>11.264128345996141</ele>
        <time>2024-12-23T13:11:00Z</time>
      </trkpt>
      <trkpt lat="24.911354183748504" lon="118.5372731679683">
        <ele>12.035397332161665</ele>
        <time>2024-12-23T13:11:08Z</time>
      </trkpt>
      <trkpt lat="24.911523329750196" lon="118.53690513477679">
        <ele>11.159971315413713</ele>
        <time>2024-12-23T13:11:18Z</time>
      </trkpt>
      <trkpt lat="24.911564778068115" lon="118.53679612069816">
        <ele>11.332498457282782</ele>
        <time>2024-12-23T13:11:21Z</time>
      </trkpt>
      <trkpt lat="24.91154661281971" lon="118.53670746403147">
        <ele>10.999274084344506</ele>
        <time>2024-12-23T13:11:24Z</time>
      </trkpt>
      <trkpt lat="24.911460562942978" lon="118.53667938066738">
        <ele>11.287528358399868</ele>
        <time>2024-12-23T13:11:27Z</time>
      </trkpt>
      <trkpt lat="24.911279907576596" lon="118.53665735470447">
        <ele>11.228693388402462</ele>
        <time>2024-12-23T13:11:33Z</time>
      </trkpt>
      <trkpt lat="24.911194508829986" lon="118.53669707562693">
        <ele>11.081134491600096</ele>
        <time>2024-12-23T13:11:36Z</time>
      </trkpt>
      <trkpt lat="24.911097778120315" lon="118.53670363422272">
        <ele>12.204546513035893</ele>
        <time>2024-12-23T13:11:39Z</time>
      </trkpt>
      <trkpt lat="24.910988948044476" lon="118.53666472602873">
        <ele>12.648184420540929</ele>
        <time>2024-12-23T13:11:42Z</time>
      </trkpt>
      <trkpt lat="24.91077966263653" lon="118.53655627300185">
        <ele>12.76496728695929</ele>
        <time>2024-12-23T13:11:48Z</time>
      </trkpt>
      <trkpt lat="24.91068826554894" lon="118.53654017352675">
        <ele>12.721568087115884</ele>
        <time>2024-12-23T13:11:51Z</time>
      </trkpt>
      <trkpt lat="24.910614091918546" lon="118.53658227327122">
        <ele>12.69496707804501</ele>
        <time>2024-12-23T13:11:54Z</time>
      </trkpt>
      <trkpt lat="24.910469140267278" lon="118.53681832281647">
        <ele>12.213092021644115</ele>
        <time>2024-12-23T13:12:03Z</time>
      </trkpt>
      <trkpt lat="24.9104912699603" lon="118.53693622396425">
        <ele>12.314234890043736</ele>
        <time>2024-12-23T13:12:06Z</time>
      </trkpt>
      <trkpt lat="24.91067013113086" lon="118.53705440018668">
        <ele>13.03845243062824</ele>
        <time>2024-12-23T13:12:12Z</time>
      </trkpt>
      <trkpt lat="24.910851937979313" lon="118.53715708419837">
        <ele>12.477580568753183</ele>
        <time>2024-12-23T13:12:18Z</time>
      </trkpt>
      <trkpt lat="24.910946131896694" lon="118.53718327473239">
        <ele>12.488857713527977</ele>
        <time>2024-12-23T13:12:21Z</time>
      </trkpt>
      <trkpt lat="24.91104442411946" lon="118.53723702226151">
        <ele>12.47668744251132</ele>
        <time>2024-12-23T13:12:24Z</time>
      </trkpt>
      <trkpt lat="24.91132346643312" lon="118.5372997707272">
        <ele>12.02362481597811</ele>
        <time>2024-12-23T13:12:33Z</time>
      </trkpt>
      <trkpt lat="24.911410882500547" lon="118.53722165396091">
        <ele>11.27180402353406</ele>
        <time>2024-12-23T13:12:36Z</time>
      </trkpt>
      <trkpt lat="24.91142683348877" lon="118.53713169742352">
        <ele>10.637379008345306</ele>
        <time>2024-12-23T13:12:39Z</time>
      </trkpt>
      <trkpt lat="24.911572359059768" lon="118.53678816249992">
        <ele>10.928783767856658</ele>
        <time>2024-12-23T13:12:50Z</time>
      </trkpt>
      <trkpt lat="24.911538932386915" lon="118.53667080523357">
        <ele>11.140671225264668</ele>
        <time>2024-12-23T13:12:54Z</time>
      </trkpt>
      <trkpt lat="24.91118587492129" lon="118.53665850906648">
        <ele>12.022753648459911</ele>
        <time>2024-12-23T13:13:06Z</time>
      </trkpt>
      <trkpt lat="24.910933390407468" lon="118.53658522672163">
        <ele>12.184790598228574</ele>
        <time>2024-12-23T13:13:14Z</time>
      </trkpt>
      <trkpt lat="24.910803469126655" lon="118.53652968023152">
        <ele>12.217032029293478</ele>
        <time>2024-12-23T13:13:18Z</time>
      </trkpt>
      <trkpt lat="24.910704684223866" lon="118.53651847836316">
        <ele>12.396186267957091</ele>
        <time>2024-12-23T13:13:21Z</time>
      </trkpt>
      <trkpt lat="24.910628378733655" lon="118.53655572740976">
        <ele>12.0490195825696</ele>
        <time>2024-12-23T13:13:24Z</time>
      </trkpt>
      <trkpt lat="24.910564960160112" lon="118.53660795515202">
        <ele>11.68974184896797</ele>
        <time>2024-12-23T13:13:27Z</time>
      </trkpt>
      <trkpt lat="24.91047822010329" lon="118.53679051324795">
        <ele>12.077185075730085</ele>
        <time>2024-12-23T13:13:33Z</time>
      </trkpt>
      <trkpt lat="24.910423617073985" lon="118.53686525384668">
        <ele>12.569542686454952</ele>
        <time>2024-12-23T13:13:36Z</time>
      </trkpt>
      <trkpt lat="24.910522695641177" lon="118.53696342745307">
        <ele>12.681289348751307</ele>
        <time>2024-12-23T13:13:39Z</time>
      </trkpt>
      <trkpt lat="24.910811298065827" lon="118.53709492184491">
        <ele>12.824284589849412</ele>
        <time>2024-12-23T13:13:48Z</time>
      </trkpt>
      <trkpt lat="24.91109491133283" lon="118.53722272208215">
        <ele>12.42910033185035</ele>
        <time>2024-12-23T13:13:57Z</time>
      </trkpt>
      <trkpt lat="24.911268076713853" lon="118.53730117620039">
        <ele>12.101987370289862</ele>
        <time>2024-12-23T13:14:03Z</time>
      </trkpt>
      <trkpt lat="24.9113638556425" lon="118.5372850589101">
        <ele>12.009958520531654</ele>
        <time>2024-12-23T13:14:06Z</time>
      </trkpt>
      <trkpt lat="24.91142373008768" lon="118.53721137893777">
        <ele>11.608809628523886</ele>
        <time>2024-12-23T13:14:09Z</time>
      </trkpt>
      <trkpt lat="24.91146341135282" lon="118.53712032416828">
        <ele>10.406464899890125</ele>
        <time>2024-12-23T13:14:12Z</time>
      </trkpt>
      <trkpt lat="24.911483162751498" lon="118.53701628321961">
        <ele>10.432178069837391</ele>
        <time>2024-12-23T13:14:15Z</time>
      </trkpt>
      <trkpt lat="24.91158215927695" lon="118.53681997741481">
        <ele>10.687598525546491</ele>
        <time>2024-12-23T13:14:21Z</time>
      </trkpt>
      <trkpt lat="24.911597049026106" lon="118.53673486544189">
        <ele>10.63016702979803</ele>
        <time>2024-12-23T13:14:24Z</time>
      </trkpt>
      <trkpt lat="24.911523680502096" lon="118.5366851065585">
        <ele>11.202628744766116</ele>
        <time>2024-12-23T13:14:27Z</time>
      </trkpt>
      <trkpt lat="24.911350230371877" lon="118.53667952480785">
        <ele>11.550015442073345</ele>
        <time>2024-12-23T13:14:33Z</time>
      </trkpt>
      <trkpt lat="24.91126446705045" lon="118.53670730785254">
        <ele>12.06224806793034</ele>
        <time>2024-12-23T13:14:36Z</time>
      </trkpt>
      <trkpt lat="24.91108719393669" lon="118.5366673588161">
        <ele>12.131983297877014</ele>
        <time>2024-12-23T13:14:42Z</time>
      </trkpt>
      <trkpt lat="24.910999376971674" lon="118.53662376738563">
        <ele>12.1557740541175</ele>
        <time>2024-12-23T13:14:45Z</time>
      </trkpt>
      <trkpt lat="24.91077659030728" lon="118.53653568794186">
        <ele>12.226349219679832</ele>
        <time>2024-12-23T13:14:52Z</time>
      </trkpt>
      <trkpt lat="24.910659091292988" lon="118.53652858488455">
        <ele>12.212328593246639</ele>
        <time>2024-12-23T13:14:56Z</time>
      </trkpt>
      <trkpt lat="24.910547542286693" lon="118.53658629638508">
        <ele>12.110282614827156</ele>
        <time>2024-12-23T13:15:00Z</time>
      </trkpt>
      <trkpt lat="24.910453094379793" lon="118.536691996599">
        <ele>12.08062553498894</ele>
        <time>2024-12-23T13:15:04Z</time>
      </trkpt>
      <trkpt lat="24.91042399369092" lon="118.53683517440098">
        <ele>12.19049066118896</ele>
        <time>2024-12-23T13:15:08Z</time>
      </trkpt>
      <trkpt lat="24.910545792475123" lon="118.53697993757912">
        <ele>12.485209658741951</ele>
        <time>2024-12-23T13:15:12Z</time>
      </trkpt>
      <trkpt lat="24.910659995034592" lon="118.53705323080334">
        <ele>12.41716890130192</ele>
        <time>2024-12-23T13:15:16Z</time>
      </trkpt>
      <trkpt lat="24.910936705045472" lon="118.53713286130011">
        <ele>12.534751437604427</ele>
        <time>2024-12-23T13:15:24Z</time>
      </trkpt>
      <trkpt lat="24.911106288708474" lon="118.5372337750924">
        <ele>11.922306236810982</ele>
        <time>2024-12-23T13:15:30Z</time>
      </trkpt>
      <trkpt lat="24.911195989247584" lon="118.53724717187197">
        <ele>12.427707493305206</ele>
        <time>2024-12-23T13:15:33Z</time>
      </trkpt>
      <trkpt lat="24.911285692540144" lon="118.53728213678158">
        <ele>12.327952469699085</ele>
        <time>2024-12-23T13:15:36Z</time>
      </trkpt>
      <trkpt lat="24.91138356770212" lon="118.53727554668674">
        <ele>11.880416189320385</ele>
        <time>2024-12-23T13:15:39Z</time>
      </trkpt>
      <trkpt lat="24.911507815321645" lon="118.53699662996995">
        <ele>10.84045968670398</ele>
        <time>2024-12-23T13:15:48Z</time>
      </trkpt>
      <trkpt lat="24.91157016026739" lon="118.53681991097798">
        <ele>10.902243998833</ele>
        <time>2024-12-23T13:15:54Z</time>
      </trkpt>
      <trkpt lat="24.91157117847372" lon="118.53673050400737">
        <ele>11.216629790142179</ele>
        <time>2024-12-23T13:15:57Z</time>
      </trkpt>
      <trkpt lat="24.91151080398564" lon="118.53668407095859">
        <ele>10.909990672022104</ele>
        <time>2024-12-23T13:16:00Z</time>
      </trkpt>
      <trkpt lat="24.911345535378285" lon="118.5366921747975">
        <ele>11.851702004671097</ele>
        <time>2024-12-23T13:16:06Z</time>
      </trkpt>
      <trkpt lat="24.911259602935747" lon="118.53671189690347">
        <ele>11.99111410137266</ele>
        <time>2024-12-23T13:16:09Z</time>
      </trkpt>
      <trkpt lat="24.911010526486987" lon="118.5366363105744">
        <ele>12.508135573007166</ele>
        <time>2024-12-23T13:16:18Z</time>
      </trkpt>
      <trkpt lat="24.910830297403432" lon="118.53654975739742">
        <ele>11.997824156656861</ele>
        <time>2024-12-23T13:16:24Z</time>
      </trkpt>
      <trkpt lat="24.910724860492937" lon="118.53654190366727">
        <ele>12.294031145982444</ele>
        <time>2024-12-23T13:16:27Z</time>
      </trkpt>
      <trkpt lat="24.910507762353603" lon="118.53664907251644">
        <ele>12.299429594539106</ele>
        <time>2024-12-23T13:16:36Z</time>
      </trkpt>
      <trkpt lat="24.910435186360758" lon="118.53675603231046">
        <ele>12.241217945702374</ele>
        <time>2024-12-23T13:16:40Z</time>
      </trkpt>
      <trkpt lat="24.910448694104822" lon="118.53687034082702">
        <ele>12.328681400045753</ele>
        <time>2024-12-23T13:16:43Z</time>
      </trkpt>
      <trkpt lat="24.910629577984622" lon="118.53701261753535">
        <ele>12.556369024328887</ele>
        <time>2024-12-23T13:16:49Z</time>
      </trkpt>
      <trkpt lat="24.910960403150774" lon="118.53720439375554">
        <ele>12.46414396353066</ele>
        <time>2024-12-23T13:17:00Z</time>
      </trkpt>
      <trkpt lat="24.91109255391351" lon="118.53726209727506">
        <ele>12.947962618432939</ele>
        <time>2024-12-23T13:17:04Z</time>
      </trkpt>
      <trkpt lat="24.911223020813253" lon="118.53726734728978">
        <ele>12.225932561792433</ele>
        <time>2024-12-23T13:17:08Z</time>
      </trkpt>
      <trkpt lat="24.91135918915963" lon="118.53729775329919">
        <ele>12.014454723335803</ele>
        <time>2024-12-23T13:17:12Z</time>
      </trkpt>
      <trkpt lat="24.911450249327924" lon="118.53720776751784">
        <ele>10.92874996829778</ele>
        <time>2024-12-23T13:17:16Z</time>
      </trkpt>
      <trkpt lat="24.911480368746957" lon="118.5370754307037">
        <ele>10.635841482318938</ele>
        <time>2024-12-23T13:17:20Z</time>
      </trkpt>
      <trkpt lat="24.91158176916919" lon="118.53683157172922">
        <ele>10.74854635167867</ele>
        <time>2024-12-23T13:17:28Z</time>
      </trkpt>
      <trkpt lat="24.911594194416953" lon="118.53672171103645">
        <ele>11.167316364124417</ele>
        <time>2024-12-23T13:17:32Z</time>
      </trkpt>
      <trkpt lat="24.911517097171906" lon="118.53668112658866">
        <ele>11.0789501266554</ele>
        <time>2024-12-23T13:17:35Z</time>
      </trkpt>
      <trkpt lat="24.911434180645912" lon="118.53666575167414">
        <ele>11.409318177960813</ele>
        <time>2024-12-23T13:17:38Z</time>
      </trkpt>
      <trkpt lat="24.911256698661315" lon="118.53667996354359">
        <ele>12.075786749832332</ele>
        <time>2024-12-23T13:17:44Z</time>
      </trkpt>
      <trkpt lat="24.911069076721272" lon="118.53665556856414">
        <ele>12.22911471221596</ele>
        <time>2024-12-23T13:17:50Z</time>
      </trkpt>
      <trkpt lat="24.91081999294274" lon="118.53655811402434">
        <ele>12.293468208052218</ele>
        <time>2024-12-23T13:17:59Z</time>
      </trkpt>
      <trkpt lat="24.910736874916562" lon="118.53655994449247">
        <ele>12.50461430940777</ele>
        <time>2024-12-23T13:18:02Z</time>
      </trkpt>
      <trkpt lat="24.910679266384395" lon="118.53659838947317">
        <ele>12.01306683756411</ele>
        <time>2024-12-23T13:18:05Z</time>
      </trkpt>
      <trkpt lat="24.910556633565783" lon="118.5367263296893">
        <ele>12.054947053082287</ele>
        <time>2024-12-23T13:18:11Z</time>
      </trkpt>
      <trkpt lat="24.910451156557418" lon="118.53687934768722">
        <ele>12.362123447470367</ele>
        <time>2024-12-23T13:18:17Z</time>
      </trkpt>
      <trkpt lat="24.91052782637556" lon="118.53696589517052">
        <ele>12.613214865326881</ele>
        <time>2024-12-23T13:18:20Z</time>
      </trkpt>
      <trkpt lat="24.91071060754524" lon="118.53707008711261">
        <ele>12.657082353718579</ele>
        <time>2024-12-23T13:18:26Z</time>
      </trkpt>
      <trkpt lat="24.91081916924611" lon="118.53710175579602">
        <ele>12.696867800317705</ele>
        <time>2024-12-23T13:18:29Z</time>
      </trkpt>
      <trkpt lat="24.911012062336635" lon="118.5371865980548">
        <ele>12.510841846466064</ele>
        <time>2024-12-23T13:18:35Z</time>
      </trkpt>
      <trkpt lat="24.91110408783242" lon="118.53724861583758">
        <ele>12.619671282358468</ele>
        <time>2024-12-23T13:18:38Z</time>
      </trkpt>
      <trkpt lat="24.911284221079264" lon="118.53729868534668">
        <ele>12.160037550143898</ele>
        <time>2024-12-23T13:18:44Z</time>
      </trkpt>
      <trkpt lat="24.91138660936505" lon="118.537292678891">
        <ele>11.674508924596012</ele>
        <time>2024-12-23T13:18:47Z</time>
      </trkpt>
      <trkpt lat="24.911436346735236" lon="118.53720447558665">
        <ele>11.041549406945705</ele>
        <time>2024-12-23T13:18:50Z</time>
      </trkpt>
      <trkpt lat="24.911453893126783" lon="118.53710625677915">
        <ele>11.300664970651269</ele>
        <time>2024-12-23T13:18:53Z</time>
      </trkpt>
      <trkpt lat="24.911584324391338" lon="118.53677888827036">
        <ele>10.6846878612414</ele>
        <time>2024-12-23T13:19:03Z</time>
      </trkpt>
      <trkpt lat="24.911533469763842" lon="118.53668106598917">
        <ele>11.277278121560812</ele>
        <time>2024-12-23T13:19:07Z</time>
      </trkpt>
      <trkpt lat="24.911321268670488" lon="118.53664986340912">
        <ele>12.048606511205435</ele>
        <time>2024-12-23T13:19:15Z</time>
      </trkpt>
      <trkpt lat="24.911207347702526" lon="118.5366714606664">
        <ele>11.989722985774279</ele>
        <time>2024-12-23T13:19:19Z</time>
      </trkpt>
      <trkpt lat="24.910964610913645" lon="118.53662491456016">
        <ele>12.183295065537095</ele>
        <time>2024-12-23T13:19:27Z</time>
      </trkpt>
      <trkpt lat="24.9108369455318" lon="118.53655493894392">
        <ele>12.479561139829457</ele>
        <time>2024-12-23T13:19:31Z</time>
      </trkpt>
      <trkpt lat="24.910697723327093" lon="118.53652148633611">
        <ele>12.430666141211987</ele>
        <time>2024-12-23T13:19:35Z</time>
      </trkpt>
      <trkpt lat="24.910635554190872" lon="118.53659873416444">
        <ele>12.19531403016299</ele>
        <time>2024-12-23T13:19:39Z</time>
      </trkpt>
      <trkpt lat="24.910578097162627" lon="118.53679373632299">
        <ele>12.343183453194797</ele>
        <time>2024-12-23T13:19:45Z</time>
      </trkpt>
      <trkpt lat="24.910511305156945" lon="118.53685818057751">
        <ele>12.335313936695457</ele>
        <time>2024-12-23T13:19:48Z</time>
      </trkpt>
      <trkpt lat="24.910484932784644" lon="118.53693680813437">
        <ele>12.59185831528157</ele>
        <time>2024-12-23T13:19:51Z</time>
      </trkpt>
      <trkpt lat="24.91056787157345" lon="118.53700555728777">
        <ele>12.79663409665227</ele>
        <time>2024-12-23T13:19:54Z</time>
      </trkpt>
      <trkpt lat="24.910748287270174" lon="118.53708515234966">
        <ele>12.664663290604949</ele>
        <time>2024-12-23T13:20:00Z</time>
      </trkpt>
      <trkpt lat="24.910827693691708" lon="118.53716787050814">
        <ele>12.522769703529775</ele>
        <time>2024-12-23T13:20:03Z</time>
      </trkpt>
      <trkpt lat="24.910911841999063" lon="118.53722661196694">
        <ele>12.93897633627057</ele>
        <time>2024-12-23T13:20:06Z</time>
      </trkpt>
      <trkpt lat="24.911219075439426" lon="118.53726029469101">
        <ele>11.82912533171475</ele>
        <time>2024-12-23T13:20:15Z</time>
      </trkpt>
      <trkpt lat="24.91131171375081" lon="118.53731068594878">
        <ele>11.818773608654737</ele>
        <time>2024-12-23T13:20:18Z</time>
      </trkpt>
      <trkpt lat="24.911423037140736" lon="118.5372899607276">
        <ele>11.91424361243844</ele>
        <time>2024-12-23T13:20:21Z</time>
      </trkpt>
      <trkpt lat="24.91154250921832" lon="118.53698907359649">
        <ele>11.124224696308374</ele>
        <time>2024-12-23T13:20:30Z</time>
      </trkpt>
      <trkpt lat="24.911606106074178" lon="118.53679505420764">
        <ele>11.449553485028446</ele>
        <time>2024-12-23T13:20:36Z</time>
      </trkpt>
      <trkpt lat="24.911602810433823" lon="118.53670950350515">
        <ele>10.961313561536372</ele>
        <time>2024-12-23T13:20:39Z</time>
      </trkpt>
      <trkpt lat="24.911528483117834" lon="118.53667397437124">
        <ele>11.471013059839606</ele>
        <time>2024-12-23T13:20:42Z</time>
      </trkpt>
      <trkpt lat="24.9114375845899" lon="118.53665681427634">
        <ele>11.251047141849995</ele>
        <time>2024-12-23T13:20:45Z</time>
      </trkpt>
      <trkpt lat="24.91116478653318" lon="118.53668354556845">
        <ele>12.20744500681758</ele>
        <time>2024-12-23T13:20:54Z</time>
      </trkpt>
      <trkpt lat="24.910886199029353" lon="118.53658381099844">
        <ele>12.303640943951905</ele>
        <time>2024-12-23T13:21:03Z</time>
      </trkpt>
      <trkpt lat="24.910791852181877" lon="118.536550444887">
        <ele>12.265974750742316</ele>
        <time>2024-12-23T13:21:06Z</time>
      </trkpt>
      <trkpt lat="24.91068627557443" lon="118.5365837990078">
        <ele>12.268025635741651</ele>
        <time>2024-12-23T13:21:10Z</time>
      </trkpt>
      <trkpt lat="24.91056324038119" lon="118.53675434550513">
        <ele>12.145973859354854</ele>
        <time>2024-12-23T13:21:18Z</time>
      </trkpt>
      <trkpt lat="24.910437899164652" lon="118.53683030705943">
        <ele>12.383618383668363</ele>
        <time>2024-12-23T13:21:22Z</time>
      </trkpt>
      <trkpt lat="24.9105150934339" lon="118.53695280034505">
        <ele>12.255063716322184</ele>
        <time>2024-12-23T13:21:26Z</time>
      </trkpt>
      <trkpt lat="24.910767228352498" lon="118.53712283292144">
        <ele>12.563121319748461</ele>
        <time>2024-12-23T13:21:34Z</time>
      </trkpt>
      <trkpt lat="24.910889003917376" lon="118.53718247187523">
        <ele>12.787638797424734</ele>
        <time>2024-12-23T13:21:38Z</time>
      </trkpt>
      <trkpt lat="24.91103237371782" lon="118.53719873943588">
        <ele>12.823016844689846</ele>
        <time>2024-12-23T13:21:42Z</time>
      </trkpt>
      <trkpt lat="24.911139366530826" lon="118.53729577846607">
        <ele>12.685205483809114</ele>
        <time>2024-12-23T13:21:46Z</time>
      </trkpt>
      <trkpt lat="24.911256971939995" lon="118.5373037118186">
        <ele>12.1236193748191</ele>
        <time>2024-12-23T13:21:50Z</time>
      </trkpt>
      <trkpt lat="24.91135521911941" lon="118.53736231536583">
        <ele>13.21365223173052</ele>
        <time>2024-12-23T13:21:53Z</time>
      </trkpt>
      <trkpt lat="24.911444290034346" lon="118.53728171905533">
        <ele>11.439090769737959</ele>
        <time>2024-12-23T13:21:56Z</time>
      </trkpt>
      <trkpt lat="24.911472187284044" lon="118.53713917063966">
        <ele>11.066267053596675</ele>
        <time>2024-12-23T13:22:00Z</time>
      </trkpt>
      <trkpt lat="24.911622713960153" lon="118.53683346361632">
        <ele>10.621161540970206</ele>
        <time>2024-12-23T13:22:09Z</time>
      </trkpt>
      <trkpt lat="24.91160712056109" lon="118.536743114757">
        <ele>10.646883884444833</ele>
        <time>2024-12-23T13:22:12Z</time>
      </trkpt>
      <trkpt lat="24.91154040532528" lon="118.53669192809096">
        <ele>11.115393624641001</ele>
        <time>2024-12-23T13:22:15Z</time>
      </trkpt>
      <trkpt lat="24.91146081086519" lon="118.53666560663724">
        <ele>11.204805119894445</ele>
        <time>2024-12-23T13:22:18Z</time>
      </trkpt>
      <trkpt lat="24.9111893078236" lon="118.536674131654">
        <ele>12.403888767585158</ele>
        <time>2024-12-23T13:22:27Z</time>
      </trkpt>
      <trkpt lat="24.911013112111497" lon="118.53661125814483">
        <ele>12.198340794071555</ele>
        <time>2024-12-23T13:22:33Z</time>
      </trkpt>
      <trkpt lat="24.910821286608247" lon="118.53652289828925">
        <ele>12.267465799115598</ele>
        <time>2024-12-23T13:22:39Z</time>
      </trkpt>
      <trkpt lat="24.910705778672682" lon="118.53651068977126">
        <ele>12.412686592899263</ele>
        <time>2024-12-23T13:22:42Z</time>
      </trkpt>
      <trkpt lat="24.910605920742135" lon="118.53665368604378">
        <ele>11.79923614114523</ele>
        <time>2024-12-23T13:22:48Z</time>
      </trkpt>
      <trkpt lat="24.910550074522035" lon="118.53682150549574">
        <ele>12.174334566108882</ele>
        <time>2024-12-23T13:22:54Z</time>
      </trkpt>
      <trkpt lat="24.91045066952876" lon="118.53687494813626">
        <ele>12.647131936624646</ele>
        <time>2024-12-23T13:22:57Z</time>
      </trkpt>
      <trkpt lat="24.910517333003465" lon="118.53697802318044">
        <ele>12.90332742407918</ele>
        <time>2024-12-23T13:23:00Z</time>
      </trkpt>
      <trkpt lat="24.910624656261707" lon="118.53702764503711">
        <ele>12.32829647604376</ele>
        <time>2024-12-23T13:23:03Z</time>
      </trkpt>
      <trkpt lat="24.910815786301946" lon="118.53715985532749">
        <ele>13.074813317507505</ele>
        <time>2024-12-23T13:23:09Z</time>
      </trkpt>
      <trkpt lat="24.911085267303264" lon="118.53721638896492">
        <ele>12.625493945553899</ele>
        <time>2024-12-23T13:23:16Z</time>
      </trkpt>
      <trkpt lat="24.911205678017705" lon="118.53724972989798">
        <ele>12.551720299758017</ele>
        <time>2024-12-23T13:23:20Z</time>
      </trkpt>
      <trkpt lat="24.911325817481288" lon="118.53731782893755">
        <ele>11.84959301352501</ele>
        <time>2024-12-23T13:23:24Z</time>
      </trkpt>
      <trkpt lat="24.911448564666806" lon="118.53728480011138">
        <ele>11.083644725382328</ele>
        <time>2024-12-23T13:23:28Z</time>
      </trkpt>
      <trkpt lat="24.911600255423448" lon="118.53688848179014">
        <ele>11.232135804370046</ele>
        <time>2024-12-23T13:23:40Z</time>
      </trkpt>
      <trkpt lat="24.91162257172869" lon="118.53675405299494">
        <ele>10.733111440204084</ele>
        <time>2024-12-23T13:23:44Z</time>
      </trkpt>
      <trkpt lat="24.911534342002664" lon="118.53668093997673">
        <ele>11.124413108453155</ele>
        <time>2024-12-23T13:23:48Z</time>
      </trkpt>
      <trkpt lat="24.9113241954267" lon="118.53664646436062">
        <ele>11.473989660851657</ele>
        <time>2024-12-23T13:23:55Z</time>
      </trkpt>
      <trkpt lat="24.911202482238917" lon="118.5366696731915">
        <ele>12.480480707250535</ele>
        <time>2024-12-23T13:23:59Z</time>
      </trkpt>
      <trkpt lat="24.91109892011944" lon="118.53664513364708">
        <ele>12.60554505418986</ele>
        <time>2024-12-23T13:24:02Z</time>
      </trkpt>
      <trkpt lat="24.910826845211286" lon="118.53653576793306">
        <ele>12.042790479958057</ele>
        <time>2024-12-23T13:24:11Z</time>
      </trkpt>
      <trkpt lat="24.91071260854558" lon="118.5365355215591">
        <ele>12.237540214322507</ele>
        <time>2024-12-23T13:24:14Z</time>
      </trkpt>
      <trkpt lat="24.910583872347267" lon="118.53664638753791">
        <ele>11.530338673852384</ele>
        <time>2024-12-23T13:24:20Z</time>
      </trkpt>
      <trkpt lat="24.910461210333793" lon="118.53679125350969">
        <ele>12.28764734044671</ele>
        <time>2024-12-23T13:24:26Z</time>
      </trkpt>
      <trkpt lat="24.910443170268376" lon="118.53689263247117">
        <ele>11.951299755834043</ele>
        <time>2024-12-23T13:24:29Z</time>
      </trkpt>
      <trkpt lat="24.910527442997658" lon="118.53698443622548">
        <ele>12.554291294887662</ele>
        <time>2024-12-23T13:24:32Z</time>
      </trkpt>
      <trkpt lat="24.910725187538457" lon="118.5371083973005">
        <ele>12.236907458864152</ele>
        <time>2024-12-23T13:24:38Z</time>
      </trkpt>
      <trkpt lat="24.91102157405021" lon="118.53721148917398">
        <ele>12.430693644098938</ele>
        <time>2024-12-23T13:24:47Z</time>
      </trkpt>
      <trkpt lat="24.911116464916304" lon="118.53727998617813">
        <ele>12.787183281965554</ele>
        <time>2024-12-23T13:24:50Z</time>
      </trkpt>
      <trkpt lat="24.911218270394308" lon="118.53729958876104">
        <ele>12.516949376091361</ele>
        <time>2024-12-23T13:24:53Z</time>
      </trkpt>
      <trkpt lat="24.911313018401472" lon="118.53734860169928">
        <ele>12.347589802928269</ele>
        <time>2024-12-23T13:24:56Z</time>
      </trkpt>
      <trkpt lat="24.91141198290447" lon="118.53730958527882">
        <ele>11.01126169692725</ele>
        <time>2024-12-23T13:24:59Z</time>
      </trkpt>
      <trkpt lat="24.911530694373177" lon="118.53699421343163">
        <ele>11.000076335854828</ele>
        <time>2024-12-23T13:25:08Z</time>
      </trkpt>
      <trkpt lat="24.91160307407225" lon="118.5367970866817">
        <ele>11.582163505256176</ele>
        <time>2024-12-23T13:25:14Z</time>
      </trkpt>
      <trkpt lat="24.911586780325873" lon="118.53670596342356">
        <ele>10.86049390770495</ele>
        <time>2024-12-23T13:25:17Z</time>
      </trkpt>
      <trkpt lat="24.91148663719913" lon="118.5366560543185">
        <ele>11.16125109884888</ele>
        <time>2024-12-23T13:25:21Z</time>
      </trkpt>
      <trkpt lat="24.911226364537274" lon="118.5366620406452">
        <ele>12.401266035623848</ele>
        <time>2024-12-23T13:25:29Z</time>
      </trkpt>
      <trkpt lat="24.91111345520188" lon="118.53661624966813">
        <ele>12.163489608094096</ele>
        <time>2024-12-23T13:25:33Z</time>
      </trkpt>
      <trkpt lat="24.910889349964805" lon="118.5364783639007">
        <ele>12.63190425094217</ele>
        <time>2024-12-23T13:25:41Z</time>
      </trkpt>
      <trkpt lat="24.910731277789136" lon="118.53652218968064">
        <ele>11.727864066138864</ele>
        <time>2024-12-23T13:25:45Z</time>
      </trkpt>
      <trkpt lat="24.910659370643753" lon="118.53661735102736">
        <ele>11.625065427273512</ele>
        <time>2024-12-23T13:25:49Z</time>
      </trkpt>
      <trkpt lat="24.91061435836081" lon="118.5367419282217">
        <ele>11.981857947073877</ele>
        <time>2024-12-23T13:25:53Z</time>
      </trkpt>
      <trkpt lat="24.910531612538684" lon="118.53683475962436">
        <ele>12.241684638895094</ele>
        <time>2024-12-23T13:25:57Z</time>
      </trkpt>
      <trkpt lat="24.910482443336676" lon="118.53693260361565">
        <ele>12.218956352211535</ele>
        <time>2024-12-23T13:26:01Z</time>
      </trkpt>
      <trkpt lat="24.910692315414845" lon="118.53712349887104">
        <ele>13.0042660003528</ele>
        <time>2024-12-23T13:26:08Z</time>
      </trkpt>
      <trkpt lat="24.91077878362843" lon="118.53717501376434">
        <ele>12.948591472581029</ele>
        <time>2024-12-23T13:26:11Z</time>
      </trkpt>
      <trkpt lat="24.910902541996247" lon="118.53715904623533">
        <ele>12.758598537184298</ele>
        <time>2024-12-23T13:26:14Z</time>
      </trkpt>
      <trkpt lat="24.9109921910868" lon="118.5371844159784">
        <ele>13.085945397615433</ele>
        <time>2024-12-23T13:26:17Z</time>
      </trkpt>
      <trkpt lat="24.911073977367554" lon="118.53726153359938">
        <ele>12.991447493433952</ele>
        <time>2024-12-23T13:26:20Z</time>
      </trkpt>
      <trkpt lat="24.911351604538385" lon="118.53734690912765">
        <ele>11.782317022792995</ele>
        <time>2024-12-23T13:26:29Z</time>
      </trkpt>
      <trkpt lat="24.911440277205028" lon="118.53727291347175">
        <ele>11.68177168816328</ele>
        <time>2024-12-23T13:26:32Z</time>
      </trkpt>
      <trkpt lat="24.911491684799696" lon="118.53706269382721">
        <ele>10.6439263317734</ele>
        <time>2024-12-23T13:26:38Z</time>
      </trkpt>
      <trkpt lat="24.911608268352726" lon="118.53677273731407">
        <ele>10.627295720390975</ele>
        <time>2024-12-23T13:26:47Z</time>
      </trkpt>
      <trkpt lat="24.911548435016133" lon="118.53671175023078">
        <ele>11.212618087418377</ele>
        <time>2024-12-23T13:26:50Z</time>
      </trkpt>
      <trkpt lat="24.91146935848752" lon="118.53667598517335">
        <ele>11.16600296087563</ele>
        <time>2024-12-23T13:26:53Z</time>
      </trkpt>
      <trkpt lat="24.911387467322232" lon="118.53666830151226">
        <ele>11.538172774016857</ele>
        <time>2024-12-23T13:26:56Z</time>
      </trkpt>
      <trkpt lat="24.911290947837728" lon="118.53669136357843">
        <ele>12.295341500081122</ele>
        <time>2024-12-23T13:26:59Z</time>
      </trkpt>
      <trkpt lat="24.911207053846404" lon="118.53667449474294">
        <ele>12.10138027369976</ele>
        <time>2024-12-23T13:27:02Z</time>
      </trkpt>
      <trkpt lat="24.911042500749343" lon="118.53656311681073">
        <ele>12.61542303301394</ele>
        <time>2024-12-23T13:27:08Z</time>
      </trkpt>
      <trkpt lat="24.910941539171198" lon="118.53652754898056">
        <ele>12.16008648648858</ele>
        <time>2024-12-23T13:27:11Z</time>
      </trkpt>
      <trkpt lat="24.910854517458638" lon="118.53647261753653">
        <ele>12.357626312412322</ele>
        <time>2024-12-23T13:27:14Z</time>
      </trkpt>
      <trkpt lat="24.910726116459806" lon="118.53650527080468">
        <ele>12.072249474935234</ele>
        <time>2024-12-23T13:27:17Z</time>
      </trkpt>
      <trkpt lat="24.910617361705114" lon="118.53662827652491">
        <ele>11.82096366211772</ele>
        <time>2024-12-23T13:27:23Z</time>
      </trkpt>
      <trkpt lat="24.910607346990712" lon="118.53678109092593">
        <ele>12.057986673898995</ele>
        <time>2024-12-23T13:27:27Z</time>
      </trkpt>
      <trkpt lat="24.91057002968569" lon="118.53690716184578">
        <ele>12.218056017532945</ele>
        <time>2024-12-23T13:27:31Z</time>
      </trkpt>
      <trkpt lat="24.910512584543174" lon="118.53696597505403">
        <ele>12.315481866709888</ele>
        <time>2024-12-23T13:27:34Z</time>
      </trkpt>
      <trkpt lat="24.910660787537577" lon="118.53705072974465">
        <ele>12.385445959866047</ele>
        <time>2024-12-23T13:27:38Z</time>
      </trkpt>
      <trkpt lat="24.91077868099594" lon="118.53715886920114">
        <ele>12.78494861535728</ele>
        <time>2024-12-23T13:27:42Z</time>
      </trkpt>
      <trkpt lat="24.911025721194584" lon="118.53718654959792">
        <ele>13.081139937974513</ele>
        <time>2024-12-23T13:27:50Z</time>
      </trkpt>
      <trkpt lat="24.911405613282852" lon="118.53738632116891">
        <ele>11.16905608586967</ele>
        <time>2024-12-23T13:28:02Z</time>
      </trkpt>
      <trkpt lat="24.911476054197305" lon="118.53723013074621">
        <ele>10.688570571132004</ele>
        <time>2024-12-23T13:28:06Z</time>
      </trkpt>
      <trkpt lat="24.91150869926833" lon="118.53708182581187">
        <ele>10.100278853438795</ele>
        <time>2024-12-23T13:28:10Z</time>
      </trkpt>
      <trkpt lat="24.91156049271409" lon="118.53693925501022">
        <ele>11.025752998888493</ele>
        <time>2024-12-23T13:28:14Z</time>
      </trkpt>
      <trkpt lat="24.91157586641427" lon="118.53673958787967">
        <ele>11.074387467466295</ele>
        <time>2024-12-23T13:28:20Z</time>
      </trkpt>
      <trkpt lat="24.91151963875608" lon="118.53669228355982">
        <ele>11.258956782519817</ele>
        <time>2024-12-23T13:28:23Z</time>
      </trkpt>
      <trkpt lat="24.91143569947436" lon="118.53666159975768">
        <ele>11.6029462646693</ele>
        <time>2024-12-23T13:28:26Z</time>
      </trkpt>
      <trkpt lat="24.91125326020444" lon="118.53668605770342">
        <ele>12.369077351875603</ele>
        <time>2024-12-23T13:28:32Z</time>
      </trkpt>
      <trkpt lat="24.911159194501284" lon="118.5366804790833">
        <ele>12.440213521011174</ele>
        <time>2024-12-23T13:28:35Z</time>
      </trkpt>
      <trkpt lat="24.91089389397682" lon="118.536550506337">
        <ele>12.417831176891923</ele>
        <time>2024-12-23T13:28:44Z</time>
      </trkpt>
      <trkpt lat="24.910791243259396" lon="118.53651922863814">
        <ele>12.04576488956809</ele>
        <time>2024-12-23T13:28:47Z</time>
      </trkpt>
      <trkpt lat="24.91069352883578" lon="118.5365872972497">
        <ele>12.332685260102153</ele>
        <time>2024-12-23T13:28:50Z</time>
      </trkpt>
      <trkpt lat="24.910579886330012" lon="118.53673493660531">
        <ele>11.644998623989522</ele>
        <time>2024-12-23T13:28:56Z</time>
      </trkpt>
      <trkpt lat="24.9104627669801" lon="118.53682747077417">
        <ele>12.316346949897707</ele>
        <time>2024-12-23T13:29:02Z</time>
      </trkpt>
      <trkpt lat="24.910492010976608" lon="118.53689153245597">
        <ele>12.664331029169261</ele>
        <time>2024-12-23T13:29:05Z</time>
      </trkpt>
      <trkpt lat="24.910700380355575" lon="118.53707417024152">
        <ele>11.921516662463546</ele>
        <time>2024-12-23T13:29:12Z</time>
      </trkpt>
      <trkpt lat="24.910888435117855" lon="118.53716940483821">
        <ele>12.348580257035792</ele>
        <time>2024-12-23T13:29:18Z</time>
      </trkpt>
      <trkpt lat="24.911084224740108" lon="118.53721820601424">
        <ele>12.665901490487158</ele>
        <time>2024-12-23T13:29:24Z</time>
      </trkpt>
      <trkpt lat="24.911170198103342" lon="118.53727315582474">
        <ele>12.588971128687263</ele>
        <time>2024-12-23T13:29:27Z</time>
      </trkpt>
      <trkpt lat="24.91127047544727" lon="118.53730873173183">
        <ele>11.964462546631694</ele>
        <time>2024-12-23T13:29:30Z</time>
      </trkpt>
      <trkpt lat="24.911411491624595" lon="118.53726533440668">
        <ele>11.698483706451952</ele>
        <time>2024-12-23T13:29:34Z</time>
      </trkpt>
      <trkpt lat="24.911539875811556" lon="118.53692864767281">
        <ele>11.223557592369616</ele>
        <time>2024-12-23T13:29:44Z</time>
      </trkpt>
      <trkpt lat="24.911569358594782" lon="118.53682726288352">
        <ele>11.0726083163172</ele>
        <time>2024-12-23T13:29:47Z</time>
      </trkpt>
      <trkpt lat="24.911568935684308" lon="118.53672822604567">
        <ele>11.139482421800494</ele>
        <time>2024-12-23T13:29:50Z</time>
      </trkpt>
      <trkpt lat="24.911495745669477" lon="118.53668721015347">
        <ele>11.212942639365792</ele>
        <time>2024-12-23T13:29:53Z</time>
      </trkpt>
      <trkpt lat="24.911227338672106" lon="118.53670029457743">
        <ele>11.982614099048078</ele>
        <time>2024-12-23T13:30:02Z</time>
      </trkpt>
      <trkpt lat="24.91096576539064" lon="118.53658042201813">
        <ele>12.211207568645477</ele>
        <time>2024-12-23T13:30:11Z</time>
      </trkpt>
      <trkpt lat="24.910779069727326" lon="118.53649816029858">
        <ele>12.118088737130165</ele>
        <time>2024-12-23T13:30:17Z</time>
      </trkpt>
      <trkpt lat="24.91065391994098" lon="118.53657488397485">
        <ele>11.628336197696626</ele>
        <time>2024-12-23T13:30:21Z</time>
      </trkpt>
      <trkpt lat="24.91052301531857" lon="118.5367478809208">
        <ele>11.773068836890161</ele>
        <time>2024-12-23T13:30:28Z</time>
      </trkpt>
      <trkpt lat="24.91045396406625" lon="118.53681472531211">
        <ele>12.491991608403623</ele>
        <time>2024-12-23T13:30:31Z</time>
      </trkpt>
      <trkpt lat="24.910441852637188" lon="118.536910131567">
        <ele>12.18846366647631</ele>
        <time>2024-12-23T13:30:34Z</time>
      </trkpt>
      <trkpt lat="24.91064196083397" lon="118.53706936540073">
        <ele>12.72325100749731</ele>
        <time>2024-12-23T13:30:40Z</time>
      </trkpt>
      <trkpt lat="24.910734275844227" lon="118.5371104563446">
        <ele>12.044477986171842</ele>
        <time>2024-12-23T13:30:43Z</time>
      </trkpt>
      <trkpt lat="24.910834566922485" lon="118.5371219370714">
        <ele>12.149629132822156</ele>
        <time>2024-12-23T13:30:46Z</time>
      </trkpt>
      <trkpt lat="24.911099232193823" lon="118.5372947144875">
        <ele>12.836099291220307</ele>
        <time>2024-12-23T13:30:55Z</time>
      </trkpt>
      <trkpt lat="24.91129404840222" lon="118.53739911821012">
        <ele>11.83566779922694</ele>
        <time>2024-12-23T13:31:01Z</time>
      </trkpt>
      <trkpt lat="24.911403903971674" lon="118.53734065239931">
        <ele>11.418464538641274</ele>
        <time>2024-12-23T13:31:04Z</time>
      </trkpt>
      <trkpt lat="24.911437985795633" lon="118.5372135861509">
        <ele>11.42073352728039</ele>
        <time>2024-12-23T13:31:07Z</time>
      </trkpt>
      <trkpt lat="24.911530746123002" lon="118.53700768097754">
        <ele>11.041075499728322</ele>
        <time>2024-12-23T13:31:13Z</time>
      </trkpt>
      <trkpt lat="24.911560272097038" lon="118.5368747959593">
        <ele>10.930668232031167</ele>
        <time>2024-12-23T13:31:17Z</time>
      </trkpt>
      <trkpt lat="24.91154640659567" lon="118.53677323388399">
        <ele>11.157836460508406</ele>
        <time>2024-12-23T13:31:20Z</time>
      </trkpt>
      <trkpt lat="24.911492058624397" lon="118.5367163719486">
        <ele>11.239736372604966</ele>
        <time>2024-12-23T13:31:23Z</time>
      </trkpt>
      <trkpt lat="24.911427484175537" lon="118.53668235381596">
        <ele>11.709570206701756</ele>
        <time>2024-12-23T13:31:26Z</time>
      </trkpt>
      <trkpt lat="24.911151516252136" lon="118.53667807652485">
        <ele>12.52219458669424</ele>
        <time>2024-12-23T13:31:35Z</time>
      </trkpt>
      <trkpt lat="24.91103413087586" lon="118.53663942184902">
        <ele>13.144264625385404</ele>
        <time>2024-12-23T13:31:39Z</time>
      </trkpt>
      <trkpt lat="24.910789944885877" lon="118.53653126136562">
        <ele>12.500573819503188</ele>
        <time>2024-12-23T13:31:47Z</time>
      </trkpt>
      <trkpt lat="24.910703411163745" lon="118.53653917959177">
        <ele>12.091086658649147</ele>
        <time>2024-12-23T13:31:50Z</time>
      </trkpt>
      <trkpt lat="24.910624838528296" lon="118.53661907968674">
        <ele>11.862329522147775</ele>
        <time>2024-12-23T13:31:54Z</time>
      </trkpt>
      <trkpt lat="24.910485094715266" lon="118.5368314543846">
        <ele>11.87156175263226</ele>
        <time>2024-12-23T13:32:02Z</time>
      </trkpt>
      <trkpt lat="24.91045282190139" lon="118.53691853044478">
        <ele>12.160694802179933</ele>
        <time>2024-12-23T13:32:05Z</time>
      </trkpt>
      <trkpt lat="24.91071596775119" lon="118.53709927073699">
        <ele>12.209783740341663</ele>
        <time>2024-12-23T13:32:13Z</time>
      </trkpt>
      <trkpt lat="24.911020236430257" lon="118.5371958877874">
        <ele>12.736408782191575</ele>
        <time>2024-12-23T13:32:22Z</time>
      </trkpt>
      <trkpt lat="24.911177126171932" lon="118.53731130506246">
        <ele>12.36469703912735</ele>
        <time>2024-12-23T13:32:28Z</time>
      </trkpt>
      <trkpt lat="24.911288052794013" lon="118.53735539790455">
        <ele>12.145825077779591</ele>
        <time>2024-12-23T13:32:31Z</time>
      </trkpt>
      <trkpt lat="24.91139817338708" lon="118.53731424014454">
        <ele>11.447465880773962</ele>
        <time>2024-12-23T13:32:34Z</time>
      </trkpt>
      <trkpt lat="24.911425650343272" lon="118.53719934848668">
        <ele>10.618009446188807</ele>
        <time>2024-12-23T13:32:37Z</time>
      </trkpt>
      <trkpt lat="24.911573265408666" lon="118.53690167803566">
        <ele>10.971158502623439</ele>
        <time>2024-12-23T13:32:46Z</time>
      </trkpt>
      <trkpt lat="24.911591193606036" lon="118.53679503086346">
        <ele>10.599392638541758</ele>
        <time>2024-12-23T13:32:49Z</time>
      </trkpt>
      <trkpt lat="24.911555319505357" lon="118.53671266779402">
        <ele>10.99259022064507</ele>
        <time>2024-12-23T13:32:52Z</time>
      </trkpt>
      <trkpt lat="24.911484159884978" lon="118.53668177145991">
        <ele>10.510993095114827</ele>
        <time>2024-12-23T13:32:55Z</time>
      </trkpt>
      <trkpt lat="24.911192058997543" lon="118.53666477621904">
        <ele>11.651546115987003</ele>
        <time>2024-12-23T13:33:04Z</time>
      </trkpt>
      <trkpt lat="24.911100698835657" lon="118.53662836209689">
        <ele>11.936083151958883</ele>
        <time>2024-12-23T13:33:07Z</time>
      </trkpt>
      <trkpt lat="24.91102240184772" lon="118.53656091515228">
        <ele>11.933914304710925</ele>
        <time>2024-12-23T13:33:10Z</time>
      </trkpt>
      <trkpt lat="24.91091510800259" lon="118.5365260384295">
        <ele>12.259041465818882</ele>
        <time>2024-12-23T13:33:13Z</time>
      </trkpt>
      <trkpt lat="24.910777749531253" lon="118.53651432103082">
        <ele>12.14298480283469</ele>
        <time>2024-12-23T13:33:17Z</time>
      </trkpt>
      <trkpt lat="24.910719298364924" lon="118.53660228688756">
        <ele>11.764580252580345</ele>
        <time>2024-12-23T13:33:20Z</time>
      </trkpt>
      <trkpt lat="24.910666807509926" lon="118.53664590267148">
        <ele>11.524274874478579</ele>
        <time>2024-12-23T13:33:23Z</time>
      </trkpt>
      <trkpt lat="24.910538181220325" lon="118.53680785687538">
        <ele>12.191515575163066</ele>
        <time>2024-12-23T13:33:29Z</time>
      </trkpt>
      <trkpt lat="24.910527068015046" lon="118.5369081918956">
        <ele>12.177746848203242</ele>
        <time>2024-12-23T13:33:32Z</time>
      </trkpt>
      <trkpt lat="24.91061611567016" lon="118.53699695066341">
        <ele>12.276473498903215</ele>
        <time>2024-12-23T13:33:35Z</time>
      </trkpt>
      <trkpt lat="24.911003389513233" lon="118.5371726300416">
        <ele>12.777055061422288</ele>
        <time>2024-12-23T13:33:46Z</time>
      </trkpt>
      <trkpt lat="24.911319306097763" lon="118.53734916903937">
        <ele>12.518034365959466</ele>
        <time>2024-12-23T13:33:55Z</time>
      </trkpt>
      <trkpt lat="24.911407136038832" lon="118.53722882423368">
        <ele>11.639824880287051</ele>
        <time>2024-12-23T13:33:58Z</time>
      </trkpt>
      <trkpt lat="24.91154859626081" lon="118.53689552253444">
        <ele>10.84504820778966</ele>
        <time>2024-12-23T13:34:07Z</time>
      </trkpt>
      <trkpt lat="24.911551155675117" lon="118.53682332812711">
        <ele>10.805583368986845</ele>
        <time>2024-12-23T13:34:10Z</time>
      </trkpt>
      <trkpt lat="24.911517516134168" lon="118.5367611806832">
        <ele>11.62912243232131</ele>
        <time>2024-12-23T13:34:13Z</time>
      </trkpt>
      <trkpt lat="24.911376279339656" lon="118.53668485517119">
        <ele>11.573947655037045</ele>
        <time>2024-12-23T13:34:19Z</time>
      </trkpt>
      <trkpt lat="24.911273160723777" lon="118.53665106805484">
        <ele>11.985930977389216</ele>
        <time>2024-12-23T13:34:22Z</time>
      </trkpt>
      <trkpt lat="24.911172327508684" lon="118.53664489089398">
        <ele>12.296306458301842</ele>
        <time>2024-12-23T13:34:25Z</time>
      </trkpt>
    </trkseg>
  </trk>
</gpx>