<?xml version="1.0" encoding="UTF-8"?>
<gpx xmlns="http://www.topografix.com/GPX/1/1" xmlns:gpxtpx="http://www.garmin.com/xmlschemas/TrackPointExtension/v1" xmlns:xsi="http://www.w3.org/2001/XMLSchema-instance" xsi:schemaLocation="http://www.topografix.com/GPX/1/1 http://www.topografix.com/GPX/1/1/gpx.xsd" version="1.1" creator="gpx.py -- https://github.com/tkrajina/gpxpy">
  <trk>
    <name>gpx from keep</name>
    <type>Run</type>
    <trkseg>
      <trkpt lat="24.910796396860977" lon="118.53854107755478">
        <ele>10.181113054044545</ele>
        <time>2024-11-07T14:00:25Z</time>
      </trkpt>
      <trkpt lat="24.91056498037785" lon="118.53852850929293">
        <ele>10.117867894470692</ele>
        <time>2024-11-07T14:00:31Z</time>
      </trkpt>
      <trkpt lat="24.910277189225084" lon="118.53847610535908">
        <ele>8.773754415102303</ele>
        <time>2024-11-07T14:00:40Z</time>
      </trkpt>
      <trkpt lat="24.909931006525866" lon="118.53843227480026">
        <ele>8.579011759720743</ele>
        <time>2024-11-07T14:00:52Z</time>
      </trkpt>
      <trkpt lat="24.90962764155295" lon="118.53842742851131">
        <ele>8.245520203374326</ele>
        <time>2024-11-07T14:01:01Z</time>
      </trkpt>
      <trkpt lat="24.909297182671633" lon="118.5383982545106">
        <ele>7.281666161492467</ele>
        <time>2024-11-07T14:01:10Z</time>
      </trkpt>
      <trkpt lat="24.90911479649602" lon="118.53828695891058">
        <ele>7.166917071677744</ele>
        <time>2024-11-07T14:01:16Z</time>
      </trkpt>
      <trkpt lat="24.909126132773714" lon="118.5381817542145">
        <ele>7.817469947040081</ele>
        <time>2024-11-07T14:01:19Z</time>
      </trkpt>
      <trkpt lat="24.90922278327201" lon="118.53789070107072">
        <ele>7.548054262064397</ele>
        <time>2024-11-07T14:01:28Z</time>
      </trkpt>
      <trkpt lat="24.909318556756553" lon="118.53756496960902">
        <ele>8.961192302405834</ele>
        <time>2024-11-07T14:01:37Z</time>
      </trkpt>
      <trkpt lat="24.909377170155107" lon="118.53717764126537">
        <ele>8.876410047523677</ele>
        <time>2024-11-07T14:01:49Z</time>
      </trkpt>
      <trkpt lat="24.90948426374634" lon="118.53685879360496">
        <ele>9.978904638439417</ele>
        <time>2024-11-07T14:01:58Z</time>
      </trkpt>
      <trkpt lat="24.909538522939123" lon="118.53654991015867">
        <ele>9.938332431949675</ele>
        <time>2024-11-07T14:02:07Z</time>
      </trkpt>
      <trkpt lat="24.909576680199663" lon="118.53641205317122">
        <ele>9.73578803986311</ele>
        <time>2024-11-07T14:02:11Z</time>
      </trkpt>
      <trkpt lat="24.909585538521114" lon="118.53613111155799">
        <ele>9.932617870159447</ele>
        <time>2024-11-07T14:02:19Z</time>
      </trkpt>
      <trkpt lat="24.90961231928013" lon="118.53599667232984">
        <ele>10.071277152746916</ele>
        <time>2024-11-07T14:02:23Z</time>
      </trkpt>
      <trkpt lat="24.909647161625262" lon="118.53569932296803">
        <ele>8.986259914934635</ele>
        <time>2024-11-07T14:02:31Z</time>
      </trkpt>
      <trkpt lat="24.909702659849042" lon="118.53539048464495">
        <ele>10.11401509679854</ele>
        <time>2024-11-07T14:02:39Z</time>
      </trkpt>
      <trkpt lat="24.909721980637524" lon="118.53526264761278">
        <ele>10.176998665556312</ele>
        <time>2024-11-07T14:02:43Z</time>
      </trkpt>
      <trkpt lat="24.90975225609393" lon="118.53483050070442">
        <ele>8.23188444878906</ele>
        <time>2024-11-07T14:02:55Z</time>
      </trkpt>
      <trkpt lat="24.909799180179924" lon="118.53459397033632">
        <ele>7.684790389612317</ele>
        <time>2024-11-07T14:03:02Z</time>
      </trkpt>
      <trkpt lat="24.90983687029323" lon="118.53429370667406">
        <ele>7.9548224257305264</ele>
        <time>2024-11-07T14:03:11Z</time>
      </trkpt>
      <trkpt lat="24.909877272938743" lon="118.53397622445323">
        <ele>7.344371143728495</ele>
        <time>2024-11-07T14:03:20Z</time>
      </trkpt>
      <trkpt lat="24.909970123663523" lon="118.53382389082691">
        <ele>6.948716432787478</ele>
        <time>2024-11-07T14:03:26Z</time>
      </trkpt>
      <trkpt lat="24.9102330821834" lon="118.53372817669035">
        <ele>9.386128355748951</ele>
        <time>2024-11-07T14:03:35Z</time>
      </trkpt>
      <trkpt lat="24.910517721382988" lon="118.53367738742683">
        <ele>10.750754669308662</ele>
        <time>2024-11-07T14:03:44Z</time>
      </trkpt>
      <trkpt lat="24.910830634504805" lon="118.53366975794827">
        <ele>9.951510137878358</ele>
        <time>2024-11-07T14:03:53Z</time>
      </trkpt>
      <trkpt lat="24.911137615463964" lon="118.53368385663836">
        <ele>10.743905297480524</ele>
        <time>2024-11-07T14:04:02Z</time>
      </trkpt>
      <trkpt lat="24.911439069280924" lon="118.53369605611452">
        <ele>10.698224634863436</ele>
        <time>2024-11-07T14:04:11Z</time>
      </trkpt>
      <trkpt lat="24.91171377113161" lon="118.53369078941205">
        <ele>9.657619437202811</ele>
        <time>2024-11-07T14:04:19Z</time>
      </trkpt>
      <trkpt lat="24.9119815196906" lon="118.53368903638003">
        <ele>9.979498321190476</ele>
        <time>2024-11-07T14:04:27Z</time>
      </trkpt>
      <trkpt lat="24.91226094296267" lon="118.53371697296362">
        <ele>9.900307113304734</ele>
        <time>2024-11-07T14:04:35Z</time>
      </trkpt>
      <trkpt lat="24.9126138023459" lon="118.53371931039399">
        <ele>10.157687064260244</ele>
        <time>2024-11-07T14:04:46Z</time>
      </trkpt>
      <trkpt lat="24.912838408865024" lon="118.53372361435281">
        <ele>9.65284130256623</ele>
        <time>2024-11-07T14:04:53Z</time>
      </trkpt>
      <trkpt lat="24.91309858626189" lon="118.53380701183899">
        <ele>10.019559326581657</ele>
        <time>2024-11-07T14:05:02Z</time>
      </trkpt>
      <trkpt lat="24.91346252598465" lon="118.53384600522867">
        <ele>9.023841506801546</ele>
        <time>2024-11-07T14:05:14Z</time>
      </trkpt>
      <trkpt lat="24.913737096725175" lon="118.5338958344737">
        <ele>9.990007483400404</ele>
        <time>2024-11-07T14:05:23Z</time>
      </trkpt>
      <trkpt lat="24.91405932400408" lon="118.5339282520108">
        <ele>10.000443577766418</ele>
        <time>2024-11-07T14:05:33Z</time>
      </trkpt>
      <trkpt lat="24.914337661196218" lon="118.53396896181668">
        <ele>11.296736523509026</ele>
        <time>2024-11-07T14:05:42Z</time>
      </trkpt>
      <trkpt lat="24.91463762513868" lon="118.53403800910444">
        <ele>11.92697421181947</ele>
        <time>2024-11-07T14:05:51Z</time>
      </trkpt>
      <trkpt lat="24.914910019694158" lon="118.53407956259896">
        <ele>12.727966578677297</ele>
        <time>2024-11-07T14:06:00Z</time>
      </trkpt>
      <trkpt lat="24.915213215995575" lon="118.53411923547667">
        <ele>12.976684629917145</ele>
        <time>2024-11-07T14:06:09Z</time>
      </trkpt>
      <trkpt lat="24.91540865975826" lon="118.53414290221207">
        <ele>12.404687931761146</ele>
        <time>2024-11-07T14:06:15Z</time>
      </trkpt>
      <trkpt lat="24.915493511579115" lon="118.53417536661351">
        <ele>12.912389320321381</ele>
        <time>2024-11-07T14:06:18Z</time>
      </trkpt>
      <trkpt lat="24.915617794730327" lon="118.53418520771648">
        <ele>12.94262317661196</ele>
        <time>2024-11-07T14:06:22Z</time>
      </trkpt>
      <trkpt lat="24.915732787258325" lon="118.53422190770374">
        <ele>12.558516970835626</ele>
        <time>2024-11-07T14:06:26Z</time>
      </trkpt>
      <trkpt lat="24.91612588042812" lon="118.53429113714031">
        <ele>12.237041908316314</ele>
        <time>2024-11-07T14:06:38Z</time>
      </trkpt>
      <trkpt lat="24.916508950524033" lon="118.5343498799716">
        <ele>13.143202043138444</ele>
        <time>2024-11-07T14:06:50Z</time>
      </trkpt>
      <trkpt lat="24.916860502515632" lon="118.53443433286904">
        <ele>14.17143829446286</ele>
        <time>2024-11-07T14:07:01Z</time>
      </trkpt>
      <trkpt lat="24.91715248306206" lon="118.5344751933586">
        <ele>13.699527361430228</ele>
        <time>2024-11-07T14:07:10Z</time>
      </trkpt>
      <trkpt lat="24.91743068885525" lon="118.53453748745646">
        <ele>14.26892641466111</ele>
        <time>2024-11-07T14:07:19Z</time>
      </trkpt>
      <trkpt lat="24.917714329914336" lon="118.53462761066739">
        <ele>14.208545723930001</ele>
        <time>2024-11-07T14:07:28Z</time>
      </trkpt>
      <trkpt lat="24.918016645196477" lon="118.53470160279473">
        <ele>14.205268227495253</ele>
        <time>2024-11-07T14:07:37Z</time>
      </trkpt>
      <trkpt lat="24.918294035201086" lon="118.53476291432159">
        <ele>13.602522693574429</ele>
        <time>2024-11-07T14:07:46Z</time>
      </trkpt>
      <trkpt lat="24.918436575927885" lon="118.5348146962555">
        <ele>12.831430086866021</ele>
        <time>2024-11-07T14:07:50Z</time>
      </trkpt>
      <trkpt lat="24.918524198838476" lon="118.53487225835127">
        <ele>12.857848148792982</ele>
        <time>2024-11-07T14:07:53Z</time>
      </trkpt>
      <trkpt lat="24.918585380278074" lon="118.53495775461056">
        <ele>12.347965653985739</ele>
        <time>2024-11-07T14:07:56Z</time>
      </trkpt>
      <trkpt lat="24.918627441093303" lon="118.53506050895622">
        <ele>12.393634855747223</ele>
        <time>2024-11-07T14:07:59Z</time>
      </trkpt>
      <trkpt lat="24.918637839108435" lon="118.53517504298517">
        <ele>11.286426943726838</ele>
        <time>2024-11-07T14:08:02Z</time>
      </trkpt>
      <trkpt lat="24.91853473340199" lon="118.53547530818862">
        <ele>10.749561994336545</ele>
        <time>2024-11-07T14:08:11Z</time>
      </trkpt>
      <trkpt lat="24.918418097482782" lon="118.53577956132509">
        <ele>10.034952132962644</ele>
        <time>2024-11-07T14:08:20Z</time>
      </trkpt>
      <trkpt lat="24.918366333848947" lon="118.53600677196575">
        <ele>10.860654287040234</ele>
        <time>2024-11-07T14:08:27Z</time>
      </trkpt>
      <trkpt lat="24.918211367230818" lon="118.53625994668">
        <ele>10.3982924092561</ele>
        <time>2024-11-07T14:08:35Z</time>
      </trkpt>
      <trkpt lat="24.918047525810994" lon="118.53664152527675">
        <ele>9.847099125385284</ele>
        <time>2024-11-07T14:08:47Z</time>
      </trkpt>
      <trkpt lat="24.91796292335109" lon="118.53689219207548">
        <ele>10.199134392663836</ele>
        <time>2024-11-07T14:08:55Z</time>
      </trkpt>
      <trkpt lat="24.917766633004458" lon="118.53721596079427">
        <ele>9.762276853434741</ele>
        <time>2024-11-07T14:09:05Z</time>
      </trkpt>
      <trkpt lat="24.91764825304657" lon="118.53754629135673">
        <ele>9.890593025833368</ele>
        <time>2024-11-07T14:09:15Z</time>
      </trkpt>
      <trkpt lat="24.91748951276559" lon="118.53784795658062">
        <ele>10.202189308591187</ele>
        <time>2024-11-07T14:09:24Z</time>
      </trkpt>
      <trkpt lat="24.917475421930245" lon="118.5379605099772">
        <ele>10.44655500445515</ele>
        <time>2024-11-07T14:09:27Z</time>
      </trkpt>
      <trkpt lat="24.917321875785657" lon="118.5382580642917">
        <ele>9.740057648159564</ele>
        <time>2024-11-07T14:09:36Z</time>
      </trkpt>
      <trkpt lat="24.91726296742612" lon="118.53846990915926">
        <ele>10.427759056910872</ele>
        <time>2024-11-07T14:09:42Z</time>
      </trkpt>
      <trkpt lat="24.917126369916105" lon="118.53878772776854">
        <ele>10.017330635339022</ele>
        <time>2024-11-07T14:09:51Z</time>
      </trkpt>
      <trkpt lat="24.917045072633975" lon="118.53908935006095">
        <ele>10.023379240185022</ele>
        <time>2024-11-07T14:10:00Z</time>
      </trkpt>
      <trkpt lat="24.916895386487" lon="118.53939264609352">
        <ele>9.984542545862496</ele>
        <time>2024-11-07T14:10:09Z</time>
      </trkpt>
      <trkpt lat="24.916808780782638" lon="118.53960129898886">
        <ele>9.286675984971225</ele>
        <time>2024-11-07T14:10:15Z</time>
      </trkpt>
      <trkpt lat="24.916620918248658" lon="118.53991953050267">
        <ele>9.623950510285795</ele>
        <time>2024-11-07T14:10:25Z</time>
      </trkpt>
      <trkpt lat="24.916542119725353" lon="118.54011167791923">
        <ele>10.227013822644949</ele>
        <time>2024-11-07T14:10:31Z</time>
      </trkpt>
      <trkpt lat="24.916494710427873" lon="118.54033401782436">
        <ele>11.283514824695885</ele>
        <time>2024-11-07T14:10:37Z</time>
      </trkpt>
      <trkpt lat="24.916497543393774" lon="118.54057633714763">
        <ele>11.937435775995255</ele>
        <time>2024-11-07T14:10:43Z</time>
      </trkpt>
      <trkpt lat="24.916473059019918" lon="118.54081938642278">
        <ele>11.816228195093572</ele>
        <time>2024-11-07T14:10:49Z</time>
      </trkpt>
      <trkpt lat="24.916481082131668" lon="118.54104656209557">
        <ele>12.348462370224297</ele>
        <time>2024-11-07T14:10:55Z</time>
      </trkpt>
      <trkpt lat="24.916553010258752" lon="118.5413710704848">
        <ele>12.68872637860477</ele>
        <time>2024-11-07T14:11:04Z</time>
      </trkpt>
      <trkpt lat="24.91659528331023" lon="118.54158325984477">
        <ele>13.064981736242771</ele>
        <time>2024-11-07T14:11:10Z</time>
      </trkpt>
      <trkpt lat="24.91657154529515" lon="118.54172126300159">
        <ele>12.813359718769789</ele>
        <time>2024-11-07T14:11:16Z</time>
      </trkpt>
      <trkpt lat="24.91650363098608" lon="118.54191085946674">
        <ele>12.12695084605366</ele>
        <time>2024-11-07T14:11:22Z</time>
      </trkpt>
      <trkpt lat="24.91622860778289" lon="118.54200035943697">
        <ele>12.081712794490159</ele>
        <time>2024-11-07T14:11:31Z</time>
      </trkpt>
      <trkpt lat="24.9160291694459" lon="118.54209393678768">
        <ele>12.3400524193421</ele>
        <time>2024-11-07T14:11:37Z</time>
      </trkpt>
      <trkpt lat="24.915715199938788" lon="118.54225530955557">
        <ele>12.343353753909469</ele>
        <time>2024-11-07T14:11:46Z</time>
      </trkpt>
      <trkpt lat="24.91559347938008" lon="118.54225589402557">
        <ele>12.558459108695388</ele>
        <time>2024-11-07T14:11:49Z</time>
      </trkpt>
      <trkpt lat="24.91527531338323" lon="118.54237277169155">
        <ele>11.985949076712132</ele>
        <time>2024-11-07T14:11:58Z</time>
      </trkpt>
      <trkpt lat="24.914918201507277" lon="118.54245172592165">
        <ele>11.060434879735112</ele>
        <time>2024-11-07T14:12:10Z</time>
      </trkpt>
      <trkpt lat="24.914636260520613" lon="118.5425160483843">
        <ele>9.850397599861026</ele>
        <time>2024-11-07T14:12:19Z</time>
      </trkpt>
      <trkpt lat="24.91452298550518" lon="118.54250331071138">
        <ele>9.89118932094425</ele>
        <time>2024-11-07T14:12:22Z</time>
      </trkpt>
      <trkpt lat="24.91425512706963" lon="118.54255701661683">
        <ele>10.00623957440257</ele>
        <time>2024-11-07T14:12:29Z</time>
      </trkpt>
      <trkpt lat="24.914167581193574" lon="118.54259647248134">
        <ele>10.210465867072344</ele>
        <time>2024-11-07T14:12:32Z</time>
      </trkpt>
      <trkpt lat="24.914048126161237" lon="118.54260869709627">
        <ele>9.923347808420658</ele>
        <time>2024-11-07T14:12:35Z</time>
      </trkpt>
      <trkpt lat="24.913949778425703" lon="118.54264050284947">
        <ele>10.098251205869019</ele>
        <time>2024-11-07T14:12:38Z</time>
      </trkpt>
      <trkpt lat="24.913781551172637" lon="118.54266530447558">
        <ele>9.428574577905238</ele>
        <time>2024-11-07T14:12:44Z</time>
      </trkpt>
      <trkpt lat="24.913483140370463" lon="118.5427456781797">
        <ele>8.233452857472003</ele>
        <time>2024-11-07T14:12:56Z</time>
      </trkpt>
      <trkpt lat="24.91329180943284" lon="118.54279184419215">
        <ele>7.423570554703474</ele>
        <time>2024-11-07T14:13:02Z</time>
      </trkpt>
      <trkpt lat="24.91317346345227" lon="118.54279935732573">
        <ele>7.639995203353465</ele>
        <time>2024-11-07T14:13:05Z</time>
      </trkpt>
      <trkpt lat="24.91290570633076" lon="118.54286963940005">
        <ele>8.104924361221492</ele>
        <time>2024-11-07T14:13:11Z</time>
      </trkpt>
      <trkpt lat="24.912577950673516" lon="118.5429776181188">
        <ele>8.732581480406225</ele>
        <time>2024-11-07T14:13:20Z</time>
      </trkpt>
      <trkpt lat="24.912382798973706" lon="118.54304869646357">
        <ele>8.27988083474338</ele>
        <time>2024-11-07T14:13:26Z</time>
      </trkpt>
      <trkpt lat="24.912102222006943" lon="118.5431307193714">
        <ele>7.697599553503096</ele>
        <time>2024-11-07T14:13:35Z</time>
      </trkpt>
      <trkpt lat="24.91178950444962" lon="118.54319015742725">
        <ele>8.067200979217887</ele>
        <time>2024-11-07T14:13:44Z</time>
      </trkpt>
      <trkpt lat="24.911491742778555" lon="118.54326664988055">
        <ele>8.492240503430367</ele>
        <time>2024-11-07T14:13:53Z</time>
      </trkpt>
      <trkpt lat="24.91128859778612" lon="118.54326665929653">
        <ele>8.252417492680252</ele>
        <time>2024-11-07T14:13:59Z</time>
      </trkpt>
      <trkpt lat="24.910961118148748" lon="118.543321245783">
        <ele>8.057404788210988</ele>
        <time>2024-11-07T14:14:08Z</time>
      </trkpt>
      <trkpt lat="24.910608258817803" lon="118.54333418163299">
        <ele>8.02510648407042</ele>
        <time>2024-11-07T14:14:17Z</time>
      </trkpt>
      <trkpt lat="24.91030799669298" lon="118.54333744434659">
        <ele>7.348449902608991</ele>
        <time>2024-11-07T14:14:26Z</time>
      </trkpt>
      <trkpt lat="24.910003025422235" lon="118.54337271511807">
        <ele>7.743415807373822</ele>
        <time>2024-11-07T14:14:35Z</time>
      </trkpt>
      <trkpt lat="24.909685732826432" lon="118.54336535325884">
        <ele>7.781019766815007</ele>
        <time>2024-11-07T14:14:44Z</time>
      </trkpt>
      <trkpt lat="24.909605459068192" lon="118.54338085173765">
        <ele>7.1321612279862165</ele>
        <time>2024-11-07T14:14:47Z</time>
      </trkpt>
      <trkpt lat="24.909276325398615" lon="118.54337635832907">
        <ele>7.2908855387941</ele>
        <time>2024-11-07T14:14:56Z</time>
      </trkpt>
      <trkpt lat="24.909188025551366" lon="118.54338227843238">
        <ele>7.352714220061898</ele>
        <time>2024-11-07T14:14:59Z</time>
      </trkpt>
      <trkpt lat="24.90889153108912" lon="118.54325794065338">
        <ele>7.4847700875252485</ele>
        <time>2024-11-07T14:15:08Z</time>
      </trkpt>
      <trkpt lat="24.908684212833546" lon="118.54318397930787">
        <ele>7.872004739008844</ele>
        <time>2024-11-07T14:15:14Z</time>
      </trkpt>
      <trkpt lat="24.9085955400369" lon="118.54311962277393">
        <ele>7.69478078559041</ele>
        <time>2024-11-07T14:15:17Z</time>
      </trkpt>
      <trkpt lat="24.90852506579536" lon="118.54304468985771">
        <ele>8.111342016607523</ele>
        <time>2024-11-07T14:15:20Z</time>
      </trkpt>
      <trkpt lat="24.908505542243642" lon="118.54295707551637">
        <ele>7.936187049373984</ele>
        <time>2024-11-07T14:15:23Z</time>
      </trkpt>
      <trkpt lat="24.908616119356473" lon="118.54278499738702">
        <ele>8.288851944729686</ele>
        <time>2024-11-07T14:15:29Z</time>
      </trkpt>
      <trkpt lat="24.908593642084856" lon="118.54259238975294">
        <ele>7.981778685003519</ele>
        <time>2024-11-07T14:15:35Z</time>
      </trkpt>
      <trkpt lat="24.908538945024176" lon="118.54239223158442">
        <ele>7.610757118090987</ele>
        <time>2024-11-07T14:15:41Z</time>
      </trkpt>
      <trkpt lat="24.908557905156307" lon="118.54231498206056">
        <ele>8.034852647222579</ele>
        <time>2024-11-07T14:15:44Z</time>
      </trkpt>
      <trkpt lat="24.908548899443993" lon="118.54216448827574">
        <ele>7.987556451931596</ele>
        <time>2024-11-07T14:15:50Z</time>
      </trkpt>
      <trkpt lat="24.90865664437677" lon="118.54179090664958">
        <ele>7.1605365900322795</ele>
        <time>2024-11-07T14:16:02Z</time>
      </trkpt>
      <trkpt lat="24.908703307747608" lon="118.54167584170263">
        <ele>7.789824242703617</ele>
        <time>2024-11-07T14:16:05Z</time>
      </trkpt>
      <trkpt lat="24.908830450175607" lon="118.54146371059207">
        <ele>7.220226380042732</ele>
        <time>2024-11-07T14:16:11Z</time>
      </trkpt>
      <trkpt lat="24.908912659525985" lon="118.54140989778956">
        <ele>6.530336131341755</ele>
        <time>2024-11-07T14:16:14Z</time>
      </trkpt>
      <trkpt lat="24.908941475743045" lon="118.54128060451376">
        <ele>7.474354681558907</ele>
        <time>2024-11-07T14:16:17Z</time>
      </trkpt>
      <trkpt lat="24.90898813644747" lon="118.5411833407395">
        <ele>8.1600606655702</ele>
        <time>2024-11-07T14:16:20Z</time>
      </trkpt>
      <trkpt lat="24.9089716435513" lon="118.54104649423725">
        <ele>8.9393449453637</ele>
        <time>2024-11-07T14:16:23Z</time>
      </trkpt>
      <trkpt lat="24.908984283833696" lon="118.54094577877048">
        <ele>7.892343659885228</ele>
        <time>2024-11-07T14:16:26Z</time>
      </trkpt>
      <trkpt lat="24.908971872349834" lon="118.54074718396322">
        <ele>7.467539583332837</ele>
        <time>2024-11-07T14:16:32Z</time>
      </trkpt>
      <trkpt lat="24.909048120342064" lon="118.54039587843329">
        <ele>7.659348515793681</ele>
        <time>2024-11-07T14:16:41Z</time>
      </trkpt>
      <trkpt lat="24.909053855258268" lon="118.54015895603358">
        <ele>7.764824220910668</ele>
        <time>2024-11-07T14:16:47Z</time>
      </trkpt>
      <trkpt lat="24.908998871757394" lon="118.54001639831696">
        <ele>7.639047219417989</ele>
        <time>2024-11-07T14:16:50Z</time>
      </trkpt>
      <trkpt lat="24.908779811994773" lon="118.5397192515572">
        <ele>7.148509698919952</ele>
        <time>2024-11-07T14:16:59Z</time>
      </trkpt>
      <trkpt lat="24.90877880196715" lon="118.53959267116058">
        <ele>7.570360055193305</ele>
        <time>2024-11-07T14:17:02Z</time>
      </trkpt>
      <trkpt lat="24.908883221619305" lon="118.53925201667121">
        <ele>7.9954109489917755</ele>
        <time>2024-11-07T14:17:11Z</time>
      </trkpt>
      <trkpt lat="24.90899553190406" lon="118.5389085637377">
        <ele>7.8540076510980725</ele>
        <time>2024-11-07T14:17:20Z</time>
      </trkpt>
      <trkpt lat="24.909083604396724" lon="118.5385652527027">
        <ele>7.106134652160108</ele>
        <time>2024-11-07T14:17:29Z</time>
      </trkpt>
      <trkpt lat="24.909127733588914" lon="118.53833846732131">
        <ele>8.393863519653678</ele>
        <time>2024-11-07T14:17:35Z</time>
      </trkpt>
      <trkpt lat="24.909241406649237" lon="118.53798573380448">
        <ele>8.14104114845395</ele>
        <time>2024-11-07T14:17:47Z</time>
      </trkpt>
      <trkpt lat="24.90935082774716" lon="118.53763430003895">
        <ele>8.21218725014478</ele>
        <time>2024-11-07T14:17:59Z</time>
      </trkpt>
      <trkpt lat="24.909399800379802" lon="118.53757724464656">
        <ele>8.66834689117968</ele>
        <time>2024-11-07T14:18:02Z</time>
      </trkpt>
      <trkpt lat="24.909417464231783" lon="118.5373638848616">
        <ele>9.169484758749604</ele>
        <time>2024-11-07T14:18:08Z</time>
      </trkpt>
      <trkpt lat="24.909439079084418" lon="118.53726700542818">
        <ele>8.99938966985792</ele>
        <time>2024-11-07T14:18:11Z</time>
      </trkpt>
      <trkpt lat="24.90948854509836" lon="118.53715595471402">
        <ele>9.016282366588712</ele>
        <time>2024-11-07T14:18:14Z</time>
      </trkpt>
      <trkpt lat="24.909487104403016" lon="118.537035021878">
        <ele>9.993412389419973</ele>
        <time>2024-11-07T14:18:17Z</time>
      </trkpt>
      <trkpt lat="24.90946536836553" lon="118.5369523521313">
        <ele>9.947646503336728</ele>
        <time>2024-11-07T14:18:20Z</time>
      </trkpt>
      <trkpt lat="24.909506374878543" lon="118.53663406636375">
        <ele>9.468041847459972</ele>
        <time>2024-11-07T14:18:29Z</time>
      </trkpt>
      <trkpt lat="24.909573463780255" lon="118.53629223909458">
        <ele>9.729529862292111</ele>
        <time>2024-11-07T14:18:38Z</time>
      </trkpt>
      <trkpt lat="24.909628045285082" lon="118.53594240134687">
        <ele>10.774229378439486</ele>
        <time>2024-11-07T14:18:47Z</time>
      </trkpt>
      <trkpt lat="24.909668198170323" lon="118.53560041196016">
        <ele>10.514231650158763</ele>
        <time>2024-11-07T14:18:56Z</time>
      </trkpt>
      <trkpt lat="24.909713905154494" lon="118.53525224115327">
        <ele>9.920568439178169</ele>
        <time>2024-11-07T14:19:05Z</time>
      </trkpt>
      <trkpt lat="24.909748893750592" lon="118.534921182775">
        <ele>8.214844522997737</ele>
        <time>2024-11-07T14:19:14Z</time>
      </trkpt>
      <trkpt lat="24.90976957347944" lon="118.5348331757686">
        <ele>8.163071946240962</ele>
        <time>2024-11-07T14:19:17Z</time>
      </trkpt>
      <trkpt lat="24.909863426488013" lon="118.53485193474549">
        <ele>7.175320857204497</ele>
        <time>2024-11-07T14:19:20Z</time>
      </trkpt>
      <trkpt lat="24.910124149550274" lon="118.53498656118367">
        <ele>8.934005879797041</ele>
        <time>2024-11-07T14:19:29Z</time>
      </trkpt>
      <trkpt lat="24.910416258384856" lon="118.53511987723098">
        <ele>9.608532276004553</ele>
        <time>2024-11-07T14:19:38Z</time>
      </trkpt>
      <trkpt lat="24.910713785651946" lon="118.5352442524811">
        <ele>9.141452308744192</ele>
        <time>2024-11-07T14:19:47Z</time>
      </trkpt>
      <trkpt lat="24.91100762577174" lon="118.5353435634976">
        <ele>9.454815179109573</ele>
        <time>2024-11-07T14:19:56Z</time>
      </trkpt>
      <trkpt lat="24.91109849381179" lon="118.53538255471287">
        <ele>9.493336747400463</ele>
        <time>2024-11-07T14:19:59Z</time>
      </trkpt>
      <trkpt lat="24.911383802315317" lon="118.53545917640162">
        <ele>9.882730160839856</ele>
        <time>2024-11-07T14:20:08Z</time>
      </trkpt>
      <trkpt lat="24.911662023583062" lon="118.53565078005253">
        <ele>9.610381921753287</ele>
        <time>2024-11-07T14:20:17Z</time>
      </trkpt>
      <trkpt lat="24.91185501307176" lon="118.53577881183126">
        <ele>10.46828427258879</ele>
        <time>2024-11-07T14:20:23Z</time>
      </trkpt>
      <trkpt lat="24.911957371087066" lon="118.5358233387063">
        <ele>10.805703964084387</ele>
        <time>2024-11-07T14:20:26Z</time>
      </trkpt>
      <trkpt lat="24.91216660742716" lon="118.53584253419812">
        <ele>10.4440988432616</ele>
        <time>2024-11-07T14:20:32Z</time>
      </trkpt>
      <trkpt lat="24.912418930474757" lon="118.53597817336033">
        <ele>10.38504066504538</ele>
        <time>2024-11-07T14:20:41Z</time>
      </trkpt>
      <trkpt lat="24.912701570435047" lon="118.53611728213666">
        <ele>9.478614806197584</ele>
        <time>2024-11-07T14:20:50Z</time>
      </trkpt>
      <trkpt lat="24.912701570435047" lon="118.53611728213666">
        <ele>9.478614806197584</ele>
        <time>2024-11-07T14:20:51Z</time>
      </trkpt>
    </trkseg>
  </trk>
</gpx>