<?xml version="1.0" encoding="UTF-8"?>
<gpx xmlns="http://www.topografix.com/GPX/1/1" xmlns:gpxtpx="http://www.garmin.com/xmlschemas/TrackPointExtension/v1" xmlns:xsi="http://www.w3.org/2001/XMLSchema-instance" xsi:schemaLocation="http://www.topografix.com/GPX/1/1 http://www.topografix.com/GPX/1/1/gpx.xsd" version="1.1" creator="gpx.py -- https://github.com/tkrajina/gpxpy">
  <trk>
    <name>gpx from keep</name>
    <type>Run</type>
    <trkseg>
      <trkpt lat="24.910606081089746" lon="118.53852367332286">
        <ele>9.976314302533865</ele>
        <time>2024-09-18T14:02:10Z</time>
      </trkpt>
      <trkpt lat="24.910341533875016" lon="118.53846146913665">
        <ele>9.759847182780504</ele>
        <time>2024-09-18T14:02:19Z</time>
      </trkpt>
      <trkpt lat="24.910249865606286" lon="118.53846970663956">
        <ele>9.174605370499194</ele>
        <time>2024-09-18T14:02:22Z</time>
      </trkpt>
      <trkpt lat="24.9099181836752" lon="118.53836045699629">
        <ele>9.55506389029324</ele>
        <time>2024-09-18T14:02:31Z</time>
      </trkpt>
      <trkpt lat="24.909653548939595" lon="118.53833787979542">
        <ele>8.79913467541337</ele>
        <time>2024-09-18T14:02:40Z</time>
      </trkpt>
      <trkpt lat="24.90956096481124" lon="118.53834576494855">
        <ele>7.515848272480071</ele>
        <time>2024-09-18T14:02:43Z</time>
      </trkpt>
      <trkpt lat="24.90947850713729" lon="118.53833001067797">
        <ele>7.4549681060016155</ele>
        <time>2024-09-18T14:02:46Z</time>
      </trkpt>
      <trkpt lat="24.909175741406724" lon="118.53836982254215">
        <ele>7.567506124265492</ele>
        <time>2024-09-18T14:02:55Z</time>
      </trkpt>
      <trkpt lat="24.909006783220235" lon="118.53830235311415">
        <ele>7.279815701767802</ele>
        <time>2024-09-18T14:03:01Z</time>
      </trkpt>
      <trkpt lat="24.90894691048487" lon="118.53824942441062">
        <ele>7.5235719764605165</ele>
        <time>2024-09-18T14:03:04Z</time>
      </trkpt>
      <trkpt lat="24.909019794434858" lon="118.5379471494648">
        <ele>7.808124960400164</ele>
        <time>2024-09-18T14:03:13Z</time>
      </trkpt>
      <trkpt lat="24.909080828316966" lon="118.53763404468596">
        <ele>8.415844363160431</ele>
        <time>2024-09-18T14:03:22Z</time>
      </trkpt>
      <trkpt lat="24.90913196343008" lon="118.53743245814005">
        <ele>9.058382142335176</ele>
        <time>2024-09-18T14:03:28Z</time>
      </trkpt>
      <trkpt lat="24.90912897420272" lon="118.53713538375398">
        <ele>10.146886638365686</ele>
        <time>2024-09-18T14:03:37Z</time>
      </trkpt>
      <trkpt lat="24.909152358342485" lon="118.53704379308623">
        <ele>9.938995164819062</ele>
        <time>2024-09-18T14:03:40Z</time>
      </trkpt>
      <trkpt lat="24.9092137503351" lon="118.53696013911278">
        <ele>10.093528967350721</ele>
        <time>2024-09-18T14:03:43Z</time>
      </trkpt>
      <trkpt lat="24.90931791425666" lon="118.53667216507581">
        <ele>10.328728319145739</ele>
        <time>2024-09-18T14:03:52Z</time>
      </trkpt>
      <trkpt lat="24.909373277590138" lon="118.53639496576903">
        <ele>10.023220915347338</ele>
        <time>2024-09-18T14:04:01Z</time>
      </trkpt>
      <trkpt lat="24.909407206836747" lon="118.5363091524895">
        <ele>9.962028078734875</ele>
        <time>2024-09-18T14:04:04Z</time>
      </trkpt>
      <trkpt lat="24.90940585195755" lon="118.53620795959965">
        <ele>10.568345158360898</ele>
        <time>2024-09-18T14:04:07Z</time>
      </trkpt>
      <trkpt lat="24.909424997922148" lon="118.5361232253194">
        <ele>10.201948873698711</ele>
        <time>2024-09-18T14:04:10Z</time>
      </trkpt>
      <trkpt lat="24.909416674307298" lon="118.53592539674064">
        <ele>10.003320626914501</ele>
        <time>2024-09-18T14:04:16Z</time>
      </trkpt>
      <trkpt lat="24.909467058808566" lon="118.53553951632777">
        <ele>10.09186617936939</ele>
        <time>2024-09-18T14:04:28Z</time>
      </trkpt>
      <trkpt lat="24.909545677890705" lon="118.53524665666211">
        <ele>9.14112351462245</ele>
        <time>2024-09-18T14:04:37Z</time>
      </trkpt>
      <trkpt lat="24.909567277779942" lon="118.53493669212646">
        <ele>8.460881892591715</ele>
        <time>2024-09-18T14:04:46Z</time>
      </trkpt>
      <trkpt lat="24.909574152029943" lon="118.5347411389665">
        <ele>7.813627238385379</ele>
        <time>2024-09-18T14:04:52Z</time>
      </trkpt>
      <trkpt lat="24.909603432953595" lon="118.53464752725748">
        <ele>7.95681366790086</ele>
        <time>2024-09-18T14:04:55Z</time>
      </trkpt>
      <trkpt lat="24.909642572446202" lon="118.53435241194992">
        <ele>7.270905267447233</ele>
        <time>2024-09-18T14:05:04Z</time>
      </trkpt>
      <trkpt lat="24.90966057571203" lon="118.5340573018416">
        <ele>7.7276566457003355</ele>
        <time>2024-09-18T14:05:13Z</time>
      </trkpt>
      <trkpt lat="24.90970934379673" lon="118.53388105009024">
        <ele>7.51546969730407</ele>
        <time>2024-09-18T14:05:19Z</time>
      </trkpt>
      <trkpt lat="24.909759439999352" lon="118.53381053164965">
        <ele>8.2753170048818</ele>
        <time>2024-09-18T14:05:22Z</time>
      </trkpt>
      <trkpt lat="24.909820850594087" lon="118.53376668497322">
        <ele>8.376482516527176</ele>
        <time>2024-09-18T14:05:25Z</time>
      </trkpt>
      <trkpt lat="24.91006933949337" lon="118.53370795698417">
        <ele>9.091413509100676</ele>
        <time>2024-09-18T14:05:34Z</time>
      </trkpt>
      <trkpt lat="24.910138562437655" lon="118.53366805941253">
        <ele>9.550527325831354</ele>
        <time>2024-09-18T14:05:37Z</time>
      </trkpt>
      <trkpt lat="24.910226322020325" lon="118.53366210240692">
        <ele>9.880325651727617</ele>
        <time>2024-09-18T14:05:40Z</time>
      </trkpt>
      <trkpt lat="24.910410804577495" lon="118.53368864301689">
        <ele>10.2320571038872</ele>
        <time>2024-09-18T14:05:46Z</time>
      </trkpt>
      <trkpt lat="24.91050645433462" lon="118.53372564838311">
        <ele>9.99054482486099</ele>
        <time>2024-09-18T14:05:49Z</time>
      </trkpt>
      <trkpt lat="24.91079446485758" lon="118.53375669278955">
        <ele>10.029957450926304</ele>
        <time>2024-09-18T14:05:58Z</time>
      </trkpt>
      <trkpt lat="24.911145127089714" lon="118.53373442156334">
        <ele>10.189762403257191</ele>
        <time>2024-09-18T14:06:10Z</time>
      </trkpt>
      <trkpt lat="24.91142480412247" lon="118.53374142988504">
        <ele>10.271253569051623</ele>
        <time>2024-09-18T14:06:19Z</time>
      </trkpt>
      <trkpt lat="24.911698689845867" lon="118.53373554526752">
        <ele>10.127758326940238</ele>
        <time>2024-09-18T14:06:28Z</time>
      </trkpt>
      <trkpt lat="24.911973312452545" lon="118.53374729313252">
        <ele>10.014098554849625</ele>
        <time>2024-09-18T14:06:37Z</time>
      </trkpt>
      <trkpt lat="24.912326825663673" lon="118.53372260456139">
        <ele>10.50722042657435</ele>
        <time>2024-09-18T14:06:49Z</time>
      </trkpt>
      <trkpt lat="24.912672922492394" lon="118.53369207696464">
        <ele>10.655895099043846</ele>
        <time>2024-09-18T14:07:01Z</time>
      </trkpt>
      <trkpt lat="24.912760083900725" lon="118.53373093543969">
        <ele>10.435710304416716</ele>
        <time>2024-09-18T14:07:04Z</time>
      </trkpt>
      <trkpt lat="24.91310267585818" lon="118.53380693982095">
        <ele>10.190798407420516</ele>
        <time>2024-09-18T14:07:16Z</time>
      </trkpt>
      <trkpt lat="24.913451170691065" lon="118.53387765544073">
        <ele>10.240124287083745</ele>
        <time>2024-09-18T14:07:28Z</time>
      </trkpt>
      <trkpt lat="24.9135354843738" lon="118.53390024795947">
        <ele>10.118939220905304</ele>
        <time>2024-09-18T14:07:31Z</time>
      </trkpt>
      <trkpt lat="24.913808624451725" lon="118.53389986188937">
        <ele>11.194170562550426</ele>
        <time>2024-09-18T14:07:40Z</time>
      </trkpt>
      <trkpt lat="24.91406347009235" lon="118.53396134506076">
        <ele>10.690749686211348</ele>
        <time>2024-09-18T14:07:49Z</time>
      </trkpt>
      <trkpt lat="24.914159380938536" lon="118.53396527144642">
        <ele>10.743824360892177</ele>
        <time>2024-09-18T14:07:52Z</time>
      </trkpt>
      <trkpt lat="24.9143291197046" lon="118.53400750307776">
        <ele>11.042989418841898</ele>
        <time>2024-09-18T14:07:58Z</time>
      </trkpt>
      <trkpt lat="24.91468435793733" lon="118.53405915273993">
        <ele>12.585656566545367</ele>
        <time>2024-09-18T14:08:10Z</time>
      </trkpt>
      <trkpt lat="24.91477906061846" lon="118.53408055648349">
        <ele>13.13256941922009</ele>
        <time>2024-09-18T14:08:13Z</time>
      </trkpt>
      <trkpt lat="24.915052233126136" lon="118.53410076597422">
        <ele>12.408028990030289</ele>
        <time>2024-09-18T14:08:22Z</time>
      </trkpt>
      <trkpt lat="24.915332642367925" lon="118.53414729106478">
        <ele>13.192496311850846</ele>
        <time>2024-09-18T14:08:31Z</time>
      </trkpt>
      <trkpt lat="24.915503254096997" lon="118.53417004523598">
        <ele>12.888285908848047</ele>
        <time>2024-09-18T14:08:37Z</time>
      </trkpt>
      <trkpt lat="24.91585710126536" lon="118.53424714652105">
        <ele>12.92944554798305</ele>
        <time>2024-09-18T14:08:49Z</time>
      </trkpt>
      <trkpt lat="24.916209934129743" lon="118.53431134412625">
        <ele>12.730624292045832</ele>
        <time>2024-09-18T14:09:01Z</time>
      </trkpt>
      <trkpt lat="24.916397221142823" lon="118.53433216599993">
        <ele>12.809341276064515</ele>
        <time>2024-09-18T14:09:07Z</time>
      </trkpt>
      <trkpt lat="24.916666088782833" lon="118.53439519997127">
        <ele>13.903327236883342</ele>
        <time>2024-09-18T14:09:16Z</time>
      </trkpt>
      <trkpt lat="24.916931594072366" lon="118.53445446848929">
        <ele>14.916418249718845</ele>
        <time>2024-09-18T14:09:25Z</time>
      </trkpt>
      <trkpt lat="24.91702508994906" lon="118.53446076430399">
        <ele>14.730350069701672</ele>
        <time>2024-09-18T14:09:28Z</time>
      </trkpt>
      <trkpt lat="24.91729057560012" lon="118.53453197651645">
        <ele>14.90415763668716</ele>
        <time>2024-09-18T14:09:37Z</time>
      </trkpt>
      <trkpt lat="24.91755115101227" lon="118.53462202888628">
        <ele>15.41284357290715</ele>
        <time>2024-09-18T14:09:46Z</time>
      </trkpt>
      <trkpt lat="24.917747523331133" lon="118.53464915136034">
        <ele>14.744714837521315</ele>
        <time>2024-09-18T14:09:52Z</time>
      </trkpt>
      <trkpt lat="24.917996654549498" lon="118.53469841761553">
        <ele>14.519648257642984</ele>
        <time>2024-09-18T14:10:01Z</time>
      </trkpt>
      <trkpt lat="24.918083304939596" lon="118.53474026979157">
        <ele>14.397962125018239</ele>
        <time>2024-09-18T14:10:04Z</time>
      </trkpt>
      <trkpt lat="24.918280380415336" lon="118.53476844111195">
        <ele>14.568430414423347</ele>
        <time>2024-09-18T14:10:10Z</time>
      </trkpt>
      <trkpt lat="24.918360974879274" lon="118.53481738798112">
        <ele>14.071970733813941</ele>
        <time>2024-09-18T14:10:13Z</time>
      </trkpt>
      <trkpt lat="24.918428226301383" lon="118.53489110937296">
        <ele>13.030937109142542</ele>
        <time>2024-09-18T14:10:16Z</time>
      </trkpt>
      <trkpt lat="24.918504273027494" lon="118.53505522611015">
        <ele>12.66564628854394</ele>
        <time>2024-09-18T14:10:22Z</time>
      </trkpt>
      <trkpt lat="24.918486753085492" lon="118.53522318338905">
        <ele>11.384429067373276</ele>
        <time>2024-09-18T14:10:28Z</time>
      </trkpt>
      <trkpt lat="24.918342621527106" lon="118.53557724884818">
        <ele>10.957846228964627</ele>
        <time>2024-09-18T14:10:40Z</time>
      </trkpt>
      <trkpt lat="24.9182795436486" lon="118.53573684944925">
        <ele>10.658954720944166</ele>
        <time>2024-09-18T14:10:46Z</time>
      </trkpt>
      <trkpt lat="24.918235434907597" lon="118.53590699337579">
        <ele>9.776860092766583</ele>
        <time>2024-09-18T14:10:52Z</time>
      </trkpt>
      <trkpt lat="24.918088321902463" lon="118.5361890150223">
        <ele>9.516170616261661</ele>
        <time>2024-09-18T14:11:01Z</time>
      </trkpt>
      <trkpt lat="24.91797466532521" lon="118.53647325113869">
        <ele>10.066773887723684</ele>
        <time>2024-09-18T14:11:10Z</time>
      </trkpt>
      <trkpt lat="24.91788216758663" lon="118.53669027686809">
        <ele>9.9273314261809</ele>
        <time>2024-09-18T14:11:19Z</time>
      </trkpt>
      <trkpt lat="24.917875979476552" lon="118.53678401790123">
        <ele>9.75018858909607</ele>
        <time>2024-09-18T14:11:22Z</time>
      </trkpt>
      <trkpt lat="24.917788444855873" lon="118.53704080780997">
        <ele>10.099557022564113</ele>
        <time>2024-09-18T14:11:31Z</time>
      </trkpt>
      <trkpt lat="24.91771225562389" lon="118.53713200361564">
        <ele>9.739803360775113</ele>
        <time>2024-09-18T14:11:34Z</time>
      </trkpt>
      <trkpt lat="24.917634173687155" lon="118.53732779120598">
        <ele>10.145376728847623</ele>
        <time>2024-09-18T14:11:40Z</time>
      </trkpt>
      <trkpt lat="24.917581993713338" lon="118.53739775071033">
        <ele>9.827019122429192</ele>
        <time>2024-09-18T14:11:43Z</time>
      </trkpt>
      <trkpt lat="24.917575377803633" lon="118.53759868166138">
        <ele>10.521653176285326</ele>
        <time>2024-09-18T14:11:49Z</time>
      </trkpt>
      <trkpt lat="24.917491856906995" lon="118.53766734669306">
        <ele>10.449527026154101</ele>
        <time>2024-09-18T14:11:52Z</time>
      </trkpt>
      <trkpt lat="24.917454504613126" lon="118.53774907016025">
        <ele>10.456714247353375</ele>
        <time>2024-09-18T14:11:55Z</time>
      </trkpt>
      <trkpt lat="24.917387130918673" lon="118.53784074249069">
        <ele>10.620608675293624</ele>
        <time>2024-09-18T14:11:58Z</time>
      </trkpt>
      <trkpt lat="24.917311827098885" lon="118.53791053112086">
        <ele>10.163388088345528</ele>
        <time>2024-09-18T14:12:01Z</time>
      </trkpt>
      <trkpt lat="24.91726526157926" lon="118.53799119034548">
        <ele>10.056134335696697</ele>
        <time>2024-09-18T14:12:04Z</time>
      </trkpt>
      <trkpt lat="24.91723497298932" lon="118.53810226473077">
        <ele>10.268329304642975</ele>
        <time>2024-09-18T14:12:07Z</time>
      </trkpt>
      <trkpt lat="24.91717535166123" lon="118.53819017989422">
        <ele>10.135540701448917</ele>
        <time>2024-09-18T14:12:10Z</time>
      </trkpt>
      <trkpt lat="24.917123882962937" lon="118.53831758209144">
        <ele>9.858992526307702</ele>
        <time>2024-09-18T14:12:13Z</time>
      </trkpt>
      <trkpt lat="24.917021182118972" lon="118.53863921346766">
        <ele>10.011222531087697</ele>
        <time>2024-09-18T14:12:22Z</time>
      </trkpt>
      <trkpt lat="24.916952130941876" lon="118.53879557720816">
        <ele>10.484807362779975</ele>
        <time>2024-09-18T14:12:28Z</time>
      </trkpt>
      <trkpt lat="24.916908815857628" lon="118.53899030718769">
        <ele>10.468623662367463</ele>
        <time>2024-09-18T14:12:34Z</time>
      </trkpt>
      <trkpt lat="24.91684387190816" lon="118.53918766471568">
        <ele>10.142442120239139</ele>
        <time>2024-09-18T14:12:40Z</time>
      </trkpt>
      <trkpt lat="24.916670401430515" lon="118.53952929328328">
        <ele>9.753597779199481</ele>
        <time>2024-09-18T14:12:52Z</time>
      </trkpt>
      <trkpt lat="24.91651100579283" lon="118.53979869575801">
        <ele>10.634714354760945</ele>
        <time>2024-09-18T14:13:01Z</time>
      </trkpt>
      <trkpt lat="24.916383001784546" lon="118.54007444189786">
        <ele>11.976693867705762</ele>
        <time>2024-09-18T14:13:10Z</time>
      </trkpt>
      <trkpt lat="24.916318394533576" lon="118.54024293324835">
        <ele>11.86066834256053</ele>
        <time>2024-09-18T14:13:16Z</time>
      </trkpt>
      <trkpt lat="24.916282085477754" lon="118.54057239900393">
        <ele>12.51371178496629</ele>
        <time>2024-09-18T14:13:25Z</time>
      </trkpt>
      <trkpt lat="24.916309975961944" lon="118.54078177138632">
        <ele>12.364359624683857</ele>
        <time>2024-09-18T14:13:31Z</time>
      </trkpt>
      <trkpt lat="24.916402014806568" lon="118.54109538444585">
        <ele>12.733530756086111</ele>
        <time>2024-09-18T14:13:40Z</time>
      </trkpt>
      <trkpt lat="24.916480364525295" lon="118.54138966657905">
        <ele>13.118354245088995</ele>
        <time>2024-09-18T14:13:49Z</time>
      </trkpt>
      <trkpt lat="24.916526190445484" lon="118.54149298964259">
        <ele>12.835355723276734</ele>
        <time>2024-09-18T14:13:52Z</time>
      </trkpt>
      <trkpt lat="24.916548691567854" lon="118.54158682349546">
        <ele>12.411707369610667</ele>
        <time>2024-09-18T14:13:55Z</time>
      </trkpt>
      <trkpt lat="24.916392015777134" lon="118.54185736350173">
        <ele>12.157558523118496</ele>
        <time>2024-09-18T14:14:04Z</time>
      </trkpt>
      <trkpt lat="24.916104541137805" lon="118.54195069846169">
        <ele>12.154486104846</ele>
        <time>2024-09-18T14:14:13Z</time>
      </trkpt>
      <trkpt lat="24.915815970696247" lon="118.54204960721137">
        <ele>12.823457326740026</ele>
        <time>2024-09-18T14:14:22Z</time>
      </trkpt>
      <trkpt lat="24.915525436704876" lon="118.54219790194664">
        <ele>12.532349547371268</ele>
        <time>2024-09-18T14:14:31Z</time>
      </trkpt>
      <trkpt lat="24.915238040928177" lon="118.54233292477186">
        <ele>12.399000932462513</ele>
        <time>2024-09-18T14:14:40Z</time>
      </trkpt>
      <trkpt lat="24.91505483387568" lon="118.54238893355765">
        <ele>11.68027529399842</ele>
        <time>2024-09-18T14:14:46Z</time>
      </trkpt>
      <trkpt lat="24.914796562191153" lon="118.54242699692765">
        <ele>10.777268118225038</ele>
        <time>2024-09-18T14:14:55Z</time>
      </trkpt>
      <trkpt lat="24.914643140169762" lon="118.5424988744966">
        <ele>9.691028120927513</ele>
        <time>2024-09-18T14:15:01Z</time>
      </trkpt>
      <trkpt lat="24.91448354053138" lon="118.54253694899168">
        <ele>10.102072576060891</ele>
        <time>2024-09-18T14:15:07Z</time>
      </trkpt>
      <trkpt lat="24.91415783744461" lon="118.5425437806279">
        <ele>9.83900956157595</ele>
        <time>2024-09-18T14:15:19Z</time>
      </trkpt>
      <trkpt lat="24.913895174744038" lon="118.54262041679202">
        <ele>9.26753880083561</ele>
        <time>2024-09-18T14:15:28Z</time>
      </trkpt>
      <trkpt lat="24.913616205849124" lon="118.54267553010784">
        <ele>8.577138054184616</ele>
        <time>2024-09-18T14:15:37Z</time>
      </trkpt>
      <trkpt lat="24.913273417320415" lon="118.54276325833226">
        <ele>7.851896801032126</ele>
        <time>2024-09-18T14:15:49Z</time>
      </trkpt>
      <trkpt lat="24.91319240421132" lon="118.54282314959806">
        <ele>7.793619687668979</ele>
        <time>2024-09-18T14:15:52Z</time>
      </trkpt>
      <trkpt lat="24.912835853107733" lon="118.54285143691902">
        <ele>8.43008403107524</ele>
        <time>2024-09-18T14:16:04Z</time>
      </trkpt>
      <trkpt lat="24.91250064261404" lon="118.54295951164653">
        <ele>8.54291919246316</ele>
        <time>2024-09-18T14:16:16Z</time>
      </trkpt>
      <trkpt lat="24.91217627527239" lon="118.54303972834683">
        <ele>7.99040702637285</ele>
        <time>2024-09-18T14:16:28Z</time>
      </trkpt>
      <trkpt lat="24.911838624903094" lon="118.54316104717235">
        <ele>7.966658486053348</ele>
        <time>2024-09-18T14:16:40Z</time>
      </trkpt>
      <trkpt lat="24.91148730156292" lon="118.54322632529843">
        <ele>8.620259092189372</ele>
        <time>2024-09-18T14:16:52Z</time>
      </trkpt>
      <trkpt lat="24.911146052833896" lon="118.54329745520904">
        <ele>8.297930100001395</ele>
        <time>2024-09-18T14:17:04Z</time>
      </trkpt>
      <trkpt lat="24.91087353566668" lon="118.54332700132454">
        <ele>8.210384840145707</ele>
        <time>2024-09-18T14:17:13Z</time>
      </trkpt>
      <trkpt lat="24.910578967604778" lon="118.54335913358251">
        <ele>7.410950684919953</ele>
        <time>2024-09-18T14:17:22Z</time>
      </trkpt>
      <trkpt lat="24.910402233648057" lon="118.54331591095723">
        <ele>8.047981281764805</ele>
        <time>2024-09-18T14:17:28Z</time>
      </trkpt>
      <trkpt lat="24.910050898169935" lon="118.54335635888789">
        <ele>7.183968289755285</ele>
        <time>2024-09-18T14:17:40Z</time>
      </trkpt>
      <trkpt lat="24.90995888795416" lon="118.54337464724675">
        <ele>7.498158820904791</ele>
        <time>2024-09-18T14:17:43Z</time>
      </trkpt>
      <trkpt lat="24.90968147007862" lon="118.54335113816687">
        <ele>7.4261154774576426</ele>
        <time>2024-09-18T14:17:52Z</time>
      </trkpt>
      <trkpt lat="24.90958339737231" lon="118.54337302880273">
        <ele>7.247141326777637</ele>
        <time>2024-09-18T14:17:55Z</time>
      </trkpt>
      <trkpt lat="24.909415806673387" lon="118.54335348868536">
        <ele>7.610770132392645</ele>
        <time>2024-09-18T14:18:01Z</time>
      </trkpt>
      <trkpt lat="24.909324703710976" lon="118.5433832661223">
        <ele>7.802906314842403</ele>
        <time>2024-09-18T14:18:04Z</time>
      </trkpt>
      <trkpt lat="24.909146991314906" lon="118.54338451952013">
        <ele>7.209484180435538</ele>
        <time>2024-09-18T14:18:10Z</time>
      </trkpt>
      <trkpt lat="24.909067450797146" lon="118.54336833632637">
        <ele>7.642632315866649</ele>
        <time>2024-09-18T14:18:13Z</time>
      </trkpt>
      <trkpt lat="24.908970938134335" lon="118.54337891959936">
        <ele>7.338803461752832</ele>
        <time>2024-09-18T14:18:16Z</time>
      </trkpt>
      <trkpt lat="24.908879172103937" lon="118.54336490060739">
        <ele>7.471567542292178</ele>
        <time>2024-09-18T14:18:19Z</time>
      </trkpt>
      <trkpt lat="24.90856434502479" lon="118.54339195481612">
        <ele>7.56647130753845</ele>
        <time>2024-09-18T14:18:28Z</time>
      </trkpt>
      <trkpt lat="24.90827733346485" lon="118.54341469943084">
        <ele>7.542412839829922</ele>
        <time>2024-09-18T14:18:37Z</time>
      </trkpt>
      <trkpt lat="24.907924905595955" lon="118.54340852682519">
        <ele>7.669796084053814</ele>
        <time>2024-09-18T14:18:49Z</time>
      </trkpt>
      <trkpt lat="24.907666399058467" lon="118.5434271959075">
        <ele>7.83751024864614</ele>
        <time>2024-09-18T14:18:58Z</time>
      </trkpt>
      <trkpt lat="24.907373120158645" lon="118.54339250140292">
        <ele>7.708609138615429</ele>
        <time>2024-09-18T14:19:07Z</time>
      </trkpt>
      <trkpt lat="24.907301884889183" lon="118.54332555059813">
        <ele>7.518090442754328</ele>
        <time>2024-09-18T14:19:10Z</time>
      </trkpt>
      <trkpt lat="24.90730196117677" lon="118.54324686405417">
        <ele>7.735657057724893</ele>
        <time>2024-09-18T14:19:13Z</time>
      </trkpt>
      <trkpt lat="24.90741039832038" lon="118.54295692030809">
        <ele>8.585791120305657</ele>
        <time>2024-09-18T14:19:22Z</time>
      </trkpt>
      <trkpt lat="24.90753322338747" lon="118.54271902113992">
        <ele>7.858058966696262</ele>
        <time>2024-09-18T14:19:31Z</time>
      </trkpt>
      <trkpt lat="24.90761055836229" lon="118.542429768232">
        <ele>8.980927712284029</ele>
        <time>2024-09-18T14:19:40Z</time>
      </trkpt>
      <trkpt lat="24.9076412889219" lon="118.54233142707774">
        <ele>9.082096464000642</ele>
        <time>2024-09-18T14:19:43Z</time>
      </trkpt>
      <trkpt lat="24.9077422661156" lon="118.54215343919273">
        <ele>8.602237490005791</ele>
        <time>2024-09-18T14:19:49Z</time>
      </trkpt>
      <trkpt lat="24.90782159177133" lon="118.54195958224172">
        <ele>9.21337621472776</ele>
        <time>2024-09-18T14:19:55Z</time>
      </trkpt>
      <trkpt lat="24.90781078738579" lon="118.54184490592253">
        <ele>8.971485908143222</ele>
        <time>2024-09-18T14:19:58Z</time>
      </trkpt>
      <trkpt lat="24.90783295386823" lon="118.54177742385761">
        <ele>9.69112885557115</ele>
        <time>2024-09-18T14:20:01Z</time>
      </trkpt>
      <trkpt lat="24.907894900103745" lon="118.54167529523009">
        <ele>9.857892736792564</ele>
        <time>2024-09-18T14:20:04Z</time>
      </trkpt>
      <trkpt lat="24.90793751652007" lon="118.54152853694717">
        <ele>10.449858950451016</ele>
        <time>2024-09-18T14:20:10Z</time>
      </trkpt>
      <trkpt lat="24.90793362158844" lon="118.54143002634157">
        <ele>10.543034302070737</ele>
        <time>2024-09-18T14:20:13Z</time>
      </trkpt>
      <trkpt lat="24.90801513711841" lon="118.54124410859932">
        <ele>10.625595132820308</ele>
        <time>2024-09-18T14:20:19Z</time>
      </trkpt>
      <trkpt lat="24.90820204748247" lon="118.54101798937762">
        <ele>10.280028026551008</ele>
        <time>2024-09-18T14:20:25Z</time>
      </trkpt>
      <trkpt lat="24.90825949212695" lon="118.54092157745501">
        <ele>9.689686522819102</ele>
        <time>2024-09-18T14:20:28Z</time>
      </trkpt>
      <trkpt lat="24.90835654760428" lon="118.54063208823082">
        <ele>9.038618533872068</ele>
        <time>2024-09-18T14:20:37Z</time>
      </trkpt>
      <trkpt lat="24.90850840791254" lon="118.54035212467137">
        <ele>8.642419055104256</ele>
        <time>2024-09-18T14:20:46Z</time>
      </trkpt>
      <trkpt lat="24.90856496607535" lon="118.54020819914574">
        <ele>8.676577924750745</ele>
        <time>2024-09-18T14:20:49Z</time>
      </trkpt>
      <trkpt lat="24.908602577690054" lon="118.53990043081596">
        <ele>8.379556901752949</ele>
        <time>2024-09-18T14:20:58Z</time>
      </trkpt>
      <trkpt lat="24.908620096667132" lon="118.53982278275096">
        <ele>8.433007899671793</ele>
        <time>2024-09-18T14:21:01Z</time>
      </trkpt>
      <trkpt lat="24.908619544439397" lon="118.53971612779151">
        <ele>7.589494984596968</ele>
        <time>2024-09-18T14:21:04Z</time>
      </trkpt>
      <trkpt lat="24.90871363927544" lon="118.53945420958705">
        <ele>8.15391820948571</ele>
        <time>2024-09-18T14:21:13Z</time>
      </trkpt>
      <trkpt lat="24.908800617158132" lon="118.5391045448882">
        <ele>7.777738654986024</ele>
        <time>2024-09-18T14:21:25Z</time>
      </trkpt>
      <trkpt lat="24.908887464012174" lon="118.53874971163243">
        <ele>7.766814009286463</ele>
        <time>2024-09-18T14:21:37Z</time>
      </trkpt>
      <trkpt lat="24.90892774704136" lon="118.53856246163342">
        <ele>7.672626904211938</ele>
        <time>2024-09-18T14:21:43Z</time>
      </trkpt>
      <trkpt lat="24.909004001391338" lon="118.53836920007579">
        <ele>7.844780669547617</ele>
        <time>2024-09-18T14:21:49Z</time>
      </trkpt>
      <trkpt lat="24.9090688507877" lon="118.5379861849696">
        <ele>7.4897193145006895</ele>
        <time>2024-09-18T14:22:01Z</time>
      </trkpt>
      <trkpt lat="24.909070212765556" lon="118.53771784759961">
        <ele>8.19113361556083</ele>
        <time>2024-09-18T14:22:08Z</time>
      </trkpt>
      <trkpt lat="24.909168921429345" lon="118.53743829265909">
        <ele>9.225656727328897</ele>
        <time>2024-09-18T14:22:16Z</time>
      </trkpt>
      <trkpt lat="24.90925381037527" lon="118.53702319587792">
        <ele>9.872288103215396</ele>
        <time>2024-09-18T14:22:28Z</time>
      </trkpt>
      <trkpt lat="24.909310806565326" lon="118.53688518980697">
        <ele>9.855205584317446</ele>
        <time>2024-09-18T14:22:32Z</time>
      </trkpt>
      <trkpt lat="24.909406805444767" lon="118.53650939823197">
        <ele>9.78758757095784</ele>
        <time>2024-09-18T14:22:44Z</time>
      </trkpt>
      <trkpt lat="24.90947004479426" lon="118.53611227405516">
        <ele>9.837110929191113</ele>
        <time>2024-09-18T14:22:56Z</time>
      </trkpt>
      <trkpt lat="24.909518636102263" lon="118.53572634597572">
        <ele>9.824016930535436</ele>
        <time>2024-09-18T14:23:07Z</time>
      </trkpt>
      <trkpt lat="24.909517344924044" lon="118.53563396205568">
        <ele>9.556653742678463</ele>
        <time>2024-09-18T14:23:10Z</time>
      </trkpt>
      <trkpt lat="24.90958658954462" lon="118.53522146631853">
        <ele>9.168927825056016</ele>
        <time>2024-09-18T14:23:22Z</time>
      </trkpt>
      <trkpt lat="24.909652202034167" lon="118.5348274834484">
        <ele>7.52724174130708</ele>
        <time>2024-09-18T14:23:34Z</time>
      </trkpt>
      <trkpt lat="24.909659598247945" lon="118.53457201326779">
        <ele>7.818000909872353</ele>
        <time>2024-09-18T14:23:42Z</time>
      </trkpt>
      <trkpt lat="24.909711367149757" lon="118.5343162512574">
        <ele>8.042284850031137</ele>
        <time>2024-09-18T14:23:50Z</time>
      </trkpt>
      <trkpt lat="24.909750980488916" lon="118.53405318760795">
        <ele>7.505712259560823</ele>
        <time>2024-09-18T14:23:58Z</time>
      </trkpt>
      <trkpt lat="24.909799055617054" lon="118.53393416690236">
        <ele>6.975076522678137</ele>
        <time>2024-09-18T14:24:02Z</time>
      </trkpt>
      <trkpt lat="24.909894265574433" lon="118.53386223846184">
        <ele>7.967723103240132</ele>
        <time>2024-09-18T14:24:06Z</time>
      </trkpt>
      <trkpt lat="24.90999395778066" lon="118.53383636334787">
        <ele>7.9108647629618645</ele>
        <time>2024-09-18T14:24:10Z</time>
      </trkpt>
      <trkpt lat="24.910106098837755" lon="118.53383119466616">
        <ele>8.162985634990036</ele>
        <time>2024-09-18T14:24:14Z</time>
      </trkpt>
      <trkpt lat="24.91034503185042" lon="118.53373157253615">
        <ele>10.138013205491006</ele>
        <time>2024-09-18T14:24:22Z</time>
      </trkpt>
      <trkpt lat="24.91074176239568" lon="118.5337597209559">
        <ele>10.156941071152687</ele>
        <time>2024-09-18T14:24:34Z</time>
      </trkpt>
      <trkpt lat="24.911134149011147" lon="118.5337607323045">
        <ele>10.017984375357628</ele>
        <time>2024-09-18T14:24:46Z</time>
      </trkpt>
      <trkpt lat="24.911519385838385" lon="118.53376989388826">
        <ele>10.381589007563889</ele>
        <time>2024-09-18T14:24:58Z</time>
      </trkpt>
      <trkpt lat="24.911834577314323" lon="118.53376619919935">
        <ele>10.54300884436816</ele>
        <time>2024-09-18T14:25:09Z</time>
      </trkpt>
      <trkpt lat="24.912207541339054" lon="118.53375496787882">
        <ele>10.52770795300603</ele>
        <time>2024-09-18T14:25:21Z</time>
      </trkpt>
      <trkpt lat="24.91253772139715" lon="118.53373468554263">
        <ele>10.749352834187448</ele>
        <time>2024-09-18T14:25:33Z</time>
      </trkpt>
      <trkpt lat="24.912893819459878" lon="118.53378893146967">
        <ele>10.651637332513928</ele>
        <time>2024-09-18T14:25:45Z</time>
      </trkpt>
      <trkpt lat="24.91328057861045" lon="118.53386743683639">
        <ele>10.177411035634577</ele>
        <time>2024-09-18T14:25:57Z</time>
      </trkpt>
      <trkpt lat="24.91353074738063" lon="118.5339224372236">
        <ele>9.957013556733727</ele>
        <time>2024-09-18T14:26:05Z</time>
      </trkpt>
      <trkpt lat="24.913917895177416" lon="118.53393867043354">
        <ele>10.726114236749709</ele>
        <time>2024-09-18T14:26:17Z</time>
      </trkpt>
      <trkpt lat="24.914298044423212" lon="118.5340117967162">
        <ele>11.141850344836712</ele>
        <time>2024-09-18T14:26:29Z</time>
      </trkpt>
      <trkpt lat="24.91468023026482" lon="118.5340552805431">
        <ele>12.884193800389767</ele>
        <time>2024-09-18T14:26:41Z</time>
      </trkpt>
      <trkpt lat="24.91495108214693" lon="118.53410051439855">
        <ele>13.041339342482388</ele>
        <time>2024-09-18T14:26:49Z</time>
      </trkpt>
      <trkpt lat="24.915089133515142" lon="118.53412196243733">
        <ele>12.924106913618743</ele>
        <time>2024-09-18T14:26:53Z</time>
      </trkpt>
      <trkpt lat="24.915089133515142" lon="118.53412196243733">
        <ele>12.924106913618743</ele>
        <time>2024-09-18T14:26:54Z</time>
      </trkpt>
    </trkseg>
  </trk>
</gpx>