<?xml version="1.0" encoding="UTF-8"?>
<gpx xmlns="http://www.topografix.com/GPX/1/1" xmlns:gpxtpx="http://www.garmin.com/xmlschemas/TrackPointExtension/v1" xmlns:xsi="http://www.w3.org/2001/XMLSchema-instance" xsi:schemaLocation="http://www.topografix.com/GPX/1/1 http://www.topografix.com/GPX/1/1/gpx.xsd" version="1.1" creator="gpx.py -- https://github.com/tkrajina/gpxpy">
  <trk>
    <name>gpx from keep</name>
    <type>Run</type>
    <trkseg>
      <trkpt lat="24.911247755349017" lon="118.53739019892282">
        <ele>10.62793523259461</ele>
        <time>2025-06-17T13:21:07Z</time>
      </trkpt>
      <trkpt lat="24.91114317089216" lon="118.53762685218396">
        <ele>10.503657479770482</ele>
        <time>2025-06-17T13:21:15Z</time>
      </trkpt>
      <trkpt lat="24.911098262181234" lon="118.53777716743559">
        <ele>10.465919395908713</ele>
        <time>2025-06-17T13:21:19Z</time>
      </trkpt>
      <trkpt lat="24.911039862538473" lon="118.53791048183898">
        <ele>10.382074635475874</ele>
        <time>2025-06-17T13:21:23Z</time>
      </trkpt>
      <trkpt lat="24.910899010538653" lon="118.53813671827793">
        <ele>9.825626310892403</ele>
        <time>2025-06-17T13:21:31Z</time>
      </trkpt>
      <trkpt lat="24.91079130086039" lon="118.53837990798047">
        <ele>9.618195038288832</ele>
        <time>2025-06-17T13:21:39Z</time>
      </trkpt>
      <trkpt lat="24.910764743319337" lon="118.53850965945591">
        <ele>9.954128480516374</ele>
        <time>2025-06-17T13:21:43Z</time>
      </trkpt>
      <trkpt lat="24.91079636792249" lon="118.53865018896026">
        <ele>10.17143637035042</ele>
        <time>2025-06-17T13:21:47Z</time>
      </trkpt>
      <trkpt lat="24.91115307211768" lon="118.53877465353709">
        <ele>8.899429957382381</ele>
        <time>2025-06-17T13:21:59Z</time>
      </trkpt>
      <trkpt lat="24.911169876282553" lon="118.53888750954653">
        <ele>8.815593192353845</ele>
        <time>2025-06-17T13:22:03Z</time>
      </trkpt>
      <trkpt lat="24.911153839649756" lon="118.5390217317702">
        <ele>8.129317123442888</ele>
        <time>2025-06-17T13:22:07Z</time>
      </trkpt>
      <trkpt lat="24.911109797795806" lon="118.53915667234875">
        <ele>7.566819176077843</ele>
        <time>2025-06-17T13:22:11Z</time>
      </trkpt>
      <trkpt lat="24.911041179015065" lon="118.53948660142481">
        <ele>7.804667565971613</ele>
        <time>2025-06-17T13:22:21Z</time>
      </trkpt>
      <trkpt lat="24.9109202895753" lon="118.53985610621693">
        <ele>7.783501419238746</ele>
        <time>2025-06-17T13:22:33Z</time>
      </trkpt>
      <trkpt lat="24.91082778118246" lon="118.54021126345683">
        <ele>7.706318682990968</ele>
        <time>2025-06-17T13:22:45Z</time>
      </trkpt>
      <trkpt lat="24.91080007466312" lon="118.5402892589501">
        <ele>6.712294084019959</ele>
        <time>2025-06-17T13:22:48Z</time>
      </trkpt>
      <trkpt lat="24.9107439855132" lon="118.54058200316621">
        <ele>7.432788196019828</ele>
        <time>2025-06-17T13:22:57Z</time>
      </trkpt>
      <trkpt lat="24.91071478306564" lon="118.54089629731438">
        <ele>7.00454674102366</ele>
        <time>2025-06-17T13:23:07Z</time>
      </trkpt>
      <trkpt lat="24.910619320280855" lon="118.5412537239771">
        <ele>7.359323151409626</ele>
        <time>2025-06-17T13:23:19Z</time>
      </trkpt>
      <trkpt lat="24.910550546158678" lon="118.54145105522802">
        <ele>7.393369177356362</ele>
        <time>2025-06-17T13:23:25Z</time>
      </trkpt>
      <trkpt lat="24.910499535742026" lon="118.54155001220829">
        <ele>7.54930374212563</ele>
        <time>2025-06-17T13:23:28Z</time>
      </trkpt>
      <trkpt lat="24.910279028124148" lon="118.54180304812913">
        <ele>8.044959391467273</ele>
        <time>2025-06-17T13:23:37Z</time>
      </trkpt>
      <trkpt lat="24.910314310714668" lon="118.54191547602582">
        <ele>7.603810021653771</ele>
        <time>2025-06-17T13:23:40Z</time>
      </trkpt>
      <trkpt lat="24.91033191080082" lon="118.54222461045886">
        <ele>7.645525772124529</ele>
        <time>2025-06-17T13:23:49Z</time>
      </trkpt>
      <trkpt lat="24.91032626071819" lon="118.54232473352747">
        <ele>8.003030471503735</ele>
        <time>2025-06-17T13:23:52Z</time>
      </trkpt>
      <trkpt lat="24.91024837559633" lon="118.54270268619662">
        <ele>7.887689175084233</ele>
        <time>2025-06-17T13:24:04Z</time>
      </trkpt>
      <trkpt lat="24.9101952114037" lon="118.5430215643717">
        <ele>8.03183424193412</ele>
        <time>2025-06-17T13:24:14Z</time>
      </trkpt>
      <trkpt lat="24.91023268112133" lon="118.54319495978775">
        <ele>7.868881134316325</ele>
        <time>2025-06-17T13:24:20Z</time>
      </trkpt>
      <trkpt lat="24.910231342084867" lon="118.54328095729055">
        <ele>7.665813613682985</ele>
        <time>2025-06-17T13:24:23Z</time>
      </trkpt>
      <trkpt lat="24.910254801728478" lon="118.54334894372604">
        <ele>7.975394482724369</ele>
        <time>2025-06-17T13:24:26Z</time>
      </trkpt>
      <trkpt lat="24.910552764076236" lon="118.54335826825194">
        <ele>7.384957352653146</ele>
        <time>2025-06-17T13:24:38Z</time>
      </trkpt>
      <trkpt lat="24.910734370505768" lon="118.54338068030258">
        <ele>7.880031995475292</ele>
        <time>2025-06-17T13:24:44Z</time>
      </trkpt>
      <trkpt lat="24.910791589320386" lon="118.5434839123792">
        <ele>8.322205533273518</ele>
        <time>2025-06-17T13:24:47Z</time>
      </trkpt>
      <trkpt lat="24.910998550253094" lon="118.54367602985769">
        <ele>7.924674333073199</ele>
        <time>2025-06-17T13:24:56Z</time>
      </trkpt>
      <trkpt lat="24.911080782910886" lon="118.54369674452964">
        <ele>7.3476878218352795</ele>
        <time>2025-06-17T13:24:59Z</time>
      </trkpt>
      <trkpt lat="24.91122721184352" lon="118.5436434945295">
        <ele>7.842397878877819</ele>
        <time>2025-06-17T13:25:05Z</time>
      </trkpt>
      <trkpt lat="24.91150561842143" lon="118.54359203345477">
        <ele>7.766311516985297</ele>
        <time>2025-06-17T13:25:15Z</time>
      </trkpt>
      <trkpt lat="24.911764765681934" lon="118.54355722040742">
        <ele>7.478173026815057</ele>
        <time>2025-06-17T13:25:23Z</time>
      </trkpt>
      <trkpt lat="24.91204105696295" lon="118.54347210741933">
        <ele>7.662625540979207</ele>
        <time>2025-06-17T13:25:32Z</time>
      </trkpt>
      <trkpt lat="24.91230517642532" lon="118.54339910158069">
        <ele>6.94840946700424</ele>
        <time>2025-06-17T13:25:41Z</time>
      </trkpt>
      <trkpt lat="24.912636452736283" lon="118.54332469440193">
        <ele>7.93579155113548</ele>
        <time>2025-06-17T13:25:53Z</time>
      </trkpt>
      <trkpt lat="24.912829746692086" lon="118.54330663077968">
        <ele>7.714036801829934</ele>
        <time>2025-06-17T13:25:59Z</time>
      </trkpt>
      <trkpt lat="24.91303935061711" lon="118.54324720460606">
        <ele>7.92109208740294</ele>
        <time>2025-06-17T13:26:05Z</time>
      </trkpt>
      <trkpt lat="24.91317554572088" lon="118.54316004605516">
        <ele>7.012556407600641</ele>
        <time>2025-06-17T13:26:11Z</time>
      </trkpt>
      <trkpt lat="24.91352053065409" lon="118.54308883849487">
        <ele>7.4044979540631175</ele>
        <time>2025-06-17T13:26:23Z</time>
      </trkpt>
      <trkpt lat="24.913860889045004" lon="118.54308795471282">
        <ele>8.243783917278051</ele>
        <time>2025-06-17T13:26:35Z</time>
      </trkpt>
      <trkpt lat="24.913938359290423" lon="118.54303985224408">
        <ele>8.348880540579557</ele>
        <time>2025-06-17T13:26:38Z</time>
      </trkpt>
      <trkpt lat="24.91402031340314" lon="118.54301659614083">
        <ele>8.364484963938594</ele>
        <time>2025-06-17T13:26:41Z</time>
      </trkpt>
      <trkpt lat="24.91415128648344" lon="118.54293271645068">
        <ele>8.425679521635175</ele>
        <time>2025-06-17T13:26:47Z</time>
      </trkpt>
      <trkpt lat="24.914383542469885" lon="118.54291394060122">
        <ele>9.588568401522934</ele>
        <time>2025-06-17T13:26:56Z</time>
      </trkpt>
      <trkpt lat="24.914549982526268" lon="118.54292306150079">
        <ele>9.976269382052124</ele>
        <time>2025-06-17T13:27:02Z</time>
      </trkpt>
      <trkpt lat="24.914846121519272" lon="118.54278384776417">
        <ele>10.185923947021365</ele>
        <time>2025-06-17T13:27:11Z</time>
      </trkpt>
      <trkpt lat="24.915145237600502" lon="118.54267284471752">
        <ele>10.49229281488806</ele>
        <time>2025-06-17T13:27:21Z</time>
      </trkpt>
      <trkpt lat="24.915480993723914" lon="118.5425636886898">
        <ele>12.502647780813277</ele>
        <time>2025-06-17T13:27:32Z</time>
      </trkpt>
      <trkpt lat="24.915784695385682" lon="118.54251520323918">
        <ele>12.575891893357038</ele>
        <time>2025-06-17T13:27:42Z</time>
      </trkpt>
      <trkpt lat="24.915934460897805" lon="118.54250929288125">
        <ele>12.34564181882888</ele>
        <time>2025-06-17T13:27:48Z</time>
      </trkpt>
      <trkpt lat="24.916175257028534" lon="118.54246604895822">
        <ele>12.606497253291309</ele>
        <time>2025-06-17T13:27:57Z</time>
      </trkpt>
      <trkpt lat="24.916437129617684" lon="118.54238833509989">
        <ele>12.276360346004367</ele>
        <time>2025-06-17T13:28:06Z</time>
      </trkpt>
      <trkpt lat="24.91651990199229" lon="118.54240718426402">
        <ele>12.42382700741291</ele>
        <time>2025-06-17T13:28:09Z</time>
      </trkpt>
      <trkpt lat="24.916627712218276" lon="118.54240463261714">
        <ele>12.42750214971602</ele>
        <time>2025-06-17T13:28:13Z</time>
      </trkpt>
      <trkpt lat="24.916706146556443" lon="118.5423772424991">
        <ele>12.88262508995831</ele>
        <time>2025-06-17T13:28:16Z</time>
      </trkpt>
      <trkpt lat="24.916706146556443" lon="118.5423772424991">
        <ele>12.88262508995831</ele>
        <time>2025-06-17T13:28:16Z</time>
      </trkpt>
      <trkpt lat="24.91675353802313" lon="118.54234778497106">
        <ele>12.423684012144804</ele>
        <time>2025-06-17T13:28:28Z</time>
      </trkpt>
      <trkpt lat="24.916933451568273" lon="118.5422945204186">
        <ele>12.393674940802157</ele>
        <time>2025-06-17T13:28:37Z</time>
      </trkpt>
      <trkpt lat="24.917015357119713" lon="118.54223157088352">
        <ele>11.130037455819547</ele>
        <time>2025-06-17T13:28:40Z</time>
      </trkpt>
      <trkpt lat="24.917296567605685" lon="118.54216922428995">
        <ele>10.04986637365073</ele>
        <time>2025-06-17T13:28:49Z</time>
      </trkpt>
      <trkpt lat="24.917570480247463" lon="118.54213620346538">
        <ele>11.40387969929725</ele>
        <time>2025-06-17T13:28:58Z</time>
      </trkpt>
      <trkpt lat="24.917850560307716" lon="118.54210316960985">
        <ele>11.913378953002393</ele>
        <time>2025-06-17T13:29:07Z</time>
      </trkpt>
      <trkpt lat="24.91813072319443" lon="118.54209149249718">
        <ele>12.140635777264833</ele>
        <time>2025-06-17T13:29:16Z</time>
      </trkpt>
      <trkpt lat="24.91840556411326" lon="118.54209373279727">
        <ele>12.758371269330382</ele>
        <time>2025-06-17T13:29:25Z</time>
      </trkpt>
      <trkpt lat="24.91848483712338" lon="118.54208386052734">
        <ele>13.084045547991991</ele>
        <time>2025-06-17T13:29:28Z</time>
      </trkpt>
      <trkpt lat="24.91875853418836" lon="118.54210297036322">
        <ele>13.641449330374599</ele>
        <time>2025-06-17T13:29:37Z</time>
      </trkpt>
      <trkpt lat="24.919034724395573" lon="118.5421087101548">
        <ele>14.791839119046926</ele>
        <time>2025-06-17T13:29:46Z</time>
      </trkpt>
      <trkpt lat="24.919306203821986" lon="118.54211118011601">
        <ele>14.521359727717936</ele>
        <time>2025-06-17T13:29:55Z</time>
      </trkpt>
      <trkpt lat="24.919659199313266" lon="118.5421184988227">
        <ele>14.63224676810205</ele>
        <time>2025-06-17T13:30:07Z</time>
      </trkpt>
      <trkpt lat="24.920001294746797" lon="118.54212679391057">
        <ele>13.56353362929076</ele>
        <time>2025-06-17T13:30:19Z</time>
      </trkpt>
      <trkpt lat="24.92036872250708" lon="118.5421429807835">
        <ele>12.348265526816249</ele>
        <time>2025-06-17T13:30:31Z</time>
      </trkpt>
      <trkpt lat="24.920455357623627" lon="118.54215097121362">
        <ele>12.052810063585639</ele>
        <time>2025-06-17T13:30:34Z</time>
      </trkpt>
      <trkpt lat="24.920536665553186" lon="118.54217902789786">
        <ele>12.28959459066391</ele>
        <time>2025-06-17T13:30:37Z</time>
      </trkpt>
      <trkpt lat="24.92088765245457" lon="118.54214208275766">
        <ele>13.736082210205495</ele>
        <time>2025-06-17T13:30:49Z</time>
      </trkpt>
      <trkpt lat="24.921238012980975" lon="118.54214951423238">
        <ele>14.955100173130631</ele>
        <time>2025-06-17T13:31:01Z</time>
      </trkpt>
      <trkpt lat="24.921590822176565" lon="118.54215915150264">
        <ele>15.931742262095213</ele>
        <time>2025-06-17T13:31:13Z</time>
      </trkpt>
      <trkpt lat="24.92193814500733" lon="118.54220509650949">
        <ele>17.620846183039248</ele>
        <time>2025-06-17T13:31:25Z</time>
      </trkpt>
      <trkpt lat="24.92227470639591" lon="118.54226342639183">
        <ele>19.42535573709756</ele>
        <time>2025-06-17T13:31:37Z</time>
      </trkpt>
      <trkpt lat="24.922624877008378" lon="118.54233399466601">
        <ele>20.260136038064957</ele>
        <time>2025-06-17T13:31:49Z</time>
      </trkpt>
      <trkpt lat="24.92295022326545" lon="118.54243737138059">
        <ele>22.158875856548548</ele>
        <time>2025-06-17T13:32:01Z</time>
      </trkpt>
      <trkpt lat="24.92327911679339" lon="118.54255523194854">
        <ele>22.200527917593718</ele>
        <time>2025-06-17T13:32:13Z</time>
      </trkpt>
      <trkpt lat="24.923591981793702" lon="118.54269975612151">
        <ele>23.99032864999026</ele>
        <time>2025-06-17T13:32:25Z</time>
      </trkpt>
      <trkpt lat="24.923820078492664" lon="118.54280325858961">
        <ele>25.487114754505455</ele>
        <time>2025-06-17T13:32:34Z</time>
      </trkpt>
      <trkpt lat="24.924054244047838" lon="118.54295488359108">
        <ele>28.005651488900185</ele>
        <time>2025-06-17T13:32:43Z</time>
      </trkpt>
      <trkpt lat="24.924361885585945" lon="118.54316154888822">
        <ele>27.938137345016003</ele>
        <time>2025-06-17T13:32:55Z</time>
      </trkpt>
      <trkpt lat="24.924579601130898" lon="118.54334024350203">
        <ele>27.241059942170978</ele>
        <time>2025-06-17T13:33:04Z</time>
      </trkpt>
      <trkpt lat="24.9247913835761" lon="118.54353157855292">
        <ele>24.993512962013483</ele>
        <time>2025-06-17T13:33:13Z</time>
      </trkpt>
      <trkpt lat="24.924989918644343" lon="118.54373498124585">
        <ele>22.914243588224053</ele>
        <time>2025-06-17T13:33:22Z</time>
      </trkpt>
      <trkpt lat="24.925188678970912" lon="118.54393816130487">
        <ele>21.849055481143296</ele>
        <time>2025-06-17T13:33:31Z</time>
      </trkpt>
      <trkpt lat="24.92542190365133" lon="118.54423319669547">
        <ele>19.781301375478506</ele>
        <time>2025-06-17T13:33:43Z</time>
      </trkpt>
      <trkpt lat="24.925643826451505" lon="118.54454227419733">
        <ele>17.263714414089918</ele>
        <time>2025-06-17T13:33:55Z</time>
      </trkpt>
      <trkpt lat="24.925798337594173" lon="118.54476750763065">
        <ele>16.527297008782625</ele>
        <time>2025-06-17T13:34:04Z</time>
      </trkpt>
      <trkpt lat="24.925940696771782" lon="118.54502828244009">
        <ele>16.27565331198275</ele>
        <time>2025-06-17T13:34:13Z</time>
      </trkpt>
      <trkpt lat="24.926090649105873" lon="118.54527107226448">
        <ele>15.249623840674758</ele>
        <time>2025-06-17T13:34:22Z</time>
      </trkpt>
      <trkpt lat="24.92624718675312" lon="118.54551888113392">
        <ele>14.39454750251025</ele>
        <time>2025-06-17T13:34:31Z</time>
      </trkpt>
      <trkpt lat="24.92644379075522" lon="118.54584825607168">
        <ele>12.802078666165471</ele>
        <time>2025-06-17T13:34:43Z</time>
      </trkpt>
      <trkpt lat="24.926595808207054" lon="118.54611467274573">
        <ele>11.95389715489</ele>
        <time>2025-06-17T13:34:52Z</time>
      </trkpt>
      <trkpt lat="24.926745822491267" lon="118.5463562195967">
        <ele>11.347033045254648</ele>
        <time>2025-06-17T13:35:01Z</time>
      </trkpt>
      <trkpt lat="24.92682986472658" lon="118.54653638637765">
        <ele>11.783376078121364</ele>
        <time>2025-06-17T13:35:07Z</time>
      </trkpt>
      <trkpt lat="24.926836348113742" lon="118.54662033259882">
        <ele>11.175491434521973</ele>
        <time>2025-06-17T13:35:10Z</time>
      </trkpt>
      <trkpt lat="24.926872716697513" lon="118.5466760579249">
        <ele>11.527588005177677</ele>
        <time>2025-06-17T13:35:13Z</time>
      </trkpt>
      <trkpt lat="24.926950511420497" lon="118.54669712702209">
        <ele>10.761766622774303</ele>
        <time>2025-06-17T13:35:19Z</time>
      </trkpt>
      <trkpt lat="24.927012207756356" lon="118.54662872564782">
        <ele>10.534432427026331</ele>
        <time>2025-06-17T13:35:22Z</time>
      </trkpt>
      <trkpt lat="24.927058529837826" lon="118.54651551991519">
        <ele>10.293837891891599</ele>
        <time>2025-06-17T13:35:25Z</time>
      </trkpt>
      <trkpt lat="24.926977624559918" lon="118.5462193345981">
        <ele>11.736307182349265</ele>
        <time>2025-06-17T13:35:34Z</time>
      </trkpt>
      <trkpt lat="24.92693759521277" lon="118.54613838349584">
        <ele>11.822295018471777</ele>
        <time>2025-06-17T13:35:37Z</time>
      </trkpt>
      <trkpt lat="24.92688807494508" lon="118.54595129795649">
        <ele>12.13009972218424</ele>
        <time>2025-06-17T13:35:43Z</time>
      </trkpt>
      <trkpt lat="24.92683253741101" lon="118.54586617394357">
        <ele>12.428951409645379</ele>
        <time>2025-06-17T13:35:46Z</time>
      </trkpt>
      <trkpt lat="24.92667849181192" lon="118.54552582026804">
        <ele>14.275151889771223</ele>
        <time>2025-06-17T13:35:58Z</time>
      </trkpt>
      <trkpt lat="24.926546370453668" lon="118.54528226158395">
        <ele>15.019183679483831</ele>
        <time>2025-06-17T13:36:07Z</time>
      </trkpt>
      <trkpt lat="24.92636150237499" lon="118.54497964205574">
        <ele>16.237576054409146</ele>
        <time>2025-06-17T13:36:19Z</time>
      </trkpt>
      <trkpt lat="24.92617851408256" lon="118.54465446026315">
        <ele>17.37572791520506</ele>
        <time>2025-06-17T13:36:31Z</time>
      </trkpt>
      <trkpt lat="24.926055024689507" lon="118.54442299621739">
        <ele>18.150087509304285</ele>
        <time>2025-06-17T13:36:40Z</time>
      </trkpt>
      <trkpt lat="24.925857235938917" lon="118.54413035213062">
        <ele>19.24575929250568</ele>
        <time>2025-06-17T13:36:52Z</time>
      </trkpt>
      <trkpt lat="24.925631450374205" lon="118.54384999027029">
        <ele>21.32061297353357</ele>
        <time>2025-06-17T13:37:04Z</time>
      </trkpt>
      <trkpt lat="24.92552104329502" lon="118.54372657553799">
        <ele>21.98841862566769</ele>
        <time>2025-06-17T13:37:10Z</time>
      </trkpt>
      <trkpt lat="24.925363147958514" lon="118.54341462827999">
        <ele>24.679268659092486</ele>
        <time>2025-06-17T13:37:22Z</time>
      </trkpt>
      <trkpt lat="24.925281147840384" lon="118.54343035806689">
        <ele>24.72183006349951</ele>
        <time>2025-06-17T13:37:25Z</time>
      </trkpt>
      <trkpt lat="24.92516834303639" lon="118.5433000975467">
        <ele>24.54314190428704</ele>
        <time>2025-06-17T13:37:31Z</time>
      </trkpt>
      <trkpt lat="24.924899937689066" lon="118.54306138582106">
        <ele>28.578100132755935</ele>
        <time>2025-06-17T13:37:43Z</time>
      </trkpt>
      <trkpt lat="24.924612525083422" lon="118.54284809627472">
        <ele>30.78705568239093</ele>
        <time>2025-06-17T13:37:55Z</time>
      </trkpt>
      <trkpt lat="24.92432516475724" lon="118.54264678458787">
        <ele>31.578951724804938</ele>
        <time>2025-06-17T13:38:07Z</time>
      </trkpt>
      <trkpt lat="24.924081360134423" lon="118.54248951890678">
        <ele>31.209106042981148</ele>
        <time>2025-06-17T13:38:16Z</time>
      </trkpt>
      <trkpt lat="24.923753723729526" lon="118.5423220028056">
        <ele>28.54425289016217</ele>
        <time>2025-06-17T13:38:28Z</time>
      </trkpt>
      <trkpt lat="24.923460414301168" lon="118.54216947136366">
        <ele>25.663029976189137</ele>
        <time>2025-06-17T13:38:40Z</time>
      </trkpt>
      <trkpt lat="24.923197153165923" lon="118.54207620077051">
        <ele>23.09773521963507</ele>
        <time>2025-06-17T13:38:49Z</time>
      </trkpt>
      <trkpt lat="24.922943191562577" lon="118.5419909328704">
        <ele>21.93309006560594</ele>
        <time>2025-06-17T13:38:58Z</time>
      </trkpt>
      <trkpt lat="24.922857672906975" lon="118.54194247953666">
        <ele>21.572574777528644</ele>
        <time>2025-06-17T13:39:01Z</time>
      </trkpt>
      <trkpt lat="24.922517584012443" lon="118.54183736405744">
        <ele>19.970420588739216</ele>
        <time>2025-06-17T13:39:13Z</time>
      </trkpt>
      <trkpt lat="24.922241379644003" lon="118.54178042304926">
        <ele>18.76493963226676</ele>
        <time>2025-06-17T13:39:22Z</time>
      </trkpt>
      <trkpt lat="24.92206877025935" lon="118.54176358030965">
        <ele>18.744510857388377</ele>
        <time>2025-06-17T13:39:28Z</time>
      </trkpt>
      <trkpt lat="24.92197527255576" lon="118.54173309913132">
        <ele>18.575433427467942</ele>
        <time>2025-06-17T13:39:31Z</time>
      </trkpt>
      <trkpt lat="24.92168718368624" lon="118.54171150055811">
        <ele>16.752605490386486</ele>
        <time>2025-06-17T13:39:40Z</time>
      </trkpt>
      <trkpt lat="24.921332822968346" lon="118.54169220927695">
        <ele>17.295459046959877</ele>
        <time>2025-06-17T13:39:52Z</time>
      </trkpt>
      <trkpt lat="24.920972090812235" lon="118.54169746484729">
        <ele>14.979456616565585</ele>
        <time>2025-06-17T13:40:04Z</time>
      </trkpt>
      <trkpt lat="24.920680361097343" lon="118.54168271560594">
        <ele>14.691164368763566</ele>
        <time>2025-06-17T13:40:13Z</time>
      </trkpt>
      <trkpt lat="24.920608145793558" lon="118.5416625948878">
        <ele>14.723221047781408</ele>
        <time>2025-06-17T13:40:16Z</time>
      </trkpt>
      <trkpt lat="24.92033151695531" lon="118.54169028843842">
        <ele>13.626492323353887</ele>
        <time>2025-06-17T13:40:25Z</time>
      </trkpt>
      <trkpt lat="24.920055940405884" lon="118.5416881068802">
        <ele>14.011945065110922</ele>
        <time>2025-06-17T13:40:34Z</time>
      </trkpt>
      <trkpt lat="24.919781804839772" lon="118.5417033814255">
        <ele>14.523182151839137</ele>
        <time>2025-06-17T13:40:43Z</time>
      </trkpt>
      <trkpt lat="24.919482420783226" lon="118.54170099093012">
        <ele>14.333908029831946</ele>
        <time>2025-06-17T13:40:52Z</time>
      </trkpt>
      <trkpt lat="24.919205682551556" lon="118.54172854404851">
        <ele>14.133110824972391</ele>
        <time>2025-06-17T13:41:01Z</time>
      </trkpt>
      <trkpt lat="24.91912345552487" lon="118.54171245340153">
        <ele>14.499581941403449</ele>
        <time>2025-06-17T13:41:04Z</time>
      </trkpt>
      <trkpt lat="24.91884538397803" lon="118.54171704067652">
        <ele>13.035066660493612</ele>
        <time>2025-06-17T13:41:13Z</time>
      </trkpt>
      <trkpt lat="24.918665964130724" lon="118.54172928909311">
        <ele>12.578677613288164</ele>
        <time>2025-06-17T13:41:19Z</time>
      </trkpt>
      <trkpt lat="24.918361768708593" lon="118.54168551154078">
        <ele>11.722986745648086</ele>
        <time>2025-06-17T13:41:28Z</time>
      </trkpt>
      <trkpt lat="24.918169045534636" lon="118.54167785927555">
        <ele>11.246150482445955</ele>
        <time>2025-06-17T13:41:34Z</time>
      </trkpt>
      <trkpt lat="24.917831562263114" lon="118.54169544697604">
        <ele>9.853663429617882</ele>
        <time>2025-06-17T13:41:46Z</time>
      </trkpt>
      <trkpt lat="24.917557641121835" lon="118.54168647018545">
        <ele>9.617418662644923</ele>
        <time>2025-06-17T13:41:55Z</time>
      </trkpt>
      <trkpt lat="24.91725721169316" lon="118.54170682512854">
        <ele>9.753871981985867</ele>
        <time>2025-06-17T13:42:04Z</time>
      </trkpt>
      <trkpt lat="24.91698720381969" lon="118.54173658510165">
        <ele>9.80895478092134</ele>
        <time>2025-06-17T13:42:13Z</time>
      </trkpt>
      <trkpt lat="24.916782075164864" lon="118.54170442955346">
        <ele>10.320705353282392</ele>
        <time>2025-06-17T13:42:19Z</time>
      </trkpt>
      <trkpt lat="24.916436993170027" lon="118.54173619756027">
        <ele>11.737437766976655</ele>
        <time>2025-06-17T13:42:31Z</time>
      </trkpt>
      <trkpt lat="24.91618717597065" lon="118.54187720161197">
        <ele>11.809164616279304</ele>
        <time>2025-06-17T13:42:40Z</time>
      </trkpt>
      <trkpt lat="24.916079186694404" lon="118.54187660510189">
        <ele>11.618410618975759</ele>
        <time>2025-06-17T13:42:43Z</time>
      </trkpt>
      <trkpt lat="24.91600520273563" lon="118.54192917587366">
        <ele>11.711900460533798</ele>
        <time>2025-06-17T13:42:46Z</time>
      </trkpt>
      <trkpt lat="24.915658653047622" lon="118.542032555031">
        <ele>12.39935752004385</ele>
        <time>2025-06-17T13:42:58Z</time>
      </trkpt>
      <trkpt lat="24.915566720020408" lon="118.54206446716563">
        <ele>12.159397601149976</ele>
        <time>2025-06-17T13:43:01Z</time>
      </trkpt>
      <trkpt lat="24.91547804378726" lon="118.54212254421662">
        <ele>11.848184526897967</ele>
        <time>2025-06-17T13:43:04Z</time>
      </trkpt>
      <trkpt lat="24.915294744575256" lon="118.54219582692551">
        <ele>11.651959492824972</ele>
        <time>2025-06-17T13:43:10Z</time>
      </trkpt>
      <trkpt lat="24.91523813691884" lon="118.54225515004904">
        <ele>11.842570970766246</ele>
        <time>2025-06-17T13:43:13Z</time>
      </trkpt>
      <trkpt lat="24.914939582391675" lon="118.54232843985275">
        <ele>11.288237063214183</ele>
        <time>2025-06-17T13:43:22Z</time>
      </trkpt>
      <trkpt lat="24.914611289955957" lon="118.54241191707433">
        <ele>10.217411077581346</ele>
        <time>2025-06-17T13:43:34Z</time>
      </trkpt>
      <trkpt lat="24.914347854716684" lon="118.54246053999387">
        <ele>10.13454217556864</ele>
        <time>2025-06-17T13:43:43Z</time>
      </trkpt>
      <trkpt lat="24.914249694590648" lon="118.54246185936012">
        <ele>10.13840200100094</ele>
        <time>2025-06-17T13:43:46Z</time>
      </trkpt>
      <trkpt lat="24.913970323845497" lon="118.54255937613617">
        <ele>10.022512870840728</ele>
        <time>2025-06-17T13:43:55Z</time>
      </trkpt>
      <trkpt lat="24.91378694182153" lon="118.54260751443245">
        <ele>9.762948497198522</ele>
        <time>2025-06-17T13:44:01Z</time>
      </trkpt>
      <trkpt lat="24.91362101547284" lon="118.54269776313839">
        <ele>9.18979630805552</ele>
        <time>2025-06-17T13:44:07Z</time>
      </trkpt>
      <trkpt lat="24.913329625335884" lon="118.54273869639599">
        <ele>8.430887791328132</ele>
        <time>2025-06-17T13:44:16Z</time>
      </trkpt>
      <trkpt lat="24.913043987600776" lon="118.54279198786905">
        <ele>7.7598532401025295</ele>
        <time>2025-06-17T13:44:25Z</time>
      </trkpt>
      <trkpt lat="24.912760235506706" lon="118.54288402816334">
        <ele>8.137529107742012</ele>
        <time>2025-06-17T13:44:34Z</time>
      </trkpt>
      <trkpt lat="24.912426235353685" lon="118.54298778585203">
        <ele>8.86206494923681</ele>
        <time>2025-06-17T13:44:46Z</time>
      </trkpt>
      <trkpt lat="24.91213422041061" lon="118.54307466865727">
        <ele>7.847333751618862</ele>
        <time>2025-06-17T13:44:55Z</time>
      </trkpt>
      <trkpt lat="24.912039968661432" lon="118.54310823114461">
        <ele>7.953013128601015</ele>
        <time>2025-06-17T13:44:58Z</time>
      </trkpt>
      <trkpt lat="24.91194504463391" lon="118.54312146015434">
        <ele>7.857519647106528</ele>
        <time>2025-06-17T13:45:01Z</time>
      </trkpt>
      <trkpt lat="24.911673282953494" lon="118.54320440636172">
        <ele>8.414646386168897</ele>
        <time>2025-06-17T13:45:10Z</time>
      </trkpt>
      <trkpt lat="24.911405051165364" lon="118.54325977246285">
        <ele>8.848367534577847</ele>
        <time>2025-06-17T13:45:19Z</time>
      </trkpt>
      <trkpt lat="24.91131568568099" lon="118.54328672506536">
        <ele>8.078723122365773</ele>
        <time>2025-06-17T13:45:22Z</time>
      </trkpt>
      <trkpt lat="24.911034866616706" lon="118.54330068406675">
        <ele>8.08195616863668</ele>
        <time>2025-06-17T13:45:31Z</time>
      </trkpt>
      <trkpt lat="24.9109432427427" lon="118.543320695224">
        <ele>7.764218660071492</ele>
        <time>2025-06-17T13:45:34Z</time>
      </trkpt>
      <trkpt lat="24.910645006394475" lon="118.54331407016551">
        <ele>7.552847447805107</ele>
        <time>2025-06-17T13:45:43Z</time>
      </trkpt>
      <trkpt lat="24.91046122155408" lon="118.54330004567957">
        <ele>7.444796530529857</ele>
        <time>2025-06-17T13:45:49Z</time>
      </trkpt>
      <trkpt lat="24.910365555312133" lon="118.54331066908003">
        <ele>7.6803123746067286</ele>
        <time>2025-06-17T13:45:52Z</time>
      </trkpt>
      <trkpt lat="24.910279608755076" lon="118.54327285280829">
        <ele>7.715188326314092</ele>
        <time>2025-06-17T13:45:55Z</time>
      </trkpt>
      <trkpt lat="24.91030808412169" lon="118.54318626861834">
        <ele>7.437844853848219</ele>
        <time>2025-06-17T13:45:58Z</time>
      </trkpt>
      <trkpt lat="24.910309025827953" lon="118.54308440006909">
        <ele>7.942038709297776</ele>
        <time>2025-06-17T13:46:01Z</time>
      </trkpt>
      <trkpt lat="24.910269975380555" lon="118.54298502835589">
        <ele>7.352682776749134</ele>
        <time>2025-06-17T13:46:04Z</time>
      </trkpt>
      <trkpt lat="24.91027652352363" lon="118.54276849163013">
        <ele>7.258124276064336</ele>
        <time>2025-06-17T13:46:10Z</time>
      </trkpt>
      <trkpt lat="24.91029473348358" lon="118.54266028981404">
        <ele>7.333871332928538</ele>
        <time>2025-06-17T13:46:13Z</time>
      </trkpt>
      <trkpt lat="24.9103817208843" lon="118.54247542398458">
        <ele>8.148890946991742</ele>
        <time>2025-06-17T13:46:19Z</time>
      </trkpt>
      <trkpt lat="24.910327556540516" lon="118.54214280790335">
        <ele>8.158264828845859</ele>
        <time>2025-06-17T13:46:28Z</time>
      </trkpt>
      <trkpt lat="24.91038175790123" lon="118.54202564998681">
        <ele>7.983730669133365</ele>
        <time>2025-06-17T13:46:31Z</time>
      </trkpt>
      <trkpt lat="24.910393425088944" lon="118.54192316723463">
        <ele>7.843481536023319</ele>
        <time>2025-06-17T13:46:34Z</time>
      </trkpt>
    </trkseg>
  </trk>
</gpx>