<?xml version="1.0" encoding="UTF-8"?>
<gpx xmlns="http://www.topografix.com/GPX/1/1" xmlns:gpxtpx="http://www.garmin.com/xmlschemas/TrackPointExtension/v1" xmlns:xsi="http://www.w3.org/2001/XMLSchema-instance" xsi:schemaLocation="http://www.topografix.com/GPX/1/1 http://www.topografix.com/GPX/1/1/gpx.xsd" version="1.1" creator="gpx.py -- https://github.com/tkrajina/gpxpy">
  <trk>
    <name>gpx from keep</name>
    <type>Run</type>
    <trkseg>
      <trkpt lat="24.910747612732703" lon="118.5385490820584">
        <ele>10.027349024252551</ele>
        <time>2024-10-10T14:01:35Z</time>
      </trkpt>
      <trkpt lat="24.91069388856547" lon="118.5385177742643">
        <ele>9.998164689168334</ele>
        <time>2024-10-10T14:01:39Z</time>
      </trkpt>
      <trkpt lat="24.910584634650444" lon="118.5384921172973">
        <ele>9.877914451994002</ele>
        <time>2024-10-10T14:01:43Z</time>
      </trkpt>
      <trkpt lat="24.910346174949346" lon="118.53849787586891">
        <ele>8.906298303045332</ele>
        <time>2024-10-10T14:01:51Z</time>
      </trkpt>
      <trkpt lat="24.910228752017204" lon="118.53845820872534">
        <ele>8.595924571156502</ele>
        <time>2024-10-10T14:01:55Z</time>
      </trkpt>
      <trkpt lat="24.90987611501776" lon="118.53843237781447">
        <ele>8.464427213184536</ele>
        <time>2024-10-10T14:02:04Z</time>
      </trkpt>
      <trkpt lat="24.90977503489535" lon="118.53842283846505">
        <ele>8.23025147151202</ele>
        <time>2024-10-10T14:02:07Z</time>
      </trkpt>
      <trkpt lat="24.909467457740814" lon="118.53849564158726">
        <ele>7.500495201908052</ele>
        <time>2024-10-10T14:02:16Z</time>
      </trkpt>
      <trkpt lat="24.909356478616406" lon="118.53848928230357">
        <ele>7.576994650065899</ele>
        <time>2024-10-10T14:02:19Z</time>
      </trkpt>
      <trkpt lat="24.90920157044999" lon="118.53854883338">
        <ele>7.204288377426565</ele>
        <time>2024-10-10T14:02:22Z</time>
      </trkpt>
      <trkpt lat="24.90909528991244" lon="118.53850363553117">
        <ele>7.512971304357052</ele>
        <time>2024-10-10T14:02:25Z</time>
      </trkpt>
      <trkpt lat="24.909018732940435" lon="118.53843624744434">
        <ele>6.897631240077317</ele>
        <time>2024-10-10T14:02:28Z</time>
      </trkpt>
      <trkpt lat="24.909017240345136" lon="118.53831798026897">
        <ele>7.7418934078887105</ele>
        <time>2024-10-10T14:02:31Z</time>
      </trkpt>
      <trkpt lat="24.909173722212323" lon="118.53800119900235">
        <ele>7.573177365586162</ele>
        <time>2024-10-10T14:02:40Z</time>
      </trkpt>
      <trkpt lat="24.909246423639267" lon="118.53777758883746">
        <ele>7.73418980743736</ele>
        <time>2024-10-10T14:02:46Z</time>
      </trkpt>
      <trkpt lat="24.909296345525096" lon="118.53768292241713">
        <ele>7.83042480610311</ele>
        <time>2024-10-10T14:02:49Z</time>
      </trkpt>
      <trkpt lat="24.90931445392895" lon="118.53758037431236">
        <ele>9.462898088619113</ele>
        <time>2024-10-10T14:02:52Z</time>
      </trkpt>
      <trkpt lat="24.90935394465816" lon="118.53747611591007">
        <ele>9.664262096397579</ele>
        <time>2024-10-10T14:02:55Z</time>
      </trkpt>
      <trkpt lat="24.909363938552236" lon="118.53727015179491">
        <ele>9.695903111249208</ele>
        <time>2024-10-10T14:03:01Z</time>
      </trkpt>
      <trkpt lat="24.90942064078171" lon="118.53703978778017">
        <ele>9.74406096804887</ele>
        <time>2024-10-10T14:03:07Z</time>
      </trkpt>
      <trkpt lat="24.909495402429517" lon="118.5368365450043">
        <ele>10.115521110594273</ele>
        <time>2024-10-10T14:03:13Z</time>
      </trkpt>
      <trkpt lat="24.909519299768633" lon="118.5366292071446">
        <ele>9.866813597269356</ele>
        <time>2024-10-10T14:03:19Z</time>
      </trkpt>
      <trkpt lat="24.90959830500314" lon="118.5364247252552">
        <ele>9.781830120831728</ele>
        <time>2024-10-10T14:03:25Z</time>
      </trkpt>
      <trkpt lat="24.909579772200548" lon="118.53616383790823">
        <ele>9.909182587638497</ele>
        <time>2024-10-10T14:03:34Z</time>
      </trkpt>
      <trkpt lat="24.90964316117428" lon="118.53588951563235">
        <ele>9.761823861859739</ele>
        <time>2024-10-10T14:03:42Z</time>
      </trkpt>
      <trkpt lat="24.909679891136538" lon="118.53559006271787">
        <ele>10.059570422396064</ele>
        <time>2024-10-10T14:03:50Z</time>
      </trkpt>
      <trkpt lat="24.90975198039301" lon="118.53528624879124">
        <ele>10.780002914369106</ele>
        <time>2024-10-10T14:03:58Z</time>
      </trkpt>
      <trkpt lat="24.909773715551015" lon="118.53504238514955">
        <ele>9.264861855655909</ele>
        <time>2024-10-10T14:04:05Z</time>
      </trkpt>
      <trkpt lat="24.909770031474423" lon="118.53469630879862">
        <ele>8.153248785994947</ele>
        <time>2024-10-10T14:04:17Z</time>
      </trkpt>
      <trkpt lat="24.909768282650518" lon="118.53461184544142">
        <ele>8.006292073056102</ele>
        <time>2024-10-10T14:04:20Z</time>
      </trkpt>
      <trkpt lat="24.909822851173416" lon="118.53442635765876">
        <ele>7.123715058900416</ele>
        <time>2024-10-10T14:04:26Z</time>
      </trkpt>
      <trkpt lat="24.9098453231641" lon="118.53412946098564">
        <ele>8.093904227018356</ele>
        <time>2024-10-10T14:04:35Z</time>
      </trkpt>
      <trkpt lat="24.909850729993874" lon="118.53405578592182">
        <ele>8.051960316486657</ele>
        <time>2024-10-10T14:04:38Z</time>
      </trkpt>
      <trkpt lat="24.909894371521297" lon="118.53397876134436">
        <ele>8.018289481289685</ele>
        <time>2024-10-10T14:04:41Z</time>
      </trkpt>
      <trkpt lat="24.909998873463106" lon="118.53391940309287">
        <ele>7.886904365383089</ele>
        <time>2024-10-10T14:04:44Z</time>
      </trkpt>
      <trkpt lat="24.910097508205563" lon="118.53390034442103">
        <ele>8.453646186739206</ele>
        <time>2024-10-10T14:04:47Z</time>
      </trkpt>
      <trkpt lat="24.91018928305413" lon="118.53390444905446">
        <ele>8.463217662647367</ele>
        <time>2024-10-10T14:04:50Z</time>
      </trkpt>
      <trkpt lat="24.910465887328698" lon="118.53382152713819">
        <ele>9.532014863565564</ele>
        <time>2024-10-10T14:04:59Z</time>
      </trkpt>
      <trkpt lat="24.910754573580967" lon="118.53379438565617">
        <ele>10.157087775878608</ele>
        <time>2024-10-10T14:05:08Z</time>
      </trkpt>
      <trkpt lat="24.911042708452005" lon="118.53378536583143">
        <ele>10.333763693459332</ele>
        <time>2024-10-10T14:05:17Z</time>
      </trkpt>
      <trkpt lat="24.911321956350463" lon="118.53377810203071">
        <ele>10.7275067884475</ele>
        <time>2024-10-10T14:05:26Z</time>
      </trkpt>
      <trkpt lat="24.91159544718274" lon="118.5337838457617">
        <ele>10.226452867500484</ele>
        <time>2024-10-10T14:05:35Z</time>
      </trkpt>
      <trkpt lat="24.911869379149046" lon="118.53376933241087">
        <ele>10.073545102030039</ele>
        <time>2024-10-10T14:05:44Z</time>
      </trkpt>
      <trkpt lat="24.911967659715785" lon="118.53376155476485">
        <ele>10.688326979987323</ele>
        <time>2024-10-10T14:05:47Z</time>
      </trkpt>
      <trkpt lat="24.91225652106365" lon="118.5337742283894">
        <ele>10.599189409054816</ele>
        <time>2024-10-10T14:05:56Z</time>
      </trkpt>
      <trkpt lat="24.912359946417293" lon="118.5337506137319">
        <ele>10.394250199198723</ele>
        <time>2024-10-10T14:05:59Z</time>
      </trkpt>
      <trkpt lat="24.912724835043594" lon="118.53375575891681">
        <ele>10.641128981485963</ele>
        <time>2024-10-10T14:06:11Z</time>
      </trkpt>
      <trkpt lat="24.912909082842372" lon="118.53377806928432">
        <ele>10.69879428576678</ele>
        <time>2024-10-10T14:06:17Z</time>
      </trkpt>
      <trkpt lat="24.913161439976168" lon="118.53384555185113">
        <ele>10.218520739115775</ele>
        <time>2024-10-10T14:06:26Z</time>
      </trkpt>
      <trkpt lat="24.91344100436792" lon="118.5338666272167">
        <ele>9.818146996200085</ele>
        <time>2024-10-10T14:06:35Z</time>
      </trkpt>
      <trkpt lat="24.913703605321476" lon="118.53393927218829">
        <ele>10.389785472303629</ele>
        <time>2024-10-10T14:06:44Z</time>
      </trkpt>
      <trkpt lat="24.913986828402543" lon="118.53395399513346">
        <ele>10.001624032855034</ele>
        <time>2024-10-10T14:06:53Z</time>
      </trkpt>
      <trkpt lat="24.9142586266398" lon="118.53399004781838">
        <ele>10.509330140426755</ele>
        <time>2024-10-10T14:07:02Z</time>
      </trkpt>
      <trkpt lat="24.914529879877048" lon="118.53403895090023">
        <ele>12.053107192739844</ele>
        <time>2024-10-10T14:07:11Z</time>
      </trkpt>
      <trkpt lat="24.91479045443813" lon="118.53409278024718">
        <ele>12.69495664536953</ele>
        <time>2024-10-10T14:07:20Z</time>
      </trkpt>
      <trkpt lat="24.914863004948568" lon="118.53412927224093">
        <ele>12.351699654012918</ele>
        <time>2024-10-10T14:07:23Z</time>
      </trkpt>
      <trkpt lat="24.915161941880722" lon="118.53415767038501">
        <ele>13.390899918042123</ele>
        <time>2024-10-10T14:07:32Z</time>
      </trkpt>
      <trkpt lat="24.91525148413774" lon="118.5341645579321">
        <ele>12.918865144252777</ele>
        <time>2024-10-10T14:07:35Z</time>
      </trkpt>
      <trkpt lat="24.91533304957958" lon="118.53419103759605">
        <ele>12.921264475211501</ele>
        <time>2024-10-10T14:07:38Z</time>
      </trkpt>
      <trkpt lat="24.915521855698167" lon="118.5342208530389">
        <ele>12.813714400865138</ele>
        <time>2024-10-10T14:07:44Z</time>
      </trkpt>
      <trkpt lat="24.915801112442914" lon="118.5342510198109">
        <ele>12.716070697642863</ele>
        <time>2024-10-10T14:07:53Z</time>
      </trkpt>
      <trkpt lat="24.91606908985798" lon="118.53430006593794">
        <ele>12.5313118416816</ele>
        <time>2024-10-10T14:08:02Z</time>
      </trkpt>
      <trkpt lat="24.91635140838253" lon="118.53436223395411">
        <ele>12.700878903269768</ele>
        <time>2024-10-10T14:08:11Z</time>
      </trkpt>
      <trkpt lat="24.916709965775578" lon="118.53441214345047">
        <ele>14.246768557466567</ele>
        <time>2024-10-10T14:08:23Z</time>
      </trkpt>
      <trkpt lat="24.917007397460587" lon="118.53449092413659">
        <ele>15.176434505730867</ele>
        <time>2024-10-10T14:08:35Z</time>
      </trkpt>
      <trkpt lat="24.91730673971494" lon="118.53455178624722">
        <ele>14.747579506598413</ele>
        <time>2024-10-10T14:08:47Z</time>
      </trkpt>
      <trkpt lat="24.917616900214625" lon="118.53464137759487">
        <ele>15.21267600171268</ele>
        <time>2024-10-10T14:08:56Z</time>
      </trkpt>
      <trkpt lat="24.917836776625666" lon="118.5346983135863">
        <ele>14.442185470834374</ele>
        <time>2024-10-10T14:09:02Z</time>
      </trkpt>
      <trkpt lat="24.918133477566528" lon="118.53474579654026">
        <ele>13.453067538328469</ele>
        <time>2024-10-10T14:09:11Z</time>
      </trkpt>
      <trkpt lat="24.918408835497107" lon="118.5348326105483">
        <ele>12.627544287592173</ele>
        <time>2024-10-10T14:09:20Z</time>
      </trkpt>
      <trkpt lat="24.918541426549908" lon="118.53498078835251">
        <ele>12.621289500035346</ele>
        <time>2024-10-10T14:09:26Z</time>
      </trkpt>
      <trkpt lat="24.918581630337982" lon="118.53507447889635">
        <ele>12.339344535954297</ele>
        <time>2024-10-10T14:09:29Z</time>
      </trkpt>
      <trkpt lat="24.918602352791382" lon="118.53517789794849">
        <ele>12.476980224251747</ele>
        <time>2024-10-10T14:09:32Z</time>
      </trkpt>
      <trkpt lat="24.918516242377592" lon="118.53548917995379">
        <ele>10.740172317251563</ele>
        <time>2024-10-10T14:09:41Z</time>
      </trkpt>
      <trkpt lat="24.91848247675351" lon="118.53557548968368">
        <ele>10.056538619101048</ele>
        <time>2024-10-10T14:09:44Z</time>
      </trkpt>
      <trkpt lat="24.91844137339594" lon="118.53578198026813">
        <ele>10.653914777562022</ele>
        <time>2024-10-10T14:09:50Z</time>
      </trkpt>
      <trkpt lat="24.91829988036142" lon="118.53611688235826">
        <ele>10.53293055575341</ele>
        <time>2024-10-10T14:10:02Z</time>
      </trkpt>
      <trkpt lat="24.918163634556933" lon="118.53639425288941">
        <ele>10.203663838095963</ele>
        <time>2024-10-10T14:10:11Z</time>
      </trkpt>
      <trkpt lat="24.918092065824972" lon="118.53651275491235">
        <ele>9.508526790887117</ele>
        <time>2024-10-10T14:10:14Z</time>
      </trkpt>
      <trkpt lat="24.91797248706718" lon="118.53685950951866">
        <ele>9.975643267855048</ele>
        <time>2024-10-10T14:10:26Z</time>
      </trkpt>
      <trkpt lat="24.91789475074095" lon="118.53703741700211">
        <ele>10.154597852379084</ele>
        <time>2024-10-10T14:10:32Z</time>
      </trkpt>
      <trkpt lat="24.917867157334573" lon="118.53714017736384">
        <ele>10.159779955632985</ele>
        <time>2024-10-10T14:10:35Z</time>
      </trkpt>
      <trkpt lat="24.917675067352047" lon="118.53746639865884">
        <ele>9.931488836184144</ele>
        <time>2024-10-10T14:10:47Z</time>
      </trkpt>
      <trkpt lat="24.91754189970938" lon="118.53774693409484">
        <ele>10.003592221066356</ele>
        <time>2024-10-10T14:10:56Z</time>
      </trkpt>
      <trkpt lat="24.91743983984457" lon="118.53792023368493">
        <ele>9.99850510712713</ele>
        <time>2024-10-10T14:11:02Z</time>
      </trkpt>
      <trkpt lat="24.917343793941612" lon="118.5382135247133">
        <ele>10.461054825223982</ele>
        <time>2024-10-10T14:11:11Z</time>
      </trkpt>
      <trkpt lat="24.91725542972012" lon="118.53848476101959">
        <ele>10.160131230950356</ele>
        <time>2024-10-10T14:11:20Z</time>
      </trkpt>
      <trkpt lat="24.91724203452883" lon="118.53858114331867">
        <ele>10.396183972246945</ele>
        <time>2024-10-10T14:11:23Z</time>
      </trkpt>
      <trkpt lat="24.91718960955106" lon="118.53866024249072">
        <ele>10.107299008406699</ele>
        <time>2024-10-10T14:11:26Z</time>
      </trkpt>
      <trkpt lat="24.91713789127548" lon="118.53884744251725">
        <ele>10.142893913201988</ele>
        <time>2024-10-10T14:11:32Z</time>
      </trkpt>
      <trkpt lat="24.91708224705155" lon="118.53917054099207">
        <ele>9.956090474501252</ele>
        <time>2024-10-10T14:11:41Z</time>
      </trkpt>
      <trkpt lat="24.91706177722652" lon="118.5392779861184">
        <ele>9.965504316613078</ele>
        <time>2024-10-10T14:11:44Z</time>
      </trkpt>
      <trkpt lat="24.917019739898414" lon="118.5393588196523">
        <ele>9.560672257095575</ele>
        <time>2024-10-10T14:11:47Z</time>
      </trkpt>
      <trkpt lat="24.916990180838464" lon="118.53946020521771">
        <ele>10.114603073336184</ele>
        <time>2024-10-10T14:11:50Z</time>
      </trkpt>
      <trkpt lat="24.917026955822923" lon="118.53958407189941">
        <ele>10.711593960411847</ele>
        <time>2024-10-10T14:11:53Z</time>
      </trkpt>
      <trkpt lat="24.916984261547288" lon="118.5396876996875">
        <ele>10.297600139863789</ele>
        <time>2024-10-10T14:11:56Z</time>
      </trkpt>
      <trkpt lat="24.916890641835195" lon="118.53976631130153">
        <ele>10.109362291172147</ele>
        <time>2024-10-10T14:11:59Z</time>
      </trkpt>
      <trkpt lat="24.916849071674736" lon="118.53986891190561">
        <ele>9.746624036692083</ele>
        <time>2024-10-10T14:12:02Z</time>
      </trkpt>
      <trkpt lat="24.91665338449215" lon="118.5400180717471">
        <ele>9.911208854988217</ele>
        <time>2024-10-10T14:12:08Z</time>
      </trkpt>
      <trkpt lat="24.916581903787016" lon="118.54009725045599">
        <ele>10.400993898510933</ele>
        <time>2024-10-10T14:12:11Z</time>
      </trkpt>
      <trkpt lat="24.91647200289657" lon="118.54040891000545">
        <ele>11.762077886611223</ele>
        <time>2024-10-10T14:12:20Z</time>
      </trkpt>
      <trkpt lat="24.916434100893465" lon="118.54061885182941">
        <ele>12.371115292422473</ele>
        <time>2024-10-10T14:12:26Z</time>
      </trkpt>
      <trkpt lat="24.916434185611152" lon="118.54090813931818">
        <ele>12.825355648063123</ele>
        <time>2024-10-10T14:12:35Z</time>
      </trkpt>
      <trkpt lat="24.916499360297028" lon="118.54131943144253">
        <ele>12.798228811472654</ele>
        <time>2024-10-10T14:12:47Z</time>
      </trkpt>
      <trkpt lat="24.916518744573267" lon="118.54142707227557">
        <ele>12.375958696939051</ele>
        <time>2024-10-10T14:12:50Z</time>
      </trkpt>
      <trkpt lat="24.91659577466702" lon="118.54162984494741">
        <ele>12.826158467680216</ele>
        <time>2024-10-10T14:12:56Z</time>
      </trkpt>
      <trkpt lat="24.916612365085037" lon="118.54172623319542">
        <ele>12.666554777882993</ele>
        <time>2024-10-10T14:12:59Z</time>
      </trkpt>
      <trkpt lat="24.91659077639187" lon="118.54182168032652">
        <ele>13.187865441665053</ele>
        <time>2024-10-10T14:13:02Z</time>
      </trkpt>
      <trkpt lat="24.916533375510195" lon="118.54190800170106">
        <ele>12.345822188071907</ele>
        <time>2024-10-10T14:13:05Z</time>
      </trkpt>
      <trkpt lat="24.91644559399334" lon="118.54197961504973">
        <ele>11.400556587614119</ele>
        <time>2024-10-10T14:13:08Z</time>
      </trkpt>
      <trkpt lat="24.91626578221832" lon="118.54204631626439">
        <ele>12.042400126345456</ele>
        <time>2024-10-10T14:13:14Z</time>
      </trkpt>
      <trkpt lat="24.915991373726985" lon="118.5422126163672">
        <ele>12.333006728440523</ele>
        <time>2024-10-10T14:13:23Z</time>
      </trkpt>
      <trkpt lat="24.915790933492236" lon="118.54234668276384">
        <ele>12.545096229761839</ele>
        <time>2024-10-10T14:13:29Z</time>
      </trkpt>
      <trkpt lat="24.91558385770684" lon="118.54251140331388">
        <ele>12.42181272059679</ele>
        <time>2024-10-10T14:13:35Z</time>
      </trkpt>
      <trkpt lat="24.915404705940958" lon="118.54258024160981">
        <ele>13.22870169300586</ele>
        <time>2024-10-10T14:13:41Z</time>
      </trkpt>
      <trkpt lat="24.915136098549787" lon="118.54282546798407">
        <ele>11.807072817347944</ele>
        <time>2024-10-10T14:13:50Z</time>
      </trkpt>
      <trkpt lat="24.915083729369755" lon="118.5428728489094">
        <ele>11.005138466134667</ele>
        <time>2024-10-10T14:13:53Z</time>
      </trkpt>
      <trkpt lat="24.915018646078387" lon="118.54289868209328">
        <ele>10.91015012934804</ele>
        <time>2024-10-10T14:13:56Z</time>
      </trkpt>
      <trkpt lat="24.91474313413918" lon="118.54287633899929">
        <ele>10.391435742378235</ele>
        <time>2024-10-10T14:14:05Z</time>
      </trkpt>
      <trkpt lat="24.91465815103473" lon="118.54288239109914">
        <ele>9.884279224090278</ele>
        <time>2024-10-10T14:14:08Z</time>
      </trkpt>
      <trkpt lat="24.914555317124282" lon="118.54286741400576">
        <ele>9.87959970254451</ele>
        <time>2024-10-10T14:14:11Z</time>
      </trkpt>
      <trkpt lat="24.914451832898454" lon="118.54287327968366">
        <ele>10.145090531557798</ele>
        <time>2024-10-10T14:14:14Z</time>
      </trkpt>
      <trkpt lat="24.914177493712543" lon="118.54283151242016">
        <ele>9.601943994872272</ele>
        <time>2024-10-10T14:14:23Z</time>
      </trkpt>
      <trkpt lat="24.91398624374946" lon="118.54282284355358">
        <ele>9.87024279218167</ele>
        <time>2024-10-10T14:14:29Z</time>
      </trkpt>
      <trkpt lat="24.913905426666396" lon="118.5427885973298">
        <ele>9.262215654365718</ele>
        <time>2024-10-10T14:14:32Z</time>
      </trkpt>
      <trkpt lat="24.91357880297682" lon="118.54288060962513">
        <ele>8.113476427271962</ele>
        <time>2024-10-10T14:14:44Z</time>
      </trkpt>
      <trkpt lat="24.913362162372895" lon="118.54292742582476">
        <ele>8.292309864424169</ele>
        <time>2024-10-10T14:14:50Z</time>
      </trkpt>
      <trkpt lat="24.913021878492387" lon="118.54295146598835">
        <ele>8.347750144079328</ele>
        <time>2024-10-10T14:15:02Z</time>
      </trkpt>
      <trkpt lat="24.912938720448714" lon="118.54299179307884">
        <ele>8.38603160623461</ele>
        <time>2024-10-10T14:15:05Z</time>
      </trkpt>
      <trkpt lat="24.91285779157559" lon="118.5429853885051">
        <ele>7.897678419016302</ele>
        <time>2024-10-10T14:15:08Z</time>
      </trkpt>
      <trkpt lat="24.912527322973855" lon="118.54305170526305">
        <ele>7.9405127596110106</ele>
        <time>2024-10-10T14:15:20Z</time>
      </trkpt>
      <trkpt lat="24.91236423461193" lon="118.54308745139825">
        <ele>7.801993201486766</ele>
        <time>2024-10-10T14:15:26Z</time>
      </trkpt>
      <trkpt lat="24.912263295158944" lon="118.54308749190928">
        <ele>7.393634000793099</ele>
        <time>2024-10-10T14:15:29Z</time>
      </trkpt>
      <trkpt lat="24.911953974814217" lon="118.54318964351289">
        <ele>7.8049627263098955</ele>
        <time>2024-10-10T14:15:41Z</time>
      </trkpt>
      <trkpt lat="24.91179070841172" lon="118.54324497900235">
        <ele>7.665631554089487</ele>
        <time>2024-10-10T14:15:47Z</time>
      </trkpt>
      <trkpt lat="24.911705380531828" lon="118.54324113609988">
        <ele>7.996551360934973</ele>
        <time>2024-10-10T14:15:50Z</time>
      </trkpt>
      <trkpt lat="24.91141575558143" lon="118.54332392655738">
        <ele>8.261273054406047</ele>
        <time>2024-10-10T14:16:00Z</time>
      </trkpt>
      <trkpt lat="24.911146229532406" lon="118.5433699254729">
        <ele>7.499751269817352</ele>
        <time>2024-10-10T14:16:09Z</time>
      </trkpt>
      <trkpt lat="24.910780176844394" lon="118.5433822608101">
        <ele>7.64736551232636</ele>
        <time>2024-10-10T14:16:21Z</time>
      </trkpt>
      <trkpt lat="24.91050301598609" lon="118.5433944065472">
        <ele>7.152976309880614</ele>
        <time>2024-10-10T14:16:30Z</time>
      </trkpt>
      <trkpt lat="24.910290389598092" lon="118.54342320228753">
        <ele>7.242808574810624</ele>
        <time>2024-10-10T14:16:36Z</time>
      </trkpt>
      <trkpt lat="24.91018410096417" lon="118.54346218102634">
        <ele>7.210139595903456</ele>
        <time>2024-10-10T14:16:39Z</time>
      </trkpt>
      <trkpt lat="24.90999645086443" lon="118.54343742052758">
        <ele>7.353821097873151</ele>
        <time>2024-10-10T14:16:45Z</time>
      </trkpt>
      <trkpt lat="24.90971111247014" lon="118.54337030297856">
        <ele>7.192112274467945</ele>
        <time>2024-10-10T14:16:54Z</time>
      </trkpt>
      <trkpt lat="24.90937677243202" lon="118.54333963804955">
        <ele>7.444103779271245</ele>
        <time>2024-10-10T14:17:06Z</time>
      </trkpt>
      <trkpt lat="24.909195021901276" lon="118.54334649582805">
        <ele>7.057023047469556</ele>
        <time>2024-10-10T14:17:12Z</time>
      </trkpt>
      <trkpt lat="24.909114108879102" lon="118.54330416415252">
        <ele>7.4316434832289815</ele>
        <time>2024-10-10T14:17:15Z</time>
      </trkpt>
      <trkpt lat="24.90902391017791" lon="118.54329504286756">
        <ele>7.275731037370861</ele>
        <time>2024-10-10T14:17:18Z</time>
      </trkpt>
      <trkpt lat="24.908717730669295" lon="118.54334494941253">
        <ele>7.66973088029772</ele>
        <time>2024-10-10T14:17:27Z</time>
      </trkpt>
      <trkpt lat="24.9085269146723" lon="118.54339822531949">
        <ele>8.079044711776078</ele>
        <time>2024-10-10T14:17:33Z</time>
      </trkpt>
      <trkpt lat="24.908321980196867" lon="118.5433963149967">
        <ele>8.166860938072205</ele>
        <time>2024-10-10T14:17:39Z</time>
      </trkpt>
      <trkpt lat="24.908059122302618" lon="118.5434196682575">
        <ele>7.558716387487948</ele>
        <time>2024-10-10T14:17:48Z</time>
      </trkpt>
      <trkpt lat="24.907885044637815" lon="118.543461867166">
        <ele>7.78041532356292</ele>
        <time>2024-10-10T14:17:54Z</time>
      </trkpt>
      <trkpt lat="24.90771926009263" lon="118.54346692744389">
        <ele>8.235064972192049</ele>
        <time>2024-10-10T14:18:00Z</time>
      </trkpt>
      <trkpt lat="24.907434434272716" lon="118.54338244194764">
        <ele>8.35061997268349</ele>
        <time>2024-10-10T14:18:09Z</time>
      </trkpt>
      <trkpt lat="24.907412783820888" lon="118.5433052368802">
        <ele>8.318087305873632</ele>
        <time>2024-10-10T14:18:12Z</time>
      </trkpt>
      <trkpt lat="24.90756198913321" lon="118.54299956142762">
        <ele>7.868861409835517</ele>
        <time>2024-10-10T14:18:21Z</time>
      </trkpt>
      <trkpt lat="24.907656851278215" lon="118.54281808335399">
        <ele>7.9400060614570975</ele>
        <time>2024-10-10T14:18:27Z</time>
      </trkpt>
      <trkpt lat="24.907768625355082" lon="118.542466999216">
        <ele>8.480449981987476</ele>
        <time>2024-10-10T14:18:39Z</time>
      </trkpt>
      <trkpt lat="24.90788911926469" lon="118.54209677076561">
        <ele>8.492593806236982</ele>
        <time>2024-10-10T14:18:51Z</time>
      </trkpt>
      <trkpt lat="24.908005158624995" lon="118.54183365331708">
        <ele>9.282264299690723</ele>
        <time>2024-10-10T14:19:00Z</time>
      </trkpt>
      <trkpt lat="24.908036607130093" lon="118.54164678443908">
        <ele>9.998288674280047</ele>
        <time>2024-10-10T14:19:06Z</time>
      </trkpt>
      <trkpt lat="24.90809556959033" lon="118.54152531592038">
        <ele>10.747824839316308</ele>
        <time>2024-10-10T14:19:12Z</time>
      </trkpt>
      <trkpt lat="24.908151807915534" lon="118.5414553415251">
        <ele>11.261381218209863</ele>
        <time>2024-10-10T14:19:15Z</time>
      </trkpt>
      <trkpt lat="24.908153665947623" lon="118.54134545947778">
        <ele>10.707679610699415</ele>
        <time>2024-10-10T14:19:18Z</time>
      </trkpt>
      <trkpt lat="24.908183304238445" lon="118.54125444006029">
        <ele>10.770750084891915</ele>
        <time>2024-10-10T14:19:21Z</time>
      </trkpt>
      <trkpt lat="24.90825337530178" lon="118.54112562124057">
        <ele>10.252238501794636</ele>
        <time>2024-10-10T14:19:24Z</time>
      </trkpt>
      <trkpt lat="24.908429955724596" lon="118.54093510624531">
        <ele>8.863033485598862</ele>
        <time>2024-10-10T14:19:30Z</time>
      </trkpt>
      <trkpt lat="24.90849309627459" lon="118.540809044477">
        <ele>8.480132827535272</ele>
        <time>2024-10-10T14:19:33Z</time>
      </trkpt>
      <trkpt lat="24.90853207323378" lon="118.54067356119856">
        <ele>8.212318976409733</ele>
        <time>2024-10-10T14:19:36Z</time>
      </trkpt>
      <trkpt lat="24.908591209083298" lon="118.54054755873108">
        <ele>8.466964181512594</ele>
        <time>2024-10-10T14:19:39Z</time>
      </trkpt>
      <trkpt lat="24.908659697171988" lon="118.54031349140233">
        <ele>8.126074684783816</ele>
        <time>2024-10-10T14:19:45Z</time>
      </trkpt>
      <trkpt lat="24.908788701488273" lon="118.54005226306312">
        <ele>8.031863547861576</ele>
        <time>2024-10-10T14:19:54Z</time>
      </trkpt>
      <trkpt lat="24.90886560926382" lon="118.53965910022714">
        <ele>7.879846232943237</ele>
        <time>2024-10-10T14:20:06Z</time>
      </trkpt>
      <trkpt lat="24.908930024761737" lon="118.53936036891352">
        <ele>7.803219335153699</ele>
        <time>2024-10-10T14:20:15Z</time>
      </trkpt>
      <trkpt lat="24.90901832312924" lon="118.53905403656738">
        <ele>8.088631550781429</ele>
        <time>2024-10-10T14:20:24Z</time>
      </trkpt>
      <trkpt lat="24.909080275752338" lon="118.53874148298567">
        <ele>7.921427397988737</ele>
        <time>2024-10-10T14:20:33Z</time>
      </trkpt>
      <trkpt lat="24.909121392341817" lon="118.5385385092707">
        <ele>7.784277118742466</ele>
        <time>2024-10-10T14:20:39Z</time>
      </trkpt>
      <trkpt lat="24.909128608855738" lon="118.53836158328994">
        <ele>7.718402008526027</ele>
        <time>2024-10-10T14:20:45Z</time>
      </trkpt>
      <trkpt lat="24.909224323022084" lon="118.5379736501621">
        <ele>7.7492832550778985</ele>
        <time>2024-10-10T14:20:57Z</time>
      </trkpt>
      <trkpt lat="24.909244111414207" lon="118.53777890027338">
        <ele>8.154763182625175</ele>
        <time>2024-10-10T14:21:03Z</time>
      </trkpt>
      <trkpt lat="24.909240420903522" lon="118.53767336032719">
        <ele>9.14100209902972</ele>
        <time>2024-10-10T14:21:06Z</time>
      </trkpt>
      <trkpt lat="24.909335094967133" lon="118.5374857085711">
        <ele>9.82349507510662</ele>
        <time>2024-10-10T14:21:12Z</time>
      </trkpt>
      <trkpt lat="24.909336155058487" lon="118.53716739782548">
        <ele>10.341958379372954</ele>
        <time>2024-10-10T14:21:21Z</time>
      </trkpt>
      <trkpt lat="24.90944746175137" lon="118.53688404318461">
        <ele>10.495968842878938</ele>
        <time>2024-10-10T14:21:30Z</time>
      </trkpt>
      <trkpt lat="24.909506316340423" lon="118.53670852213159">
        <ele>9.95249652210623</ele>
        <time>2024-10-10T14:21:36Z</time>
      </trkpt>
      <trkpt lat="24.909578946865164" lon="118.53640491300388">
        <ele>10.007033305242658</ele>
        <time>2024-10-10T14:21:45Z</time>
      </trkpt>
      <trkpt lat="24.909612422883097" lon="118.53610734848293">
        <ele>10.301021027378738</ele>
        <time>2024-10-10T14:21:54Z</time>
      </trkpt>
      <trkpt lat="24.909665236532394" lon="118.53576089969654">
        <ele>10.104521941393614</ele>
        <time>2024-10-10T14:22:06Z</time>
      </trkpt>
      <trkpt lat="24.909729291065634" lon="118.53545055210976">
        <ele>10.00386550091207</ele>
        <time>2024-10-10T14:22:15Z</time>
      </trkpt>
      <trkpt lat="24.909759556951837" lon="118.53514120117089">
        <ele>9.98443364072591</ele>
        <time>2024-10-10T14:22:24Z</time>
      </trkpt>
      <trkpt lat="24.909781568711683" lon="118.53477746952873">
        <ele>8.365122891031206</ele>
        <time>2024-10-10T14:22:36Z</time>
      </trkpt>
      <trkpt lat="24.90981451382444" lon="118.53440658910823">
        <ele>7.386194333434105</ele>
        <time>2024-10-10T14:22:48Z</time>
      </trkpt>
      <trkpt lat="24.909832951456355" lon="118.53409224195488">
        <ele>7.911976812407374</ele>
        <time>2024-10-10T14:22:57Z</time>
      </trkpt>
      <trkpt lat="24.909853693208436" lon="118.53399905409178">
        <ele>7.684227520599961</ele>
        <time>2024-10-10T14:23:00Z</time>
      </trkpt>
      <trkpt lat="24.90989956083938" lon="118.53391064199799">
        <ele>7.879872344434261</ele>
        <time>2024-10-10T14:23:03Z</time>
      </trkpt>
      <trkpt lat="24.90996945887088" lon="118.53384170834084">
        <ele>8.042059091851115</ele>
        <time>2024-10-10T14:23:06Z</time>
      </trkpt>
      <trkpt lat="24.91013804263135" lon="118.5337907229532">
        <ele>8.721154413186014</ele>
        <time>2024-10-10T14:23:12Z</time>
      </trkpt>
      <trkpt lat="24.91022564659742" lon="118.53378867358848">
        <ele>8.9965600380674</ele>
        <time>2024-10-10T14:23:15Z</time>
      </trkpt>
      <trkpt lat="24.910415860400114" lon="118.53374016553596">
        <ele>9.580759340897202</ele>
        <time>2024-10-10T14:23:21Z</time>
      </trkpt>
      <trkpt lat="24.910595372218587" lon="118.53371785414664">
        <ele>10.127390339970589</ele>
        <time>2024-10-10T14:23:27Z</time>
      </trkpt>
      <trkpt lat="24.91068996387873" lon="118.53374020738684">
        <ele>10.487768515013158</ele>
        <time>2024-10-10T14:23:30Z</time>
      </trkpt>
      <trkpt lat="24.911057845360407" lon="118.53374111471362">
        <ele>9.85415602196008</ele>
        <time>2024-10-10T14:23:42Z</time>
      </trkpt>
      <trkpt lat="24.91136777496407" lon="118.53376262129316">
        <ele>10.320639262907207</ele>
        <time>2024-10-10T14:23:52Z</time>
      </trkpt>
      <trkpt lat="24.91172302028438" lon="118.53375078590496">
        <ele>10.627958657220006</ele>
        <time>2024-10-10T14:24:04Z</time>
      </trkpt>
      <trkpt lat="24.912072336674015" lon="118.53376523531983">
        <ele>10.282745331525803</ele>
        <time>2024-10-10T14:24:16Z</time>
      </trkpt>
      <trkpt lat="24.91236497880456" lon="118.53376378700212">
        <ele>10.720820880495012</ele>
        <time>2024-10-10T14:24:25Z</time>
      </trkpt>
      <trkpt lat="24.912649285232288" lon="118.53373466663562">
        <ele>11.380023432895541</ele>
        <time>2024-10-10T14:24:34Z</time>
      </trkpt>
      <trkpt lat="24.912961795749126" lon="118.53375826199309">
        <ele>10.075791197828948</ele>
        <time>2024-10-10T14:24:45Z</time>
      </trkpt>
      <trkpt lat="24.91328836219912" lon="118.53383487386049">
        <ele>10.15598058141768</ele>
        <time>2024-10-10T14:24:56Z</time>
      </trkpt>
      <trkpt lat="24.91361734576722" lon="118.53388656708542">
        <ele>10.471875220537186</ele>
        <time>2024-10-10T14:25:08Z</time>
      </trkpt>
      <trkpt lat="24.913889942519965" lon="118.5339205306174">
        <ele>10.294065621681511</ele>
        <time>2024-10-10T14:25:17Z</time>
      </trkpt>
      <trkpt lat="24.914159608008344" lon="118.53394611837922">
        <ele>10.203856873326004</ele>
        <time>2024-10-10T14:25:26Z</time>
      </trkpt>
      <trkpt lat="24.91448780153562" lon="118.5340169309943">
        <ele>12.163168095983565</ele>
        <time>2024-10-10T14:25:38Z</time>
      </trkpt>
      <trkpt lat="24.91482368755716" lon="118.53408952302713">
        <ele>12.509053803049028</ele>
        <time>2024-10-10T14:25:50Z</time>
      </trkpt>
      <trkpt lat="24.915094060476193" lon="118.53412688287409">
        <ele>12.68870904110372</ele>
        <time>2024-10-10T14:25:59Z</time>
      </trkpt>
      <trkpt lat="24.915290752541782" lon="118.53414396471518">
        <ele>12.47510199341923</ele>
        <time>2024-10-10T14:26:05Z</time>
      </trkpt>
      <trkpt lat="24.91546555412423" lon="118.53418109164109">
        <ele>13.603096559643745</ele>
        <time>2024-10-10T14:26:11Z</time>
      </trkpt>
      <trkpt lat="24.915633740357375" lon="118.53419374393607">
        <ele>12.092590489424765</ele>
        <time>2024-10-10T14:26:17Z</time>
      </trkpt>
      <trkpt lat="24.915904452010942" lon="118.53425342853527">
        <ele>12.612965409643948</ele>
        <time>2024-10-10T14:26:26Z</time>
      </trkpt>
      <trkpt lat="24.916174887478892" lon="118.53429944564022">
        <ele>12.683231184259057</ele>
        <time>2024-10-10T14:26:35Z</time>
      </trkpt>
      <trkpt lat="24.916441820787618" lon="118.53436326423362">
        <ele>12.075305445119739</ele>
        <time>2024-10-10T14:26:44Z</time>
      </trkpt>
      <trkpt lat="24.916642265600682" lon="118.5343834909883">
        <ele>13.287639684975147</ele>
        <time>2024-10-10T14:26:51Z</time>
      </trkpt>
      <trkpt lat="24.91698395537385" lon="118.53446786214309">
        <ele>14.951863657683134</ele>
        <time>2024-10-10T14:27:03Z</time>
      </trkpt>
      <trkpt lat="24.917339372418358" lon="118.53454754413421">
        <ele>14.697643094696105</ele>
        <time>2024-10-10T14:27:15Z</time>
      </trkpt>
      <trkpt lat="24.91760560782247" lon="118.5346099100545">
        <ele>13.743710124865174</ele>
        <time>2024-10-10T14:27:24Z</time>
      </trkpt>
      <trkpt lat="24.91786655945102" lon="118.53469174841622">
        <ele>13.873956766910851</ele>
        <time>2024-10-10T14:27:33Z</time>
      </trkpt>
      <trkpt lat="24.918223300677955" lon="118.53477837177614">
        <ele>13.722106876783073</ele>
        <time>2024-10-10T14:27:45Z</time>
      </trkpt>
      <trkpt lat="24.918394876636867" lon="118.53483124322439">
        <ele>12.214073908515275</ele>
        <time>2024-10-10T14:27:51Z</time>
      </trkpt>
      <trkpt lat="24.918482870540174" lon="118.53487459460104">
        <ele>12.50416359398514</ele>
        <time>2024-10-10T14:27:54Z</time>
      </trkpt>
      <trkpt lat="24.918553237738617" lon="118.53493735210647">
        <ele>13.545373988337815</ele>
        <time>2024-10-10T14:27:57Z</time>
      </trkpt>
      <trkpt lat="24.9186067321248" lon="118.53501519458946">
        <ele>12.534859367646277</ele>
        <time>2024-10-10T14:28:00Z</time>
      </trkpt>
      <trkpt lat="24.918647511473473" lon="118.53519425172085">
        <ele>11.895715868100524</ele>
        <time>2024-10-10T14:28:06Z</time>
      </trkpt>
      <trkpt lat="24.918562885227562" lon="118.53547588375551">
        <ele>10.8707191105932</ele>
        <time>2024-10-10T14:28:15Z</time>
      </trkpt>
      <trkpt lat="24.918497403109217" lon="118.53565301995474">
        <ele>10.634384851902723</ele>
        <time>2024-10-10T14:28:21Z</time>
      </trkpt>
      <trkpt lat="24.918477653902862" lon="118.53574617608571">
        <ele>10.550833181478083</ele>
        <time>2024-10-10T14:28:24Z</time>
      </trkpt>
      <trkpt lat="24.91835616270153" lon="118.53602035221508">
        <ele>9.79088890645653</ele>
        <time>2024-10-10T14:28:33Z</time>
      </trkpt>
      <trkpt lat="24.91819954938911" lon="118.53637117776955">
        <ele>10.425612514838576</ele>
        <time>2024-10-10T14:28:45Z</time>
      </trkpt>
      <trkpt lat="24.918112969339813" lon="118.53659192601361">
        <ele>10.026683980599046</ele>
        <time>2024-10-10T14:28:52Z</time>
      </trkpt>
      <trkpt lat="24.918016197548827" lon="118.53689286230498">
        <ele>10.133420627564192</ele>
        <time>2024-10-10T14:29:03Z</time>
      </trkpt>
      <trkpt lat="24.917952717717114" lon="118.53707498679798">
        <ele>10.196003881283104</ele>
        <time>2024-10-10T14:29:09Z</time>
      </trkpt>
      <trkpt lat="24.91783295617795" lon="118.53721714983051">
        <ele>9.766573572531343</ele>
        <time>2024-10-10T14:29:15Z</time>
      </trkpt>
      <trkpt lat="24.91777386017671" lon="118.5373113444307">
        <ele>9.556180532090366</ele>
        <time>2024-10-10T14:29:18Z</time>
      </trkpt>
      <trkpt lat="24.917610054831652" lon="118.53765715348725">
        <ele>9.896397123113275</ele>
        <time>2024-10-10T14:29:30Z</time>
      </trkpt>
      <trkpt lat="24.917551934044965" lon="118.53773334008442">
        <ele>9.42415717523545</ele>
        <time>2024-10-10T14:29:33Z</time>
      </trkpt>
      <trkpt lat="24.91743239266179" lon="118.53801031846592">
        <ele>9.809273401275277</ele>
        <time>2024-10-10T14:29:42Z</time>
      </trkpt>
      <trkpt lat="24.91737418363063" lon="118.5382060856754">
        <ele>9.953559310175478</ele>
        <time>2024-10-10T14:29:48Z</time>
      </trkpt>
      <trkpt lat="24.917273381704838" lon="118.53835948269013">
        <ele>9.678448894061148</ele>
        <time>2024-10-10T14:29:54Z</time>
      </trkpt>
      <trkpt lat="24.917263032758544" lon="118.53866979382009">
        <ele>10.23892495688051</ele>
        <time>2024-10-10T14:30:03Z</time>
      </trkpt>
      <trkpt lat="24.9172390107718" lon="118.53897393198575">
        <ele>10.0404780972749</ele>
        <time>2024-10-10T14:30:12Z</time>
      </trkpt>
      <trkpt lat="24.9172081613128" lon="118.53928872558465">
        <ele>9.791617697104812</ele>
        <time>2024-10-10T14:30:21Z</time>
      </trkpt>
      <trkpt lat="24.917212211478972" lon="118.53940835840504">
        <ele>10.04143451154232</ele>
        <time>2024-10-10T14:30:24Z</time>
      </trkpt>
      <trkpt lat="24.917187404558266" lon="118.53977435723881">
        <ele>10.82170454133302</ele>
        <time>2024-10-10T14:30:33Z</time>
      </trkpt>
      <trkpt lat="24.917068622475124" lon="118.53993054412153">
        <ele>10.153829783201218</ele>
        <time>2024-10-10T14:30:39Z</time>
      </trkpt>
      <trkpt lat="24.9168735990759" lon="118.54009179738978">
        <ele>10.960896012373269</ele>
        <time>2024-10-10T14:30:45Z</time>
      </trkpt>
      <trkpt lat="24.916649868483585" lon="118.54023154942526">
        <ele>9.478616002947092</ele>
        <time>2024-10-10T14:30:51Z</time>
      </trkpt>
      <trkpt lat="24.916577166786233" lon="118.54032093436736">
        <ele>10.181404236704111</ele>
        <time>2024-10-10T14:30:54Z</time>
      </trkpt>
      <trkpt lat="24.916509808257384" lon="118.5405667645228">
        <ele>11.81670661084354</ele>
        <time>2024-10-10T14:31:02Z</time>
      </trkpt>
      <trkpt lat="24.91649900869697" lon="118.54086302437636">
        <ele>12.775535454042256</ele>
        <time>2024-10-10T14:31:11Z</time>
      </trkpt>
      <trkpt lat="24.91656952147892" lon="118.5411518407038">
        <ele>14.015545150265098</ele>
        <time>2024-10-10T14:31:20Z</time>
      </trkpt>
      <trkpt lat="24.916614175891965" lon="118.54135349429328">
        <ele>13.74583251401782</ele>
        <time>2024-10-10T14:31:26Z</time>
      </trkpt>
      <trkpt lat="24.91668932469079" lon="118.5415349316">
        <ele>13.756967090070248</ele>
        <time>2024-10-10T14:31:32Z</time>
      </trkpt>
      <trkpt lat="24.91670505632528" lon="118.54163112296418">
        <ele>13.257526716217399</ele>
        <time>2024-10-10T14:31:35Z</time>
      </trkpt>
      <trkpt lat="24.916693703124224" lon="118.5417302933702">
        <ele>12.608901125378907</ele>
        <time>2024-10-10T14:31:38Z</time>
      </trkpt>
      <trkpt lat="24.91657627932671" lon="118.54192864873683">
        <ele>8.987101883627474</ele>
        <time>2024-10-10T14:31:44Z</time>
      </trkpt>
      <trkpt lat="24.916481887419916" lon="118.54199961344524">
        <ele>6.330460032448173</ele>
        <time>2024-10-10T14:31:47Z</time>
      </trkpt>
      <trkpt lat="24.916261009671473" lon="118.54209720827927">
        <ele>10.994446185417473</ele>
        <time>2024-10-10T14:31:53Z</time>
      </trkpt>
      <trkpt lat="24.916160656075025" lon="118.54217523279839">
        <ele>11.549135201610625</ele>
        <time>2024-10-10T14:31:56Z</time>
      </trkpt>
      <trkpt lat="24.916056907220984" lon="118.54222696779182">
        <ele>12.232340959832072</ele>
        <time>2024-10-10T14:31:59Z</time>
      </trkpt>
      <trkpt lat="24.91586000231777" lon="118.5423792421143">
        <ele>12.288985881023109</ele>
        <time>2024-10-10T14:32:05Z</time>
      </trkpt>
      <trkpt lat="24.91576942738575" lon="118.54248080066489">
        <ele>12.176945129409432</ele>
        <time>2024-10-10T14:32:08Z</time>
      </trkpt>
      <trkpt lat="24.915666946513916" lon="118.54255186944359">
        <ele>12.118122669868171</ele>
        <time>2024-10-10T14:32:11Z</time>
      </trkpt>
      <trkpt lat="24.915567755066895" lon="118.54265712940715">
        <ele>12.221589366905391</ele>
        <time>2024-10-10T14:32:14Z</time>
      </trkpt>
      <trkpt lat="24.915312920352132" lon="118.54284573373255">
        <ele>12.230629704892635</ele>
        <time>2024-10-10T14:32:23Z</time>
      </trkpt>
      <trkpt lat="24.91513061016025" lon="118.54285413373572">
        <ele>11.778128198347986</ele>
        <time>2024-10-10T14:32:29Z</time>
      </trkpt>
      <trkpt lat="24.91498677266877" lon="118.54280622160393">
        <ele>11.052337213419378</ele>
        <time>2024-10-10T14:32:35Z</time>
      </trkpt>
      <trkpt lat="24.914906275015063" lon="118.54279883213918">
        <ele>10.31084962375462</ele>
        <time>2024-10-10T14:32:38Z</time>
      </trkpt>
      <trkpt lat="24.914638131223622" lon="118.54283573110729">
        <ele>9.896059790626168</ele>
        <time>2024-10-10T14:32:47Z</time>
      </trkpt>
      <trkpt lat="24.914546959314645" lon="118.54282170802198">
        <ele>9.949212866835296</ele>
        <time>2024-10-10T14:32:50Z</time>
      </trkpt>
      <trkpt lat="24.914458560790084" lon="118.54277672090019">
        <ele>9.512242744676769</ele>
        <time>2024-10-10T14:32:53Z</time>
      </trkpt>
      <trkpt lat="24.91438247237942" lon="118.5427618144187">
        <ele>9.964311599731445</ele>
        <time>2024-10-10T14:32:56Z</time>
      </trkpt>
      <trkpt lat="24.91419257788187" lon="118.5427686555472">
        <ele>9.981275336816907</ele>
        <time>2024-10-10T14:33:03Z</time>
      </trkpt>
      <trkpt lat="24.914063860007023" lon="118.5427933727658">
        <ele>10.237072872929275</ele>
        <time>2024-10-10T14:33:07Z</time>
      </trkpt>
      <trkpt lat="24.91381482507965" lon="118.54279384576552">
        <ele>8.41176127269864</ele>
        <time>2024-10-10T14:33:15Z</time>
      </trkpt>
      <trkpt lat="24.913741272691382" lon="118.54281209896125">
        <ele>7.297261126339436</ele>
        <time>2024-10-10T14:33:18Z</time>
      </trkpt>
      <trkpt lat="24.913391984678682" lon="118.5428459610791">
        <ele>7.471973630599678</ele>
        <time>2024-10-10T14:33:30Z</time>
      </trkpt>
      <trkpt lat="24.91320027741689" lon="118.5428678328245">
        <ele>7.709425134584308</ele>
        <time>2024-10-10T14:33:36Z</time>
      </trkpt>
      <trkpt lat="24.912854528632092" lon="118.54293709461491">
        <ele>7.7722249971702695</ele>
        <time>2024-10-10T14:33:48Z</time>
      </trkpt>
      <trkpt lat="24.912571764871064" lon="118.5430287684016">
        <ele>8.058017159812152</ele>
        <time>2024-10-10T14:33:57Z</time>
      </trkpt>
      <trkpt lat="24.912246529968083" lon="118.54313102715166">
        <ele>7.94986629486084</ele>
        <time>2024-10-10T14:34:09Z</time>
      </trkpt>
      <trkpt lat="24.911911936101983" lon="118.54323238364258">
        <ele>7.345633470453322</ele>
        <time>2024-10-10T14:34:21Z</time>
      </trkpt>
      <trkpt lat="24.911647266966977" lon="118.54326374327158">
        <ele>8.191349030472338</ele>
        <time>2024-10-10T14:34:30Z</time>
      </trkpt>
      <trkpt lat="24.911315068566388" lon="118.54336366925544">
        <ele>8.066946554929018</ele>
        <time>2024-10-10T14:34:42Z</time>
      </trkpt>
      <trkpt lat="24.911033372648642" lon="118.54339270736767">
        <ele>7.247242393903434</ele>
        <time>2024-10-10T14:34:51Z</time>
      </trkpt>
      <trkpt lat="24.910728665022003" lon="118.54340767702824">
        <ele>7.129609918221831</ele>
        <time>2024-10-10T14:35:00Z</time>
      </trkpt>
      <trkpt lat="24.91063541565709" lon="118.54341478781244">
        <ele>7.112659573554993</ele>
        <time>2024-10-10T14:35:03Z</time>
      </trkpt>
      <trkpt lat="24.910432416512986" lon="118.54337390180608">
        <ele>7.10259666480124</ele>
        <time>2024-10-10T14:35:10Z</time>
      </trkpt>
      <trkpt lat="24.910183246651112" lon="118.54340028940219">
        <ele>7.282690501771867</ele>
        <time>2024-10-10T14:35:17Z</time>
      </trkpt>
      <trkpt lat="24.90984797448274" lon="118.5434095201354">
        <ele>7.076474719680846</ele>
        <time>2024-10-10T14:35:27Z</time>
      </trkpt>
      <trkpt lat="24.909671604586347" lon="118.54339793084269">
        <ele>7.302467678673565</ele>
        <time>2024-10-10T14:35:33Z</time>
      </trkpt>
      <trkpt lat="24.90935536842308" lon="118.54332099723213">
        <ele>6.641677624545991</ele>
        <time>2024-10-10T14:35:42Z</time>
      </trkpt>
      <trkpt lat="24.909269104869768" lon="118.54330318046166">
        <ele>7.2052905689924955</ele>
        <time>2024-10-10T14:35:45Z</time>
      </trkpt>
      <trkpt lat="24.908969967105566" lon="118.54333107565512">
        <ele>7.372037309221923</ele>
        <time>2024-10-10T14:35:54Z</time>
      </trkpt>
      <trkpt lat="24.908862675021183" lon="118.54332278422042">
        <ele>7.201987593434751</ele>
        <time>2024-10-10T14:35:57Z</time>
      </trkpt>
      <trkpt lat="24.90854863829727" lon="118.54341049665611">
        <ele>7.081306256353855</ele>
        <time>2024-10-10T14:36:06Z</time>
      </trkpt>
      <trkpt lat="24.9082184933577" lon="118.54344645305754">
        <ele>7.076875342987478</ele>
        <time>2024-10-10T14:36:15Z</time>
      </trkpt>
      <trkpt lat="24.908146864857606" lon="118.54343172857413">
        <ele>7.886855512857437</ele>
        <time>2024-10-10T14:36:18Z</time>
      </trkpt>
      <trkpt lat="24.9078218849558" lon="118.54345462474535">
        <ele>7.265942166559398</ele>
        <time>2024-10-10T14:36:30Z</time>
      </trkpt>
      <trkpt lat="24.907635977061144" lon="118.54345468469694">
        <ele>6.833487994037569</ele>
        <time>2024-10-10T14:36:36Z</time>
      </trkpt>
      <trkpt lat="24.90754443461515" lon="118.54342736816471">
        <ele>7.113679353147745</ele>
        <time>2024-10-10T14:36:39Z</time>
      </trkpt>
      <trkpt lat="24.907459965944664" lon="118.54337441261181">
        <ele>7.35696426872164</ele>
        <time>2024-10-10T14:36:42Z</time>
      </trkpt>
      <trkpt lat="24.907437981039173" lon="118.54327647168601">
        <ele>7.770176341757178</ele>
        <time>2024-10-10T14:36:45Z</time>
      </trkpt>
      <trkpt lat="24.90758421431007" lon="118.54297135431986">
        <ele>7.999827860854566</ele>
        <time>2024-10-10T14:36:54Z</time>
      </trkpt>
      <trkpt lat="24.907642745740507" lon="118.54288161304989">
        <ele>8.18049830198288</ele>
        <time>2024-10-10T14:36:57Z</time>
      </trkpt>
      <trkpt lat="24.90774911209859" lon="118.54260476265713">
        <ele>7.633172505535185</ele>
        <time>2024-10-10T14:37:06Z</time>
      </trkpt>
      <trkpt lat="24.907840438970183" lon="118.5422820085767">
        <ele>8.086058026179671</ele>
        <time>2024-10-10T14:37:16Z</time>
      </trkpt>
      <trkpt lat="24.907901170395842" lon="118.54210116210129">
        <ele>7.934673719108105</ele>
        <time>2024-10-10T14:37:22Z</time>
      </trkpt>
      <trkpt lat="24.907954582322958" lon="118.54201460772524">
        <ele>8.511618950404227</ele>
        <time>2024-10-10T14:37:26Z</time>
      </trkpt>
      <trkpt lat="24.90807872207268" lon="118.54171539096951">
        <ele>9.343544400297105</ele>
        <time>2024-10-10T14:37:35Z</time>
      </trkpt>
      <trkpt lat="24.908079010615147" lon="118.5416061122656">
        <ele>10.037362085655332</ele>
        <time>2024-10-10T14:37:38Z</time>
      </trkpt>
      <trkpt lat="24.908133007818318" lon="118.54140322971833">
        <ele>10.170846262015402</ele>
        <time>2024-10-10T14:37:44Z</time>
      </trkpt>
      <trkpt lat="24.90817726003539" lon="118.54112215083785">
        <ele>10.20201027020812</ele>
        <time>2024-10-10T14:37:53Z</time>
      </trkpt>
      <trkpt lat="24.908254300828936" lon="118.54102266895109">
        <ele>9.962391392327845</ele>
        <time>2024-10-10T14:37:56Z</time>
      </trkpt>
      <trkpt lat="24.908359241943817" lon="118.54094469907723">
        <ele>9.430880839936435</ele>
        <time>2024-10-10T14:37:59Z</time>
      </trkpt>
      <trkpt lat="24.908531337566078" lon="118.54078949247703">
        <ele>8.72784162312746</ele>
        <time>2024-10-10T14:38:05Z</time>
      </trkpt>
      <trkpt lat="24.90866664796739" lon="118.54045505228177">
        <ele>8.028863322921097</ele>
        <time>2024-10-10T14:38:14Z</time>
      </trkpt>
      <trkpt lat="24.90875116683673" lon="118.54014693873896">
        <ele>7.326550900004804</ele>
        <time>2024-10-10T14:38:23Z</time>
      </trkpt>
      <trkpt lat="24.908882024820958" lon="118.53977172324835">
        <ele>7.918577237986028</ele>
        <time>2024-10-10T14:38:35Z</time>
      </trkpt>
      <trkpt lat="24.908932211383597" lon="118.53937461549647">
        <ele>8.105070839636028</ele>
        <time>2024-10-10T14:38:47Z</time>
      </trkpt>
      <trkpt lat="24.90895831921172" lon="118.53915617171815">
        <ele>8.07812752109021</ele>
        <time>2024-10-10T14:38:53Z</time>
      </trkpt>
      <trkpt lat="24.909058065556714" lon="118.53895270371629">
        <ele>8.308658530004323</ele>
        <time>2024-10-10T14:38:59Z</time>
      </trkpt>
      <trkpt lat="24.909115203939887" lon="118.53866670144558">
        <ele>7.9135916363447905</ele>
        <time>2024-10-10T14:39:08Z</time>
      </trkpt>
      <trkpt lat="24.909143770170484" lon="118.53846925709666">
        <ele>7.961116013117135</ele>
        <time>2024-10-10T14:39:14Z</time>
      </trkpt>
      <trkpt lat="24.909202953386913" lon="118.5382460959195">
        <ele>8.500267617404461</ele>
        <time>2024-10-10T14:39:21Z</time>
      </trkpt>
      <trkpt lat="24.90924207822603" lon="118.53791485497949">
        <ele>8.96873707510531</ele>
        <time>2024-10-10T14:39:31Z</time>
      </trkpt>
      <trkpt lat="24.909271866201525" lon="118.53781125157938">
        <ele>8.093487180769444</ele>
        <time>2024-10-10T14:39:34Z</time>
      </trkpt>
      <trkpt lat="24.90927146956401" lon="118.53771323487457">
        <ele>8.6003987332806</ele>
        <time>2024-10-10T14:39:37Z</time>
      </trkpt>
      <trkpt lat="24.90929324272437" lon="118.53760075070939">
        <ele>8.817078035324812</ele>
        <time>2024-10-10T14:39:40Z</time>
      </trkpt>
      <trkpt lat="24.90933093912998" lon="118.53750213154555">
        <ele>9.510122308507562</ele>
        <time>2024-10-10T14:39:43Z</time>
      </trkpt>
      <trkpt lat="24.909347491157224" lon="118.5372190675846">
        <ele>10.383722166530788</ele>
        <time>2024-10-10T14:39:52Z</time>
      </trkpt>
      <trkpt lat="24.909449514436073" lon="118.53690897273736">
        <ele>10.415760478004813</ele>
        <time>2024-10-10T14:40:01Z</time>
      </trkpt>
      <trkpt lat="24.90953521308232" lon="118.53661600370104">
        <ele>10.383121871389449</ele>
        <time>2024-10-10T14:40:10Z</time>
      </trkpt>
      <trkpt lat="24.90954314005283" lon="118.53651842219752">
        <ele>10.59981838427484</ele>
        <time>2024-10-10T14:40:13Z</time>
      </trkpt>
      <trkpt lat="24.909576856401046" lon="118.53642345866729">
        <ele>10.52944333665073</ele>
        <time>2024-10-10T14:40:16Z</time>
      </trkpt>
      <trkpt lat="24.90961785979759" lon="118.53605700623788">
        <ele>10.716258305124938</ele>
        <time>2024-10-10T14:40:28Z</time>
      </trkpt>
      <trkpt lat="24.909711034256844" lon="118.53567477478425">
        <ele>10.01086431182921</ele>
        <time>2024-10-10T14:40:40Z</time>
      </trkpt>
      <trkpt lat="24.909739100359644" lon="118.53534612039537">
        <ele>10.143274971283972</ele>
        <time>2024-10-10T14:40:49Z</time>
      </trkpt>
      <trkpt lat="24.90975812457029" lon="118.53503459961551">
        <ele>9.274173218756914</ele>
        <time>2024-10-10T14:40:58Z</time>
      </trkpt>
      <trkpt lat="24.909754314960804" lon="118.53494106964676">
        <ele>8.980981431901455</ele>
        <time>2024-10-10T14:41:01Z</time>
      </trkpt>
      <trkpt lat="24.909780943501666" lon="118.53475284131648">
        <ele>8.16992032341659</ele>
        <time>2024-10-10T14:41:07Z</time>
      </trkpt>
      <trkpt lat="24.909788067034807" lon="118.53447122602515">
        <ele>7.948714612983167</ele>
        <time>2024-10-10T14:41:16Z</time>
      </trkpt>
      <trkpt lat="24.909849383448492" lon="118.53431023804315">
        <ele>7.711046229116619</ele>
        <time>2024-10-10T14:41:22Z</time>
      </trkpt>
      <trkpt lat="24.909880934500805" lon="118.53403768708634">
        <ele>8.084390118718147</ele>
        <time>2024-10-10T14:41:29Z</time>
      </trkpt>
      <trkpt lat="24.90995646351234" lon="118.53392458764408">
        <ele>7.536701501347125</ele>
        <time>2024-10-10T14:41:33Z</time>
      </trkpt>
      <trkpt lat="24.91001934767772" lon="118.533861348054">
        <ele>7.593172672204673</ele>
        <time>2024-10-10T14:41:36Z</time>
      </trkpt>
      <trkpt lat="24.910120941427962" lon="118.53379731070964">
        <ele>9.001398406922817</ele>
        <time>2024-10-10T14:41:40Z</time>
      </trkpt>
      <trkpt lat="24.91047290932515" lon="118.53374932882302">
        <ele>9.989525604993105</ele>
        <time>2024-10-10T14:41:52Z</time>
      </trkpt>
      <trkpt lat="24.91075583920778" lon="118.53372424375681">
        <ele>10.331231458112597</ele>
        <time>2024-10-10T14:42:01Z</time>
      </trkpt>
      <trkpt lat="24.911031507548127" lon="118.53371315172666">
        <ele>9.993289263918996</ele>
        <time>2024-10-10T14:42:10Z</time>
      </trkpt>
      <trkpt lat="24.91132101552426" lon="118.53372094545287">
        <ele>10.397585950791836</ele>
        <time>2024-10-10T14:42:19Z</time>
      </trkpt>
      <trkpt lat="24.91167733144388" lon="118.5337242540849">
        <ele>10.812475807964802</ele>
        <time>2024-10-10T14:42:31Z</time>
      </trkpt>
      <trkpt lat="24.9120202999128" lon="118.53379212861299">
        <ele>10.76949086971581</ele>
        <time>2024-10-10T14:42:43Z</time>
      </trkpt>
      <trkpt lat="24.91232272850777" lon="118.53379169914588">
        <ele>11.017719784751534</ele>
        <time>2024-10-10T14:42:52Z</time>
      </trkpt>
      <trkpt lat="24.912396261727345" lon="118.53376749555684">
        <ele>10.530202329158783</ele>
        <time>2024-10-10T14:42:55Z</time>
      </trkpt>
      <trkpt lat="24.912601362224915" lon="118.53378419300334">
        <ele>9.705491799861193</ele>
        <time>2024-10-10T14:43:01Z</time>
      </trkpt>
      <trkpt lat="24.9126981449497" lon="118.53377124279487">
        <ele>10.07722429651767</ele>
        <time>2024-10-10T14:43:04Z</time>
      </trkpt>
      <trkpt lat="24.912898340504093" lon="118.5337744434992">
        <ele>10.63913201726973</ele>
        <time>2024-10-10T14:43:10Z</time>
      </trkpt>
      <trkpt lat="24.913170788601455" lon="118.53382093418631">
        <ele>10.646619483828545</ele>
        <time>2024-10-10T14:43:19Z</time>
      </trkpt>
      <trkpt lat="24.913446821551872" lon="118.53386548698785">
        <ele>9.451503386721015</ele>
        <time>2024-10-10T14:43:28Z</time>
      </trkpt>
      <trkpt lat="24.913570121546297" lon="118.53387870392636">
        <ele>10.35613542702049</ele>
        <time>2024-10-10T14:43:32Z</time>
      </trkpt>
      <trkpt lat="24.91376879948512" lon="118.53393588274824">
        <ele>10.667566073127091</ele>
        <time>2024-10-10T14:43:39Z</time>
      </trkpt>
      <trkpt lat="24.91389098569314" lon="118.53395462761536">
        <ele>10.514854269102216</ele>
        <time>2024-10-10T14:43:43Z</time>
      </trkpt>
      <trkpt lat="24.91411513408106" lon="118.53396173148664">
        <ele>10.901514592580497</ele>
        <time>2024-10-10T14:43:50Z</time>
      </trkpt>
      <trkpt lat="24.914291282522456" lon="118.53400610882373">
        <ele>11.013803855516016</ele>
        <time>2024-10-10T14:43:56Z</time>
      </trkpt>
      <trkpt lat="24.91456507318594" lon="118.53405825073084">
        <ele>12.307581284083426</ele>
        <time>2024-10-10T14:44:05Z</time>
      </trkpt>
      <trkpt lat="24.914819137824352" lon="118.53412341414905">
        <ele>12.535719562321901</ele>
        <time>2024-10-10T14:44:14Z</time>
      </trkpt>
      <trkpt lat="24.915108381020126" lon="118.534148466453">
        <ele>12.452582127414644</ele>
        <time>2024-10-10T14:44:23Z</time>
      </trkpt>
      <trkpt lat="24.915395741355944" lon="118.53417588433962">
        <ele>12.719865779392421</ele>
        <time>2024-10-10T14:44:32Z</time>
      </trkpt>
      <trkpt lat="24.915652331186433" lon="118.53421703355286">
        <ele>12.468818670138717</ele>
        <time>2024-10-10T14:44:41Z</time>
      </trkpt>
      <trkpt lat="24.91592430064287" lon="118.53426826615797">
        <ele>12.515254124067724</ele>
        <time>2024-10-10T14:44:50Z</time>
      </trkpt>
      <trkpt lat="24.916190921767186" lon="118.5343218054589">
        <ele>12.48736166767776</ele>
        <time>2024-10-10T14:44:59Z</time>
      </trkpt>
      <trkpt lat="24.91643316444123" lon="118.53439082338575">
        <ele>12.274254010990262</ele>
        <time>2024-10-10T14:45:08Z</time>
      </trkpt>
      <trkpt lat="24.91671284023503" lon="118.53443647114587">
        <ele>13.63376123085618</ele>
        <time>2024-10-10T14:45:17Z</time>
      </trkpt>
      <trkpt lat="24.916902140802993" lon="118.53447056108263">
        <ele>14.331284427084029</ele>
        <time>2024-10-10T14:45:23Z</time>
      </trkpt>
      <trkpt lat="24.917070537477947" lon="118.53453686484784">
        <ele>14.48377108387649</ele>
        <time>2024-10-10T14:45:29Z</time>
      </trkpt>
      <trkpt lat="24.917404233840692" lon="118.53458991629256">
        <ele>14.643670215271413</ele>
        <time>2024-10-10T14:45:39Z</time>
      </trkpt>
      <trkpt lat="24.917721287018523" lon="118.53466553280853">
        <ele>14.17019434645772</ele>
        <time>2024-10-10T14:45:49Z</time>
      </trkpt>
      <trkpt lat="24.918037454856652" lon="118.53473373309711">
        <ele>14.402449315413833</ele>
        <time>2024-10-10T14:45:59Z</time>
      </trkpt>
      <trkpt lat="24.918328737891393" lon="118.53479905237418">
        <ele>13.290273025631905</ele>
        <time>2024-10-10T14:46:08Z</time>
      </trkpt>
      <trkpt lat="24.918500032482292" lon="118.53489369784651">
        <ele>12.354802388697863</ele>
        <time>2024-10-10T14:46:14Z</time>
      </trkpt>
      <trkpt lat="24.918569280049226" lon="118.53496417246085">
        <ele>12.079827883280814</ele>
        <time>2024-10-10T14:46:17Z</time>
      </trkpt>
      <trkpt lat="24.918613008576152" lon="118.53506185018144">
        <ele>12.31589772272855</ele>
        <time>2024-10-10T14:46:20Z</time>
      </trkpt>
      <trkpt lat="24.91862835684923" lon="118.5351604993487">
        <ele>11.945965019986033</ele>
        <time>2024-10-10T14:46:23Z</time>
      </trkpt>
      <trkpt lat="24.918538373730385" lon="118.53553761761863">
        <ele>11.101320289075375</ele>
        <time>2024-10-10T14:46:35Z</time>
      </trkpt>
      <trkpt lat="24.918423250731845" lon="118.53586132030462">
        <ele>10.323488463647664</ele>
        <time>2024-10-10T14:46:44Z</time>
      </trkpt>
      <trkpt lat="24.918270125973002" lon="118.53622189204462">
        <ele>10.049054154194891</ele>
        <time>2024-10-10T14:46:56Z</time>
      </trkpt>
      <trkpt lat="24.91814992915638" lon="118.53642335065966">
        <ele>9.567792104557157</ele>
        <time>2024-10-10T14:47:02Z</time>
      </trkpt>
      <trkpt lat="24.91802347885046" lon="118.53676744295598">
        <ele>9.861815046519041</ele>
        <time>2024-10-10T14:47:14Z</time>
      </trkpt>
      <trkpt lat="24.917878587464" lon="118.53714520482151">
        <ele>9.402219622395933</ele>
        <time>2024-10-10T14:47:26Z</time>
      </trkpt>
      <trkpt lat="24.91772739090236" lon="118.53740792479776">
        <ele>9.91643891390413</ele>
        <time>2024-10-10T14:47:35Z</time>
      </trkpt>
      <trkpt lat="24.917541633692842" lon="118.53775137601845">
        <ele>9.102522680535913</ele>
        <time>2024-10-10T14:47:47Z</time>
      </trkpt>
      <trkpt lat="24.917483107541" lon="118.53788167519482">
        <ele>9.605406749993563</ele>
        <time>2024-10-10T14:47:51Z</time>
      </trkpt>
      <trkpt lat="24.917461596649705" lon="118.53801797817164">
        <ele>9.68000868987292</ele>
        <time>2024-10-10T14:47:55Z</time>
      </trkpt>
      <trkpt lat="24.91736484224472" lon="118.53827018299522">
        <ele>9.696178800426424</ele>
        <time>2024-10-10T14:48:02Z</time>
      </trkpt>
      <trkpt lat="24.91736577439716" lon="118.53838145999852">
        <ele>9.481237358413637</ele>
        <time>2024-10-10T14:48:05Z</time>
      </trkpt>
      <trkpt lat="24.917285452961515" lon="118.53854797044218">
        <ele>9.842819798737764</ele>
        <time>2024-10-10T14:48:11Z</time>
      </trkpt>
      <trkpt lat="24.91724606267248" lon="118.53874374142069">
        <ele>10.544867004267871</ele>
        <time>2024-10-10T14:48:17Z</time>
      </trkpt>
      <trkpt lat="24.91726562462967" lon="118.53884320323907">
        <ele>10.365005010738969</ele>
        <time>2024-10-10T14:48:20Z</time>
      </trkpt>
      <trkpt lat="24.917258841254455" lon="118.53898063905679">
        <ele>9.550326398573816</ele>
        <time>2024-10-10T14:48:23Z</time>
      </trkpt>
      <trkpt lat="24.91728059693776" lon="118.53924848621462">
        <ele>9.93182872235775</ele>
        <time>2024-10-10T14:48:29Z</time>
      </trkpt>
      <trkpt lat="24.917332070034263" lon="118.53947715649612">
        <ele>10.173957914113998</ele>
        <time>2024-10-10T14:48:35Z</time>
      </trkpt>
      <trkpt lat="24.917341695119116" lon="118.53958160786785">
        <ele>10.23627577535808</ele>
        <time>2024-10-10T14:48:38Z</time>
      </trkpt>
      <trkpt lat="24.91731709374908" lon="118.53967813628722">
        <ele>10.423030650243163</ele>
        <time>2024-10-10T14:48:41Z</time>
      </trkpt>
      <trkpt lat="24.91722855673257" lon="118.53975917840329">
        <ele>10.572491561993957</ele>
        <time>2024-10-10T14:48:44Z</time>
      </trkpt>
      <trkpt lat="24.91718176125331" lon="118.53987724062014">
        <ele>10.508175395429134</ele>
        <time>2024-10-10T14:48:47Z</time>
      </trkpt>
      <trkpt lat="24.91708268835777" lon="118.53994964614064">
        <ele>10.513149393722415</ele>
        <time>2024-10-10T14:48:50Z</time>
      </trkpt>
      <trkpt lat="24.9167993268689" lon="118.54010455515338">
        <ele>10.603463737294078</ele>
        <time>2024-10-10T14:48:56Z</time>
      </trkpt>
      <trkpt lat="24.916700643632225" lon="118.54019626456048">
        <ele>10.07062526512891</ele>
        <time>2024-10-10T14:48:59Z</time>
      </trkpt>
      <trkpt lat="24.91663569371005" lon="118.54030325101647">
        <ele>9.712323643267155</ele>
        <time>2024-10-10T14:49:02Z</time>
      </trkpt>
      <trkpt lat="24.916551709172833" lon="118.5406275708182">
        <ele>11.627356286160648</ele>
        <time>2024-10-10T14:49:11Z</time>
      </trkpt>
      <trkpt lat="24.916521793175075" lon="118.54086142193769">
        <ele>11.989473165012896</ele>
        <time>2024-10-10T14:49:17Z</time>
      </trkpt>
      <trkpt lat="24.916552809447992" lon="118.54096333134665">
        <ele>12.590403903275728</ele>
        <time>2024-10-10T14:49:20Z</time>
      </trkpt>
      <trkpt lat="24.916560422963794" lon="118.54117900750397">
        <ele>13.188891007564962</ele>
        <time>2024-10-10T14:49:26Z</time>
      </trkpt>
      <trkpt lat="24.916607353602092" lon="118.54128167306342">
        <ele>13.376847472973168</ele>
        <time>2024-10-10T14:49:29Z</time>
      </trkpt>
      <trkpt lat="24.91668008934696" lon="118.54136431466817">
        <ele>13.174370887689292</ele>
        <time>2024-10-10T14:49:32Z</time>
      </trkpt>
      <trkpt lat="24.916757860684633" lon="118.54156995408704">
        <ele>13.136142356321216</ele>
        <time>2024-10-10T14:49:38Z</time>
      </trkpt>
      <trkpt lat="24.91656840648677" lon="118.5419268129265">
        <ele>11.676576815545559</ele>
        <time>2024-10-10T14:49:47Z</time>
      </trkpt>
      <trkpt lat="24.916319027911957" lon="118.54205332634785">
        <ele>11.668744703754783</ele>
        <time>2024-10-10T14:49:54Z</time>
      </trkpt>
      <trkpt lat="24.916069843937922" lon="118.54221308351732">
        <ele>12.079246927052736</ele>
        <time>2024-10-10T14:50:01Z</time>
      </trkpt>
      <trkpt lat="24.91583526799642" lon="118.54238879001097">
        <ele>12.508520804345608</ele>
        <time>2024-10-10T14:50:08Z</time>
      </trkpt>
      <trkpt lat="24.915738564361998" lon="118.54244172361024">
        <ele>12.827769519761205</ele>
        <time>2024-10-10T14:50:11Z</time>
      </trkpt>
      <trkpt lat="24.9156479908505" lon="118.54252784402267">
        <ele>12.598331786692142</ele>
        <time>2024-10-10T14:50:14Z</time>
      </trkpt>
      <trkpt lat="24.915365859585137" lon="118.5426443900194">
        <ele>12.140783065930009</ele>
        <time>2024-10-10T14:50:23Z</time>
      </trkpt>
      <trkpt lat="24.915186007097187" lon="118.54267373330482">
        <ele>12.594215098768473</ele>
        <time>2024-10-10T14:50:29Z</time>
      </trkpt>
      <trkpt lat="24.91500787814817" lon="118.5426484578212">
        <ele>11.281750934198499</ele>
        <time>2024-10-10T14:50:35Z</time>
      </trkpt>
      <trkpt lat="24.914649518213842" lon="118.54275487569656">
        <ele>10.139976477250457</ele>
        <time>2024-10-10T14:50:47Z</time>
      </trkpt>
      <trkpt lat="24.91436437265503" lon="118.54275767638516">
        <ele>9.700827669352293</ele>
        <time>2024-10-10T14:50:56Z</time>
      </trkpt>
      <trkpt lat="24.914152940185073" lon="118.54281090459523">
        <ele>9.551274249330163</ele>
        <time>2024-10-10T14:51:02Z</time>
      </trkpt>
      <trkpt lat="24.913842241354526" lon="118.54277230837168">
        <ele>9.284033862873912</ele>
        <time>2024-10-10T14:51:11Z</time>
      </trkpt>
      <trkpt lat="24.913676018206367" lon="118.54279036852706">
        <ele>7.57341350056231</ele>
        <time>2024-10-10T14:51:17Z</time>
      </trkpt>
      <trkpt lat="24.91341361516235" lon="118.54286557216842">
        <ele>7.83528009802103</ele>
        <time>2024-10-10T14:51:26Z</time>
      </trkpt>
      <trkpt lat="24.91332608205231" lon="118.54286143966544">
        <ele>7.747396059334278</ele>
        <time>2024-10-10T14:51:29Z</time>
      </trkpt>
      <trkpt lat="24.913044259174224" lon="118.54294959770932">
        <ele>7.400317271240056</ele>
        <time>2024-10-10T14:51:38Z</time>
      </trkpt>
      <trkpt lat="24.912694655043477" lon="118.5430282398294">
        <ele>8.05920093972236</ele>
        <time>2024-10-10T14:51:50Z</time>
      </trkpt>
      <trkpt lat="24.912481124593754" lon="118.54307152345672">
        <ele>7.554786722175777</ele>
        <time>2024-10-10T14:51:57Z</time>
      </trkpt>
      <trkpt lat="24.91236502195746" lon="118.54311501113669">
        <ele>7.484664283692837</ele>
        <time>2024-10-10T14:52:01Z</time>
      </trkpt>
      <trkpt lat="24.91223900628561" lon="118.54312359183024">
        <ele>7.189847117289901</ele>
        <time>2024-10-10T14:52:05Z</time>
      </trkpt>
      <trkpt lat="24.911957258131064" lon="118.54321312521388">
        <ele>7.352507797069848</ele>
        <time>2024-10-10T14:52:14Z</time>
      </trkpt>
      <trkpt lat="24.911682756363028" lon="118.54326593120037">
        <ele>8.169368184171617</ele>
        <time>2024-10-10T14:52:23Z</time>
      </trkpt>
      <trkpt lat="24.911422170739847" lon="118.54331133107738">
        <ele>7.798872779123485</ele>
        <time>2024-10-10T14:52:32Z</time>
      </trkpt>
      <trkpt lat="24.911141438244282" lon="118.54339517192905">
        <ele>7.315553094260395</ele>
        <time>2024-10-10T14:52:41Z</time>
      </trkpt>
      <trkpt lat="24.910810641444726" lon="118.54339496733137">
        <ele>7.290932149626315</ele>
        <time>2024-10-10T14:52:50Z</time>
      </trkpt>
      <trkpt lat="24.910523360675963" lon="118.54337753854054">
        <ele>7.326835968531668</ele>
        <time>2024-10-10T14:52:59Z</time>
      </trkpt>
      <trkpt lat="24.910211519546422" lon="118.54341602717865">
        <ele>7.045684467069805</ele>
        <time>2024-10-10T14:53:08Z</time>
      </trkpt>
      <trkpt lat="24.909902697738207" lon="118.54343146950727">
        <ele>7.3227415373548865</ele>
        <time>2024-10-10T14:53:17Z</time>
      </trkpt>
      <trkpt lat="24.909591513777585" lon="118.54342058083401">
        <ele>7.154746453277767</ele>
        <time>2024-10-10T14:53:26Z</time>
      </trkpt>
      <trkpt lat="24.909266272066958" lon="118.543385754505">
        <ele>7.056820468045771</ele>
        <time>2024-10-10T14:53:35Z</time>
      </trkpt>
      <trkpt lat="24.909165689763928" lon="118.543397495019">
        <ele>7.14763000048697</ele>
        <time>2024-10-10T14:53:38Z</time>
      </trkpt>
      <trkpt lat="24.90885667840721" lon="118.54333734001906">
        <ele>7.730721462517977</ele>
        <time>2024-10-10T14:53:47Z</time>
      </trkpt>
      <trkpt lat="24.90876138371228" lon="118.5433191005466">
        <ele>7.011021038517356</ele>
        <time>2024-10-10T14:53:50Z</time>
      </trkpt>
      <trkpt lat="24.908661311117523" lon="118.54332195843584">
        <ele>7.051103171892464</ele>
        <time>2024-10-10T14:53:53Z</time>
      </trkpt>
      <trkpt lat="24.908297329286473" lon="118.5434193322378">
        <ele>6.750589854083955</ele>
        <time>2024-10-10T14:54:03Z</time>
      </trkpt>
      <trkpt lat="24.90807984587665" lon="118.54341568612948">
        <ele>7.559899701736867</ele>
        <time>2024-10-10T14:54:10Z</time>
      </trkpt>
    </trkseg>
  </trk>
</gpx>