<?xml version="1.0" encoding="UTF-8"?>
<gpx xmlns="http://www.topografix.com/GPX/1/1" xmlns:gpxtpx="http://www.garmin.com/xmlschemas/TrackPointExtension/v1" xmlns:xsi="http://www.w3.org/2001/XMLSchema-instance" xsi:schemaLocation="http://www.topografix.com/GPX/1/1 http://www.topografix.com/GPX/1/1/gpx.xsd" version="1.1" creator="gpx.py -- https://github.com/tkrajina/gpxpy">
  <trk>
    <name>gpx from keep</name>
    <type>Walk</type>
    <trkseg>
      <trkpt lat="24.910956822311533" lon="118.5374047319551">
        <ele>35.89581298828125</ele>
        <time>2025-11-01T12:27:58Z</time>
      </trkpt>
      <trkpt lat="24.91095994003705" lon="118.53745586881718">
        <ele>32.6866455078125</ele>
        <time>2025-11-01T12:28:04Z</time>
      </trkpt>
      <trkpt lat="24.910949827919953" lon="118.53740673781996">
        <ele>32.626220703125</ele>
        <time>2025-11-01T12:28:13Z</time>
      </trkpt>
      <trkpt lat="24.910842594675593" lon="118.53729945740173">
        <ele>32.80230712890625</ele>
        <time>2025-11-01T12:28:22Z</time>
      </trkpt>
      <trkpt lat="24.910829714796037" lon="118.53735059556962">
        <ele>26.07708740234375</ele>
        <time>2025-11-01T12:28:28Z</time>
      </trkpt>
      <trkpt lat="24.910881765528902" lon="118.53737565919754">
        <ele>25.649658203125</ele>
        <time>2025-11-01T12:28:31Z</time>
      </trkpt>
      <trkpt lat="24.910875893819497" lon="118.53743080749034">
        <ele>25.6126708984375</ele>
        <time>2025-11-01T12:28:40Z</time>
      </trkpt>
      <trkpt lat="24.91092290349621" lon="118.53743782302796">
        <ele>26.2762451171875</ele>
        <time>2025-11-01T12:28:43Z</time>
      </trkpt>
      <trkpt lat="24.910960780037936" lon="118.53738668327617">
        <ele>25.026611328125</ele>
        <time>2025-11-01T12:28:49Z</time>
      </trkpt>
      <trkpt lat="24.91088677874231" lon="118.53738167498616">
        <ele>24.13372802734375</ele>
        <time>2025-11-01T12:28:58Z</time>
      </trkpt>
      <trkpt lat="24.910940476581846" lon="118.53725432938207">
        <ele>24.169677734375</ele>
        <time>2025-11-01T12:29:25Z</time>
      </trkpt>
      <trkpt lat="24.9109562722165" lon="118.53716709376098">
        <ele>23.68157958984375</ele>
        <time>2025-11-01T12:29:31Z</time>
      </trkpt>
      <trkpt lat="24.91090435615204" lon="118.53720018636696">
        <ele>23.6676025390625</ele>
        <time>2025-11-01T12:29:37Z</time>
      </trkpt>
      <trkpt lat="24.91088847452705" lon="118.53725032222974">
        <ele>17.2738037109375</ele>
        <time>2025-11-01T12:29:43Z</time>
      </trkpt>
      <trkpt lat="24.9109215744034" lon="118.53729544112707">
        <ele>20.17950439453125</ele>
        <time>2025-11-01T12:29:52Z</time>
      </trkpt>
      <trkpt lat="24.910862547795496" lon="118.53728040484752">
        <ele>24.1151123046875</ele>
        <time>2025-11-01T12:30:28Z</time>
      </trkpt>
      <trkpt lat="24.910823803731358" lon="118.53738869820108">
        <ele>22.58831787109375</ele>
        <time>2025-11-01T12:30:43Z</time>
      </trkpt>
      <trkpt lat="24.91079089869317" lon="118.53742780535018">
        <ele>23.59381103515625</ele>
        <time>2025-11-01T12:30:46Z</time>
      </trkpt>
      <trkpt lat="24.910774761865305" lon="118.53736764513557">
        <ele>26.149169921875</ele>
        <time>2025-11-01T12:30:55Z</time>
      </trkpt>
      <trkpt lat="24.910839634539407" lon="118.53731650337508">
        <ele>21.27899169921875</ele>
        <time>2025-11-01T12:30:58Z</time>
      </trkpt>
      <trkpt lat="24.91086076613182" lon="118.53737465797124">
        <ele>22.0830078125</ele>
        <time>2025-11-01T12:31:01Z</time>
      </trkpt>
      <trkpt lat="24.9109087014878" lon="118.53734958737411">
        <ele>22.85528564453125</ele>
        <time>2025-11-01T12:31:16Z</time>
      </trkpt>
      <trkpt lat="24.91091384219686" lon="118.53741075108229">
        <ele>21.66314697265625</ele>
        <time>2025-11-01T12:31:25Z</time>
      </trkpt>
      <trkpt lat="24.91088193467694" lon="118.53744885544414">
        <ele>21.7913818359375</ele>
        <time>2025-11-01T12:31:43Z</time>
      </trkpt>
      <trkpt lat="24.910861812352042" lon="118.53739471168738">
        <ele>22.97479248046875</ele>
        <time>2025-11-01T12:32:01Z</time>
      </trkpt>
      <trkpt lat="24.91081483974726" lon="118.5374037391614">
        <ele>23.0955810546875</ele>
        <time>2025-11-01T12:32:07Z</time>
      </trkpt>
      <trkpt lat="24.910792947056738" lon="118.53744886164579">
        <ele>21.86517333984375</ele>
        <time>2025-11-01T12:32:10Z</time>
      </trkpt>
      <trkpt lat="24.910845009287744" lon="118.53747893861646">
        <ele>30.85919189453125</ele>
        <time>2025-11-01T12:32:52Z</time>
      </trkpt>
      <trkpt lat="24.910739977586235" lon="118.53745889220714">
        <ele>26.6124267578125</ele>
        <time>2025-11-01T12:33:28Z</time>
      </trkpt>
      <trkpt lat="24.910802975770373" lon="118.53746189587703">
        <ele>22.2896728515625</ele>
        <time>2025-11-01T12:33:46Z</time>
      </trkpt>
      <trkpt lat="24.9108560239618" lon="118.53748595665064">
        <ele>22.316650390625</ele>
        <time>2025-11-01T12:33:55Z</time>
      </trkpt>
      <trkpt lat="24.910883878807017" lon="118.53742479080634">
        <ele>22.00592041015625</ele>
        <time>2025-11-01T12:34:01Z</time>
      </trkpt>
      <trkpt lat="24.910933834780266" lon="118.53740874431183">
        <ele>21.51361083984375</ele>
        <time>2025-11-01T12:34:04Z</time>
      </trkpt>
      <trkpt lat="24.91089861241104" lon="118.53731048311278">
        <ele>21.37353515625</ele>
        <time>2025-11-01T12:34:16Z</time>
      </trkpt>
      <trkpt lat="24.910920725326356" lon="118.53736061613169">
        <ele>20.7119140625</ele>
        <time>2025-11-01T12:34:43Z</time>
      </trkpt>
      <trkpt lat="24.910839643819614" lon="118.53732051414167">
        <ele>24.2315673828125</ele>
        <time>2025-11-01T12:34:55Z</time>
      </trkpt>
      <trkpt lat="24.910783788433264" lon="118.53737967678461">
        <ele>18.08026123046875</ele>
        <time>2025-11-01T12:35:10Z</time>
      </trkpt>
      <trkpt lat="24.91083375365878" lon="118.53736764102429">
        <ele>20.16412353515625</ele>
        <time>2025-11-01T12:35:13Z</time>
      </trkpt>
      <trkpt lat="24.91082087830333" lon="118.53742078444456">
        <ele>19.9173583984375</ele>
        <time>2025-11-01T12:35:28Z</time>
      </trkpt>
      <trkpt lat="24.910789769052712" lon="118.53737165484964">
        <ele>19.06646728515625</ele>
        <time>2025-11-01T12:35:46Z</time>
      </trkpt>
      <trkpt lat="24.910824854577083" lon="118.53741075728401">
        <ele>17.79931640625</ele>
        <time>2025-11-01T12:35:52Z</time>
      </trkpt>
      <trkpt lat="24.910862770490116" lon="118.53737666321112">
        <ele>15.986572265625</ele>
        <time>2025-11-01T12:36:04Z</time>
      </trkpt>
      <trkpt lat="24.910853398099455" lon="118.53721523035465">
        <ele>31.52581787109375</ele>
        <time>2025-11-01T12:36:16Z</time>
      </trkpt>
      <trkpt lat="24.910897489529695" lon="118.53725734046017">
        <ele>21.68994140625</ele>
        <time>2025-11-01T12:36:31Z</time>
      </trkpt>
      <trkpt lat="24.910969412162956" lon="118.53722825730709">
        <ele>20.58233642578125</ele>
        <time>2025-11-01T12:36:37Z</time>
      </trkpt>
      <trkpt lat="24.910926320555696" lon="118.53718614708855">
        <ele>22.55108642578125</ele>
        <time>2025-11-01T12:36:43Z</time>
      </trkpt>
      <trkpt lat="24.91089541316551" lon="118.5372242516842">
        <ele>25.30926513671875</ele>
        <time>2025-11-01T12:36:46Z</time>
      </trkpt>
      <trkpt lat="24.910824434656448" lon="118.53722927010641">
        <ele>31.181640625</ele>
        <time>2025-11-01T12:36:52Z</time>
      </trkpt>
      <trkpt lat="24.910814089591696" lon="118.53707986888176">
        <ele>23.55596923828125</ele>
        <time>2025-11-01T12:37:04Z</time>
      </trkpt>
      <trkpt lat="24.910748059198735" lon="118.53706282757433">
        <ele>25.0855712890625</ele>
        <time>2025-11-01T12:37:10Z</time>
      </trkpt>
      <trkpt lat="24.91084144855103" lon="118.53723628778457">
        <ele>19.3934326171875</ele>
        <time>2025-11-01T12:37:22Z</time>
      </trkpt>
      <trkpt lat="24.91093361218271" lon="118.53731248605762">
        <ele>16.18963623046875</ele>
        <time>2025-11-01T12:37:31Z</time>
      </trkpt>
      <trkpt lat="24.910938729778355" lon="118.53736362294767">
        <ele>18.422119140625</ele>
        <time>2025-11-01T12:37:37Z</time>
      </trkpt>
      <trkpt lat="24.910878719574885" lon="118.53735560560722">
        <ele>19.42401123046875</ele>
        <time>2025-11-01T12:37:46Z</time>
      </trkpt>
      <trkpt lat="24.910916621508196" lon="118.53731549531767">
        <ele>15.509033203125</ele>
        <time>2025-11-01T12:38:13Z</time>
      </trkpt>
      <trkpt lat="24.910862554759106" lon="118.53728341292634">
        <ele>15.13525390625</ele>
        <time>2025-11-01T12:38:19Z</time>
      </trkpt>
      <trkpt lat="24.91081270788426" lon="118.53734658599194">
        <ele>20.3331298828125</ele>
        <time>2025-11-01T12:38:37Z</time>
      </trkpt>
      <trkpt lat="24.910766735153693" lon="118.53735561341173">
        <ele>21.5008544921875</ele>
        <time>2025-11-01T12:38:43Z</time>
      </trkpt>
      <trkpt lat="24.91062336164182" lon="118.53761832708418">
        <ele>21.64453125</ele>
        <time>2025-11-01T12:39:07Z</time>
      </trkpt>
      <trkpt lat="24.910696704636813" lon="118.53777173176442">
        <ele>20.810302734375</ele>
        <time>2025-11-01T12:39:19Z</time>
      </trkpt>
      <trkpt lat="24.910722078868858" lon="118.53793616831571">
        <ele>23.25067138671875</ele>
        <time>2025-11-01T12:39:31Z</time>
      </trkpt>
      <trkpt lat="24.910671200946243" lon="118.5379863053022">
        <ele>22.9085693359375</ele>
        <time>2025-11-01T12:39:37Z</time>
      </trkpt>
      <trkpt lat="24.910619164493212" lon="118.53796725823102">
        <ele>21.3021240234375</ele>
        <time>2025-11-01T12:39:43Z</time>
      </trkpt>
      <trkpt lat="24.910571079162768" lon="118.53792715480847">
        <ele>21.12493896484375</ele>
        <time>2025-11-01T12:39:49Z</time>
      </trkpt>
      <trkpt lat="24.910373155002596" lon="118.53794822466288">
        <ele>18.42449951171875</ele>
        <time>2025-11-01T12:40:07Z</time>
      </trkpt>
      <trkpt lat="24.91030822613027" lon="118.53797530124471">
        <ele>16.70269775390625</ele>
        <time>2025-11-01T12:40:13Z</time>
      </trkpt>
      <trkpt lat="24.91022817976021" lon="118.53795024010319">
        <ele>14.6263427734375</ele>
        <time>2025-11-01T12:40:19Z</time>
      </trkpt>
      <trkpt lat="24.91016409662909" lon="118.53791013777115">
        <ele>11.102386474609375</ele>
        <time>2025-11-01T12:40:25Z</time>
      </trkpt>
      <trkpt lat="24.91010587670372" lon="118.53781087725697">
        <ele>11.02301025390625</ele>
        <time>2025-11-01T12:40:37Z</time>
      </trkpt>
      <trkpt lat="24.910059035261924" lon="118.53787705694072">
        <ele>10.174285888671875</ele>
        <time>2025-11-01T12:40:43Z</time>
      </trkpt>
      <trkpt lat="24.910050229799317" lon="118.53796128186168">
        <ele>17.27532958984375</ele>
        <time>2025-11-01T12:40:49Z</time>
      </trkpt>
      <trkpt lat="24.91009709673594" lon="118.53790613175678">
        <ele>18.1492919921875</ele>
        <time>2025-11-01T12:40:55Z</time>
      </trkpt>
      <trkpt lat="24.910150022614136" lon="118.53787705060067">
        <ele>21.068359375</ele>
        <time>2025-11-01T12:41:01Z</time>
      </trkpt>
      <trkpt lat="24.910106106991897" lon="118.53791114448248">
        <ele>24.12738037109375</ele>
        <time>2025-11-01T12:41:10Z</time>
      </trkpt>
      <trkpt lat="24.910147204818845" lon="118.53795626176006">
        <ele>31.489501953125</ele>
        <time>2025-11-01T12:41:16Z</time>
      </trkpt>
      <trkpt lat="24.91015686961519" lon="118.5378108737037">
        <ele>33.1900634765625</ele>
        <time>2025-11-01T12:41:22Z</time>
      </trkpt>
      <trkpt lat="24.910220890674708" lon="118.53782390400436">
        <ele>27.9947509765625</ele>
        <time>2025-11-01T12:41:34Z</time>
      </trkpt>
      <trkpt lat="24.910330004499734" lon="118.53788004607478">
        <ele>28.3824462890625</ele>
        <time>2025-11-01T12:42:04Z</time>
      </trkpt>
      <trkpt lat="24.91039200508895" lon="118.53788405244119">
        <ele>27.729736328125</ele>
        <time>2025-11-01T12:42:10Z</time>
      </trkpt>
      <trkpt lat="24.910438954807752" lon="118.53786499840287">
        <ele>26.4112548828125</ele>
        <time>2025-11-01T12:42:22Z</time>
      </trkpt>
      <trkpt lat="24.910426069411876" lon="118.53791413019917">
        <ele>32.29351806640625</ele>
        <time>2025-11-01T12:42:46Z</time>
      </trkpt>
      <trkpt lat="24.910407929179367" lon="118.53785196582213">
        <ele>31.126708984375</ele>
        <time>2025-11-01T12:43:01Z</time>
      </trkpt>
      <trkpt lat="24.910146497262218" lon="118.53764844073224">
        <ele>27.361572265625</ele>
        <time>2025-11-01T12:43:13Z</time>
      </trkpt>
      <trkpt lat="24.910189662111048" lon="118.53772263594848">
        <ele>27.68450927734375</ele>
        <time>2025-11-01T12:43:19Z</time>
      </trkpt>
      <trkpt lat="24.91013364220516" lon="118.53771060772105">
        <ele>22.0836181640625</ele>
        <time>2025-11-01T12:43:34Z</time>
      </trkpt>
      <trkpt lat="24.91019790999942" lon="118.53783092432106">
        <ele>8.32769775390625</ele>
        <time>2025-11-01T12:43:43Z</time>
      </trkpt>
      <trkpt lat="24.91025001331867" lon="118.53787904897688">
        <ele>5.52227783203125</ele>
        <time>2025-11-01T12:43:49Z</time>
      </trkpt>
      <trkpt lat="24.91019303275308" lon="118.53788406630572">
        <ele>4.82232666015625</ele>
        <time>2025-11-01T12:44:10Z</time>
      </trkpt>
      <trkpt lat="24.910208150336597" lon="118.53793620412631">
        <ele>8.738922119140625</ele>
        <time>2025-11-01T12:44:19Z</time>
      </trkpt>
      <trkpt lat="24.910189040215382" lon="118.53788707459853">
        <ele>10.3956298828125</ele>
        <time>2025-11-01T12:44:52Z</time>
      </trkpt>
      <trkpt lat="24.910049181637778" lon="118.53794022588171">
        <ele>13.67755126953125</ele>
        <time>2025-11-01T12:45:01Z</time>
      </trkpt>
      <trkpt lat="24.909989164670293" lon="118.5379292006962">
        <ele>11.132080078125</ele>
        <time>2025-11-01T12:45:13Z</time>
      </trkpt>
      <trkpt lat="24.910030083031568" lon="118.53789610971656">
        <ele>7.395477294921875</ele>
        <time>2025-11-01T12:45:22Z</time>
      </trkpt>
      <trkpt lat="24.910024341462794" lon="118.5380084090599">
        <ele>6.56304931640625</ele>
        <time>2025-11-01T12:45:31Z</time>
      </trkpt>
      <trkpt lat="24.909964441702847" lon="118.53804851988932">
        <ele>4.9013671875</ele>
        <time>2025-11-01T12:45:37Z</time>
      </trkpt>
      <trkpt lat="24.90998519513272" lon="118.53794223567928">
        <ele>2.923583984375</ele>
        <time>2025-11-01T12:45:52Z</time>
      </trkpt>
      <trkpt lat="24.909965317484264" lon="118.53799437582937">
        <ele>4.74188232421875</ele>
        <time>2025-11-01T12:45:58Z</time>
      </trkpt>
      <trkpt lat="24.909988213117163" lon="118.5379502568238">
        <ele>-2.420806884765625</ele>
        <time>2025-11-01T12:46:31Z</time>
      </trkpt>
      <trkpt lat="24.909918464172637" lon="118.53805554175167">
        <ele>-4.94757080078125</ele>
        <time>2025-11-01T12:46:43Z</time>
      </trkpt>
      <trkpt lat="24.909959394155567" lon="118.53802746425393">
        <ele>-7.335662841796875</ele>
        <time>2025-11-01T12:47:04Z</time>
      </trkpt>
      <trkpt lat="24.909959270039675" lon="118.53797332022275">
        <ele>-9.956146240234375</ele>
        <time>2025-11-01T12:47:13Z</time>
      </trkpt>
      <trkpt lat="24.909992155050283" lon="118.53792518980767">
        <ele>-14.304229736328125</ele>
        <time>2025-11-01T12:47:34Z</time>
      </trkpt>
      <trkpt lat="24.90995425923757" lon="118.53796830722955">
        <ele>-15.211639404296875</ele>
        <time>2025-11-01T12:47:49Z</time>
      </trkpt>
      <trkpt lat="24.90988641348961" lon="118.53803148000443">
        <ele>-14.4022216796875</ele>
        <time>2025-11-01T12:47:55Z</time>
      </trkpt>
      <trkpt lat="24.909938420047972" lon="118.53803749237784">
        <ele>-11.97552490234375</ele>
        <time>2025-11-01T12:48:04Z</time>
      </trkpt>
      <trkpt lat="24.910021249926665" lon="118.53796830256175">
        <ele>-10.596771240234375</ele>
        <time>2025-11-01T12:48:10Z</time>
      </trkpt>
      <trkpt lat="24.909949213936677" lon="118.53794825420273">
        <ele>-16.961334228515625</ele>
        <time>2025-11-01T12:48:19Z</time>
      </trkpt>
      <trkpt lat="24.909982098909005" lon="118.5379001237444">
        <ele>-20.156890869140625</ele>
        <time>2025-11-01T12:48:31Z</time>
      </trkpt>
      <trkpt lat="24.90997196905349" lon="118.53784297214423">
        <ele>-13.706634521484375</ele>
        <time>2025-11-01T12:48:40Z</time>
      </trkpt>
      <trkpt lat="24.910065193215694" lon="118.5379462407828">
        <ele>-13.131561279296875</ele>
        <time>2025-11-01T12:48:52Z</time>
      </trkpt>
      <trkpt lat="24.91007507447575" lon="118.53789510391039">
        <ele>-11.764129638671875</ele>
        <time>2025-11-01T12:49:01Z</time>
      </trkpt>
      <trkpt lat="24.910030103746166" lon="118.53790513375402">
        <ele>-11.606719970703125</ele>
        <time>2025-11-01T12:49:10Z</time>
      </trkpt>
      <trkpt lat="24.910074134450667" lon="118.53792117341467">
        <ele>-9.0216064453125</ele>
        <time>2025-11-01T12:49:25Z</time>
      </trkpt>
      <trkpt lat="24.910032098865194" lon="118.53790312827329">
        <ele>-6.4151611328125</ele>
        <time>2025-11-01T12:49:37Z</time>
      </trkpt>
      <trkpt lat="24.90997314158401" lon="118.53791817244087">
        <ele>-6.0648193359375</ele>
        <time>2025-11-01T12:49:43Z</time>
      </trkpt>
      <trkpt lat="24.91000722657623" lon="118.53795727418256">
        <ele>-2.404327392578125</ele>
        <time>2025-11-01T12:49:49Z</time>
      </trkpt>
      <trkpt lat="24.910011926635338" lon="118.53782692658636">
        <ele>-2.364410400390625</ele>
        <time>2025-11-01T12:50:13Z</time>
      </trkpt>
      <trkpt lat="24.91005381017127" lon="118.53777879529183">
        <ele>-1.398162841796875</ele>
        <time>2025-11-01T12:50:16Z</time>
      </trkpt>
      <trkpt lat="24.909995212144377" lon="118.53795025633612">
        <ele>-0.747528076171875</ele>
        <time>2025-11-01T12:50:22Z</time>
      </trkpt>
      <trkpt lat="24.909950301178622" lon="118.53798635553356">
        <ele>-3.38067626953125</ele>
        <time>2025-11-01T12:50:59Z</time>
      </trkpt>
      <trkpt lat="24.909970174212663" lon="118.53793221002915">
        <ele>-10.6468505859375</ele>
        <time>2025-11-01T12:51:14Z</time>
      </trkpt>
      <trkpt lat="24.91010202468085" lon="118.53787504860145">
        <ele>-7.826416015625</ele>
        <time>2025-11-01T12:51:29Z</time>
      </trkpt>
      <trkpt lat="24.909850528732587" lon="118.53807961044475">
        <ele>-10.718719482421875</ele>
        <time>2025-11-01T12:51:59Z</time>
      </trkpt>
      <trkpt lat="24.909804454747388" lon="118.53804452037366">
        <ele>-12.49639892578125</ele>
        <time>2025-11-01T12:52:02Z</time>
      </trkpt>
      <trkpt lat="24.909800236940477" lon="118.53794926725246">
        <ele>-18.10247802734375</ele>
        <time>2025-11-01T12:52:08Z</time>
      </trkpt>
      <trkpt lat="24.909779389295394" lon="118.53801444212951">
        <ele>-17.290740966796875</ele>
        <time>2025-11-01T12:52:11Z</time>
      </trkpt>
      <trkpt lat="24.909843499855622" lon="118.53806657629231">
        <ele>-22.286834716796875</ele>
        <time>2025-11-01T12:52:17Z</time>
      </trkpt>
      <trkpt lat="24.909890433609558" lon="118.53804050371942">
        <ele>-20.602142333984375</ele>
        <time>2025-11-01T12:52:20Z</time>
      </trkpt>
      <trkpt lat="24.90994111381285" lon="118.53790413728396">
        <ele>-20.288055419921875</ele>
        <time>2025-11-01T12:52:26Z</time>
      </trkpt>
      <trkpt lat="24.909876182673475" lon="118.5379302112386">
        <ele>-18.50604248046875</ele>
        <time>2025-11-01T12:52:38Z</time>
      </trkpt>
      <trkpt lat="24.9098503288669" lon="118.53799237850619">
        <ele>-20.883636474609375</ele>
        <time>2025-11-01T12:52:41Z</time>
      </trkpt>
      <trkpt lat="24.909802307949505" lon="118.53798034983728">
        <ele>-25.223236083984375</ele>
        <time>2025-11-01T12:52:50Z</time>
      </trkpt>
      <trkpt lat="24.909772227029706" lon="118.53794325318805">
        <ele>-25.046142578125</ele>
        <time>2025-11-01T12:53:08Z</time>
      </trkpt>
      <trkpt lat="24.90983604322521" lon="118.53786704575867">
        <ele>-24.69293212890625</ele>
        <time>2025-11-01T12:53:14Z</time>
      </trkpt>
      <trkpt lat="24.90991803413387" lon="118.53786804271772">
        <ele>-25.966766357421875</ele>
        <time>2025-11-01T12:53:20Z</time>
      </trkpt>
      <trkpt lat="24.909965135792408" lon="118.53791516498747">
        <ele>-20.559051513671875</ele>
        <time>2025-11-01T12:53:26Z</time>
      </trkpt>
      <trkpt lat="24.90987829049224" lon="118.53797733653846">
        <ele>-20.7867431640625</ele>
        <time>2025-11-01T12:53:35Z</time>
      </trkpt>
      <trkpt lat="24.909845393912654" lon="118.53802045353123">
        <ele>-18.38775634765625</ele>
        <time>2025-11-01T12:53:41Z</time>
      </trkpt>
      <trkpt lat="24.909953153567304" lon="118.53792218451477">
        <ele>-22.546722412109375</ele>
        <time>2025-11-01T12:53:53Z</time>
      </trkpt>
      <trkpt lat="24.909978009676735" lon="118.53786101983258">
        <ele>-21.821746826171875</ele>
        <time>2025-11-01T12:53:59Z</time>
      </trkpt>
      <trkpt lat="24.909978150093178" lon="118.53792218277303">
        <ele>-21.11041259765625</ele>
        <time>2025-11-01T12:54:05Z</time>
      </trkpt>
      <trkpt lat="24.91009105613865" lon="118.53788808409755">
        <ele>-14.150177001953125</ele>
        <time>2025-11-01T12:54:08Z</time>
      </trkpt>
      <trkpt lat="24.910157726537445" lon="118.53774870777355">
        <ele>-12.58172607421875</ele>
        <time>2025-11-01T12:54:17Z</time>
      </trkpt>
      <trkpt lat="24.90998122788961" lon="118.53795627332512">
        <ele>-11.61773681640625</ele>
        <time>2025-11-01T12:54:26Z</time>
      </trkpt>
      <trkpt lat="24.909982377173304" lon="118.53802144665332">
        <ele>-9.84832763671875</ele>
        <time>2025-11-01T12:54:29Z</time>
      </trkpt>
      <trkpt lat="24.909939442880003" lon="118.53804751896546">
        <ele>-10.756439208984375</ele>
        <time>2025-11-01T12:54:32Z</time>
      </trkpt>
      <trkpt lat="24.90996932612268" lon="118.53799838622025">
        <ele>-12.07586669921875</ele>
        <time>2025-11-01T12:54:35Z</time>
      </trkpt>
      <trkpt lat="24.909889481981878" lon="118.53806155976291">
        <ele>-10.9520263671875</ele>
        <time>2025-11-01T12:54:44Z</time>
      </trkpt>
      <trkpt lat="24.90990433515513" lon="118.53799839074867">
        <ele>-10.42108154296875</ele>
        <time>2025-11-01T12:54:56Z</time>
      </trkpt>
      <trkpt lat="24.909943265365023" lon="118.53797031333264">
        <ele>-8.7965087890625</ele>
        <time>2025-11-01T12:55:02Z</time>
      </trkpt>
      <trkpt lat="24.909886321565978" lon="118.5379913733306">
        <ele>-9.7215576171875</ele>
        <time>2025-11-01T12:55:08Z</time>
      </trkpt>
      <trkpt lat="24.90990445004047" lon="118.53804852406932">
        <ele>-10.744781494140625</ele>
        <time>2025-11-01T12:55:17Z</time>
      </trkpt>
      <trkpt lat="24.909971392487986" lon="118.53802746341793">
        <ele>-12.795684814453125</ele>
        <time>2025-11-01T12:55:23Z</time>
      </trkpt>
      <trkpt lat="24.909930301658942" lon="118.53798535425913">
        <ele>-16.586090087890625</ele>
        <time>2025-11-01T12:55:47Z</time>
      </trkpt>
      <trkpt lat="24.909873419890822" lon="118.53803348624227">
        <ele>-18.057861328125</ele>
        <time>2025-11-01T12:55:50Z</time>
      </trkpt>
      <trkpt lat="24.909912301861254" lon="118.53798435284537">
        <ele>-19.185882568359375</ele>
        <time>2025-11-01T12:55:56Z</time>
      </trkpt>
      <trkpt lat="24.909931158925378" lon="118.53792318871753">
        <ele>-15.820404052734375</ele>
        <time>2025-11-01T12:56:02Z</time>
      </trkpt>
      <trkpt lat="24.909905282142066" lon="118.53797532932121">
        <ele>-15.787750244140625</ele>
        <time>2025-11-01T12:56:11Z</time>
      </trkpt>
      <trkpt lat="24.909860352761164" lon="118.53800340715017">
        <ele>-15.6025390625</ele>
        <time>2025-11-01T12:56:14Z</time>
      </trkpt>
      <trkpt lat="24.909919323876498" lon="118.53799437903409">
        <ele>-11.653656005859375</ele>
        <time>2025-11-01T12:56:32Z</time>
      </trkpt>
      <trkpt lat="24.90988845915432" lon="118.53805153318035">
        <ele>-13.438262939453125</ele>
        <time>2025-11-01T12:56:38Z</time>
      </trkpt>
      <trkpt lat="24.909995322509516" lon="118.5379983844089">
        <ele>-11.348419189453125</ele>
        <time>2025-11-01T12:56:53Z</time>
      </trkpt>
      <trkpt lat="24.91013209187135" lon="118.53790612931833">
        <ele>-7.895904541015625</ele>
        <time>2025-11-01T12:56:56Z</time>
      </trkpt>
      <trkpt lat="24.909955410793692" lon="118.5380344831956">
        <ele>-10.165771484375</ele>
        <time>2025-11-01T12:57:11Z</time>
      </trkpt>
      <trkpt lat="24.909879501742303" lon="118.53806958177873">
        <ele>-11.8265380859375</ele>
        <time>2025-11-01T12:57:20Z</time>
      </trkpt>
      <trkpt lat="24.909812735928863" lon="118.53816784741836">
        <ele>-9.243133544921875</ele>
        <time>2025-11-01T12:57:35Z</time>
      </trkpt>
      <trkpt lat="24.90980657387204" lon="118.53809665879946">
        <ele>-12.96600341796875</ele>
        <time>2025-11-01T12:57:44Z</time>
      </trkpt>
      <trkpt lat="24.9098545373602" lon="118.53808362082337">
        <ele>-12.233673095703125</ele>
        <time>2025-11-01T12:57:53Z</time>
      </trkpt>
      <trkpt lat="24.90978454938195" lon="118.5380846283642">
        <ele>-14.394775390625</ele>
        <time>2025-11-01T12:58:02Z</time>
      </trkpt>
      <trkpt lat="24.90982345899846" lon="118.5380475270468">
        <ele>-8.794464111328125</ele>
        <time>2025-11-01T12:58:05Z</time>
      </trkpt>
      <trkpt lat="24.90998535377709" lon="118.53801141977763">
        <ele>-3.060028076171875</ele>
        <time>2025-11-01T12:58:11Z</time>
      </trkpt>
      <trkpt lat="24.910036017735777" lon="118.53786803449658">
        <ele>-1.92779541015625</ele>
        <time>2025-11-01T12:58:26Z</time>
      </trkpt>
      <trkpt lat="24.910140901794584" lon="118.53782390957812">
        <ele>0.080230712890625</ele>
        <time>2025-11-01T12:58:47Z</time>
      </trkpt>
      <trkpt lat="24.910008129816763" lon="118.53791516199166">
        <ele>-3.630126953125</ele>
        <time>2025-11-01T12:59:11Z</time>
      </trkpt>
      <trkpt lat="24.91003698305333" lon="118.53785299434283">
        <ele>-0.333709716796875</ele>
        <time>2025-11-01T12:59:17Z</time>
      </trkpt>
      <trkpt lat="24.91008593017419" lon="118.53783293747088">
        <ele>1.49993896484375</ele>
        <time>2025-11-01T12:59:23Z</time>
      </trkpt>
      <trkpt lat="24.91001408525515" lon="118.53789611083127">
        <ele>3.384246826171875</ele>
        <time>2025-11-01T12:59:35Z</time>
      </trkpt>
      <trkpt lat="24.910013214242916" lon="118.53795226042011">
        <ele>0.0267333984375</ele>
        <time>2025-11-01T12:59:41Z</time>
      </trkpt>
      <trkpt lat="24.909981319858" lon="118.53799638004952">
        <ele>-4.3177490234375</ele>
        <time>2025-11-01T12:59:56Z</time>
      </trkpt>
      <trkpt lat="24.90993440681969" lon="118.53803147666041">
        <ele>-4.6971435546875</ele>
        <time>2025-11-01T13:00:02Z</time>
      </trkpt>
      <trkpt lat="24.909902277960388" lon="118.53797332419384">
        <ele>-5.81439208984375</ele>
        <time>2025-11-01T13:00:11Z</time>
      </trkpt>
      <trkpt lat="24.909969962420906" lon="118.53783996426472">
        <ele>-5.61041259765625</ele>
        <time>2025-11-01T13:00:17Z</time>
      </trkpt>
      <trkpt lat="24.90993108988391" lon="118.53789310860074">
        <ele>-6.69921875</ele>
        <time>2025-11-01T13:00:20Z</time>
      </trkpt>
      <trkpt lat="24.90991624382158" lon="118.53795928585991">
        <ele>-3.9197998046875</ele>
        <time>2025-11-01T13:00:29Z</time>
      </trkpt>
      <trkpt lat="24.909867331102106" lon="118.53799438265682">
        <ele>-7.382720947265625</ele>
        <time>2025-11-01T13:00:38Z</time>
      </trkpt>
      <trkpt lat="24.909941132223906" lon="118.53791215864845">
        <ele>-8.38812255859375</ele>
        <time>2025-11-01T13:00:56Z</time>
      </trkpt>
      <trkpt lat="24.9100599545204" lon="118.53784196334024">
        <ele>-2.240936279296875</ele>
        <time>2025-11-01T13:01:14Z</time>
      </trkpt>
      <trkpt lat="24.91009082577712" lon="118.5377878167893">
        <ele>-3.50732421875</ele>
        <time>2025-11-01T13:01:29Z</time>
      </trkpt>
      <trkpt lat="24.910101699720563" lon="118.537733671527">
        <ele>-10.443450927734375</ele>
        <time>2025-11-01T13:01:44Z</time>
      </trkpt>
      <trkpt lat="24.910045827420785" lon="118.53778581457475">
        <ele>-10.495880126953125</ele>
        <time>2025-11-01T13:01:56Z</time>
      </trkpt>
      <trkpt lat="24.91007894496915" lon="118.53783895399752">
        <ele>-7.933929443359375</ele>
        <time>2025-11-01T13:02:05Z</time>
      </trkpt>
      <trkpt lat="24.910008086088986" lon="118.5378961112493">
        <ele>-7.353729248046875</ele>
        <time>2025-11-01T13:02:11Z</time>
      </trkpt>
      <trkpt lat="24.910136812467904" lon="118.53778480555957">
        <ele>-6.765167236328125</ele>
        <time>2025-11-01T13:02:23Z</time>
      </trkpt>
      <trkpt lat="24.910093949794994" lon="118.53784196097142">
        <ele>-3.185272216796875</ele>
        <time>2025-11-01T13:02:38Z</time>
      </trkpt>
      <trkpt lat="24.91007511360169" lon="118.5379121493127">
        <ele>1.731903076171875</ele>
        <time>2025-11-01T13:02:47Z</time>
      </trkpt>
      <trkpt lat="24.910079954044242" lon="118.53784296461974">
        <ele>3.061492919921875</ele>
        <time>2025-11-01T13:02:53Z</time>
      </trkpt>
      <trkpt lat="24.91006508737415" lon="118.53790011796177">
        <ele>0.259124755859375</ele>
        <time>2025-11-01T13:02:59Z</time>
      </trkpt>
      <trkpt lat="24.909996297085044" lon="118.53798735499655">
        <ele>-0.251983642578125</ele>
        <time>2025-11-01T13:03:02Z</time>
      </trkpt>
      <trkpt lat="24.910087906856877" lon="118.53782291059713">
        <ele>1.9400634765625</ele>
        <time>2025-11-01T13:03:17Z</time>
      </trkpt>
      <trkpt lat="24.91019583192849" lon="118.53779683354617">
        <ele>1.6331787109375</ele>
        <time>2025-11-01T13:03:32Z</time>
      </trkpt>
      <trkpt lat="24.910219717919468" lon="118.53774870345379">
        <ele>1.5797119140625</ele>
        <time>2025-11-01T13:03:38Z</time>
      </trkpt>
      <trkpt lat="24.910252803259606" lon="118.53778780550232">
        <ele>6.643402099609375</ele>
        <time>2025-11-01T13:03:44Z</time>
      </trkpt>
      <trkpt lat="24.910266921141236" lon="118.53783994357228">
        <ele>11.37884521484375</ele>
        <time>2025-11-01T13:04:02Z</time>
      </trkpt>
      <trkpt lat="24.910217927952626" lon="118.5378399469862">
        <ele>10.069793701171875</ele>
        <time>2025-11-01T13:04:23Z</time>
      </trkpt>
      <trkpt lat="24.910263912343808" lon="118.53783593308894">
        <ele>11.664215087890625</ele>
        <time>2025-11-01T13:04:38Z</time>
      </trkpt>
      <trkpt lat="24.910188908946573" lon="118.53782992227475">
        <ele>11.227447509765625</ele>
        <time>2025-11-01T13:05:08Z</time>
      </trkpt>
      <trkpt lat="24.910155830573483" lon="118.53779382830925">
        <ele>11.718505859375</ele>
        <time>2025-11-01T13:05:14Z</time>
      </trkpt>
      <trkpt lat="24.910104966693037" lon="118.5378499815874">
        <ele>8.6396484375</ele>
        <time>2025-11-01T13:05:20Z</time>
      </trkpt>
      <trkpt lat="24.910142028330757" lon="118.53787905650134">
        <ele>7.722259521484375</ele>
        <time>2025-11-01T13:05:26Z</time>
      </trkpt>
      <trkpt lat="24.910195046287395" lon="118.53789008219431">
        <ele>7.511474609375</ele>
        <time>2025-11-01T13:05:35Z</time>
      </trkpt>
      <trkpt lat="24.910236982890343" lon="118.53786501247652">
        <ele>9.462310791015625</ele>
        <time>2025-11-01T13:05:47Z</time>
      </trkpt>
      <trkpt lat="24.910265071082726" lon="118.53790511738151">
        <ele>10.498565673828125</ele>
        <time>2025-11-01T13:06:02Z</time>
      </trkpt>
      <trkpt lat="24.910282195252474" lon="118.53796026302976">
        <ele>11.752960205078125</ele>
        <time>2025-11-01T13:06:38Z</time>
      </trkpt>
      <trkpt lat="24.91032523756181" lon="118.5379813160686">
        <ele>14.6710205078125</ele>
        <time>2025-11-01T13:07:20Z</time>
      </trkpt>
      <trkpt lat="24.910381319415016" lon="118.53802041618928">
        <ele>19.99688720703125</ele>
        <time>2025-11-01T13:07:44Z</time>
      </trkpt>
      <trkpt lat="24.91028625677723" lon="118.53798733479266">
        <ele>17.48486328125</ele>
        <time>2025-11-01T13:07:53Z</time>
      </trkpt>
      <trkpt lat="24.910163243987036" lon="118.53797430867856">
        <ele>16.5234375</ele>
        <time>2025-11-01T13:07:56Z</time>
      </trkpt>
      <trkpt lat="24.910084294050257" lon="118.53799135953632">
        <ele>12.66717529296875</ele>
        <time>2025-11-01T13:07:59Z</time>
      </trkpt>
      <trkpt lat="24.91006514490511" lon="118.5379251847218">
        <ele>12.5103759765625</ele>
        <time>2025-11-01T13:08:11Z</time>
      </trkpt>
      <trkpt lat="24.910131073597757" lon="118.53789810802176">
        <ele>11.02691650390625</ele>
        <time>2025-11-01T13:08:17Z</time>
      </trkpt>
      <trkpt lat="24.910164248446524" lon="118.53797631394518">
        <ele>13.61492919921875</ele>
        <time>2025-11-01T13:08:35Z</time>
      </trkpt>
      <trkpt lat="24.910200326193394" lon="118.53801240746586">
        <ele>14.677001953125</ele>
        <time>2025-11-01T13:08:38Z</time>
      </trkpt>
      <trkpt lat="24.91024734263913" lon="118.53802243085782">
        <ele>16.72955322265625</ele>
        <time>2025-11-01T13:09:11Z</time>
      </trkpt>
      <trkpt lat="24.910324239999866" lon="118.53798231880619">
        <ele>17.7060546875</ele>
        <time>2025-11-01T13:10:14Z</time>
      </trkpt>
      <trkpt lat="24.9102371186973" lon="118.5379241700686">
        <ele>20.04217529296875</ele>
        <time>2025-11-01T13:10:20Z</time>
      </trkpt>
      <trkpt lat="24.910174164264298" lon="118.53794021717303">
        <ele>19.888427734375</ele>
        <time>2025-11-01T13:10:23Z</time>
      </trkpt>
      <trkpt lat="24.91020027562837" lon="118.53799034878716">
        <ele>19.1407470703125</ele>
        <time>2025-11-01T13:10:29Z</time>
      </trkpt>
      <trkpt lat="24.910252243111763" lon="118.53797931581849">
        <ele>21.37603759765625</ele>
        <time>2025-11-01T13:11:05Z</time>
      </trkpt>
      <trkpt lat="24.91014631301543" lon="118.53800338722515">
        <ele>19.0118408203125</ele>
        <time>2025-11-01T13:11:53Z</time>
      </trkpt>
      <trkpt lat="24.91020632535938" lon="118.53801240704784">
        <ele>16.792724609375</ele>
        <time>2025-11-01T13:12:17Z</time>
      </trkpt>
      <trkpt lat="24.91015430270984" lon="118.53799937599895">
        <ele>14.72833251953125</ele>
        <time>2025-11-01T13:12:29Z</time>
      </trkpt>
      <trkpt lat="24.91017619848811" lon="118.5379552570708">
        <ele>11.436126708984375</ele>
        <time>2025-11-01T13:12:38Z</time>
      </trkpt>
      <trkpt lat="24.910222215091252" lon="118.53796528055294">
        <ele>15.51953125</ele>
        <time>2025-11-01T13:12:56Z</time>
      </trkpt>
      <trkpt lat="24.910290233230995" lon="118.53797730783498">
        <ele>18.8717041015625</ele>
        <time>2025-11-01T13:13:26Z</time>
      </trkpt>
      <trkpt lat="24.910218245538868" lon="118.53797831551921">
        <ele>16.63897705078125</ele>
        <time>2025-11-01T13:13:35Z</time>
      </trkpt>
      <trkpt lat="24.910110439786514" lon="118.53805653104088">
        <ele>19.66668701171875</ele>
        <time>2025-11-01T13:13:44Z</time>
      </trkpt>
      <trkpt lat="24.9101897660674" lon="118.53820391693513">
        <ele>23.17926025390625</ele>
        <time>2025-11-01T13:13:56Z</time>
      </trkpt>
      <trkpt lat="24.910229687148824" lon="118.53817182901282">
        <ele>20.89453125</ele>
        <time>2025-11-01T13:13:59Z</time>
      </trkpt>
      <trkpt lat="24.910273529626874" lon="118.538105650238">
        <ele>20.32098388671875</ele>
        <time>2025-11-01T13:14:14Z</time>
      </trkpt>
      <trkpt lat="24.91030544483093" lon="118.53807055476544">
        <ele>20.4490966796875</ele>
        <time>2025-11-01T13:14:35Z</time>
      </trkpt>
      <trkpt lat="24.91029330637126" lon="118.5380093929861">
        <ele>16.71478271484375</ele>
        <time>2025-11-01T13:15:14Z</time>
      </trkpt>
      <trkpt lat="24.910238350783278" lon="118.53802543948404">
        <ele>17.05328369140625</ele>
        <time>2025-11-01T13:15:20Z</time>
      </trkpt>
      <trkpt lat="24.910281275862143" lon="118.5379953564816">
        <ele>14.5272216796875</ele>
        <time>2025-11-01T13:15:44Z</time>
      </trkpt>
      <trkpt lat="24.91030739173178" lon="118.5380474933279">
        <ele>16.59033203125</ele>
        <time>2025-11-01T13:15:47Z</time>
      </trkpt>
      <trkpt lat="24.910270281988428" lon="118.53799736258276">
        <ele>20.11431884765625</ele>
        <time>2025-11-01T13:17:26Z</time>
      </trkpt>
      <trkpt lat="24.910215199966572" lon="118.53795826236016">
        <ele>16.19622802734375</ele>
        <time>2025-11-01T13:17:56Z</time>
      </trkpt>
      <trkpt lat="24.910195354462797" lon="118.53802443981338">
        <ele>18.59197998046875</ele>
        <time>2025-11-01T13:18:20Z</time>
      </trkpt>
      <trkpt lat="24.91022125201915" lon="118.53798132331418">
        <ele>14.70953369140625</ele>
        <time>2025-11-01T13:19:08Z</time>
      </trkpt>
      <trkpt lat="24.910194352304107" lon="118.53802343721667">
        <ele>19.7940673828125</ele>
        <time>2025-11-01T13:21:11Z</time>
      </trkpt>
      <trkpt lat="24.910169250050735" lon="118.53797731626493">
        <ele>14.808837890625</ele>
        <time>2025-11-01T13:22:20Z</time>
      </trkpt>
      <trkpt lat="24.910174106745313" lon="118.53791515042646">
        <ele>12.61712646484375</ele>
        <time>2025-11-01T13:22:53Z</time>
      </trkpt>
      <trkpt lat="24.9101252584656" lon="118.53797832199841">
        <ele>12.10650634765625</ele>
        <time>2025-11-01T13:23:08Z</time>
      </trkpt>
      <trkpt lat="24.910056215166733" lon="118.53795526543111">
        <ele>12.1416015625</ele>
        <time>2025-11-01T13:23:11Z</time>
      </trkpt>
      <trkpt lat="24.91012503529816" lon="118.53788106302888">
        <ele>11.32098388671875</ele>
        <time>2025-11-01T13:23:23Z</time>
      </trkpt>
      <trkpt lat="24.91002792901963" lon="118.5378289308185">
        <ele>6.42938232421875</ele>
        <time>2025-11-01T13:23:38Z</time>
      </trkpt>
      <trkpt lat="24.910014776393293" lon="118.53776175252543">
        <ele>0.48211669921875</ele>
        <time>2025-11-01T13:23:44Z</time>
      </trkpt>
      <trkpt lat="24.909955964366414" lon="118.53783996524011">
        <ele>-0.4329833984375</ele>
        <time>2025-11-01T13:24:08Z</time>
      </trkpt>
      <trkpt lat="24.910019047727957" lon="118.5378800677424">
        <ele>0.1949462890625</ele>
        <time>2025-11-01T13:25:02Z</time>
      </trkpt>
      <trkpt lat="24.91003018887899" lon="118.53794223254417">
        <ele>3.3170166015625</ele>
        <time>2025-11-01T13:25:41Z</time>
      </trkpt>
      <trkpt lat="24.90995308222297" lon="118.53789110172573">
        <ele>4.2701416015625</ele>
        <time>2025-11-01T13:25:47Z</time>
      </trkpt>
      <trkpt lat="24.909997039273556" lon="118.53787505591686">
        <ele>6.4532470703125</ele>
        <time>2025-11-01T13:25:56Z</time>
      </trkpt>
      <trkpt lat="24.909976915370727" lon="118.53781991030965">
        <ele>8.533599853515625</ele>
        <time>2025-11-01T13:26:17Z</time>
      </trkpt>
      <trkpt lat="24.910019027006182" lon="118.53787104369682">
        <ele>7.617095947265625</ele>
        <time>2025-11-01T13:26:41Z</time>
      </trkpt>
      <trkpt lat="24.909966038976616" lon="118.53787305273309">
        <ele>8.968017578125</ele>
        <time>2025-11-01T13:26:56Z</time>
      </trkpt>
      <trkpt lat="24.91004897908245" lon="118.53785199083421">
        <ele>7.97613525390625</ele>
        <time>2025-11-01T13:27:05Z</time>
      </trkpt>
      <trkpt lat="24.910093000603002" lon="118.53786401983704">
        <ele>8.074737548828125</ele>
        <time>2025-11-01T13:27:53Z</time>
      </trkpt>
      <trkpt lat="24.910056180664927" lon="118.53794022539402">
        <ele>10.169525146484375</ele>
        <time>2025-11-01T13:28:56Z</time>
      </trkpt>
      <trkpt lat="24.910109212400315" lon="118.53795726707632">
        <ele>12.294189453125</ele>
        <time>2025-11-01T13:29:23Z</time>
      </trkpt>
      <trkpt lat="24.910086089058733" lon="118.53790212184035">
        <ele>13.73004150390625</ele>
        <time>2025-11-01T13:30:14Z</time>
      </trkpt>
      <trkpt lat="24.91006119837189" lon="118.5379482463998">
        <ele>16.890380859375</ele>
        <time>2025-11-01T13:30:20Z</time>
      </trkpt>
      <trkpt lat="24.910088070367156" lon="118.5378941003336">
        <ele>20.0445556640625</ele>
        <time>2025-11-01T13:31:17Z</time>
      </trkpt>
      <trkpt lat="24.910183130805144" lon="118.53792617917068">
        <ele>14.29901123046875</ele>
        <time>2025-11-01T13:31:26Z</time>
      </trkpt>
      <trkpt lat="24.91027314360156" lon="118.53793720226732">
        <ele>13.85968017578125</ele>
        <time>2025-11-01T13:32:08Z</time>
      </trkpt>
      <trkpt lat="24.91031423449287" lon="118.537979311499">
        <ele>19.2864990234375</ele>
        <time>2025-11-01T13:32:38Z</time>
      </trkpt>
      <trkpt lat="24.91040987131212" lon="118.53782689885689">
        <ele>17.24615478515625</ele>
        <time>2025-11-01T13:32:56Z</time>
      </trkpt>
      <trkpt lat="24.910409707650228" lon="118.53775570894888">
        <ele>15.90576171875</ele>
        <time>2025-11-01T13:33:05Z</time>
      </trkpt>
      <trkpt lat="24.91047935393649" lon="118.53760630494368">
        <ele>18.14935302734375</ele>
        <time>2025-11-01T13:33:23Z</time>
      </trkpt>
      <trkpt lat="24.91073006463352" lon="118.53749599228541">
        <ele>20.9224853515625</ele>
        <time>2025-11-01T13:33:53Z</time>
      </trkpt>
      <trkpt lat="24.910898429008533" lon="118.5372312703392">
        <ele>22.084228515625</ele>
        <time>2025-11-01T13:34:23Z</time>
      </trkpt>
      <trkpt lat="24.910945320236735" lon="118.53718714846082">
        <ele>21.900634765625</ele>
        <time>2025-11-01T13:34:29Z</time>
      </trkpt>
      <trkpt lat="24.910996303844687" lon="118.53718313412125">
        <ele>18.3704833984375</ele>
        <time>2025-11-01T13:34:35Z</time>
      </trkpt>
      <trkpt lat="24.911101410057423" lon="118.53723526697159">
        <ele>17.24200439453125</ele>
        <time>2025-11-01T13:34:47Z</time>
      </trkpt>
      <trkpt lat="24.911147326991603" lon="118.53720217482467">
        <ele>17.0003662109375</ele>
        <time>2025-11-01T13:34:53Z</time>
      </trkpt>
      <trkpt lat="24.911121179501638" lon="118.53713700133584">
        <ele>17.1142578125</ele>
        <time>2025-11-01T13:34:59Z</time>
      </trkpt>
      <trkpt lat="24.911071221341345" lon="118.53715204528758">
        <ele>16.4027099609375</ele>
        <time>2025-11-01T13:35:05Z</time>
      </trkpt>
      <trkpt lat="24.911125260327285" lon="118.53717209546842">
        <ele>16.45306396484375</ele>
        <time>2025-11-01T13:35:20Z</time>
      </trkpt>
      <trkpt lat="24.91100031026098" lon="118.5371861419317">
        <ele>15.7352294921875</ele>
        <time>2025-11-01T13:35:35Z</time>
      </trkpt>
      <trkpt lat="24.91108320339396" lon="118.53714502556758">
        <ele>20.21014404296875</ele>
        <time>2025-11-01T13:35:56Z</time>
      </trkpt>
      <trkpt lat="24.911126069460593" lon="118.53708987413803">
        <ele>21.84759521484375</ele>
        <time>2025-11-01T13:36:08Z</time>
      </trkpt>
      <trkpt lat="24.911089000121127" lon="118.53705779030618">
        <ele>19.07177734375</ele>
        <time>2025-11-01T13:36:17Z</time>
      </trkpt>
    </trkseg>
  </trk>
</gpx>