<?xml version="1.0" encoding="UTF-8"?>
<gpx xmlns="http://www.topografix.com/GPX/1/1" xmlns:gpxtpx="http://www.garmin.com/xmlschemas/TrackPointExtension/v1" xmlns:xsi="http://www.w3.org/2001/XMLSchema-instance" xsi:schemaLocation="http://www.topografix.com/GPX/1/1 http://www.topografix.com/GPX/1/1/gpx.xsd" version="1.1" creator="gpx.py -- https://github.com/tkrajina/gpxpy">
  <trk>
    <name>gpx from keep</name>
    <type>Run</type>
    <trkseg>
      <trkpt lat="24.911314839687318" lon="118.53743378496259">
        <ele>23.48004150390625</ele>
        <time>2025-09-12T13:11:16Z</time>
      </trkpt>
      <trkpt lat="24.911158559647074" lon="118.53773660591088">
        <ele>23.10858154296875</ele>
        <time>2025-09-12T13:11:25Z</time>
      </trkpt>
      <trkpt lat="24.91102126946277" lon="118.53803741692697">
        <ele>21.9444580078125</ele>
        <time>2025-09-12T13:11:34Z</time>
      </trkpt>
      <trkpt lat="24.910872838320287" lon="118.53827706343196">
        <ele>19.41986083984375</ele>
        <time>2025-09-12T13:11:43Z</time>
      </trkpt>
      <trkpt lat="24.91083307496914" lon="118.53837833441888">
        <ele>20.22589111328125</ele>
        <time>2025-09-12T13:11:46Z</time>
      </trkpt>
      <trkpt lat="24.91081057126623" lon="118.53859490835376">
        <ele>21.52362060546875</ele>
        <time>2025-09-12T13:11:52Z</time>
      </trkpt>
      <trkpt lat="24.91086077842945" lon="118.53868915341083">
        <ele>21.675048828125</ele>
        <time>2025-09-12T13:11:55Z</time>
      </trkpt>
      <trkpt lat="24.911161900364323" lon="118.53876132259755">
        <ele>20.51788330078125</ele>
        <time>2025-09-12T13:12:04Z</time>
      </trkpt>
      <trkpt lat="24.91123406307538" lon="118.53883751809421">
        <ele>21.041748046875</ele>
        <time>2025-09-12T13:12:07Z</time>
      </trkpt>
      <trkpt lat="24.911220316963544" lon="118.53894881154213">
        <ele>21.58319091796875</ele>
        <time>2025-09-12T13:12:10Z</time>
      </trkpt>
      <trkpt lat="24.911134071195622" lon="118.53927767920092">
        <ele>22.15850830078125</ele>
        <time>2025-09-12T13:12:19Z</time>
      </trkpt>
      <trkpt lat="24.911050816995775" lon="118.53960453746363">
        <ele>23.228271484375</ele>
        <time>2025-09-12T13:12:28Z</time>
      </trkpt>
      <trkpt lat="24.91092065077108" lon="118.53996949369963">
        <ele>23.66455078125</ele>
        <time>2025-09-12T13:12:40Z</time>
      </trkpt>
      <trkpt lat="24.91089110563853" lon="118.54017201925281">
        <ele>24.7801513671875</ele>
        <time>2025-09-12T13:12:46Z</time>
      </trkpt>
      <trkpt lat="24.91080975727281" lon="118.54046076864354">
        <ele>24.20947265625</ele>
        <time>2025-09-12T13:12:55Z</time>
      </trkpt>
      <trkpt lat="24.9107346370167" lon="118.54085478371181">
        <ele>25.248046875</ele>
        <time>2025-09-12T13:13:07Z</time>
      </trkpt>
      <trkpt lat="24.910688316721004" lon="118.54116156917438">
        <ele>25.725341796875</ele>
        <time>2025-09-12T13:13:16Z</time>
      </trkpt>
      <trkpt lat="24.910681545764003" lon="118.54126583469387">
        <ele>27.43359375</ele>
        <time>2025-09-12T13:13:19Z</time>
      </trkpt>
      <trkpt lat="24.91060619472378" lon="118.54155858190656">
        <ele>27.61688232421875</ele>
        <time>2025-09-12T13:13:28Z</time>
      </trkpt>
      <trkpt lat="24.9105297605589" lon="118.54181423250732">
        <ele>26.6112060546875</ele>
        <time>2025-09-12T13:13:37Z</time>
      </trkpt>
      <trkpt lat="24.910468408615905" lon="118.54210998015847">
        <ele>23.3095703125</ele>
        <time>2025-09-12T13:13:46Z</time>
      </trkpt>
      <trkpt lat="24.910390064660014" lon="118.54240973564137">
        <ele>24.44476318359375</ele>
        <time>2025-09-12T13:13:55Z</time>
      </trkpt>
      <trkpt lat="24.910321718373687" lon="118.54271048945004">
        <ele>24.441162109375</ele>
        <time>2025-09-12T13:14:04Z</time>
      </trkpt>
      <trkpt lat="24.910245393526512" lon="118.54302226757501">
        <ele>27.92926025390625</ele>
        <time>2025-09-12T13:14:13Z</time>
      </trkpt>
      <trkpt lat="24.910234622882832" lon="118.54312953333735">
        <ele>28.63153076171875</ele>
        <time>2025-09-12T13:14:16Z</time>
      </trkpt>
      <trkpt lat="24.910256777153926" lon="118.5432037148133">
        <ele>27.1068115234375</ele>
        <time>2025-09-12T13:14:19Z</time>
      </trkpt>
      <trkpt lat="24.910257135743485" lon="118.54337313195391">
        <ele>26.89044189453125</ele>
        <time>2025-09-12T13:14:25Z</time>
      </trkpt>
      <trkpt lat="24.91030022931435" lon="118.5434202447726">
        <ele>24.8978271484375</ele>
        <time>2025-09-12T13:14:28Z</time>
      </trkpt>
      <trkpt lat="24.910641052682667" lon="118.54335907072809">
        <ele>26.23541259765625</ele>
        <time>2025-09-12T13:14:40Z</time>
      </trkpt>
      <trkpt lat="24.910958972415138" lon="118.54334200668687">
        <ele>22.86279296875</ele>
        <time>2025-09-12T13:14:49Z</time>
      </trkpt>
      <trkpt lat="24.911237865737423" lon="118.54330990833941">
        <ele>20.11602783203125</ele>
        <time>2025-09-12T13:14:58Z</time>
      </trkpt>
      <trkpt lat="24.911558678867085" lon="118.54324272059984">
        <ele>17.09521484375</ele>
        <time>2025-09-12T13:15:10Z</time>
      </trkpt>
      <trkpt lat="24.911857501265466" lon="118.54317854163145">
        <ele>18.20147705078125</ele>
        <time>2025-09-12T13:15:19Z</time>
      </trkpt>
      <trkpt lat="24.912133337350618" lon="118.54311937647671">
        <ele>16.8809814453125</ele>
        <time>2025-09-12T13:15:28Z</time>
      </trkpt>
      <trkpt lat="24.912418137968537" lon="118.54304417091737">
        <ele>19.08056640625</ele>
        <time>2025-09-12T13:15:37Z</time>
      </trkpt>
      <trkpt lat="24.912713911247945" lon="118.54295693459862">
        <ele>18.1268310546875</ele>
        <time>2025-09-12T13:15:46Z</time>
      </trkpt>
      <trkpt lat="24.913001674684697" lon="118.54286468611522">
        <ele>18.7467041015625</ele>
        <time>2025-09-12T13:15:55Z</time>
      </trkpt>
      <trkpt lat="24.913291495296907" lon="118.54279950433595">
        <ele>18.6466064453125</ele>
        <time>2025-09-12T13:16:04Z</time>
      </trkpt>
      <trkpt lat="24.913575305881942" lon="118.54272931035793">
        <ele>20.43145751953125</ele>
        <time>2025-09-12T13:16:13Z</time>
      </trkpt>
      <trkpt lat="24.913856103841944" lon="118.54265310143856">
        <ele>19.49822998046875</ele>
        <time>2025-09-12T13:16:22Z</time>
      </trkpt>
      <trkpt lat="24.914116897943085" lon="118.5425738861965">
        <ele>20.86236572265625</ele>
        <time>2025-09-12T13:16:31Z</time>
      </trkpt>
      <trkpt lat="24.91438967079838" lon="118.5424856473804">
        <ele>17.94512939453125</ele>
        <time>2025-09-12T13:16:40Z</time>
      </trkpt>
      <trkpt lat="24.91466847482406" lon="118.54241244538652">
        <ele>19.21002197265625</ele>
        <time>2025-09-12T13:16:49Z</time>
      </trkpt>
      <trkpt lat="24.915006225157477" lon="118.54231818645847">
        <ele>18.421142578125</ele>
        <time>2025-09-12T13:17:01Z</time>
      </trkpt>
      <trkpt lat="24.9152840029822" lon="118.5422329539489">
        <ele>17.57720947265625</ele>
        <time>2025-09-12T13:17:10Z</time>
      </trkpt>
      <trkpt lat="24.915555725183527" lon="118.54212165623233">
        <ele>17.75347900390625</ele>
        <time>2025-09-12T13:17:19Z</time>
      </trkpt>
      <trkpt lat="24.915849498013223" lon="118.54203541944565">
        <ele>17.56585693359375</ele>
        <time>2025-09-12T13:17:28Z</time>
      </trkpt>
      <trkpt lat="24.916141266521553" lon="118.54194717747087">
        <ele>16.75225830078125</ele>
        <time>2025-09-12T13:17:37Z</time>
      </trkpt>
      <trkpt lat="24.916225176699974" lon="118.54191108086266">
        <ele>17.25946044921875</ele>
        <time>2025-09-12T13:17:40Z</time>
      </trkpt>
      <trkpt lat="24.916319148365353" lon="118.54190405666586">
        <ele>18.58404541015625</ele>
        <time>2025-09-12T13:17:43Z</time>
      </trkpt>
      <trkpt lat="24.916380287281786" lon="118.54197222383468">
        <ele>19.0594482421875</ele>
        <time>2025-09-12T13:17:46Z</time>
      </trkpt>
      <trkpt lat="24.916510934970354" lon="118.54228098896068">
        <ele>20.88507080078125</ele>
        <time>2025-09-12T13:17:55Z</time>
      </trkpt>
      <trkpt lat="24.91656709955669" lon="118.54236118554726">
        <ele>21.2459716796875</ele>
        <time>2025-09-12T13:17:58Z</time>
      </trkpt>
      <trkpt lat="24.916646194002062" lon="118.54241030272311">
        <ele>21.3438720703125</ele>
        <time>2025-09-12T13:18:01Z</time>
      </trkpt>
      <trkpt lat="24.916646194002062" lon="118.54241030272311">
        <ele>21.3438720703125</ele>
        <time>2025-09-12T13:18:03Z</time>
      </trkpt>
      <trkpt lat="24.91665525083965" lon="118.54243736965287">
        <ele>24.06365966796875</ele>
        <time>2025-09-12T13:18:31Z</time>
      </trkpt>
      <trkpt lat="24.916962005502707" lon="118.54234311296844">
        <ele>22.81072998046875</ele>
        <time>2025-09-12T13:18:43Z</time>
      </trkpt>
      <trkpt lat="24.917243692125158" lon="118.542215774867">
        <ele>22.44036865234375</ele>
        <time>2025-09-12T13:18:52Z</time>
      </trkpt>
      <trkpt lat="24.917522534267583" lon="118.54216061733189">
        <ele>22.84002685546875</ele>
        <time>2025-09-12T13:19:01Z</time>
      </trkpt>
      <trkpt lat="24.9177964483455" lon="118.54213854298104">
        <ele>20.28851318359375</ele>
        <time>2025-09-12T13:19:10Z</time>
      </trkpt>
      <trkpt lat="24.91806534147326" lon="118.54210644381742">
        <ele>19.72296142578125</ele>
        <time>2025-09-12T13:19:19Z</time>
      </trkpt>
      <trkpt lat="24.918347245716475" lon="118.54208035880173">
        <ele>20.59698486328125</ele>
        <time>2025-09-12T13:19:28Z</time>
      </trkpt>
      <trkpt lat="24.91863523130795" lon="118.5420923689363">
        <ele>21.98748779296875</ele>
        <time>2025-09-12T13:19:37Z</time>
      </trkpt>
      <trkpt lat="24.91892423404428" lon="118.54211239911001">
        <ele>21.97369384765625</ele>
        <time>2025-09-12T13:19:46Z</time>
      </trkpt>
      <trkpt lat="24.919209213536433" lon="118.54212140189725">
        <ele>23.66290283203125</ele>
        <time>2025-09-12T13:19:55Z</time>
      </trkpt>
      <trkpt lat="24.91929722065091" lon="118.5421304183943">
        <ele>23.41644287109375</ele>
        <time>2025-09-12T13:19:58Z</time>
      </trkpt>
      <trkpt lat="24.919569199786824" lon="118.54213841956697">
        <ele>23.35516357421875</ele>
        <time>2025-09-12T13:20:07Z</time>
      </trkpt>
      <trkpt lat="24.91986617972554" lon="118.54214842402241">
        <ele>24.29931640625</ele>
        <time>2025-09-12T13:20:16Z</time>
      </trkpt>
      <trkpt lat="24.92014714676941" lon="118.54215141200001">
        <ele>24.10406494140625</ele>
        <time>2025-09-12T13:20:25Z</time>
      </trkpt>
      <trkpt lat="24.920429126628292" lon="118.54216041498205">
        <ele>23.7388916015625</ele>
        <time>2025-09-12T13:20:34Z</time>
      </trkpt>
      <trkpt lat="24.920703107598424" lon="118.54216941851779">
        <ele>23.71575927734375</ele>
        <time>2025-09-12T13:20:43Z</time>
      </trkpt>
      <trkpt lat="24.921050980920477" lon="118.54213330383628">
        <ele>24.1700439453125</ele>
        <time>2025-09-12T13:20:55Z</time>
      </trkpt>
      <trkpt lat="24.921324959717523" lon="118.54214130486788">
        <ele>24.74896240234375</ele>
        <time>2025-09-12T13:21:04Z</time>
      </trkpt>
      <trkpt lat="24.921606937379323" lon="118.54214930534">
        <ele>26.10833740234375</ele>
        <time>2025-09-12T13:21:13Z</time>
      </trkpt>
      <trkpt lat="24.921878959645987" lon="118.54217735674717">
        <ele>27.9857177734375</ele>
        <time>2025-09-12T13:21:22Z</time>
      </trkpt>
      <trkpt lat="24.92219603599457" lon="118.54223347527348">
        <ele>31.2449951171875</ele>
        <time>2025-09-12T13:21:34Z</time>
      </trkpt>
      <trkpt lat="24.92251211667722" lon="118.54229159876313">
        <ele>31.357421875</ele>
        <time>2025-09-12T13:21:46Z</time>
      </trkpt>
      <trkpt lat="24.922821258523584" lon="118.54237779273639">
        <ele>31.76708984375</ele>
        <time>2025-09-12T13:21:58Z</time>
      </trkpt>
      <trkpt lat="24.923142462910487" lon="118.5424940605897">
        <ele>31.6046142578125</ele>
        <time>2025-09-12T13:22:10Z</time>
      </trkpt>
      <trkpt lat="24.92347865183798" lon="118.54260431190679">
        <ele>30.62725830078125</ele>
        <time>2025-09-12T13:22:22Z</time>
      </trkpt>
      <trkpt lat="24.923803936084504" lon="118.54275867308246">
        <ele>32.93206787109375</ele>
        <time>2025-09-12T13:22:34Z</time>
      </trkpt>
      <trkpt lat="24.924051181371386" lon="118.54288998164022">
        <ele>32.5716552734375</ele>
        <time>2025-09-12T13:22:43Z</time>
      </trkpt>
      <trkpt lat="24.924278509828206" lon="118.54305938509306">
        <ele>33.26788330078125</ele>
        <time>2025-09-12T13:22:52Z</time>
      </trkpt>
      <trkpt lat="24.924518843949144" lon="118.54323279640647">
        <ele>33.11175537109375</ele>
        <time>2025-09-12T13:23:01Z</time>
      </trkpt>
      <trkpt lat="24.924745214987098" lon="118.5434232494006">
        <ele>33.37640380859375</ele>
        <time>2025-09-12T13:23:10Z</time>
      </trkpt>
      <trkpt lat="24.92496660234273" lon="118.54362172096681">
        <ele>32.61846923828125</ele>
        <time>2025-09-12T13:23:19Z</time>
      </trkpt>
      <trkpt lat="24.925189002897223" lon="118.54382720804833">
        <ele>31.64892578125</ele>
        <time>2025-09-12T13:23:28Z</time>
      </trkpt>
      <trkpt lat="24.925382441676028" lon="118.54404973694467">
        <ele>30.22589111328125</ele>
        <time>2025-09-12T13:23:37Z</time>
      </trkpt>
      <trkpt lat="24.92554193775892" lon="118.54429832940735">
        <ele>29.86444091796875</ele>
        <time>2025-09-12T13:23:46Z</time>
      </trkpt>
      <trkpt lat="24.925705439403995" lon="118.54455092881422">
        <ele>28.80072021484375</ele>
        <time>2025-09-12T13:23:55Z</time>
      </trkpt>
      <trkpt lat="24.925853951242665" lon="118.54480853876566">
        <ele>28.80352783203125</ele>
        <time>2025-09-12T13:24:04Z</time>
      </trkpt>
      <trkpt lat="24.92601446520429" lon="118.54506915242345">
        <ele>27.92608642578125</ele>
        <time>2025-09-12T13:24:13Z</time>
      </trkpt>
      <trkpt lat="24.926161962175357" lon="118.5453217451615">
        <ele>25.6571044921875</ele>
        <time>2025-09-12T13:24:22Z</time>
      </trkpt>
      <trkpt lat="24.92636157190519" lon="118.54563447428583">
        <ele>23.35711669921875</ele>
        <time>2025-09-12T13:24:34Z</time>
      </trkpt>
      <trkpt lat="24.92655619503566" lon="118.54595521870148">
        <ele>22.02764892578125</ele>
        <time>2025-09-12T13:24:46Z</time>
      </trkpt>
      <trkpt lat="24.926718691920158" lon="118.5462128131061">
        <ele>20.4398193359375</ele>
        <time>2025-09-12T13:24:55Z</time>
      </trkpt>
      <trkpt lat="24.92677985669736" lon="118.5462990109365">
        <ele>20.08306884765625</ele>
        <time>2025-09-12T13:24:58Z</time>
      </trkpt>
      <trkpt lat="24.926889444031133" lon="118.54659970588624">
        <ele>21.45440673828125</ele>
        <time>2025-09-12T13:25:07Z</time>
      </trkpt>
      <trkpt lat="24.926900648651408" lon="118.54670294547005">
        <ele>22.31170654296875</ele>
        <time>2025-09-12T13:25:11Z</time>
      </trkpt>
      <trkpt lat="24.927056638635605" lon="118.54670894860868">
        <ele>21.76385498046875</ele>
        <time>2025-09-12T13:25:16Z</time>
      </trkpt>
      <trkpt lat="24.927228402201248" lon="118.5466026893169">
        <ele>21.43212890625</ele>
        <time>2025-09-12T13:25:23Z</time>
      </trkpt>
      <trkpt lat="24.927238192233077" lon="118.54649844550836">
        <ele>22.5927734375</ele>
        <time>2025-09-12T13:25:26Z</time>
      </trkpt>
      <trkpt lat="24.92710793121875" lon="118.54635912892586">
        <ele>26.6246337890625</ele>
        <time>2025-09-12T13:25:32Z</time>
      </trkpt>
      <trkpt lat="24.92692631701999" lon="118.54604139594291">
        <ele>26.05926513671875</ele>
        <time>2025-09-12T13:25:44Z</time>
      </trkpt>
      <trkpt lat="24.926875936852113" lon="118.54584994821317">
        <ele>26.76678466796875</ele>
        <time>2025-09-12T13:25:50Z</time>
      </trkpt>
      <trkpt lat="24.926692294619567" lon="118.54552118262842">
        <ele>30.018310546875</ele>
        <time>2025-09-12T13:26:02Z</time>
      </trkpt>
      <trkpt lat="24.926505648924998" lon="118.54519241288949">
        <ele>30.58734130859375</ele>
        <time>2025-09-12T13:26:14Z</time>
      </trkpt>
      <trkpt lat="24.926333988981888" lon="118.544859628139">
        <ele>29.3262939453125</ele>
        <time>2025-09-12T13:26:26Z</time>
      </trkpt>
      <trkpt lat="24.92613136271439" lon="118.54454287982324">
        <ele>31.52001953125</ele>
        <time>2025-09-12T13:26:38Z</time>
      </trkpt>
      <trkpt lat="24.92598186320372" lon="118.54429228421768">
        <ele>32.659912109375</ele>
        <time>2025-09-12T13:26:47Z</time>
      </trkpt>
      <trkpt lat="24.925803415842495" lon="118.5440657466591">
        <ele>33.788818359375</ele>
        <time>2025-09-12T13:26:56Z</time>
      </trkpt>
      <trkpt lat="24.92557982786031" lon="118.54377004127599">
        <ele>34.651611328125</ele>
        <time>2025-09-12T13:27:08Z</time>
      </trkpt>
      <trkpt lat="24.9253322909505" lon="118.54349839317833">
        <ele>36.14825439453125</ele>
        <time>2025-09-12T13:27:20Z</time>
      </trkpt>
      <trkpt lat="24.92507375301078" lon="118.54322674295247">
        <ele>36.62518310546875</ele>
        <time>2025-09-12T13:27:32Z</time>
      </trkpt>
      <trkpt lat="24.92484541078687" lon="118.54305032332825">
        <ele>37.01080322265625</ele>
        <time>2025-09-12T13:27:41Z</time>
      </trkpt>
      <trkpt lat="24.924541005535183" lon="118.54283982327885">
        <ele>37.45361328125</ele>
        <time>2025-09-12T13:27:53Z</time>
      </trkpt>
      <trkpt lat="24.92430269020797" lon="118.54267643410117">
        <ele>37.7047119140625</ele>
        <time>2025-09-12T13:28:02Z</time>
      </trkpt>
      <trkpt lat="24.92425050666675" lon="118.54258721574253">
        <ele>36.72235107421875</ele>
        <time>2025-09-12T13:28:05Z</time>
      </trkpt>
      <trkpt lat="24.924066395158246" lon="118.54252306873605">
        <ele>36.67962646484375</ele>
        <time>2025-09-12T13:28:11Z</time>
      </trkpt>
      <trkpt lat="24.923752058579865" lon="118.54234564777818">
        <ele>34.48687744140625</ele>
        <time>2025-09-12T13:28:23Z</time>
      </trkpt>
      <trkpt lat="24.923484828754393" lon="118.54222135542099">
        <ele>33.2327880859375</ele>
        <time>2025-09-12T13:28:32Z</time>
      </trkpt>
      <trkpt lat="24.923202667537726" lon="118.54212814145473">
        <ele>33.403076171875</ele>
        <time>2025-09-12T13:28:41Z</time>
      </trkpt>
      <trkpt lat="24.922928494064315" lon="118.5420299140117">
        <ele>32.09783935546875</ele>
        <time>2025-09-12T13:28:50Z</time>
      </trkpt>
      <trkpt lat="24.922652376906253" lon="118.5419577518754">
        <ele>33.4705810546875</ele>
        <time>2025-09-12T13:28:59Z</time>
      </trkpt>
      <trkpt lat="24.922558331587865" lon="118.54193069036153">
        <ele>34.33013916015625</ele>
        <time>2025-09-12T13:29:02Z</time>
      </trkpt>
      <trkpt lat="24.922470226809832" lon="118.54187656028758">
        <ele>33.90936279296875</ele>
        <time>2025-09-12T13:29:05Z</time>
      </trkpt>
      <trkpt lat="24.922362265871296" lon="118.54188759556038">
        <ele>33.82568359375</ele>
        <time>2025-09-12T13:29:08Z</time>
      </trkpt>
      <trkpt lat="24.922056232924483" lon="118.54185252854144">
        <ele>34.66021728515625</ele>
        <time>2025-09-12T13:29:17Z</time>
      </trkpt>
      <trkpt lat="24.921757185905808" lon="118.54181144583433">
        <ele>34.9156494140625</ele>
        <time>2025-09-12T13:29:26Z</time>
      </trkpt>
      <trkpt lat="24.921460182013156" lon="118.5417904134625">
        <ele>34.3602294921875</ele>
        <time>2025-09-12T13:29:35Z</time>
      </trkpt>
      <trkpt lat="24.92116621897575" lon="118.54178842887781">
        <ele>33.04541015625</ele>
        <time>2025-09-12T13:29:44Z</time>
      </trkpt>
      <trkpt lat="24.9209662014214" lon="118.54176738973419">
        <ele>31.8275146484375</ele>
        <time>2025-09-12T13:29:50Z</time>
      </trkpt>
      <trkpt lat="24.920775267378342" lon="118.54178544851916">
        <ele>31.01300048828125</ele>
        <time>2025-09-12T13:29:56Z</time>
      </trkpt>
      <trkpt lat="24.920678246219563" lon="118.54176941483952">
        <ele>30.18743896484375</ele>
        <time>2025-09-12T13:29:59Z</time>
      </trkpt>
      <trkpt lat="24.920678246219563" lon="118.54176941483952">
        <ele>30.18743896484375</ele>
        <time>2025-09-12T13:30:01Z</time>
      </trkpt>
      <trkpt lat="24.920520828400115" lon="118.54156691446221">
        <ele>25.89801025390625</ele>
        <time>2025-09-12T13:30:41Z</time>
      </trkpt>
      <trkpt lat="24.92038603043851" lon="118.54165113667412">
        <ele>24.06622314453125</ele>
        <time>2025-09-12T13:30:47Z</time>
      </trkpt>
      <trkpt lat="24.920298116830086" lon="118.54168522886232">
        <ele>24.54364013671875</ele>
        <time>2025-09-12T13:30:50Z</time>
      </trkpt>
      <trkpt lat="24.919987217075068" lon="118.5417113162958">
        <ele>26.5750732421875</ele>
        <time>2025-09-12T13:30:59Z</time>
      </trkpt>
      <trkpt lat="24.919671278827707" lon="118.54171935853051">
        <ele>27.0633544921875</ele>
        <time>2025-09-12T13:31:08Z</time>
      </trkpt>
      <trkpt lat="24.919459308571348" lon="118.54171937328948">
        <ele>27.027099609375</ele>
        <time>2025-09-12T13:31:14Z</time>
      </trkpt>
      <trkpt lat="24.919259414933745" lon="118.54175547824087">
        <ele>28.0264892578125</ele>
        <time>2025-09-12T13:31:20Z</time>
      </trkpt>
      <trkpt lat="24.918957481205904" lon="118.54176652706899">
        <ele>26.37310791015625</ele>
        <time>2025-09-12T13:31:29Z</time>
      </trkpt>
      <trkpt lat="24.918656571232624" lon="118.54178860361722">
        <ele>27.3143310546875</ele>
        <time>2025-09-12T13:31:38Z</time>
      </trkpt>
      <trkpt lat="24.918560606423046" lon="118.54179863556405">
        <ele>28.2698974609375</ele>
        <time>2025-09-12T13:31:41Z</time>
      </trkpt>
      <trkpt lat="24.918368546382155" lon="118.54175854785137">
        <ele>28.9091796875</ele>
        <time>2025-09-12T13:31:47Z</time>
      </trkpt>
      <trkpt lat="24.918075617880675" lon="118.54177260363255">
        <ele>31.45965576171875</ele>
        <time>2025-09-12T13:31:56Z</time>
      </trkpt>
      <trkpt lat="24.917784617336174" lon="118.54175357586647">
        <ele>33.3780517578125</ele>
        <time>2025-09-12T13:32:05Z</time>
      </trkpt>
      <trkpt lat="24.91750162434913" lon="118.54173855764385">
        <ele>34.03350830078125</ele>
        <time>2025-09-12T13:32:14Z</time>
      </trkpt>
      <trkpt lat="24.917178763076517" lon="118.5417816888174">
        <ele>34.2452392578125</ele>
        <time>2025-09-12T13:32:23Z</time>
      </trkpt>
      <trkpt lat="24.916884871599105" lon="118.54181278759569">
        <ele>33.1839599609375</ele>
        <time>2025-09-12T13:32:32Z</time>
      </trkpt>
      <trkpt lat="24.916540017612316" lon="118.54185792522468">
        <ele>33.7109375</ele>
        <time>2025-09-12T13:32:44Z</time>
      </trkpt>
      <trkpt lat="24.916293162849616" lon="118.5419090710857">
        <ele>33.48919677734375</ele>
        <time>2025-09-12T13:32:53Z</time>
      </trkpt>
      <trkpt lat="24.916039436799146" lon="118.54201936594325">
        <ele>31.2401123046875</ele>
        <time>2025-09-12T13:33:02Z</time>
      </trkpt>
      <trkpt lat="24.91576065111328" lon="118.5421005891673">
        <ele>33.40399169921875</ele>
        <time>2025-09-12T13:33:11Z</time>
      </trkpt>
      <trkpt lat="24.915487870833264" lon="118.54218481925342">
        <ele>34.22808837890625</ele>
        <time>2025-09-12T13:33:20Z</time>
      </trkpt>
      <trkpt lat="24.915207171206408" lon="118.54230614239336">
        <ele>33.45166015625</ele>
        <time>2025-09-12T13:33:29Z</time>
      </trkpt>
      <trkpt lat="24.915014288685573" lon="118.54234826106843">
        <ele>32.796142578125</ele>
        <time>2025-09-12T13:33:35Z</time>
      </trkpt>
      <trkpt lat="24.914822481289455" lon="118.54242546719837">
        <ele>34.26055908203125</ele>
        <time>2025-09-12T13:33:41Z</time>
      </trkpt>
      <trkpt lat="24.914542698866654" lon="118.54250869421477">
        <ele>33.4088134765625</ele>
        <time>2025-09-12T13:33:50Z</time>
      </trkpt>
      <trkpt lat="24.914355821639884" lon="118.54255381963263">
        <ele>33.54931640625</ele>
        <time>2025-09-12T13:33:56Z</time>
      </trkpt>
      <trkpt lat="24.914065055377378" lon="118.5426440644552">
        <ele>35.31414794921875</ele>
        <time>2025-09-12T13:34:05Z</time>
      </trkpt>
      <trkpt lat="24.913790256612145" lon="118.54272027298424">
        <ele>32.31805419921875</ele>
        <time>2025-09-12T13:34:14Z</time>
      </trkpt>
      <trkpt lat="24.913495449731204" lon="118.54279147024047">
        <ele>31.81298828125</ele>
        <time>2025-09-12T13:34:23Z</time>
      </trkpt>
      <trkpt lat="24.913215582870144" lon="118.54283559914663">
        <ele>32.1097412109375</ele>
        <time>2025-09-12T13:34:32Z</time>
      </trkpt>
      <trkpt lat="24.91293374824588" lon="118.54289476537592">
        <ele>34.05914306640625</ele>
        <time>2025-09-12T13:34:41Z</time>
      </trkpt>
      <trkpt lat="24.912666977518864" lon="118.54298500732965">
        <ele>33.37030029296875</ele>
        <time>2025-09-12T13:34:50Z</time>
      </trkpt>
      <trkpt lat="24.91238722321505" lon="118.54308226720546">
        <ele>33.35015869140625</ele>
        <time>2025-09-12T13:34:59Z</time>
      </trkpt>
      <trkpt lat="24.91210840677526" lon="118.54315045492028">
        <ele>33.99169921875</ele>
        <time>2025-09-12T13:35:08Z</time>
      </trkpt>
      <trkpt lat="24.91182458661049" lon="118.54321663785846">
        <ele>34.4642333984375</ele>
        <time>2025-09-12T13:35:17Z</time>
      </trkpt>
      <trkpt lat="24.911552747633912" lon="118.54327480004036">
        <ele>29.63043212890625</ele>
        <time>2025-09-12T13:35:26Z</time>
      </trkpt>
      <trkpt lat="24.911250857564873" lon="118.54330690003249">
        <ele>25.2755126953125</ele>
        <time>2025-09-12T13:35:35Z</time>
      </trkpt>
      <trkpt lat="24.91094499556071" lon="118.5433520323208">
        <ele>23.138671875</ele>
        <time>2025-09-12T13:35:44Z</time>
      </trkpt>
      <trkpt lat="24.910631111283582" lon="118.5433861379785">
        <ele>25.62457275390625</ele>
        <time>2025-09-12T13:35:53Z</time>
      </trkpt>
      <trkpt lat="24.910335201156805" lon="118.54340921524127">
        <ele>28.66693115234375</ele>
        <time>2025-09-12T13:36:02Z</time>
      </trkpt>
      <trkpt lat="24.91027314835052" lon="118.5433801480947">
        <ele>25.932861328125</ele>
        <time>2025-09-12T13:36:05Z</time>
      </trkpt>
      <trkpt lat="24.910302921530654" lon="118.54327488699849">
        <ele>22.806396484375</ele>
        <time>2025-09-12T13:36:08Z</time>
      </trkpt>
      <trkpt lat="24.91027914349489" lon="118.54290697989983">
        <ele>24.23748779296875</ele>
        <time>2025-09-12T13:36:17Z</time>
      </trkpt>
      <trkpt lat="24.91030288583742" lon="118.54278768245219">
        <ele>25.31488037109375</ele>
        <time>2025-09-12T13:36:20Z</time>
      </trkpt>
      <trkpt lat="24.91034167703367" lon="118.54269244321682">
        <ele>25.6898193359375</ele>
        <time>2025-09-12T13:36:23Z</time>
      </trkpt>
      <trkpt lat="24.910383031192897" lon="118.54239369608314">
        <ele>29.02459716796875</ele>
        <time>2025-09-12T13:36:32Z</time>
      </trkpt>
      <trkpt lat="24.910412591454403" lon="118.54219118757037">
        <ele>31.158447265625</ele>
        <time>2025-09-12T13:36:38Z</time>
      </trkpt>
    </trkseg>
  </trk>
</gpx>