<?xml version="1.0" encoding="UTF-8"?>
<gpx xmlns="http://www.topografix.com/GPX/1/1" xmlns:gpxtpx="http://www.garmin.com/xmlschemas/TrackPointExtension/v1" xmlns:xsi="http://www.w3.org/2001/XMLSchema-instance" xsi:schemaLocation="http://www.topografix.com/GPX/1/1 http://www.topografix.com/GPX/1/1/gpx.xsd" version="1.1" creator="gpx.py -- https://github.com/tkrajina/gpxpy">
  <trk>
    <name>gpx from keep</name>
    <type>Ride</type>
    <trkseg>
      <trkpt lat="24.90917486754704" lon="118.53824191167874">
        <ele>7.978238199837506</ele>
        <time>2024-11-12T13:34:36Z</time>
      </trkpt>
      <trkpt lat="24.909098183879635" lon="118.53840826707149">
        <ele>7.990080672316253</ele>
        <time>2024-11-12T13:34:45Z</time>
      </trkpt>
      <trkpt lat="24.90902191949887" lon="118.53868254748636">
        <ele>8.073290035128593</ele>
        <time>2024-11-12T13:34:53Z</time>
      </trkpt>
      <trkpt lat="24.9089410623358" lon="118.53915049998874">
        <ele>8.444351620040834</ele>
        <time>2024-11-12T13:35:04Z</time>
      </trkpt>
      <trkpt lat="24.908881463956526" lon="118.53934562494308">
        <ele>8.1949213296175</ele>
        <time>2024-11-12T13:35:08Z</time>
      </trkpt>
      <trkpt lat="24.90874474172888" lon="118.53979789759056">
        <ele>7.993706228211522</ele>
        <time>2024-11-12T13:35:19Z</time>
      </trkpt>
      <trkpt lat="24.908584542791907" lon="118.54028723216378">
        <ele>8.601095772348344</ele>
        <time>2024-11-12T13:35:31Z</time>
      </trkpt>
      <trkpt lat="24.908491940592725" lon="118.54062806286933">
        <ele>9.41499452944845</ele>
        <time>2024-11-12T13:35:39Z</time>
      </trkpt>
      <trkpt lat="24.908455609211018" lon="118.54070316790539">
        <ele>9.288225405849516</ele>
        <time>2024-11-12T13:35:41Z</time>
      </trkpt>
      <trkpt lat="24.908474450377902" lon="118.5408163438289">
        <ele>9.562368512153625</ele>
        <time>2024-11-12T13:35:44Z</time>
      </trkpt>
      <trkpt lat="24.90844384244412" lon="118.54111659493287">
        <ele>9.345306051895022</ele>
        <time>2024-11-12T13:35:51Z</time>
      </trkpt>
      <trkpt lat="24.908453138125783" lon="118.54137446827227">
        <ele>9.0935168704018</ele>
        <time>2024-11-12T13:35:57Z</time>
      </trkpt>
      <trkpt lat="24.90843878797352" lon="118.54145547064506">
        <ele>8.693236988969147</ele>
        <time>2024-11-12T13:35:59Z</time>
      </trkpt>
      <trkpt lat="24.908397724184404" lon="118.54153467874362">
        <ele>8.112923887558281</ele>
        <time>2024-11-12T13:36:01Z</time>
      </trkpt>
      <trkpt lat="24.908315481654903" lon="118.54158374328901">
        <ele>8.377608838491142</ele>
        <time>2024-11-12T13:36:03Z</time>
      </trkpt>
      <trkpt lat="24.90812693847189" lon="118.54178975352256">
        <ele>9.520838561467826</ele>
        <time>2024-11-12T13:36:10Z</time>
      </trkpt>
      <trkpt lat="24.90793067756112" lon="118.54211379509165">
        <ele>8.937634576112032</ele>
        <time>2024-11-12T13:36:24Z</time>
      </trkpt>
      <trkpt lat="24.907709400006826" lon="118.54263722586256">
        <ele>8.968631356023252</ele>
        <time>2024-11-12T13:36:38Z</time>
      </trkpt>
      <trkpt lat="24.907588562966477" lon="118.5429014575817">
        <ele>8.141654023900628</ele>
        <time>2024-11-12T13:36:45Z</time>
      </trkpt>
      <trkpt lat="24.907542008702322" lon="118.54296887115993">
        <ele>9.205698598176241</ele>
        <time>2024-11-12T13:36:47Z</time>
      </trkpt>
      <trkpt lat="24.907498609291796" lon="118.54307154260755">
        <ele>8.127815153449774</ele>
        <time>2024-11-12T13:36:50Z</time>
      </trkpt>
      <trkpt lat="24.907477516173806" lon="118.54317234025586">
        <ele>8.169901439920068</ele>
        <time>2024-11-12T13:36:54Z</time>
      </trkpt>
      <trkpt lat="24.907479395804447" lon="118.54326946192897">
        <ele>8.492656492628157</ele>
        <time>2024-11-12T13:36:57Z</time>
      </trkpt>
      <trkpt lat="24.907446511186276" lon="118.54335620130874">
        <ele>8.537909699603915</ele>
        <time>2024-11-12T13:37:00Z</time>
      </trkpt>
      <trkpt lat="24.907446608728275" lon="118.54345757927318">
        <ele>8.436179416254163</ele>
        <time>2024-11-12T13:37:03Z</time>
      </trkpt>
      <trkpt lat="24.907488691911794" lon="118.54363928141385">
        <ele>8.686470310203731</ele>
        <time>2024-11-12T13:37:17Z</time>
      </trkpt>
      <trkpt lat="24.907485836356635" lon="118.5437341228148">
        <ele>8.894452416338027</ele>
        <time>2024-11-12T13:37:21Z</time>
      </trkpt>
      <trkpt lat="24.907506913410298" lon="118.54383025837049">
        <ele>8.632562312297523</ele>
        <time>2024-11-12T13:37:24Z</time>
      </trkpt>
      <trkpt lat="24.907521227136172" lon="118.5441971645525">
        <ele>9.208488126285374</ele>
        <time>2024-11-12T13:37:35Z</time>
      </trkpt>
      <trkpt lat="24.90769672203401" lon="118.54466960220361">
        <ele>8.164305301383138</ele>
        <time>2024-11-12T13:37:45Z</time>
      </trkpt>
      <trkpt lat="24.907867384347476" lon="118.5450778663716">
        <ele>7.968005081638694</ele>
        <time>2024-11-12T13:37:53Z</time>
      </trkpt>
      <trkpt lat="24.907939792122157" lon="118.54539989732251">
        <ele>8.406126901507378</ele>
        <time>2024-11-12T13:37:59Z</time>
      </trkpt>
      <trkpt lat="24.908145467542006" lon="118.54593008250252">
        <ele>7.775918246246874</ele>
        <time>2024-11-12T13:38:09Z</time>
      </trkpt>
      <trkpt lat="24.90823330668721" lon="118.54612893564598">
        <ele>8.181064394302666</ele>
        <time>2024-11-12T13:38:13Z</time>
      </trkpt>
      <trkpt lat="24.908259227241537" lon="118.5462296230365">
        <ele>8.61710207350552</ele>
        <time>2024-11-12T13:38:15Z</time>
      </trkpt>
      <trkpt lat="24.90835847978881" lon="118.54640465408">
        <ele>8.61953445803374</ele>
        <time>2024-11-12T13:38:19Z</time>
      </trkpt>
      <trkpt lat="24.908532900213583" lon="118.54686922869988">
        <ele>8.425401905551553</ele>
        <time>2024-11-12T13:38:29Z</time>
      </trkpt>
      <trkpt lat="24.908740099087126" lon="118.54741783305842">
        <ele>8.142090674489737</ele>
        <time>2024-11-12T13:38:42Z</time>
      </trkpt>
      <trkpt lat="24.90888153412909" lon="118.54777674502783">
        <ele>7.3395177675411105</ele>
        <time>2024-11-12T13:38:51Z</time>
      </trkpt>
      <trkpt lat="24.909000507267088" lon="118.54818277867555">
        <ele>7.678235271945596</ele>
        <time>2024-11-12T13:39:03Z</time>
      </trkpt>
      <trkpt lat="24.90921571159813" lon="118.54868338553244">
        <ele>7.830642404966056</ele>
        <time>2024-11-12T13:39:18Z</time>
      </trkpt>
      <trkpt lat="24.90941769890718" lon="118.54916104259458">
        <ele>7.8583509754389524</ele>
        <time>2024-11-12T13:39:28Z</time>
      </trkpt>
      <trkpt lat="24.909471119497887" lon="118.54924685535674">
        <ele>8.14650700148195</ele>
        <time>2024-11-12T13:39:30Z</time>
      </trkpt>
      <trkpt lat="24.909591901359008" lon="118.54975903350633">
        <ele>8.21507186256349</ele>
        <time>2024-11-12T13:39:40Z</time>
      </trkpt>
      <trkpt lat="24.909629886278868" lon="118.54985512422564">
        <ele>8.190460140816867</ele>
        <time>2024-11-12T13:39:42Z</time>
      </trkpt>
      <trkpt lat="24.909665626083257" lon="118.55007289881803">
        <ele>8.010529349558055</ele>
        <time>2024-11-12T13:39:46Z</time>
      </trkpt>
      <trkpt lat="24.909838446146065" lon="118.55042181603523">
        <ele>9.108098673634231</ele>
        <time>2024-11-12T13:39:54Z</time>
      </trkpt>
      <trkpt lat="24.910004008942042" lon="118.55095663541583">
        <ele>7.776774951256812</ele>
        <time>2024-11-12T13:40:04Z</time>
      </trkpt>
      <trkpt lat="24.910138373289698" lon="118.551243066573">
        <ele>7.727187228389084</ele>
        <time>2024-11-12T13:40:10Z</time>
      </trkpt>
      <trkpt lat="24.91019353241491" lon="118.55130551653393">
        <ele>7.6485884841531515</ele>
        <time>2024-11-12T13:40:12Z</time>
      </trkpt>
      <trkpt lat="24.91029265274721" lon="118.55148387316565">
        <ele>7.688061906024814</ele>
        <time>2024-11-12T13:40:16Z</time>
      </trkpt>
      <trkpt lat="24.910380853647407" lon="118.55155478766261">
        <ele>7.799520588479936</ele>
        <time>2024-11-12T13:40:18Z</time>
      </trkpt>
      <trkpt lat="24.91044569356942" lon="118.55174572326277">
        <ele>7.634518699720502</ele>
        <time>2024-11-12T13:40:22Z</time>
      </trkpt>
      <trkpt lat="24.910674857845084" lon="118.55215705280246">
        <ele>8.287820463068783</ele>
        <time>2024-11-12T13:40:30Z</time>
      </trkpt>
      <trkpt lat="24.910790016397957" lon="118.55245160750594">
        <ele>8.082940810360014</ele>
        <time>2024-11-12T13:40:36Z</time>
      </trkpt>
      <trkpt lat="24.91083676195564" lon="118.55251913116561">
        <ele>8.098260334692895</ele>
        <time>2024-11-12T13:40:38Z</time>
      </trkpt>
      <trkpt lat="24.910963557870037" lon="118.55265106043336">
        <ele>7.477662718854845</ele>
        <time>2024-11-12T13:40:43Z</time>
      </trkpt>
      <trkpt lat="24.911058729249564" lon="118.55292039149074">
        <ele>7.919709455221891</ele>
        <time>2024-11-12T13:40:50Z</time>
      </trkpt>
      <trkpt lat="24.911101560986204" lon="118.55299798347596">
        <ele>7.583535279147327</ele>
        <time>2024-11-12T13:40:53Z</time>
      </trkpt>
      <trkpt lat="24.911069306988896" lon="118.55309559295948">
        <ele>8.13490725774318</ele>
        <time>2024-11-12T13:40:57Z</time>
      </trkpt>
      <trkpt lat="24.91124425760885" lon="118.55353556596357">
        <ele>7.822795320302248</ele>
        <time>2024-11-12T13:41:07Z</time>
      </trkpt>
      <trkpt lat="24.911467043207704" lon="118.55405470565402">
        <ele>7.284326167777181</ele>
        <time>2024-11-12T13:41:19Z</time>
      </trkpt>
      <trkpt lat="24.911542834562937" lon="118.554229903827">
        <ele>8.318763251416385</ele>
        <time>2024-11-12T13:41:24Z</time>
      </trkpt>
      <trkpt lat="24.91155322637898" lon="118.55431915650483">
        <ele>8.472883862443268</ele>
        <time>2024-11-12T13:41:27Z</time>
      </trkpt>
      <trkpt lat="24.911584619926785" lon="118.5544071479923">
        <ele>8.428423227742314</ele>
        <time>2024-11-12T13:41:30Z</time>
      </trkpt>
      <trkpt lat="24.911646443207015" lon="118.55446926076279">
        <ele>8.460902932099998</ele>
        <time>2024-11-12T13:41:34Z</time>
      </trkpt>
      <trkpt lat="24.911698157696268" lon="118.55465229087821">
        <ele>7.938003700226545</ele>
        <time>2024-11-12T13:41:40Z</time>
      </trkpt>
      <trkpt lat="24.91179156948" lon="118.55483507204895">
        <ele>8.355420553125441</ele>
        <time>2024-11-12T13:41:46Z</time>
      </trkpt>
      <trkpt lat="24.911812534957686" lon="118.55501628207004">
        <ele>7.957163842394948</ele>
        <time>2024-11-12T13:41:50Z</time>
      </trkpt>
      <trkpt lat="24.911915299377895" lon="118.55527292282424">
        <ele>8.300753298215568</ele>
        <time>2024-11-12T13:41:56Z</time>
      </trkpt>
      <trkpt lat="24.911965896911337" lon="118.55534245066765">
        <ele>8.518619627691805</ele>
        <time>2024-11-12T13:41:59Z</time>
      </trkpt>
      <trkpt lat="24.912112796721527" lon="118.55573262107119">
        <ele>8.35511789098382</ele>
        <time>2024-11-12T13:42:09Z</time>
      </trkpt>
      <trkpt lat="24.912270153847196" lon="118.55616941743207">
        <ele>6.829793432727456</ele>
        <time>2024-11-12T13:42:20Z</time>
      </trkpt>
      <trkpt lat="24.91228458326026" lon="118.55628254076302">
        <ele>6.6326250759884715</ele>
        <time>2024-11-12T13:42:23Z</time>
      </trkpt>
      <trkpt lat="24.91244810515213" lon="118.55665691509367">
        <ele>6.621690582484007</ele>
        <time>2024-11-12T13:42:33Z</time>
      </trkpt>
      <trkpt lat="24.912501432662857" lon="118.5568389716821">
        <ele>7.496037591248751</ele>
        <time>2024-11-12T13:42:37Z</time>
      </trkpt>
      <trkpt lat="24.912543744051238" lon="118.55692415816632">
        <ele>7.709157899953425</ele>
        <time>2024-11-12T13:42:39Z</time>
      </trkpt>
      <trkpt lat="24.912644121173244" lon="118.55720894295787">
        <ele>8.56749767716974</ele>
        <time>2024-11-12T13:42:45Z</time>
      </trkpt>
      <trkpt lat="24.91270362274918" lon="118.55729628085702">
        <ele>7.95353979151696</ele>
        <time>2024-11-12T13:42:47Z</time>
      </trkpt>
      <trkpt lat="24.912901904407942" lon="118.55776777656799">
        <ele>8.843619420193136</ele>
        <time>2024-11-12T13:42:57Z</time>
      </trkpt>
      <trkpt lat="24.91298064730067" lon="118.55794018274523">
        <ele>9.135975090786815</ele>
        <time>2024-11-12T13:43:01Z</time>
      </trkpt>
      <trkpt lat="24.913044569346308" lon="118.55798654944391">
        <ele>9.32545751798898</ele>
        <time>2024-11-12T13:43:03Z</time>
      </trkpt>
      <trkpt lat="24.913105523563626" lon="118.55814539120894">
        <ele>10.184706449508667</ele>
        <time>2024-11-12T13:43:11Z</time>
      </trkpt>
      <trkpt lat="24.91327351909421" lon="118.55834481444127">
        <ele>11.655827961862087</ele>
        <time>2024-11-12T13:44:06Z</time>
      </trkpt>
      <trkpt lat="24.913350471090496" lon="118.55837524206349">
        <ele>11.787334106862545</ele>
        <time>2024-11-12T13:44:09Z</time>
      </trkpt>
      <trkpt lat="24.913389956262932" lon="118.55844891996736">
        <ele>11.786509909667075</ele>
        <time>2024-11-12T13:44:13Z</time>
      </trkpt>
      <trkpt lat="24.913365184988045" lon="118.55853256139119">
        <ele>12.399325460195541</ele>
        <time>2024-11-12T13:44:22Z</time>
      </trkpt>
      <trkpt lat="24.913399566288838" lon="118.55864836320748">
        <ele>12.594764346256852</ele>
        <time>2024-11-12T13:44:25Z</time>
      </trkpt>
      <trkpt lat="24.913662542060106" lon="118.5590721690324">
        <ele>13.155632392503321</ele>
        <time>2024-11-12T13:44:35Z</time>
      </trkpt>
      <trkpt lat="24.913941171372773" lon="118.55949683857862">
        <ele>13.768708228133619</ele>
        <time>2024-11-12T13:44:45Z</time>
      </trkpt>
      <trkpt lat="24.914213112128266" lon="118.55988694801955">
        <ele>13.91541976109147</ele>
        <time>2024-11-12T13:44:55Z</time>
      </trkpt>
      <trkpt lat="24.914285136508283" lon="118.56004555085812">
        <ele>14.602558001875877</ele>
        <time>2024-11-12T13:44:59Z</time>
      </trkpt>
      <trkpt lat="24.91439456893947" lon="118.56019564947592">
        <ele>14.110816051252186</ele>
        <time>2024-11-12T13:45:04Z</time>
      </trkpt>
      <trkpt lat="24.914520570751375" lon="118.56032364817304">
        <ele>13.444166553206742</ele>
        <time>2024-11-12T13:45:11Z</time>
      </trkpt>
      <trkpt lat="24.91460463515962" lon="118.56050424681736">
        <ele>12.897242204286158</ele>
        <time>2024-11-12T13:45:24Z</time>
      </trkpt>
      <trkpt lat="24.914659087394433" lon="118.56058762294772">
        <ele>12.946858862414956</ele>
        <time>2024-11-12T13:45:26Z</time>
      </trkpt>
      <trkpt lat="24.914642505815635" lon="118.56066719657609">
        <ele>12.255640069954097</ele>
        <time>2024-11-12T13:45:28Z</time>
      </trkpt>
      <trkpt lat="24.914709502753333" lon="118.56070862303652">
        <ele>12.091741415672004</ele>
        <time>2024-11-12T13:45:30Z</time>
      </trkpt>
      <trkpt lat="24.91487569796605" lon="118.56097948089524">
        <ele>10.724597875960171</ele>
        <time>2024-11-12T13:45:37Z</time>
      </trkpt>
      <trkpt lat="24.915062134740158" lon="118.56117973126261">
        <ele>5.56627759989351</ele>
        <time>2024-11-12T13:45:43Z</time>
      </trkpt>
      <trkpt lat="24.91533258923914" lon="118.56158648394869">
        <ele>3.809780335985124</ele>
        <time>2024-11-12T13:45:53Z</time>
      </trkpt>
      <trkpt lat="24.915631167882914" lon="118.5620303150847">
        <ele>4.088319252245128</ele>
        <time>2024-11-12T13:46:05Z</time>
      </trkpt>
      <trkpt lat="24.915900711686337" lon="118.56241576899042">
        <ele>3.534774584695697</ele>
        <time>2024-11-12T13:46:15Z</time>
      </trkpt>
      <trkpt lat="24.916169271232555" lon="118.5628054814098">
        <ele>5.2056044125929475</ele>
        <time>2024-11-12T13:46:26Z</time>
      </trkpt>
      <trkpt lat="24.9164881829968" lon="118.5632382211422">
        <ele>10.47054948657751</ele>
        <time>2024-11-12T13:46:38Z</time>
      </trkpt>
      <trkpt lat="24.916701208863458" lon="118.56350530092855">
        <ele>10.947516531683505</ele>
        <time>2024-11-12T13:46:46Z</time>
      </trkpt>
      <trkpt lat="24.916903726542564" lon="118.56386055371838">
        <ele>10.61915333289653</ele>
        <time>2024-11-12T13:46:59Z</time>
      </trkpt>
      <trkpt lat="24.916969568907497" lon="118.5639391509233">
        <ele>10.004080082289875</ele>
        <time>2024-11-12T13:47:02Z</time>
      </trkpt>
      <trkpt lat="24.917031707195935" lon="118.5639841199829">
        <ele>10.008201437070966</ele>
        <time>2024-11-12T13:47:04Z</time>
      </trkpt>
      <trkpt lat="24.917128564842546" lon="118.56411840619306">
        <ele>9.916552838869393</ele>
        <time>2024-11-12T13:47:08Z</time>
      </trkpt>
      <trkpt lat="24.91720566896477" lon="118.56416938833948">
        <ele>9.766011240892112</ele>
        <time>2024-11-12T13:47:11Z</time>
      </trkpt>
      <trkpt lat="24.917400419423313" lon="118.56448282000703">
        <ele>10.402166477404535</ele>
        <time>2024-11-12T13:48:04Z</time>
      </trkpt>
      <trkpt lat="24.91747388381138" lon="118.56446059390504">
        <ele>10.366684151813388</ele>
        <time>2024-11-12T13:48:07Z</time>
      </trkpt>
      <trkpt lat="24.91754909396906" lon="118.56441480675204">
        <ele>10.012017795816064</ele>
        <time>2024-11-12T13:48:13Z</time>
      </trkpt>
      <trkpt lat="24.917631721737806" lon="118.56447653717312">
        <ele>11.144158065319061</ele>
        <time>2024-11-12T13:48:17Z</time>
      </trkpt>
      <trkpt lat="24.91774621738753" lon="118.5647664517829">
        <ele>10.883502485230565</ele>
        <time>2024-11-12T13:48:37Z</time>
      </trkpt>
    </trkseg>
  </trk>
</gpx>