<?xml version="1.0" encoding="UTF-8"?>
<gpx xmlns="http://www.topografix.com/GPX/1/1" xmlns:gpxtpx="http://www.garmin.com/xmlschemas/TrackPointExtension/v1" xmlns:xsi="http://www.w3.org/2001/XMLSchema-instance" xsi:schemaLocation="http://www.topografix.com/GPX/1/1 http://www.topografix.com/GPX/1/1/gpx.xsd" version="1.1" creator="gpx.py -- https://github.com/tkrajina/gpxpy">
  <trk>
    <name>gpx from keep</name>
    <type>Walk</type>
    <trkseg>
      <trkpt lat="24.91096859924743" lon="118.54363973678394">
        <ele>29.02789306640625</ele>
        <time>2025-11-29T12:47:58Z</time>
      </trkpt>
      <trkpt lat="24.910802019692508" lon="118.5433540472001">
        <ele>25.3372802734375</ele>
        <time>2025-11-29T12:48:16Z</time>
      </trkpt>
      <trkpt lat="24.91076396349671" lon="118.54332497832108">
        <ele>26.41229248046875</ele>
        <time>2025-11-29T12:48:19Z</time>
      </trkpt>
      <trkpt lat="24.910507086151924" lon="118.54336609730734">
        <ele>28.78271484375</ele>
        <time>2025-11-29T12:48:34Z</time>
      </trkpt>
      <trkpt lat="24.910454078686822" lon="118.54335908373655">
        <ele>30.15216064453125</ele>
        <time>2025-11-29T12:48:37Z</time>
      </trkpt>
      <trkpt lat="24.910365995515246" lon="118.54331397887002">
        <ele>30.6182861328125</ele>
        <time>2025-11-29T12:48:43Z</time>
      </trkpt>
      <trkpt lat="24.910236958292767" lon="118.54328792368109">
        <ele>32.96173095703125</ele>
        <time>2025-11-29T12:48:52Z</time>
      </trkpt>
      <trkpt lat="24.91023982625392" lon="118.54322577036179">
        <ele>32.902587890625</ele>
        <time>2025-11-29T12:48:55Z</time>
      </trkpt>
      <trkpt lat="24.910296546170393" lon="118.54309744981968">
        <ele>35.33074951171875</ele>
        <time>2025-11-29T12:49:04Z</time>
      </trkpt>
      <trkpt lat="24.91029016331481" lon="118.5429170039646">
        <ele>34.45697021484375</ele>
        <time>2025-11-29T12:49:16Z</time>
      </trkpt>
      <trkpt lat="24.910362633400197" lon="118.5426733944091">
        <ele>32.467529296875</ele>
        <time>2025-11-29T12:49:31Z</time>
      </trkpt>
      <trkpt lat="24.9103455071116" lon="118.54261324598401">
        <ele>30.778564453125</ele>
        <time>2025-11-29T12:49:34Z</time>
      </trkpt>
      <trkpt lat="24.910402406909515" lon="118.54257013471286">
        <ele>33.12835693359375</ele>
        <time>2025-11-29T12:49:40Z</time>
      </trkpt>
      <trkpt lat="24.910424247047704" lon="118.54249695084813">
        <ele>34.82708740234375</ele>
        <time>2025-11-29T12:49:46Z</time>
      </trkpt>
      <trkpt lat="24.910447517458497" lon="118.54215910476415">
        <ele>36.6929931640625</ele>
        <time>2025-11-29T12:50:07Z</time>
      </trkpt>
      <trkpt lat="24.910545886459307" lon="118.5418733803293">
        <ele>35.717529296875</ele>
        <time>2025-11-29T12:50:25Z</time>
      </trkpt>
      <trkpt lat="24.91063920322174" lon="118.54156459482061">
        <ele>36.50653076171875</ele>
        <time>2025-11-29T12:50:43Z</time>
      </trkpt>
      <trkpt lat="24.910763492719845" lon="118.54124678059767">
        <ele>34.806396484375</ele>
        <time>2025-11-29T12:51:01Z</time>
      </trkpt>
      <trkpt lat="24.91080515771869" lon="118.54109639517607">
        <ele>36.05145263671875</ele>
        <time>2025-11-29T12:51:10Z</time>
      </trkpt>
      <trkpt lat="24.91081245407179" lon="118.54077657833211">
        <ele>29.496826171875</ele>
        <time>2025-11-29T12:51:31Z</time>
      </trkpt>
      <trkpt lat="24.910887735331283" lon="118.54045575032858">
        <ele>27.1751708984375</ele>
        <time>2025-11-29T12:51:52Z</time>
      </trkpt>
      <trkpt lat="24.910884407063094" lon="118.54030736872866">
        <ele>26.608642578125</ele>
        <time>2025-11-29T12:52:01Z</time>
      </trkpt>
      <trkpt lat="24.910976625103356" lon="118.53996146903768">
        <ele>24.44049072265625</ele>
        <time>2025-11-29T12:52:25Z</time>
      </trkpt>
      <trkpt lat="24.910964416557984" lon="118.53986722573327">
        <ele>25.20001220703125</ele>
        <time>2025-11-29T12:52:31Z</time>
      </trkpt>
      <trkpt lat="24.911080729677785" lon="118.53956743882618">
        <ele>23.7003173828125</ele>
        <time>2025-11-29T12:52:52Z</time>
      </trkpt>
      <trkpt lat="24.911163924751254" lon="118.53921451192869">
        <ele>26.3997802734375</ele>
        <time>2025-11-29T12:53:16Z</time>
      </trkpt>
      <trkpt lat="24.911260161643234" lon="118.53888263490771">
        <ele>26.6990966796875</ele>
        <time>2025-11-29T12:53:40Z</time>
      </trkpt>
      <trkpt lat="24.911328808889767" lon="118.53873123175745">
        <ele>25.50042724609375</ele>
        <time>2025-11-29T12:53:52Z</time>
      </trkpt>
      <trkpt lat="24.911479715057073" lon="118.53869913671481">
        <ele>17.52947998046875</ele>
        <time>2025-11-29T12:54:04Z</time>
      </trkpt>
      <trkpt lat="24.911529799111406" lon="118.53873923888173">
        <ele>14.259521484375</ele>
        <time>2025-11-29T12:54:10Z</time>
      </trkpt>
      <trkpt lat="24.91159082246243" lon="118.5387532715963">
        <ele>10.00616455078125</ele>
        <time>2025-11-29T12:54:16Z</time>
      </trkpt>
      <trkpt lat="24.911584012088554" lon="118.5388364910782">
        <ele>10.124053955078125</ele>
        <time>2025-11-29T12:54:22Z</time>
      </trkpt>
      <trkpt lat="24.911584012088554" lon="118.5388364910782">
        <ele>10.124053955078125</ele>
        <time>2025-11-29T12:54:27Z</time>
      </trkpt>
      <trkpt lat="24.911400894388997" lon="118.5387733376237">
        <ele>22.68365478515625</ele>
        <time>2025-11-29T12:55:01Z</time>
      </trkpt>
      <trkpt lat="24.911251867372986" lon="118.53875229256973">
        <ele>21.636962890625</ele>
        <time>2025-11-29T12:55:13Z</time>
      </trkpt>
      <trkpt lat="24.910946711824696" lon="118.538665083994">
        <ele>22.11358642578125</ele>
        <time>2025-11-29T12:55:37Z</time>
      </trkpt>
      <trkpt lat="24.910872640122008" lon="118.53862899396962">
        <ele>21.74725341796875</ele>
        <time>2025-11-29T12:55:43Z</time>
      </trkpt>
      <trkpt lat="24.910835492551865" lon="118.53856181928249">
        <ele>23.46441650390625</ele>
        <time>2025-11-29T12:55:49Z</time>
      </trkpt>
      <trkpt lat="24.910853120193227" lon="118.53839938874357">
        <ele>23.43597412109375</ele>
        <time>2025-11-29T12:56:01Z</time>
      </trkpt>
      <trkpt lat="24.91097039138093" lon="118.53808755373147">
        <ele>21.3116455078125</ele>
        <time>2025-11-29T12:56:25Z</time>
      </trkpt>
      <trkpt lat="24.910999212784017" lon="118.53801134913331">
        <ele>19.9686279296875</ele>
        <time>2025-11-29T12:56:31Z</time>
      </trkpt>
      <trkpt lat="24.91108893116702" lon="118.53789403059233">
        <ele>23.5335693359375</ele>
        <time>2025-11-29T12:56:43Z</time>
      </trkpt>
      <trkpt lat="24.91122721984349" lon="118.5375932179632">
        <ele>23.16632080078125</ele>
        <time>2025-11-29T12:57:07Z</time>
      </trkpt>
      <trkpt lat="24.91127527555932" lon="118.53762028701588">
        <ele>21.3023681640625</ele>
        <time>2025-11-29T12:57:13Z</time>
      </trkpt>
      <trkpt lat="24.911222167369225" lon="118.53757015661928">
        <ele>20.40972900390625</ele>
        <time>2025-11-29T12:57:16Z</time>
      </trkpt>
      <trkpt lat="24.911244041721538" lon="118.53751701285364">
        <ele>21.8458251953125</ele>
        <time>2025-11-29T12:57:19Z</time>
      </trkpt>
    </trkseg>
  </trk>
</gpx>