<?xml version="1.0" encoding="UTF-8"?>
<gpx xmlns="http://www.topografix.com/GPX/1/1" xmlns:gpxtpx="http://www.garmin.com/xmlschemas/TrackPointExtension/v1" xmlns:xsi="http://www.w3.org/2001/XMLSchema-instance" xsi:schemaLocation="http://www.topografix.com/GPX/1/1 http://www.topografix.com/GPX/1/1/gpx.xsd" version="1.1" creator="gpx.py -- https://github.com/tkrajina/gpxpy">
  <trk>
    <name>gpx from keep</name>
    <type>Run</type>
    <trkseg>
      <trkpt lat="24.91075248467713" lon="118.53860211570311">
        <ele>9.938727834261954</ele>
        <time>2024-03-21T14:07:02Z</time>
      </trkpt>
      <trkpt lat="24.910699448350577" lon="118.53856376326767">
        <ele>9.961478715762496</ele>
        <time>2024-03-21T14:07:05Z</time>
      </trkpt>
      <trkpt lat="24.910495442476126" lon="118.53849218364765">
        <ele>10.0303162522614</ele>
        <time>2024-03-21T14:07:11Z</time>
      </trkpt>
      <trkpt lat="24.910431143840388" lon="118.53850504124537">
        <ele>9.447527487762272</ele>
        <time>2024-03-21T14:07:14Z</time>
      </trkpt>
      <trkpt lat="24.910173133057125" lon="118.53847361759661">
        <ele>8.632894480600953</ele>
        <time>2024-03-21T14:07:23Z</time>
      </trkpt>
      <trkpt lat="24.909894690168603" lon="118.53839268461792">
        <ele>8.845987750217319</ele>
        <time>2024-03-21T14:07:32Z</time>
      </trkpt>
      <trkpt lat="24.90958852107216" lon="118.53838417805598">
        <ele>7.472689430229366</ele>
        <time>2024-03-21T14:07:41Z</time>
      </trkpt>
      <trkpt lat="24.909499646923766" lon="118.53840750093063">
        <ele>7.240327465347946</ele>
        <time>2024-03-21T14:07:44Z</time>
      </trkpt>
      <trkpt lat="24.909310815189038" lon="118.53839391318172">
        <ele>8.035561769269407</ele>
        <time>2024-03-21T14:07:50Z</time>
      </trkpt>
      <trkpt lat="24.90922280237324" lon="118.53836009602853">
        <ele>8.070694523863494</ele>
        <time>2024-03-21T14:07:53Z</time>
      </trkpt>
      <trkpt lat="24.909254446330507" lon="118.53822311789851">
        <ele>7.863620555028319</ele>
        <time>2024-03-21T14:07:59Z</time>
      </trkpt>
      <trkpt lat="24.909385144971257" lon="118.53795815563883">
        <ele>8.307416714727879</ele>
        <time>2024-03-21T14:08:08Z</time>
      </trkpt>
      <trkpt lat="24.909461972070364" lon="118.53776950841787">
        <ele>8.869024891406298</ele>
        <time>2024-03-21T14:08:14Z</time>
      </trkpt>
      <trkpt lat="24.9094595838416" lon="118.53767074976906">
        <ele>9.298348307609558</ele>
        <time>2024-03-21T14:08:17Z</time>
      </trkpt>
      <trkpt lat="24.909555441835614" lon="118.53728226143281">
        <ele>10.130787063390017</ele>
        <time>2024-03-21T14:08:29Z</time>
      </trkpt>
      <trkpt lat="24.909593958012405" lon="118.53710237003618">
        <ele>10.306070702150464</ele>
        <time>2024-03-21T14:08:35Z</time>
      </trkpt>
      <trkpt lat="24.909494155556825" lon="118.53695708450485">
        <ele>9.818153223022819</ele>
        <time>2024-03-21T14:08:41Z</time>
      </trkpt>
      <trkpt lat="24.90953921775781" lon="118.53686904078192">
        <ele>10.552691604942083</ele>
        <time>2024-03-21T14:08:44Z</time>
      </trkpt>
      <trkpt lat="24.90954796428805" lon="118.53675212164548">
        <ele>9.521748645231128</ele>
        <time>2024-03-21T14:08:47Z</time>
      </trkpt>
      <trkpt lat="24.909580426305745" lon="118.53666461416175">
        <ele>9.868622845038772</ele>
        <time>2024-03-21T14:08:50Z</time>
      </trkpt>
      <trkpt lat="24.909611018435093" lon="118.53640439068775">
        <ele>10.302187327295542</ele>
        <time>2024-03-21T14:08:58Z</time>
      </trkpt>
      <trkpt lat="24.909605659731863" lon="118.53614719148523">
        <ele>10.233694985508919</ele>
        <time>2024-03-21T14:09:06Z</time>
      </trkpt>
      <trkpt lat="24.909627609143463" lon="118.53601720853729">
        <ele>9.813833915628493</ele>
        <time>2024-03-21T14:09:10Z</time>
      </trkpt>
      <trkpt lat="24.90964527745476" lon="118.53575683657964">
        <ele>10.829269798472524</ele>
        <time>2024-03-21T14:09:18Z</time>
      </trkpt>
      <trkpt lat="24.90973372006993" lon="118.53533575607365">
        <ele>10.186551727354527</ele>
        <time>2024-03-21T14:09:30Z</time>
      </trkpt>
      <trkpt lat="24.909796060352175" lon="118.53505973858604">
        <ele>9.921565836295485</ele>
        <time>2024-03-21T14:09:39Z</time>
      </trkpt>
      <trkpt lat="24.909804307499833" lon="118.53487664674614">
        <ele>8.809582152403891</ele>
        <time>2024-03-21T14:09:45Z</time>
      </trkpt>
      <trkpt lat="24.909857467786477" lon="118.53485225602356">
        <ele>8.48806612752378</ele>
        <time>2024-03-21T14:09:48Z</time>
      </trkpt>
      <trkpt lat="24.909916170844014" lon="118.53490966291325">
        <ele>8.17437154892832</ele>
        <time>2024-03-21T14:09:51Z</time>
      </trkpt>
      <trkpt lat="24.91019126362684" lon="118.53505391287425">
        <ele>9.563164658844471</ele>
        <time>2024-03-21T14:10:03Z</time>
      </trkpt>
      <trkpt lat="24.91034429221128" lon="118.53509462930386">
        <ele>9.900504388846457</ele>
        <time>2024-03-21T14:10:09Z</time>
      </trkpt>
      <trkpt lat="24.910424066186195" lon="118.53514735417096">
        <ele>10.04395236633718</ele>
        <time>2024-03-21T14:10:12Z</time>
      </trkpt>
      <trkpt lat="24.91066877728311" lon="118.53520122976153">
        <ele>10.013434395194054</ele>
        <time>2024-03-21T14:10:21Z</time>
      </trkpt>
      <trkpt lat="24.910819134664468" lon="118.53527376140482">
        <ele>10.028921127319336</ele>
        <time>2024-03-21T14:10:27Z</time>
      </trkpt>
      <trkpt lat="24.91091526912302" lon="118.53529847957304">
        <ele>10.147120262496173</ele>
        <time>2024-03-21T14:10:30Z</time>
      </trkpt>
      <trkpt lat="24.911175171592653" lon="118.53545888127297">
        <ele>10.316176124848425</ele>
        <time>2024-03-21T14:10:39Z</time>
      </trkpt>
      <trkpt lat="24.91147649707426" lon="118.53557923972593">
        <ele>10.069830413907766</ele>
        <time>2024-03-21T14:10:51Z</time>
      </trkpt>
      <trkpt lat="24.91182387245139" lon="118.53576640492226">
        <ele>10.06150782480836</ele>
        <time>2024-03-21T14:11:05Z</time>
      </trkpt>
      <trkpt lat="24.912157227579755" lon="118.53588283469134">
        <ele>10.388304435648024</ele>
        <time>2024-03-21T14:11:17Z</time>
      </trkpt>
      <trkpt lat="24.912264481626963" lon="118.53590791359716">
        <ele>10.372214233502746</ele>
        <time>2024-03-21T14:11:21Z</time>
      </trkpt>
      <trkpt lat="24.912455654413026" lon="118.53600166074975">
        <ele>10.560700078494847</ele>
        <time>2024-03-21T14:11:29Z</time>
      </trkpt>
      <trkpt lat="24.91250074239715" lon="118.53608326749186">
        <ele>10.126969886943698</ele>
        <time>2024-03-21T14:11:33Z</time>
      </trkpt>
      <trkpt lat="24.912460534547517" lon="118.53621096284016">
        <ele>9.823422154411674</ele>
        <time>2024-03-21T14:11:37Z</time>
      </trkpt>
      <trkpt lat="24.912336398350007" lon="118.53641482334523">
        <ele>9.797758512198925</ele>
        <time>2024-03-21T14:11:44Z</time>
      </trkpt>
      <trkpt lat="24.91222512933113" lon="118.53654712862334">
        <ele>10.228963644243777</ele>
        <time>2024-03-21T14:11:50Z</time>
      </trkpt>
      <trkpt lat="24.912190495397752" lon="118.53663288576952">
        <ele>10.052770083770156</ele>
        <time>2024-03-21T14:11:53Z</time>
      </trkpt>
      <trkpt lat="24.911971820632033" lon="118.53692908568382">
        <ele>9.907150406390429</ele>
        <time>2024-03-21T14:12:05Z</time>
      </trkpt>
      <trkpt lat="24.91192861669309" lon="118.53701324797785">
        <ele>10.452026523649693</ele>
        <time>2024-03-21T14:12:08Z</time>
      </trkpt>
      <trkpt lat="24.911883187024873" lon="118.53729529155623">
        <ele>10.302958133630455</ele>
        <time>2024-03-21T14:12:17Z</time>
      </trkpt>
      <trkpt lat="24.911851932793923" lon="118.53736855792917">
        <ele>10.183615802787244</ele>
        <time>2024-03-21T14:12:20Z</time>
      </trkpt>
      <trkpt lat="24.91179760697507" lon="118.53743026090555">
        <ele>9.786908568814397</ele>
        <time>2024-03-21T14:12:23Z</time>
      </trkpt>
      <trkpt lat="24.91166911828371" lon="118.53774635235315">
        <ele>9.330207261256874</ele>
        <time>2024-03-21T14:12:35Z</time>
      </trkpt>
      <trkpt lat="24.911608493672446" lon="118.5379080191415">
        <ele>9.925278044305742</ele>
        <time>2024-03-21T14:12:41Z</time>
      </trkpt>
      <trkpt lat="24.91155361522287" lon="118.53810030893914">
        <ele>9.95827884785831</ele>
        <time>2024-03-21T14:12:47Z</time>
      </trkpt>
      <trkpt lat="24.911452207218613" lon="118.53827031526829">
        <ele>10.442180418409407</ele>
        <time>2024-03-21T14:12:53Z</time>
      </trkpt>
      <trkpt lat="24.911336190165297" lon="118.53840835893354">
        <ele>10.384304603561759</ele>
        <time>2024-03-21T14:12:59Z</time>
      </trkpt>
      <trkpt lat="24.9112160954351" lon="118.53871380310821">
        <ele>10.526814816519618</ele>
        <time>2024-03-21T14:13:10Z</time>
      </trkpt>
      <trkpt lat="24.910898294108915" lon="118.5386875493704">
        <ele>9.129127386957407</ele>
        <time>2024-03-21T14:13:22Z</time>
      </trkpt>
      <trkpt lat="24.910718136216" lon="118.53858435172522">
        <ele>9.625211491249502</ele>
        <time>2024-03-21T14:13:30Z</time>
      </trkpt>
      <trkpt lat="24.910490802211875" lon="118.53852065809707">
        <ele>9.835031085647643</ele>
        <time>2024-03-21T14:13:38Z</time>
      </trkpt>
      <trkpt lat="24.910408106905496" lon="118.53851481310437">
        <ele>8.78938879724592</ele>
        <time>2024-03-21T14:13:42Z</time>
      </trkpt>
      <trkpt lat="24.910097069825177" lon="118.53843861403314">
        <ele>8.838721343316138</ele>
        <time>2024-03-21T14:13:53Z</time>
      </trkpt>
      <trkpt lat="24.909933354777884" lon="118.53838406338426">
        <ele>8.957586511038244</ele>
        <time>2024-03-21T14:13:59Z</time>
      </trkpt>
      <trkpt lat="24.90967411285304" lon="118.53836850352445">
        <ele>8.505102599039674</ele>
        <time>2024-03-21T14:14:08Z</time>
      </trkpt>
      <trkpt lat="24.90939577814636" lon="118.53841232334939">
        <ele>7.364284364506602</ele>
        <time>2024-03-21T14:14:17Z</time>
      </trkpt>
      <trkpt lat="24.90931424657722" lon="118.53842659446012">
        <ele>7.646298139356077</ele>
        <time>2024-03-21T14:14:20Z</time>
      </trkpt>
      <trkpt lat="24.909250428779607" lon="118.53837226670747">
        <ele>8.039804738946259</ele>
        <time>2024-03-21T14:14:23Z</time>
      </trkpt>
      <trkpt lat="24.90924533719805" lon="118.53818499054145">
        <ele>8.224751972593367</ele>
        <time>2024-03-21T14:14:29Z</time>
      </trkpt>
      <trkpt lat="24.909309358611534" lon="118.53808757866986">
        <ele>8.074312074109912</ele>
        <time>2024-03-21T14:14:32Z</time>
      </trkpt>
      <trkpt lat="24.909445424618408" lon="118.53773666172927">
        <ele>9.047607292421162</ele>
        <time>2024-03-21T14:14:44Z</time>
      </trkpt>
      <trkpt lat="24.909506192163473" lon="118.53735653329159">
        <ele>10.11750313732773</ele>
        <time>2024-03-21T14:14:56Z</time>
      </trkpt>
      <trkpt lat="24.90954868021508" lon="118.53726536945229">
        <ele>10.540880688466132</ele>
        <time>2024-03-21T14:14:59Z</time>
      </trkpt>
      <trkpt lat="24.909604855847007" lon="118.53708501484181">
        <ele>10.266175156459212</ele>
        <time>2024-03-21T14:15:05Z</time>
      </trkpt>
      <trkpt lat="24.909592670176686" lon="118.53700407170973">
        <ele>9.87138010468334</ele>
        <time>2024-03-21T14:15:08Z</time>
      </trkpt>
      <trkpt lat="24.90955102658938" lon="118.53692841711339">
        <ele>10.215238057076931</ele>
        <time>2024-03-21T14:15:12Z</time>
      </trkpt>
      <trkpt lat="24.909601339954072" lon="118.53681009338905">
        <ele>9.91299248766154</ele>
        <time>2024-03-21T14:15:16Z</time>
      </trkpt>
      <trkpt lat="24.909645619599925" lon="118.53655780110354">
        <ele>10.015046884305775</ele>
        <time>2024-03-21T14:15:24Z</time>
      </trkpt>
      <trkpt lat="24.909680720138763" lon="118.53619923063047">
        <ele>10.230576037429273</ele>
        <time>2024-03-21T14:15:36Z</time>
      </trkpt>
      <trkpt lat="24.909708434260384" lon="118.53594643171269">
        <ele>10.212670744396746</ele>
        <time>2024-03-21T14:15:44Z</time>
      </trkpt>
      <trkpt lat="24.909678769543202" lon="118.53582401086159">
        <ele>10.680737813003361</ele>
        <time>2024-03-21T14:15:48Z</time>
      </trkpt>
      <trkpt lat="24.90971461518762" lon="118.53572249855485">
        <ele>10.574341546744108</ele>
        <time>2024-03-21T14:15:51Z</time>
      </trkpt>
      <trkpt lat="24.909761914858507" lon="118.53541411164684">
        <ele>10.112646419554949</ele>
        <time>2024-03-21T14:16:01Z</time>
      </trkpt>
      <trkpt lat="24.909804637619093" lon="118.535137494087">
        <ele>10.192999270744622</ele>
        <time>2024-03-21T14:16:10Z</time>
      </trkpt>
      <trkpt lat="24.909833257286902" lon="118.53504315732518">
        <ele>9.73812448605895</ele>
        <time>2024-03-21T14:16:13Z</time>
      </trkpt>
      <trkpt lat="24.909835903441184" lon="118.53486157695274">
        <ele>8.795842490158975</ele>
        <time>2024-03-21T14:16:19Z</time>
      </trkpt>
      <trkpt lat="24.90991160938292" lon="118.53489081172918">
        <ele>8.288932439871132</ele>
        <time>2024-03-21T14:16:22Z</time>
      </trkpt>
      <trkpt lat="24.909969065915195" lon="118.5349326758569">
        <ele>8.598663598299026</ele>
        <time>2024-03-21T14:16:25Z</time>
      </trkpt>
      <trkpt lat="24.910120922554505" lon="118.53498947914528">
        <ele>9.452004191465676</ele>
        <time>2024-03-21T14:16:31Z</time>
      </trkpt>
      <trkpt lat="24.910265055135014" lon="118.5350729347077">
        <ele>9.774594410322607</ele>
        <time>2024-03-21T14:16:37Z</time>
      </trkpt>
      <trkpt lat="24.910423317859603" lon="118.53510933290266">
        <ele>9.835381143726408</ele>
        <time>2024-03-21T14:16:43Z</time>
      </trkpt>
      <trkpt lat="24.910502952793507" lon="118.53515887125316">
        <ele>10.014147590845823</ele>
        <time>2024-03-21T14:16:46Z</time>
      </trkpt>
      <trkpt lat="24.910735377295627" lon="118.5352347037033">
        <ele>10.110690376721323</ele>
        <time>2024-03-21T14:16:55Z</time>
      </trkpt>
      <trkpt lat="24.91078981335785" lon="118.53529206390515">
        <ele>10.351017096079886</ele>
        <time>2024-03-21T14:16:58Z</time>
      </trkpt>
      <trkpt lat="24.91087328064941" lon="118.53531784024027">
        <ele>10.553316382691264</ele>
        <time>2024-03-21T14:17:01Z</time>
      </trkpt>
      <trkpt lat="24.911188815635725" lon="118.53546065244775">
        <ele>10.376940625719726</ele>
        <time>2024-03-21T14:17:13Z</time>
      </trkpt>
      <trkpt lat="24.911493470931493" lon="118.53557031719367">
        <ele>10.429961645044386</ele>
        <time>2024-03-21T14:17:24Z</time>
      </trkpt>
      <trkpt lat="24.911783306121198" lon="118.53572135619626">
        <ele>9.88307056389749</ele>
        <time>2024-03-21T14:17:36Z</time>
      </trkpt>
      <trkpt lat="24.912122029471224" lon="118.53586614048736">
        <ele>10.099086357280612</ele>
        <time>2024-03-21T14:17:48Z</time>
      </trkpt>
      <trkpt lat="24.912244980491476" lon="118.53588119966473">
        <ele>10.415375167503953</ele>
        <time>2024-03-21T14:17:52Z</time>
      </trkpt>
      <trkpt lat="24.912475869817623" lon="118.53597957460443">
        <ele>9.396263207308948</ele>
        <time>2024-03-21T14:18:01Z</time>
      </trkpt>
      <trkpt lat="24.912514456178283" lon="118.53604514388277">
        <ele>9.242709531448781</ele>
        <time>2024-03-21T14:18:04Z</time>
      </trkpt>
      <trkpt lat="24.912470642806927" lon="118.53610507857022">
        <ele>9.608444582670927</ele>
        <time>2024-03-21T14:18:07Z</time>
      </trkpt>
      <trkpt lat="24.91245150270508" lon="118.53619488830876">
        <ele>9.787114349193871</ele>
        <time>2024-03-21T14:18:10Z</time>
      </trkpt>
      <trkpt lat="24.912277286400002" lon="118.53652362120633">
        <ele>10.436559800058603</ele>
        <time>2024-03-21T14:18:22Z</time>
      </trkpt>
      <trkpt lat="24.91219273450632" lon="118.53668489401717">
        <ele>9.786068903282285</ele>
        <time>2024-03-21T14:18:28Z</time>
      </trkpt>
      <trkpt lat="24.912019054975833" lon="118.53688558157268">
        <ele>10.167245822027326</ele>
        <time>2024-03-21T14:18:37Z</time>
      </trkpt>
      <trkpt lat="24.911897232170148" lon="118.53721412148477">
        <ele>10.018946623429656</ele>
        <time>2024-03-21T14:18:49Z</time>
      </trkpt>
      <trkpt lat="24.9117970629597" lon="118.53748614128146">
        <ele>9.373540105298162</ele>
        <time>2024-03-21T14:19:01Z</time>
      </trkpt>
      <trkpt lat="24.911663112071473" lon="118.53774532932034">
        <ele>9.65002222172916</ele>
        <time>2024-03-21T14:19:10Z</time>
      </trkpt>
      <trkpt lat="24.911639486564436" lon="118.53792719656056">
        <ele>9.852987477555871</ele>
        <time>2024-03-21T14:19:16Z</time>
      </trkpt>
      <trkpt lat="24.911493439787943" lon="118.53822218741244">
        <ele>10.184369537979364</ele>
        <time>2024-03-21T14:19:26Z</time>
      </trkpt>
      <trkpt lat="24.911388099814772" lon="118.53841246994217">
        <ele>10.344525237567723</ele>
        <time>2024-03-21T14:19:33Z</time>
      </trkpt>
      <trkpt lat="24.911312340655538" lon="118.53861456920441">
        <ele>10.243621099740267</ele>
        <time>2024-03-21T14:19:41Z</time>
      </trkpt>
    </trkseg>
  </trk>
</gpx>