<?xml version="1.0" encoding="UTF-8"?>
<gpx xmlns="http://www.topografix.com/GPX/1/1" xmlns:gpxtpx="http://www.garmin.com/xmlschemas/TrackPointExtension/v1" xmlns:xsi="http://www.w3.org/2001/XMLSchema-instance" xsi:schemaLocation="http://www.topografix.com/GPX/1/1 http://www.topografix.com/GPX/1/1/gpx.xsd" version="1.1" creator="gpx.py -- https://github.com/tkrajina/gpxpy">
  <trk>
    <name>gpx from keep</name>
    <type>Run</type>
    <trkseg>
      <trkpt lat="24.911313798855623" lon="118.53742584597144">
        <ele>10.106041715480387</ele>
        <time>2025-05-03T13:07:16Z</time>
      </trkpt>
      <trkpt lat="24.91122260401479" lon="118.53758251962068">
        <ele>10.094575125724077</ele>
        <time>2025-05-03T13:07:24Z</time>
      </trkpt>
      <trkpt lat="24.91119723432732" lon="118.5377087310735">
        <ele>10.186629781499505</ele>
        <time>2025-05-03T13:07:28Z</time>
      </trkpt>
      <trkpt lat="24.911094558309337" lon="118.53790442781829">
        <ele>9.80522258207202</ele>
        <time>2025-05-03T13:07:34Z</time>
      </trkpt>
      <trkpt lat="24.911064032424374" lon="118.53800813873039">
        <ele>9.8484310163185</ele>
        <time>2025-05-03T13:07:37Z</time>
      </trkpt>
      <trkpt lat="24.91099231425191" lon="118.53805031563564">
        <ele>9.541192377917469</ele>
        <time>2025-05-03T13:07:40Z</time>
      </trkpt>
      <trkpt lat="24.91087726161858" lon="118.53834412575593">
        <ele>9.900778967887163</ele>
        <time>2025-05-03T13:07:49Z</time>
      </trkpt>
      <trkpt lat="24.91081098526643" lon="118.53840542965096">
        <ele>9.65284341853112</ele>
        <time>2025-05-03T13:07:52Z</time>
      </trkpt>
      <trkpt lat="24.91080241633358" lon="118.53850724392427">
        <ele>9.587470867671072</ele>
        <time>2025-05-03T13:07:55Z</time>
      </trkpt>
      <trkpt lat="24.91083649063192" lon="118.53859269898157">
        <ele>10.556702107191086</ele>
        <time>2025-05-03T13:07:58Z</time>
      </trkpt>
      <trkpt lat="24.91100030906978" lon="118.53867837152177">
        <ele>10.631460602395236</ele>
        <time>2025-05-03T13:08:04Z</time>
      </trkpt>
      <trkpt lat="24.911179653039095" lon="118.53873279719129">
        <ele>9.909473915584385</ele>
        <time>2025-05-03T13:08:10Z</time>
      </trkpt>
      <trkpt lat="24.911183275148957" lon="118.53883267548726">
        <ele>9.590441894717515</ele>
        <time>2025-05-03T13:08:13Z</time>
      </trkpt>
      <trkpt lat="24.911157576058038" lon="118.53892809361676">
        <ele>9.056180020794272</ele>
        <time>2025-05-03T13:08:16Z</time>
      </trkpt>
      <trkpt lat="24.911156548497658" lon="118.53901626969065">
        <ele>8.394482377916574</ele>
        <time>2025-05-03T13:08:19Z</time>
      </trkpt>
      <trkpt lat="24.911060924162577" lon="118.53937451366848">
        <ele>7.5906974617391825</ele>
        <time>2025-05-03T13:08:31Z</time>
      </trkpt>
      <trkpt lat="24.911059251623655" lon="118.53947897320263">
        <ele>7.65534336771816</ele>
        <time>2025-05-03T13:08:34Z</time>
      </trkpt>
      <trkpt lat="24.910957369133655" lon="118.53976675103534">
        <ele>7.776964045129716</ele>
        <time>2025-05-03T13:08:44Z</time>
      </trkpt>
      <trkpt lat="24.910916396234285" lon="118.53986148656934">
        <ele>7.37523153051734</ele>
        <time>2025-05-03T13:08:47Z</time>
      </trkpt>
      <trkpt lat="24.910861973682408" lon="118.54015891576849">
        <ele>7.505699284374714</ele>
        <time>2025-05-03T13:08:56Z</time>
      </trkpt>
      <trkpt lat="24.910836283335552" lon="118.54022449758085">
        <ele>6.938166471198201</ele>
        <time>2025-05-03T13:08:59Z</time>
      </trkpt>
      <trkpt lat="24.910777191178475" lon="118.54051554934594">
        <ele>7.226568757556379</ele>
        <time>2025-05-03T13:09:08Z</time>
      </trkpt>
      <trkpt lat="24.910758923788887" lon="118.54076562938147">
        <ele>6.57813828997314</ele>
        <time>2025-05-03T13:09:17Z</time>
      </trkpt>
      <trkpt lat="24.910676987193902" lon="118.54104438813012">
        <ele>7.350628689862788</ele>
        <time>2025-05-03T13:09:26Z</time>
      </trkpt>
      <trkpt lat="24.91061833867957" lon="118.54112493478553">
        <ele>7.177196079865098</ele>
        <time>2025-05-03T13:09:29Z</time>
      </trkpt>
      <trkpt lat="24.91037553177123" lon="118.54129670213506">
        <ele>7.961348990909755</ele>
        <time>2025-05-03T13:09:38Z</time>
      </trkpt>
      <trkpt lat="24.91016519939019" lon="118.54149474781107">
        <ele>8.224494378082454</ele>
        <time>2025-05-03T13:09:44Z</time>
      </trkpt>
      <trkpt lat="24.910093423030876" lon="118.54160624456823">
        <ele>7.785454805009067</ele>
        <time>2025-05-03T13:09:47Z</time>
      </trkpt>
      <trkpt lat="24.91006727567589" lon="118.54170653555867">
        <ele>7.603898737579584</ele>
        <time>2025-05-03T13:09:50Z</time>
      </trkpt>
      <trkpt lat="24.910110044779337" lon="118.54193962756402">
        <ele>6.98173991497606</ele>
        <time>2025-05-03T13:09:56Z</time>
      </trkpt>
      <trkpt lat="24.91023431666478" lon="118.54215647462435">
        <ele>8.074863662011921</ele>
        <time>2025-05-03T13:10:02Z</time>
      </trkpt>
      <trkpt lat="24.910261545939786" lon="118.54225121144505">
        <ele>8.158890320919454</ele>
        <time>2025-05-03T13:10:05Z</time>
      </trkpt>
      <trkpt lat="24.910240857265805" lon="118.5423199024837">
        <ele>8.250686547718942</ele>
        <time>2025-05-03T13:10:08Z</time>
      </trkpt>
      <trkpt lat="24.910192659450942" lon="118.5424003617692">
        <ele>8.226182642392814</ele>
        <time>2025-05-03T13:10:11Z</time>
      </trkpt>
      <trkpt lat="24.910179928706373" lon="118.54251816020286">
        <ele>8.207027873024344</ele>
        <time>2025-05-03T13:10:14Z</time>
      </trkpt>
      <trkpt lat="24.91022363956806" lon="118.5426515389522">
        <ele>8.180288414470851</ele>
        <time>2025-05-03T13:10:17Z</time>
      </trkpt>
      <trkpt lat="24.910241851719203" lon="118.54276773460882">
        <ele>7.60555443353951</ele>
        <time>2025-05-03T13:10:20Z</time>
      </trkpt>
      <trkpt lat="24.910194125427296" lon="118.54296446201764">
        <ele>7.8040324514731765</ele>
        <time>2025-05-03T13:10:26Z</time>
      </trkpt>
      <trkpt lat="24.910239382181572" lon="118.5431345154129">
        <ele>7.771867865696549</ele>
        <time>2025-05-03T13:10:32Z</time>
      </trkpt>
      <trkpt lat="24.910212251984685" lon="118.54321928565544">
        <ele>7.941773773171008</ele>
        <time>2025-05-03T13:10:35Z</time>
      </trkpt>
      <trkpt lat="24.91021577134643" lon="118.54331130312588">
        <ele>8.007321242243052</ele>
        <time>2025-05-03T13:10:38Z</time>
      </trkpt>
      <trkpt lat="24.910286610570825" lon="118.54334959096374">
        <ele>8.288530317135155</ele>
        <time>2025-05-03T13:10:41Z</time>
      </trkpt>
      <trkpt lat="24.910436491631863" lon="118.54337658780106">
        <ele>8.254194332286716</ele>
        <time>2025-05-03T13:10:47Z</time>
      </trkpt>
      <trkpt lat="24.9107833932205" lon="118.54332942999174">
        <ele>7.918007293716073</ele>
        <time>2025-05-03T13:10:59Z</time>
      </trkpt>
      <trkpt lat="24.911089139070942" lon="118.54330388099635">
        <ele>8.414892381057143</ele>
        <time>2025-05-03T13:11:09Z</time>
      </trkpt>
      <trkpt lat="24.911408102958532" lon="118.54326258587814">
        <ele>8.431217167526484</ele>
        <time>2025-05-03T13:11:21Z</time>
      </trkpt>
      <trkpt lat="24.911691036872938" lon="118.5432089844261">
        <ele>8.780833442695439</ele>
        <time>2025-05-03T13:11:30Z</time>
      </trkpt>
      <trkpt lat="24.91197109126793" lon="118.54315483834839">
        <ele>8.65587217360735</ele>
        <time>2025-05-03T13:11:39Z</time>
      </trkpt>
      <trkpt lat="24.91214756843131" lon="118.54309285493632">
        <ele>7.969697494991124</ele>
        <time>2025-05-03T13:11:45Z</time>
      </trkpt>
      <trkpt lat="24.912410759126914" lon="118.54302019248634">
        <ele>7.914513430558145</ele>
        <time>2025-05-03T13:11:54Z</time>
      </trkpt>
      <trkpt lat="24.912680443696274" lon="118.54294120016087">
        <ele>8.360124355182052</ele>
        <time>2025-05-03T13:12:03Z</time>
      </trkpt>
      <trkpt lat="24.912940710658425" lon="118.54283892181236">
        <ele>8.105600287206471</ele>
        <time>2025-05-03T13:12:12Z</time>
      </trkpt>
      <trkpt lat="24.913210712167743" lon="118.54279304753817">
        <ele>7.651337248273194</ele>
        <time>2025-05-03T13:12:21Z</time>
      </trkpt>
      <trkpt lat="24.913567910512846" lon="118.54272706793301">
        <ele>8.436271847225726</ele>
        <time>2025-05-03T13:12:33Z</time>
      </trkpt>
      <trkpt lat="24.913814867929002" lon="118.54266376565053">
        <ele>8.759001092985272</ele>
        <time>2025-05-03T13:12:42Z</time>
      </trkpt>
      <trkpt lat="24.91390574057532" lon="118.54266541041603">
        <ele>8.692852642387152</ele>
        <time>2025-05-03T13:12:45Z</time>
      </trkpt>
      <trkpt lat="24.91417574267349" lon="118.54257791772164">
        <ele>9.905213086865842</ele>
        <time>2025-05-03T13:12:55Z</time>
      </trkpt>
      <trkpt lat="24.914508344709898" lon="118.54244876488055">
        <ele>10.057098529301584</ele>
        <time>2025-05-03T13:13:07Z</time>
      </trkpt>
      <trkpt lat="24.914678401752866" lon="118.54242703666712">
        <ele>10.00417158473283</ele>
        <time>2025-05-03T13:13:13Z</time>
      </trkpt>
      <trkpt lat="24.91501583899" lon="118.54233241101771">
        <ele>10.769931165501475</ele>
        <time>2025-05-03T13:13:25Z</time>
      </trkpt>
      <trkpt lat="24.915306259957212" lon="118.54222675063282">
        <ele>12.463715523481369</ele>
        <time>2025-05-03T13:13:34Z</time>
      </trkpt>
      <trkpt lat="24.915478397960584" lon="118.5421670862776">
        <ele>12.370027471333742</ele>
        <time>2025-05-03T13:13:40Z</time>
      </trkpt>
      <trkpt lat="24.91574654668865" lon="118.54211852818821">
        <ele>12.682999216020107</ele>
        <time>2025-05-03T13:13:49Z</time>
      </trkpt>
      <trkpt lat="24.91583160273313" lon="118.54208691005361">
        <ele>12.754055949859321</ele>
        <time>2025-05-03T13:13:52Z</time>
      </trkpt>
      <trkpt lat="24.915920268396786" lon="118.5420774969121">
        <ele>12.776453038677573</ele>
        <time>2025-05-03T13:13:55Z</time>
      </trkpt>
      <trkpt lat="24.91598660024531" lon="118.54203046266463">
        <ele>12.219345938414335</ele>
        <time>2025-05-03T13:13:58Z</time>
      </trkpt>
      <trkpt lat="24.916162728671424" lon="118.54197864153022">
        <ele>12.900131202302873</ele>
        <time>2025-05-03T13:14:04Z</time>
      </trkpt>
      <trkpt lat="24.91623864949116" lon="118.54193641584389">
        <ele>12.522920643910766</ele>
        <time>2025-05-03T13:14:07Z</time>
      </trkpt>
      <trkpt lat="24.916301795598304" lon="118.5419951813263">
        <ele>12.980875653214753</ele>
        <time>2025-05-03T13:14:10Z</time>
      </trkpt>
      <trkpt lat="24.91633535521375" lon="118.54209033720468">
        <ele>12.624746929854155</ele>
        <time>2025-05-03T13:14:13Z</time>
      </trkpt>
      <trkpt lat="24.91650326332183" lon="118.54235518543575">
        <ele>12.715403226204216</ele>
        <time>2025-05-03T13:14:22Z</time>
      </trkpt>
      <trkpt lat="24.91659271500196" lon="118.54252406664861">
        <ele>12.54363853763789</ele>
        <time>2025-05-03T13:14:28Z</time>
      </trkpt>
      <trkpt lat="24.916678192543937" lon="118.54289185807637">
        <ele>12.36816054675728</ele>
        <time>2025-05-03T13:14:40Z</time>
      </trkpt>
      <trkpt lat="24.916698662373296" lon="118.54298942616296">
        <ele>12.145649769343436</ele>
        <time>2025-05-03T13:14:43Z</time>
      </trkpt>
      <trkpt lat="24.91683822186864" lon="118.54327185609657">
        <ele>12.359557135030627</ele>
        <time>2025-05-03T13:14:52Z</time>
      </trkpt>
      <trkpt lat="24.916909761645567" lon="118.5433649554346">
        <ele>12.655289796181023</ele>
        <time>2025-05-03T13:14:55Z</time>
      </trkpt>
      <trkpt lat="24.91702308230448" lon="118.54356771750133">
        <ele>12.302503885701299</ele>
        <time>2025-05-03T13:15:02Z</time>
      </trkpt>
      <trkpt lat="24.91729707316434" lon="118.54388040127239">
        <ele>12.331793018616736</ele>
        <time>2025-05-03T13:15:14Z</time>
      </trkpt>
      <trkpt lat="24.917387790812185" lon="118.54397702255226">
        <ele>12.101913569495082</ele>
        <time>2025-05-03T13:15:18Z</time>
      </trkpt>
      <trkpt lat="24.917449437498586" lon="118.54408053693628">
        <ele>12.642678396776319</ele>
        <time>2025-05-03T13:15:22Z</time>
      </trkpt>
      <trkpt lat="24.917541105830296" lon="118.54415453307644">
        <ele>12.712288581766188</ele>
        <time>2025-05-03T13:15:26Z</time>
      </trkpt>
      <trkpt lat="24.917620846550676" lon="118.54432707897857">
        <ele>12.235988872125745</ele>
        <time>2025-05-03T13:15:32Z</time>
      </trkpt>
      <trkpt lat="24.91766915040401" lon="118.54464729930129">
        <ele>12.636654811911285</ele>
        <time>2025-05-03T13:15:41Z</time>
      </trkpt>
      <trkpt lat="24.917700968627265" lon="118.5447471949893">
        <ele>12.308253269642591</ele>
        <time>2025-05-03T13:15:44Z</time>
      </trkpt>
      <trkpt lat="24.917712312622488" lon="118.54485001509153">
        <ele>11.947945073246956</ele>
        <time>2025-05-03T13:15:47Z</time>
      </trkpt>
      <trkpt lat="24.917588813901638" lon="118.54506950529075">
        <ele>11.77521841507405</ele>
        <time>2025-05-03T13:15:53Z</time>
      </trkpt>
      <trkpt lat="24.917580385200345" lon="118.54514399298178">
        <ele>11.713724638335407</ele>
        <time>2025-05-03T13:15:56Z</time>
      </trkpt>
      <trkpt lat="24.91770939808319" lon="118.54541439126538">
        <ele>11.095799652859569</ele>
        <time>2025-05-03T13:16:05Z</time>
      </trkpt>
      <trkpt lat="24.91790726330209" lon="118.54573019551">
        <ele>10.434430628083646</ele>
        <time>2025-05-03T13:16:14Z</time>
      </trkpt>
      <trkpt lat="24.91796518257656" lon="118.54583553333762">
        <ele>9.89488129876554</ele>
        <time>2025-05-03T13:16:17Z</time>
      </trkpt>
      <trkpt lat="24.917996425879732" lon="118.54593589271381">
        <ele>9.750929780304432</ele>
        <time>2025-05-03T13:16:20Z</time>
      </trkpt>
      <trkpt lat="24.91795186224449" lon="118.54605171172255">
        <ele>10.099095340818167</ele>
        <time>2025-05-03T13:16:23Z</time>
      </trkpt>
      <trkpt lat="24.918123280653788" lon="118.54637278298412">
        <ele>10.43068301398307</ele>
        <time>2025-05-03T13:16:35Z</time>
      </trkpt>
      <trkpt lat="24.91821292537552" lon="118.54653403173671">
        <ele>10.491560840047896</ele>
        <time>2025-05-03T13:16:41Z</time>
      </trkpt>
      <trkpt lat="24.918272483620978" lon="118.54672794071821">
        <ele>10.836140660569072</ele>
        <time>2025-05-03T13:16:47Z</time>
      </trkpt>
      <trkpt lat="24.918367801894895" lon="118.546898104991">
        <ele>11.365745168179274</ele>
        <time>2025-05-03T13:16:53Z</time>
      </trkpt>
      <trkpt lat="24.91850872616209" lon="118.54720741615922">
        <ele>12.01378274243325</ele>
        <time>2025-05-03T13:17:02Z</time>
      </trkpt>
      <trkpt lat="24.918541659332135" lon="118.54731085279386">
        <ele>12.456489181146026</ele>
        <time>2025-05-03T13:17:05Z</time>
      </trkpt>
      <trkpt lat="24.918541304626128" lon="118.54742529286882">
        <ele>12.277206608094275</ele>
        <time>2025-05-03T13:17:09Z</time>
      </trkpt>
      <trkpt lat="24.91848591756037" lon="118.54755583164331">
        <ele>12.599813170731068</ele>
        <time>2025-05-03T13:17:13Z</time>
      </trkpt>
      <trkpt lat="24.91850125877028" lon="118.54768548306517">
        <ele>12.129245745949447</ele>
        <time>2025-05-03T13:17:17Z</time>
      </trkpt>
      <trkpt lat="24.918540232644407" lon="118.54781626314872">
        <ele>12.264510821551085</ele>
        <time>2025-05-03T13:17:21Z</time>
      </trkpt>
      <trkpt lat="24.91855186656733" lon="118.5479338429446">
        <ele>12.310658698901534</ele>
        <time>2025-05-03T13:17:25Z</time>
      </trkpt>
      <trkpt lat="24.918542393846458" lon="118.5481376693982">
        <ele>12.070433740504086</ele>
        <time>2025-05-03T13:17:31Z</time>
      </trkpt>
      <trkpt lat="24.9185845821925" lon="118.54835201094582">
        <ele>12.355682938359678</ele>
        <time>2025-05-03T13:17:37Z</time>
      </trkpt>
      <trkpt lat="24.91853346035332" lon="118.54844606195583">
        <ele>12.049423134885728</ele>
        <time>2025-05-03T13:17:40Z</time>
      </trkpt>
      <trkpt lat="24.918563312149672" lon="118.548552947465">
        <ele>12.312992200255394</ele>
        <time>2025-05-03T13:17:43Z</time>
      </trkpt>
      <trkpt lat="24.918631181849957" lon="118.54863281402348">
        <ele>12.49801750201732</ele>
        <time>2025-05-03T13:17:49Z</time>
      </trkpt>
      <trkpt lat="24.91863536419634" lon="118.54874104403741">
        <ele>12.403211824595928</ele>
        <time>2025-05-03T13:17:52Z</time>
      </trkpt>
      <trkpt lat="24.91872283900693" lon="118.54901454401232">
        <ele>11.087918139994144</ele>
        <time>2025-05-03T13:18:01Z</time>
      </trkpt>
      <trkpt lat="24.9187730906534" lon="118.54909736047318">
        <ele>11.41452779341489</ele>
        <time>2025-05-03T13:18:04Z</time>
      </trkpt>
      <trkpt lat="24.918921510188017" lon="118.54925862437639">
        <ele>10.306779691949487</ele>
        <time>2025-05-03T13:18:10Z</time>
      </trkpt>
      <trkpt lat="24.918983631715335" lon="118.54935074104242">
        <ele>10.402363588102162</ele>
        <time>2025-05-03T13:18:13Z</time>
      </trkpt>
      <trkpt lat="24.919053842956753" lon="118.54939846902684">
        <ele>9.876152110286057</ele>
        <time>2025-05-03T13:18:16Z</time>
      </trkpt>
      <trkpt lat="24.91914138120073" lon="118.54959014861345">
        <ele>10.080591048114002</ele>
        <time>2025-05-03T13:18:22Z</time>
      </trkpt>
      <trkpt lat="24.91893170686464" lon="118.54982287032345">
        <ele>10.053413595072925</ele>
        <time>2025-05-03T13:18:28Z</time>
      </trkpt>
      <trkpt lat="24.918909380437974" lon="118.54993017719217">
        <ele>10.491126062348485</ele>
        <time>2025-05-03T13:18:31Z</time>
      </trkpt>
      <trkpt lat="24.918931783684034" lon="118.55017706018639">
        <ele>10.336862524040043</ele>
        <time>2025-05-03T13:18:37Z</time>
      </trkpt>
      <trkpt lat="24.91895528992326" lon="118.55028473073124">
        <ele>11.354787510819733</ele>
        <time>2025-05-03T13:18:40Z</time>
      </trkpt>
      <trkpt lat="24.919015189654285" lon="118.55036494056529">
        <ele>12.216474767774343</ele>
        <time>2025-05-03T13:18:43Z</time>
      </trkpt>
      <trkpt lat="24.919090825656347" lon="118.55070406606139">
        <ele>11.499594165943563</ele>
        <time>2025-05-03T13:18:52Z</time>
      </trkpt>
      <trkpt lat="24.919143959249077" lon="118.55101871645142">
        <ele>10.396159905008972</ele>
        <time>2025-05-03T13:19:01Z</time>
      </trkpt>
      <trkpt lat="24.919161172398564" lon="118.55112602974583">
        <ele>10.69055584538728</ele>
        <time>2025-05-03T13:19:04Z</time>
      </trkpt>
      <trkpt lat="24.919157645183805" lon="118.5512163460847">
        <ele>10.381334062665701</ele>
        <time>2025-05-03T13:19:07Z</time>
      </trkpt>
      <trkpt lat="24.919184929738833" lon="118.55130545079726">
        <ele>10.814183907583356</ele>
        <time>2025-05-03T13:19:10Z</time>
      </trkpt>
      <trkpt lat="24.91919963878503" lon="118.5514364767507">
        <ele>11.715630053542554</ele>
        <time>2025-05-03T13:19:14Z</time>
      </trkpt>
      <trkpt lat="24.919276115848803" lon="118.55155415532228">
        <ele>11.229348829947412</ele>
        <time>2025-05-03T13:19:18Z</time>
      </trkpt>
      <trkpt lat="24.919281991857865" lon="118.55169540865477">
        <ele>11.26796170603484</ele>
        <time>2025-05-03T13:19:22Z</time>
      </trkpt>
      <trkpt lat="24.919311449540853" lon="118.5518356554434">
        <ele>11.967139731161296</ele>
        <time>2025-05-03T13:19:26Z</time>
      </trkpt>
      <trkpt lat="24.91931385454122" lon="118.55203840386758">
        <ele>11.802338199689984</ele>
        <time>2025-05-03T13:19:32Z</time>
      </trkpt>
      <trkpt lat="24.91928929184466" lon="118.55211722579006">
        <ele>12.042725316248834</ele>
        <time>2025-05-03T13:19:35Z</time>
      </trkpt>
      <trkpt lat="24.91934571660415" lon="118.55229804550585">
        <ele>12.29800512176007</ele>
        <time>2025-05-03T13:19:41Z</time>
      </trkpt>
      <trkpt lat="24.919374484501486" lon="118.55256885587669">
        <ele>13.190827632322907</ele>
        <time>2025-05-03T13:19:50Z</time>
      </trkpt>
      <trkpt lat="24.919309143899866" lon="118.55281405501998">
        <ele>10.697829270735383</ele>
        <time>2025-05-03T13:19:59Z</time>
      </trkpt>
      <trkpt lat="24.919208402624538" lon="118.55299720003562">
        <ele>9.691447596997023</ele>
        <time>2025-05-03T13:20:05Z</time>
      </trkpt>
      <trkpt lat="24.919178998346002" lon="118.55309975857031">
        <ele>10.122500544413924</ele>
        <time>2025-05-03T13:20:08Z</time>
      </trkpt>
      <trkpt lat="24.919086784182134" lon="118.5532664288701">
        <ele>9.190168729051948</ele>
        <time>2025-05-03T13:20:14Z</time>
      </trkpt>
      <trkpt lat="24.91905705158694" lon="118.55338074728257">
        <ele>10.114417218603194</ele>
        <time>2025-05-03T13:20:17Z</time>
      </trkpt>
      <trkpt lat="24.918975176888566" lon="118.55335631395674">
        <ele>10.252438672818244</ele>
        <time>2025-05-03T13:20:20Z</time>
      </trkpt>
      <trkpt lat="24.91885392532965" lon="118.55363976614304">
        <ele>11.769789215177298</ele>
        <time>2025-05-03T13:20:29Z</time>
      </trkpt>
      <trkpt lat="24.91882017329596" lon="118.55373094607387">
        <ele>11.267915996722877</ele>
        <time>2025-05-03T13:20:32Z</time>
      </trkpt>
      <trkpt lat="24.918765513730964" lon="118.55381656397604">
        <ele>11.685128669254482</ele>
        <time>2025-05-03T13:20:35Z</time>
      </trkpt>
      <trkpt lat="24.91873755732764" lon="118.55389292047548">
        <ele>11.726839232258499</ele>
        <time>2025-05-03T13:20:38Z</time>
      </trkpt>
      <trkpt lat="24.918682883005268" lon="118.55395747152312">
        <ele>11.780172889120877</ele>
        <time>2025-05-03T13:20:41Z</time>
      </trkpt>
      <trkpt lat="24.918577420684397" lon="118.55422375051239">
        <ele>11.768119752407074</ele>
        <time>2025-05-03T13:20:50Z</time>
      </trkpt>
      <trkpt lat="24.91851790187249" lon="118.55430001617667">
        <ele>12.166409782133996</ele>
        <time>2025-05-03T13:20:53Z</time>
      </trkpt>
      <trkpt lat="24.918317366236366" lon="118.55463919934078">
        <ele>11.479138125665486</ele>
        <time>2025-05-03T13:21:05Z</time>
      </trkpt>
      <trkpt lat="24.918157061446763" lon="118.55488640558919">
        <ele>11.893119128420949</ele>
        <time>2025-05-03T13:21:14Z</time>
      </trkpt>
      <trkpt lat="24.917968636569242" lon="118.55517569917326">
        <ele>12.554209624417126</ele>
        <time>2025-05-03T13:21:25Z</time>
      </trkpt>
      <trkpt lat="24.91775804988705" lon="118.55542864219994">
        <ele>12.376675196923316</ele>
        <time>2025-05-03T13:21:36Z</time>
      </trkpt>
      <trkpt lat="24.91765824882761" lon="118.55556456708238">
        <ele>12.23865971993655</ele>
        <time>2025-05-03T13:21:42Z</time>
      </trkpt>
      <trkpt lat="24.91755516423248" lon="118.55563456413293">
        <ele>12.280273227021098</ele>
        <time>2025-05-03T13:21:45Z</time>
      </trkpt>
      <trkpt lat="24.917346447696602" lon="118.55590725827682">
        <ele>12.143785264343023</ele>
        <time>2025-05-03T13:21:54Z</time>
      </trkpt>
      <trkpt lat="24.917219139879215" lon="118.55600675106537">
        <ele>12.09479614533484</ele>
        <time>2025-05-03T13:22:00Z</time>
      </trkpt>
      <trkpt lat="24.917158822901037" lon="118.55608075217592">
        <ele>12.480626040138304</ele>
        <time>2025-05-03T13:22:03Z</time>
      </trkpt>
      <trkpt lat="24.916926785985986" lon="118.55623897956093">
        <ele>12.016277112066746</ele>
        <time>2025-05-03T13:22:12Z</time>
      </trkpt>
      <trkpt lat="24.91668439266495" lon="118.55641670597271">
        <ele>11.583832141943276</ele>
        <time>2025-05-03T13:22:21Z</time>
      </trkpt>
      <trkpt lat="24.91651920004344" lon="118.55652878996985">
        <ele>11.425531334243715</ele>
        <time>2025-05-03T13:22:27Z</time>
      </trkpt>
      <trkpt lat="24.916450017696604" lon="118.55660561474521">
        <ele>12.18065457418561</ele>
        <time>2025-05-03T13:22:30Z</time>
      </trkpt>
      <trkpt lat="24.916360630883695" lon="118.55663307772953">
        <ele>12.142011352814734</ele>
        <time>2025-05-03T13:22:33Z</time>
      </trkpt>
      <trkpt lat="24.916137731476763" lon="118.55677740232643">
        <ele>12.223798297345638</ele>
        <time>2025-05-03T13:22:42Z</time>
      </trkpt>
      <trkpt lat="24.915838870651736" lon="118.55685620148374">
        <ele>11.941055283881724</ele>
        <time>2025-05-03T13:22:54Z</time>
      </trkpt>
      <trkpt lat="24.91576442871214" lon="118.55685494822995">
        <ele>11.297229338437319</ele>
        <time>2025-05-03T13:22:57Z</time>
      </trkpt>
      <trkpt lat="24.915405321741694" lon="118.5569120824804">
        <ele>11.427820825017989</ele>
        <time>2025-05-03T13:23:09Z</time>
      </trkpt>
      <trkpt lat="24.915197422534494" lon="118.55694674833957">
        <ele>11.554967531003058</ele>
        <time>2025-05-03T13:23:15Z</time>
      </trkpt>
      <trkpt lat="24.914844467323004" lon="118.5569789053887">
        <ele>12.316256375983357</ele>
        <time>2025-05-03T13:23:25Z</time>
      </trkpt>
      <trkpt lat="24.91471099753504" lon="118.55697255694369">
        <ele>11.532329553738236</ele>
        <time>2025-05-03T13:23:29Z</time>
      </trkpt>
      <trkpt lat="24.91456885451167" lon="118.55700213927824">
        <ele>11.86535647790879</ele>
        <time>2025-05-03T13:23:33Z</time>
      </trkpt>
      <trkpt lat="24.914454481660176" lon="118.55699851368765">
        <ele>12.475390582345426</ele>
        <time>2025-05-03T13:23:37Z</time>
      </trkpt>
      <trkpt lat="24.91429074216836" lon="118.5570505140097">
        <ele>12.834084539674222</ele>
        <time>2025-05-03T13:23:43Z</time>
      </trkpt>
      <trkpt lat="24.914204547437475" lon="118.5570501537092">
        <ele>12.1140595972538</ele>
        <time>2025-05-03T13:23:46Z</time>
      </trkpt>
      <trkpt lat="24.91400771054451" lon="118.55712156895048">
        <ele>12.095939711667597</ele>
        <time>2025-05-03T13:23:52Z</time>
      </trkpt>
      <trkpt lat="24.91376176876884" lon="118.55728309588457">
        <ele>12.107486746273935</ele>
        <time>2025-05-03T13:24:01Z</time>
      </trkpt>
      <trkpt lat="24.913689861511067" lon="118.55730864480158">
        <ele>11.936963020823896</ele>
        <time>2025-05-03T13:24:04Z</time>
      </trkpt>
      <trkpt lat="24.913658073754632" lon="118.55734592967818">
        <ele>11.985395309515297</ele>
        <time>2025-05-03T13:24:07Z</time>
      </trkpt>
      <trkpt lat="24.91356851106463" lon="118.55736968368136">
        <ele>12.018654045648873</ele>
        <time>2025-05-03T13:24:10Z</time>
      </trkpt>
      <trkpt lat="24.91330871216038" lon="118.5576011015833">
        <ele>10.86214242503047</ele>
        <time>2025-05-03T13:24:22Z</time>
      </trkpt>
      <trkpt lat="24.913161767560155" lon="118.55773292545776">
        <ele>10.290365040302277</ele>
        <time>2025-05-03T13:24:28Z</time>
      </trkpt>
      <trkpt lat="24.913072630625923" lon="118.55777195611232">
        <ele>9.974173555150628</ele>
        <time>2025-05-03T13:24:31Z</time>
      </trkpt>
      <trkpt lat="24.91298617982465" lon="118.55775525287892">
        <ele>9.505126419477165</ele>
        <time>2025-05-03T13:24:34Z</time>
      </trkpt>
      <trkpt lat="24.912931291456825" lon="118.55770867884131">
        <ele>10.272967547178268</ele>
        <time>2025-05-03T13:24:37Z</time>
      </trkpt>
      <trkpt lat="24.912775961477227" lon="118.55735304510922">
        <ele>8.602825074456632</ele>
        <time>2025-05-03T13:24:49Z</time>
      </trkpt>
      <trkpt lat="24.91265227619096" lon="118.55708186135836">
        <ele>8.202209712006152</ele>
        <time>2025-05-03T13:24:58Z</time>
      </trkpt>
      <trkpt lat="24.912540413284244" lon="118.55679595311824">
        <ele>8.002848056145012</ele>
        <time>2025-05-03T13:25:07Z</time>
      </trkpt>
      <trkpt lat="24.912498370628324" lon="118.55670725610456">
        <ele>8.293762212619185</ele>
        <time>2025-05-03T13:25:10Z</time>
      </trkpt>
      <trkpt lat="24.912475267690372" lon="118.55660371055495">
        <ele>7.44871286675334</ele>
        <time>2025-05-03T13:25:13Z</time>
      </trkpt>
      <trkpt lat="24.912435093955338" lon="118.55651899547492">
        <ele>7.029242230579257</ele>
        <time>2025-05-03T13:25:16Z</time>
      </trkpt>
      <trkpt lat="24.912414994199818" lon="118.5564182356225">
        <ele>6.790232079103589</ele>
        <time>2025-05-03T13:25:19Z</time>
      </trkpt>
      <trkpt lat="24.9123095759309" lon="118.5561417132479">
        <ele>6.704447647556663</ele>
        <time>2025-05-03T13:25:28Z</time>
      </trkpt>
      <trkpt lat="24.912176740429416" lon="118.55583520137814">
        <ele>6.77190778683871</ele>
        <time>2025-05-03T13:25:38Z</time>
      </trkpt>
      <trkpt lat="24.912055635565018" lon="118.5555340860716">
        <ele>7.102555022574961</ele>
        <time>2025-05-03T13:25:48Z</time>
      </trkpt>
      <trkpt lat="24.911981116670383" lon="118.55532812029422">
        <ele>7.525769118219614</ele>
        <time>2025-05-03T13:25:54Z</time>
      </trkpt>
      <trkpt lat="24.911877172841397" lon="118.55516457711202">
        <ele>7.758439044468105</ele>
        <time>2025-05-03T13:26:00Z</time>
      </trkpt>
      <trkpt lat="24.911767801446356" lon="118.55488047838294">
        <ele>7.5400794092565775</ele>
        <time>2025-05-03T13:26:09Z</time>
      </trkpt>
      <trkpt lat="24.91170446447325" lon="118.55458580819432">
        <ele>7.296937552280724</ele>
        <time>2025-05-03T13:26:18Z</time>
      </trkpt>
      <trkpt lat="24.911680727659906" lon="118.55449097956615">
        <ele>7.370797933079302</ele>
        <time>2025-05-03T13:26:21Z</time>
      </trkpt>
      <trkpt lat="24.91160409297169" lon="118.55446142737664">
        <ele>7.4180038794875145</ele>
        <time>2025-05-03T13:26:24Z</time>
      </trkpt>
      <trkpt lat="24.911549906607398" lon="118.55439076519967">
        <ele>7.714549513533711</ele>
        <time>2025-05-03T13:26:27Z</time>
      </trkpt>
      <trkpt lat="24.911507313484716" lon="118.55420750923108">
        <ele>7.295066281221807</ele>
        <time>2025-05-03T13:26:33Z</time>
      </trkpt>
      <trkpt lat="24.911357110174446" lon="118.55385817559615">
        <ele>7.823421090841293</ele>
        <time>2025-05-03T13:26:45Z</time>
      </trkpt>
      <trkpt lat="24.911224092176735" lon="118.55349491602095">
        <ele>7.928130649030209</ele>
        <time>2025-05-03T13:26:57Z</time>
      </trkpt>
      <trkpt lat="24.911112264336325" lon="118.55318146186612">
        <ele>8.550163635984063</ele>
        <time>2025-05-03T13:27:06Z</time>
      </trkpt>
      <trkpt lat="24.911089107176842" lon="118.55307738830959">
        <ele>7.7644438818097115</ele>
        <time>2025-05-03T13:27:09Z</time>
      </trkpt>
      <trkpt lat="24.911120478298322" lon="118.55300037175114">
        <ele>6.757172090001404</ele>
        <time>2025-05-03T13:27:12Z</time>
      </trkpt>
      <trkpt lat="24.91138524253848" lon="118.55292285483031">
        <ele>7.712720096111298</ele>
        <time>2025-05-03T13:27:21Z</time>
      </trkpt>
      <trkpt lat="24.911651478712216" lon="118.55285755598567">
        <ele>7.190562451258302</ele>
        <time>2025-05-03T13:27:30Z</time>
      </trkpt>
      <trkpt lat="24.911931402689067" lon="118.55277019635419">
        <ele>7.955192093737423</ele>
        <time>2025-05-03T13:27:40Z</time>
      </trkpt>
      <trkpt lat="24.912099061444614" lon="118.55268590433701">
        <ele>7.538457229733467</ele>
        <time>2025-05-03T13:27:46Z</time>
      </trkpt>
      <trkpt lat="24.912400680846712" lon="118.5525783274995">
        <ele>8.599785780534148</ele>
        <time>2025-05-03T13:27:56Z</time>
      </trkpt>
      <trkpt lat="24.912668145845736" lon="118.55249832086562">
        <ele>8.627891269512475</ele>
        <time>2025-05-03T13:28:05Z</time>
      </trkpt>
      <trkpt lat="24.91276502861858" lon="118.55247980373379">
        <ele>8.47868272382766</ele>
        <time>2025-05-03T13:28:08Z</time>
      </trkpt>
      <trkpt lat="24.912996987205418" lon="118.55236175380196">
        <ele>9.488391544669867</ele>
        <time>2025-05-03T13:28:17Z</time>
      </trkpt>
      <trkpt lat="24.913086911680338" lon="118.55233601973974">
        <ele>9.933384619653225</ele>
        <time>2025-05-03T13:28:20Z</time>
      </trkpt>
      <trkpt lat="24.91327981605014" lon="118.55233429554056">
        <ele>9.775798996910453</ele>
        <time>2025-05-03T13:28:26Z</time>
      </trkpt>
      <trkpt lat="24.913352715591703" lon="118.55231559572854">
        <ele>9.846103811636567</ele>
        <time>2025-05-03T13:28:29Z</time>
      </trkpt>
      <trkpt lat="24.9134773850501" lon="118.55221280642643">
        <ele>9.380072481930256</ele>
        <time>2025-05-03T13:28:35Z</time>
      </trkpt>
      <trkpt lat="24.91347835074359" lon="118.55209801536871">
        <ele>9.463055087253451</ele>
        <time>2025-05-03T13:28:44Z</time>
      </trkpt>
      <trkpt lat="24.9133556219943" lon="118.55179901970095">
        <ele>9.613477626815438</ele>
        <time>2025-05-03T13:28:53Z</time>
      </trkpt>
      <trkpt lat="24.913384763119627" lon="118.55173852235005">
        <ele>9.829462731257081</ele>
        <time>2025-05-03T13:28:56Z</time>
      </trkpt>
      <trkpt lat="24.91358519220944" lon="118.55168973094476">
        <ele>9.915446714498103</ele>
        <time>2025-05-03T13:29:02Z</time>
      </trkpt>
      <trkpt lat="24.913656003844203" lon="118.55163006802077">
        <ele>9.7591686937958</ele>
        <time>2025-05-03T13:29:05Z</time>
      </trkpt>
      <trkpt lat="24.91375956207304" lon="118.5514429713353">
        <ele>9.228383817709982</ele>
        <time>2025-05-03T13:29:11Z</time>
      </trkpt>
      <trkpt lat="24.91382491670632" lon="118.5511312511151">
        <ele>8.953892884775996</ele>
        <time>2025-05-03T13:29:20Z</time>
      </trkpt>
      <trkpt lat="24.913886408445276" lon="118.55081660195057">
        <ele>8.648738632909954</ele>
        <time>2025-05-03T13:29:29Z</time>
      </trkpt>
      <trkpt lat="24.913927150249663" lon="118.55060195391988">
        <ele>9.353509268723428</ele>
        <time>2025-05-03T13:29:35Z</time>
      </trkpt>
      <trkpt lat="24.91391685607602" lon="118.5502545269425">
        <ele>10.759695902466774</ele>
        <time>2025-05-03T13:29:45Z</time>
      </trkpt>
      <trkpt lat="24.913909734217928" lon="118.54995721647276">
        <ele>11.221934769302607</ele>
        <time>2025-05-03T13:29:54Z</time>
      </trkpt>
      <trkpt lat="24.913987409288943" lon="118.54978621696489">
        <ele>11.615503557026386</ele>
        <time>2025-05-03T13:30:00Z</time>
      </trkpt>
      <trkpt lat="24.913994957925592" lon="118.54959887360414">
        <ele>10.422793409787118</ele>
        <time>2025-05-03T13:30:06Z</time>
      </trkpt>
      <trkpt lat="24.91404481374234" lon="118.5493031316578">
        <ele>9.835702686570585</ele>
        <time>2025-05-03T13:30:15Z</time>
      </trkpt>
      <trkpt lat="24.91409649883322" lon="118.54891513764636">
        <ele>9.31963349878788</ele>
        <time>2025-05-03T13:30:27Z</time>
      </trkpt>
      <trkpt lat="24.914106573014454" lon="118.54882321656433">
        <ele>9.18975809123367</ele>
        <time>2025-05-03T13:30:30Z</time>
      </trkpt>
      <trkpt lat="24.91418960823046" lon="118.54863335346099">
        <ele>9.736222522333264</ele>
        <time>2025-05-03T13:30:36Z</time>
      </trkpt>
      <trkpt lat="24.91424728509241" lon="118.54834917716106">
        <ele>8.804616139270365</ele>
        <time>2025-05-03T13:30:45Z</time>
      </trkpt>
      <trkpt lat="24.91425036752467" lon="118.54825037044439">
        <ele>8.559569852426648</ele>
        <time>2025-05-03T13:30:48Z</time>
      </trkpt>
      <trkpt lat="24.9144005427825" lon="118.54788450360869">
        <ele>7.427423691377044</ele>
        <time>2025-05-03T13:31:00Z</time>
      </trkpt>
      <trkpt lat="24.914547852771438" lon="118.54758451951267">
        <ele>6.47121911123395</ele>
        <time>2025-05-03T13:31:09Z</time>
      </trkpt>
      <trkpt lat="24.91457779352427" lon="118.54747897299426">
        <ele>5.89073896035552</ele>
        <time>2025-05-03T13:31:12Z</time>
      </trkpt>
      <trkpt lat="24.914738545275917" lon="118.5471573871075">
        <ele>6.777991724200547</ele>
        <time>2025-05-03T13:31:21Z</time>
      </trkpt>
      <trkpt lat="24.914944353681395" lon="118.54693950249319">
        <ele>7.5389143861830235</ele>
        <time>2025-05-03T13:31:30Z</time>
      </trkpt>
      <trkpt lat="24.915138934895197" lon="118.54665165994693">
        <ele>6.946691452525556</ele>
        <time>2025-05-03T13:31:39Z</time>
      </trkpt>
      <trkpt lat="24.91521729694947" lon="118.54655101351234">
        <ele>7.30415222235024</ele>
        <time>2025-05-03T13:31:42Z</time>
      </trkpt>
      <trkpt lat="24.91524296239366" lon="118.54644138984571">
        <ele>7.46616792678833</ele>
        <time>2025-05-03T13:31:45Z</time>
      </trkpt>
      <trkpt lat="24.91525735655442" lon="118.54627739629642">
        <ele>7.585706683807075</ele>
        <time>2025-05-03T13:31:49Z</time>
      </trkpt>
      <trkpt lat="24.915200928467907" lon="118.54606080631179">
        <ele>8.132402415387332</ele>
        <time>2025-05-03T13:31:55Z</time>
      </trkpt>
    </trkseg>
  </trk>
</gpx>