<?xml version="1.0" encoding="UTF-8"?>
<gpx xmlns="http://www.topografix.com/GPX/1/1" xmlns:gpxtpx="http://www.garmin.com/xmlschemas/TrackPointExtension/v1" xmlns:xsi="http://www.w3.org/2001/XMLSchema-instance" xsi:schemaLocation="http://www.topografix.com/GPX/1/1 http://www.topografix.com/GPX/1/1/gpx.xsd" version="1.1" creator="gpx.py -- https://github.com/tkrajina/gpxpy">
  <trk>
    <name>gpx from keep</name>
    <type>Run</type>
    <trkseg>
      <trkpt lat="24.911317753540764" lon="118.53739668528969">
        <ele>19.35284423828125</ele>
        <time>2026-01-03T12:05:07Z</time>
      </trkpt>
      <trkpt lat="24.911164441122395" lon="118.53768546893268">
        <ele>24.294189453125</ele>
        <time>2026-01-03T12:05:16Z</time>
      </trkpt>
      <trkpt lat="24.91103814070003" lon="118.53798226906179">
        <ele>22.7010498046875</ele>
        <time>2026-01-03T12:05:25Z</time>
      </trkpt>
      <trkpt lat="24.910885912050947" lon="118.53831015019689">
        <ele>19.32513427734375</ele>
        <time>2026-01-03T12:05:37Z</time>
      </trkpt>
      <trkpt lat="24.91082832696739" lon="118.53848862644507">
        <ele>19.58477783203125</ele>
        <time>2026-01-03T12:05:43Z</time>
      </trkpt>
      <trkpt lat="24.91084058076895" lon="118.5386009221379">
        <ele>19.0860595703125</ele>
        <time>2026-01-03T12:05:46Z</time>
      </trkpt>
      <trkpt lat="24.91092567603058" lon="118.53864804051703">
        <ele>18.4588623046875</ele>
        <time>2026-01-03T12:05:49Z</time>
      </trkpt>
      <trkpt lat="24.91118178611647" lon="118.53871219181512">
        <ele>18.67071533203125</ele>
        <time>2026-01-03T12:05:58Z</time>
      </trkpt>
      <trkpt lat="24.91123092032191" lon="118.53877435210437">
        <ele>19.7391357421875</ele>
        <time>2026-01-03T12:06:01Z</time>
      </trkpt>
      <trkpt lat="24.91117079946721" lon="118.53915936711434">
        <ele>21.0003662109375</ele>
        <time>2026-01-03T12:06:13Z</time>
      </trkpt>
      <trkpt lat="24.9110676797798" lon="118.53954437968939">
        <ele>17.84686279296875</ele>
        <time>2026-01-03T12:06:25Z</time>
      </trkpt>
      <trkpt lat="24.910958500171724" lon="118.53990432228802">
        <ele>18.06121826171875</ele>
        <time>2026-01-03T12:06:37Z</time>
      </trkpt>
      <trkpt lat="24.910912314208762" lon="118.54026726344642">
        <ele>22.42828369140625</ele>
        <time>2026-01-03T12:06:49Z</time>
      </trkpt>
      <trkpt lat="24.91079712684377" lon="118.54062719678149">
        <ele>23.9095458984375</ele>
        <time>2026-01-03T12:07:01Z</time>
      </trkpt>
      <trkpt lat="24.910763613136368" lon="118.54084575863365">
        <ele>18.62841796875</ele>
        <time>2026-01-03T12:07:10Z</time>
      </trkpt>
      <trkpt lat="24.91068142300282" lon="118.5412096920354">
        <ele>19.46966552734375</ele>
        <time>2026-01-03T12:07:22Z</time>
      </trkpt>
      <trkpt lat="24.910616016535382" lon="118.54147737572977">
        <ele>18.24285888671875</ele>
        <time>2026-01-03T12:07:31Z</time>
      </trkpt>
      <trkpt lat="24.910560342834096" lon="118.54162374981833">
        <ele>16.13861083984375</ele>
        <time>2026-01-03T12:07:37Z</time>
      </trkpt>
      <trkpt lat="24.91052286577885" lon="118.54186235417247">
        <ele>11.810760498046875</ele>
        <time>2026-01-03T12:07:46Z</time>
      </trkpt>
      <trkpt lat="24.910444535161293" lon="118.5421671250693">
        <ele>11.780364990234375</ele>
        <time>2026-01-03T12:07:55Z</time>
      </trkpt>
      <trkpt lat="24.910380227371874" lon="118.54248492391713">
        <ele>15.20770263671875</ele>
        <time>2026-01-03T12:08:04Z</time>
      </trkpt>
      <trkpt lat="24.910280850384368" lon="118.54276963919516">
        <ele>15.98626708984375</ele>
        <time>2026-01-03T12:08:13Z</time>
      </trkpt>
      <trkpt lat="24.910245073472133" lon="118.5428718953292">
        <ele>17.03240966796875</ele>
        <time>2026-01-03T12:08:16Z</time>
      </trkpt>
      <trkpt lat="24.910228304220748" lon="118.54297916213723">
        <ele>18.4244384765625</ele>
        <time>2026-01-03T12:08:19Z</time>
      </trkpt>
      <trkpt lat="24.910267677847862" lon="118.54315760031257">
        <ele>18.020751953125</ele>
        <time>2026-01-03T12:08:25Z</time>
      </trkpt>
      <trkpt lat="24.910251847947812" lon="118.54323679670281">
        <ele>17.81719970703125</ele>
        <time>2026-01-03T12:08:28Z</time>
      </trkpt>
      <trkpt lat="24.910276003785523" lon="118.54331198019614">
        <ele>18.54327392578125</ele>
        <time>2026-01-03T12:08:31Z</time>
      </trkpt>
      <trkpt lat="24.910501036117214" lon="118.54334203854752">
        <ele>20.9578857421875</ele>
        <time>2026-01-03T12:08:40Z</time>
      </trkpt>
      <trkpt lat="24.91079493585653" lon="118.54331394902668">
        <ele>14.73419189453125</ele>
        <time>2026-01-03T12:08:49Z</time>
      </trkpt>
      <trkpt lat="24.911085855068563" lon="118.5432948818972">
        <ele>14.34185791015625</ele>
        <time>2026-01-03T12:08:58Z</time>
      </trkpt>
      <trkpt lat="24.911412718299918" lon="118.54325175298614">
        <ele>14.12799072265625</ele>
        <time>2026-01-03T12:09:10Z</time>
      </trkpt>
      <trkpt lat="24.9117395580779" lon="118.54319759681341">
        <ele>11.5950927734375</ele>
        <time>2026-01-03T12:09:22Z</time>
      </trkpt>
      <trkpt lat="24.912088341491167" lon="118.5431183771325">
        <ele>9.184417724609375</ele>
        <time>2026-01-03T12:09:34Z</time>
      </trkpt>
      <trkpt lat="24.91242010999275" lon="118.54303113856243">
        <ele>10.267120361328125</ele>
        <time>2026-01-03T12:09:46Z</time>
      </trkpt>
      <trkpt lat="24.91276883529678" lon="118.54292485135039">
        <ele>10.721466064453125</ele>
        <time>2026-01-03T12:09:58Z</time>
      </trkpt>
      <trkpt lat="24.913103527930364" lon="118.54280252487933">
        <ele>14.54156494140625</ele>
        <time>2026-01-03T12:10:10Z</time>
      </trkpt>
      <trkpt lat="24.913447351570678" lon="118.54274235163356">
        <ele>12.03106689453125</ele>
        <time>2026-01-03T12:10:22Z</time>
      </trkpt>
      <trkpt lat="24.91372516499155" lon="118.54267316040925">
        <ele>9.747314453125</ele>
        <time>2026-01-03T12:10:34Z</time>
      </trkpt>
      <trkpt lat="24.914039917276707" lon="118.5425779015393">
        <ele>15.6500244140625</ele>
        <time>2026-01-03T12:10:46Z</time>
      </trkpt>
      <trkpt lat="24.914389638550183" lon="118.5424706098813">
        <ele>18.752197265625</ele>
        <time>2026-01-03T12:10:58Z</time>
      </trkpt>
      <trkpt lat="24.914725395823826" lon="118.54237935881652">
        <ele>17.67254638671875</ele>
        <time>2026-01-03T12:11:10Z</time>
      </trkpt>
      <trkpt lat="24.91504218348155" lon="118.54230114134309">
        <ele>14.4544677734375</ele>
        <time>2026-01-03T12:11:22Z</time>
      </trkpt>
      <trkpt lat="24.91538290710653" lon="118.54219485167226">
        <ele>14.72222900390625</ele>
        <time>2026-01-03T12:11:34Z</time>
      </trkpt>
      <trkpt lat="24.915688671993035" lon="118.54210560675081">
        <ele>13.0516357421875</ele>
        <time>2026-01-03T12:11:46Z</time>
      </trkpt>
      <trkpt lat="24.915962460560095" lon="118.54202538640804">
        <ele>8.5869140625</ele>
        <time>2026-01-03T12:11:55Z</time>
      </trkpt>
      <trkpt lat="24.916144285613218" lon="118.54195619994458">
        <ele>7.559051513671875</ele>
        <time>2026-01-03T12:12:01Z</time>
      </trkpt>
      <trkpt lat="24.91623223427954" lon="118.54193814845114">
        <ele>7.776123046875</ele>
        <time>2026-01-03T12:12:04Z</time>
      </trkpt>
      <trkpt lat="24.916388019336466" lon="118.54184891308846">
        <ele>7.38311767578125</ele>
        <time>2026-01-03T12:12:10Z</time>
      </trkpt>
      <trkpt lat="24.916442892162262" lon="118.54179377036905">
        <ele>7.780303955078125</ele>
        <time>2026-01-03T12:12:13Z</time>
      </trkpt>
      <trkpt lat="24.91650581161073" lon="118.54176068259329">
        <ele>8.150848388671875</ele>
        <time>2026-01-03T12:12:16Z</time>
      </trkpt>
      <trkpt lat="24.916665737027355" lon="118.54173661078181">
        <ele>11.104736328125</ele>
        <time>2026-01-03T12:12:22Z</time>
      </trkpt>
      <trkpt lat="24.916640766626063" lon="118.54174864286179">
        <ele>13.6396484375</ele>
        <time>2026-01-03T12:13:10Z</time>
      </trkpt>
      <trkpt lat="24.916777688721712" lon="118.54172156505298">
        <ele>14.12255859375</ele>
        <time>2026-01-03T12:13:16Z</time>
      </trkpt>
      <trkpt lat="24.916988730971426" lon="118.54175463380524">
        <ele>14.0860595703125</ele>
        <time>2026-01-03T12:13:22Z</time>
      </trkpt>
      <trkpt lat="24.917169640379765" lon="118.54172454535257">
        <ele>13.832275390625</ele>
        <time>2026-01-03T12:13:28Z</time>
      </trkpt>
      <trkpt lat="24.917228571188065" lon="118.54169647041805">
        <ele>14.333251953125</ele>
        <time>2026-01-03T12:13:31Z</time>
      </trkpt>
      <trkpt lat="24.917472534846265" lon="118.54169545090244">
        <ele>22.36273193359375</ele>
        <time>2026-01-03T12:13:40Z</time>
      </trkpt>
      <trkpt lat="24.917759435868636" lon="118.54166836259571">
        <ele>16.486572265625</ele>
        <time>2026-01-03T12:13:49Z</time>
      </trkpt>
      <trkpt lat="24.91812142652094" lon="118.5416873854807">
        <ele>19.16082763671875</ele>
        <time>2026-01-03T12:14:01Z</time>
      </trkpt>
      <trkpt lat="24.91840941445802" lon="118.54170039832422">
        <ele>18.5728759765625</ele>
        <time>2026-01-03T12:14:10Z</time>
      </trkpt>
      <trkpt lat="24.918757407022607" lon="118.54171942216036">
        <ele>15.7484130859375</ele>
        <time>2026-01-03T12:14:22Z</time>
      </trkpt>
      <trkpt lat="24.919104377946564" lon="118.54172842076517">
        <ele>16.06854248046875</ele>
        <time>2026-01-03T12:14:34Z</time>
      </trkpt>
      <trkpt lat="24.91945129663811" lon="118.54171335867024">
        <ele>16.1241455078125</ele>
        <time>2026-01-03T12:14:46Z</time>
      </trkpt>
      <trkpt lat="24.919793220361893" lon="118.54170030197433">
        <ele>16.79827880859375</ele>
        <time>2026-01-03T12:14:58Z</time>
      </trkpt>
      <trkpt lat="24.92006616245829" lon="118.54169126019686">
        <ele>14.98016357421875</ele>
        <time>2026-01-03T12:15:07Z</time>
      </trkpt>
      <trkpt lat="24.920319048557257" lon="118.54165515146593">
        <ele>14.5447998046875</ele>
        <time>2026-01-03T12:15:16Z</time>
      </trkpt>
      <trkpt lat="24.920449877621664" lon="118.54158496503098">
        <ele>17.2275390625</ele>
        <time>2026-01-03T12:15:22Z</time>
      </trkpt>
      <trkpt lat="24.920449877621664" lon="118.54158496503098">
        <ele>17.2275390625</ele>
        <time>2026-01-03T12:15:25Z</time>
      </trkpt>
      <trkpt lat="24.920421905535143" lon="118.54159599485655">
        <ele>19.37091064453125</ele>
        <time>2026-01-03T12:15:58Z</time>
      </trkpt>
      <trkpt lat="24.9205938726637" lon="118.54159197274524">
        <ele>18.04168701171875</ele>
        <time>2026-01-03T12:16:04Z</time>
      </trkpt>
      <trkpt lat="24.9206978951165" lon="118.54160900857936">
        <ele>17.2742919921875</ele>
        <time>2026-01-03T12:16:07Z</time>
      </trkpt>
      <trkpt lat="24.920873042617714" lon="118.54168819642184">
        <ele>17.84259033203125</ele>
        <time>2026-01-03T12:16:13Z</time>
      </trkpt>
      <trkpt lat="24.921143024280575" lon="118.54169720039658">
        <ele>19.14056396484375</ele>
        <time>2026-01-03T12:16:22Z</time>
      </trkpt>
      <trkpt lat="24.921500982684254" lon="118.54170118559193">
        <ele>21.1190185546875</ele>
        <time>2026-01-03T12:16:34Z</time>
      </trkpt>
      <trkpt lat="24.9217809607417" lon="118.54170918633606">
        <ele>22.91436767578125</ele>
        <time>2026-01-03T12:16:43Z</time>
      </trkpt>
      <trkpt lat="24.92212403215924" lon="118.54176430152962">
        <ele>24.3348388671875</ele>
        <time>2026-01-03T12:16:55Z</time>
      </trkpt>
      <trkpt lat="24.92245707662248" lon="118.54180638446935">
        <ele>23.9481201171875</ele>
        <time>2026-01-03T12:17:07Z</time>
      </trkpt>
      <trkpt lat="24.922675074204697" lon="118.54181940212577">
        <ele>25.05743408203125</ele>
        <time>2026-01-03T12:17:16Z</time>
      </trkpt>
      <trkpt lat="24.922989210222806" lon="118.54190258974577">
        <ele>26.62518310546875</ele>
        <time>2026-01-03T12:17:28Z</time>
      </trkpt>
      <trkpt lat="24.923235245016404" lon="118.54193465331196">
        <ele>24.8380126953125</ele>
        <time>2026-01-03T12:17:37Z</time>
      </trkpt>
      <trkpt lat="24.923491365028525" lon="118.54200681690482">
        <ele>23.506591796875</ele>
        <time>2026-01-03T12:17:46Z</time>
      </trkpt>
      <trkpt lat="24.92357044052161" lon="118.54204691210525">
        <ele>24.0687255859375</ele>
        <time>2026-01-03T12:17:49Z</time>
      </trkpt>
      <trkpt lat="24.923674689712374" lon="118.54216921162013">
        <ele>25.99188232421875</ele>
        <time>2026-01-03T12:17:55Z</time>
      </trkpt>
      <trkpt lat="24.9239580101856" lon="118.54233661088861">
        <ele>26.66876220703125</ele>
        <time>2026-01-03T12:18:07Z</time>
      </trkpt>
      <trkpt lat="24.924245326977754" lon="118.5425030063002">
        <ele>27.64898681640625</ele>
        <time>2026-01-03T12:18:19Z</time>
      </trkpt>
      <trkpt lat="24.92453766567931" lon="118.54268042771182">
        <ele>25.47698974609375</ele>
        <time>2026-01-03T12:18:31Z</time>
      </trkpt>
      <trkpt lat="24.924813067633426" lon="118.54288692114683">
        <ele>25.239501953125</ele>
        <time>2026-01-03T12:18:43Z</time>
      </trkpt>
      <trkpt lat="24.925103527706014" lon="118.54312248367363">
        <ele>24.90594482421875</ele>
        <time>2026-01-03T12:18:55Z</time>
      </trkpt>
      <trkpt lat="24.925341027221" lon="118.54337408717358">
        <ele>24.586181640625</ele>
        <time>2026-01-03T12:19:07Z</time>
      </trkpt>
      <trkpt lat="24.925485148803727" lon="118.54344124222932">
        <ele>23.72271728515625</ele>
        <time>2026-01-03T12:19:13Z</time>
      </trkpt>
      <trkpt lat="24.925589664266475" lon="118.54369285184494">
        <ele>21.6309814453125</ele>
        <time>2026-01-03T12:19:22Z</time>
      </trkpt>
      <trkpt lat="24.925832216809535" lon="118.54397251774616">
        <ele>20.07415771484375</ele>
        <time>2026-01-03T12:19:34Z</time>
      </trkpt>
      <trkpt lat="24.926040831929726" lon="118.544281253392">
        <ele>19.85382080078125</ele>
        <time>2026-01-03T12:19:46Z</time>
      </trkpt>
      <trkpt lat="24.926234464480327" lon="118.54459900805197">
        <ele>19.08038330078125</ele>
        <time>2026-01-03T12:19:58Z</time>
      </trkpt>
      <trkpt lat="24.926371000292846" lon="118.5448676448132">
        <ele>17.41864013671875</ele>
        <time>2026-01-03T12:20:07Z</time>
      </trkpt>
      <trkpt lat="24.926567648396286" lon="118.54519641814723">
        <ele>14.26519775390625</ele>
        <time>2026-01-03T12:20:19Z</time>
      </trkpt>
      <trkpt lat="24.926717145971693" lon="118.54545001183743">
        <ele>13.85333251953125</ele>
        <time>2026-01-03T12:20:28Z</time>
      </trkpt>
      <trkpt lat="24.926864643555856" lon="118.5457046054457">
        <ele>13.698486328125</ele>
        <time>2026-01-03T12:20:37Z</time>
      </trkpt>
      <trkpt lat="24.927049265251686" lon="118.54602434728807">
        <ele>12.1837158203125</ele>
        <time>2026-01-03T12:20:49Z</time>
      </trkpt>
      <trkpt lat="24.92727378094098" lon="118.54629596953433">
        <ele>10.438507080078125</ele>
        <time>2026-01-03T12:21:01Z</time>
      </trkpt>
      <trkpt lat="24.927343895897856" lon="118.54635811016648">
        <ele>10.1868896484375</ele>
        <time>2026-01-03T12:21:04Z</time>
      </trkpt>
      <trkpt lat="24.92736804735452" lon="118.54643528898028">
        <ele>10.415252685546875</ele>
        <time>2026-01-03T12:21:07Z</time>
      </trkpt>
      <trkpt lat="24.927334184704883" lon="118.54650144585086">
        <ele>10.751983642578125</ele>
        <time>2026-01-03T12:21:10Z</time>
      </trkpt>
      <trkpt lat="24.92708748218785" lon="118.54663276916887">
        <ele>13.92767333984375</ele>
        <time>2026-01-03T12:21:19Z</time>
      </trkpt>
      <trkpt lat="24.92700457396566" lon="118.54667286827805">
        <ele>14.0369873046875</ele>
        <time>2026-01-03T12:21:22Z</time>
      </trkpt>
      <trkpt lat="24.926922611545358" lon="118.54668590430097">
        <ele>15.04315185546875</ele>
        <time>2026-01-03T12:21:25Z</time>
      </trkpt>
      <trkpt lat="24.926857502629264" lon="118.54662677115797">
        <ele>14.42578125</ele>
        <time>2026-01-03T12:21:28Z</time>
      </trkpt>
      <trkpt lat="24.926843121445888" lon="118.54643532549336">
        <ele>14.14312744140625</ele>
        <time>2026-01-03T12:21:34Z</time>
      </trkpt>
      <trkpt lat="24.926675552621145" lon="118.54614064668657">
        <ele>14.7794189453125</ele>
        <time>2026-01-03T12:21:46Z</time>
      </trkpt>
      <trkpt lat="24.92650395074404" lon="118.54583092912308">
        <ele>14.43389892578125</ele>
        <time>2026-01-03T12:21:58Z</time>
      </trkpt>
      <trkpt lat="24.92632732363773" lon="118.54551018184151">
        <ele>16.04986572265625</ele>
        <time>2026-01-03T12:22:10Z</time>
      </trkpt>
      <trkpt lat="24.92613171811192" lon="118.5452004580498">
        <ele>15.94146728515625</ele>
        <time>2026-01-03T12:22:22Z</time>
      </trkpt>
      <trkpt lat="24.925944101828403" lon="118.54488772263149">
        <ele>15.71844482421875</ele>
        <time>2026-01-03T12:22:34Z</time>
      </trkpt>
      <trkpt lat="24.925758560659716" lon="118.54461307500087">
        <ele>17.79998779296875</ele>
        <time>2026-01-03T12:22:46Z</time>
      </trkpt>
      <trkpt lat="24.925584059037433" lon="118.54435947455748">
        <ele>19.50439453125</ele>
        <time>2026-01-03T12:22:58Z</time>
      </trkpt>
      <trkpt lat="24.92537953424889" lon="118.54409384440936">
        <ele>21.9521484375</ele>
        <time>2026-01-03T12:23:10Z</time>
      </trkpt>
      <trkpt lat="24.925143019894264" lon="118.54383222348562">
        <ele>23.136962890625</ele>
        <time>2026-01-03T12:23:22Z</time>
      </trkpt>
      <trkpt lat="24.924977626111804" lon="118.54363374966351">
        <ele>22.889404296875</ele>
        <time>2026-01-03T12:23:31Z</time>
      </trkpt>
      <trkpt lat="24.924735193106006" lon="118.54341222299867">
        <ele>23.90582275390625</ele>
        <time>2026-01-03T12:23:43Z</time>
      </trkpt>
      <trkpt lat="24.924460767142406" lon="118.54319270158395">
        <ele>26.5745849609375</ele>
        <time>2026-01-03T12:23:55Z</time>
      </trkpt>
      <trkpt lat="24.92422943577355" lon="118.54302129433107">
        <ele>27.02410888671875</ele>
        <time>2026-01-03T12:24:04Z</time>
      </trkpt>
      <trkpt lat="24.92392809400338" lon="118.54284086843452">
        <ele>26.9365234375</ele>
        <time>2026-01-03T12:24:16Z</time>
      </trkpt>
      <trkpt lat="24.923611804646303" lon="118.5426845021398">
        <ele>26.933349609375</ele>
        <time>2026-01-03T12:24:28Z</time>
      </trkpt>
      <trkpt lat="24.923348620779198" lon="118.54258126355641">
        <ele>27.46234130859375</ele>
        <time>2026-01-03T12:24:37Z</time>
      </trkpt>
      <trkpt lat="24.923024367703892" lon="118.54244193877925">
        <ele>28.23248291015625</ele>
        <time>2026-01-03T12:24:49Z</time>
      </trkpt>
      <trkpt lat="24.922693151580376" lon="118.54231965635196">
        <ele>29.71563720703125</ele>
        <time>2026-01-03T12:25:01Z</time>
      </trkpt>
      <trkpt lat="24.922347023393947" lon="118.54223747479949">
        <ele>28.70196533203125</ele>
        <time>2026-01-03T12:25:13Z</time>
      </trkpt>
      <trkpt lat="24.921995008128594" lon="118.5422074240052">
        <ele>28.74737548828125</ele>
        <time>2026-01-03T12:25:25Z</time>
      </trkpt>
      <trkpt lat="24.92171094221115" lon="118.54215832071341">
        <ele>28.41455078125</ele>
        <time>2026-01-03T12:25:34Z</time>
      </trkpt>
      <trkpt lat="24.921357944273115" lon="118.54213629000478">
        <ele>29.2978515625</ele>
        <time>2026-01-03T12:25:46Z</time>
      </trkpt>
      <trkpt lat="24.92107502077593" lon="118.5421533524253">
        <ele>28.8565673828125</ele>
        <time>2026-01-03T12:25:55Z</time>
      </trkpt>
      <trkpt lat="24.920732155366746" lon="118.54219347677532">
        <ele>27.39581298828125</ele>
        <time>2026-01-03T12:26:07Z</time>
      </trkpt>
      <trkpt lat="24.920459180744245" lon="118.54218748071223">
        <ele>27.05010986328125</ele>
        <time>2026-01-03T12:26:16Z</time>
      </trkpt>
      <trkpt lat="24.920213100761433" lon="118.54213436468484">
        <ele>28.73858642578125</ele>
        <time>2026-01-03T12:26:25Z</time>
      </trkpt>
      <trkpt lat="24.91987912602299" lon="118.54212436279984">
        <ele>28.3018798828125</ele>
        <time>2026-01-03T12:26:37Z</time>
      </trkpt>
      <trkpt lat="24.91951913545283" lon="118.54210534009243">
        <ele>28.919921875</ele>
        <time>2026-01-03T12:26:49Z</time>
      </trkpt>
      <trkpt lat="24.919235160152223" lon="118.54209834225973">
        <ele>29.69842529296875</ele>
        <time>2026-01-03T12:26:58Z</time>
      </trkpt>
      <trkpt lat="24.918963168014496" lon="118.54208432598409">
        <ele>31.0128173828125</ele>
        <time>2026-01-03T12:27:07Z</time>
      </trkpt>
      <trkpt lat="24.91869315610439" lon="118.54206128691821">
        <ele>29.3546142578125</ele>
        <time>2026-01-03T12:27:16Z</time>
      </trkpt>
      <trkpt lat="24.918412186836655" lon="118.54205729641352">
        <ele>29.55523681640625</ele>
        <time>2026-01-03T12:27:26Z</time>
      </trkpt>
      <trkpt lat="24.918141205334567" lon="118.54204829262947">
        <ele>28.1856689453125</ele>
        <time>2026-01-03T12:27:35Z</time>
      </trkpt>
      <trkpt lat="24.9177943686258" lon="118.54210145010845">
        <ele>27.03973388671875</ele>
        <time>2026-01-03T12:27:47Z</time>
      </trkpt>
      <trkpt lat="24.917505482618363" lon="118.54213555569655">
        <ele>26.11346435546875</ele>
        <time>2026-01-03T12:27:56Z</time>
      </trkpt>
      <trkpt lat="24.917223638782797" lon="118.54218971098261">
        <ele>28.0130615234375</ele>
        <time>2026-01-03T12:28:05Z</time>
      </trkpt>
      <trkpt lat="24.91713368377547" lon="118.5422047549095">
        <ele>28.1419677734375</ele>
        <time>2026-01-03T12:28:08Z</time>
      </trkpt>
      <trkpt lat="24.91705067164056" lon="118.54219373306807">
        <ele>26.88421630859375</ele>
        <time>2026-01-03T12:28:11Z</time>
      </trkpt>
      <trkpt lat="24.917009502336576" lon="118.54211253240588">
        <ele>25.45635986328125</ele>
        <time>2026-01-03T12:28:14Z</time>
      </trkpt>
      <trkpt lat="24.916998317781683" lon="118.54202631681558">
        <ele>26.344970703125</ele>
        <time>2026-01-03T12:28:17Z</time>
      </trkpt>
      <trkpt lat="24.91700425846449" lon="118.54199924841339">
        <ele>28.179443359375</ele>
        <time>2026-01-03T12:28:29Z</time>
      </trkpt>
      <trkpt lat="24.91688974265357" lon="118.5417536381688">
        <ele>26.4381103515625</ele>
        <time>2026-01-03T12:28:38Z</time>
      </trkpt>
      <trkpt lat="24.916818672104604" lon="118.54171654955285">
        <ele>26.27178955078125</ele>
        <time>2026-01-03T12:28:41Z</time>
      </trkpt>
      <trkpt lat="24.916791701991894" lon="118.54172858178133">
        <ele>23.21783447265625</ele>
        <time>2026-01-03T12:29:02Z</time>
      </trkpt>
      <trkpt lat="24.916634723962137" lon="118.54172859271017">
        <ele>25.0345458984375</ele>
        <time>2026-01-03T12:29:08Z</time>
      </trkpt>
      <trkpt lat="24.916592758117798" lon="118.54174162850556">
        <ele>21.79058837890625</ele>
        <time>2026-01-03T12:29:23Z</time>
      </trkpt>
      <trkpt lat="24.916319124498333" lon="118.54189302892027">
        <ele>20.0799560546875</ele>
        <time>2026-01-03T12:29:32Z</time>
      </trkpt>
      <trkpt lat="24.916025395438044" lon="118.54199931655644">
        <ele>20.87994384765625</ele>
        <time>2026-01-03T12:29:41Z</time>
      </trkpt>
      <trkpt lat="24.915740534901975" lon="118.54204545220091">
        <ele>20.3446044921875</ele>
        <time>2026-01-03T12:29:50Z</time>
      </trkpt>
      <trkpt lat="24.915459758059676" lon="118.54213068553591">
        <ele>21.44708251953125</ele>
        <time>2026-01-03T12:29:59Z</time>
      </trkpt>
      <trkpt lat="24.915183036519153" lon="118.54224198356154">
        <ele>22.63897705078125</ele>
        <time>2026-01-03T12:30:08Z</time>
      </trkpt>
      <trkpt lat="24.914903299883683" lon="118.54234626378334">
        <ele>23.456787109375</ele>
        <time>2026-01-03T12:30:17Z</time>
      </trkpt>
      <trkpt lat="24.914637528643556" lon="118.5424355050908">
        <ele>27.15106201171875</ele>
        <time>2026-01-03T12:30:26Z</time>
      </trkpt>
      <trkpt lat="24.91435774833339" lon="118.54251973457283">
        <ele>27.88336181640625</ele>
        <time>2026-01-03T12:30:35Z</time>
      </trkpt>
      <trkpt lat="24.91407794845738" lon="118.54259494132248">
        <ele>32.06121826171875</ele>
        <time>2026-01-03T12:30:44Z</time>
      </trkpt>
      <trkpt lat="24.9137941339304" lon="118.54266313068231">
        <ele>22.64013671875</ele>
        <time>2026-01-03T12:30:53Z</time>
      </trkpt>
      <trkpt lat="24.913533345996235" lon="118.54274535311825">
        <ele>22.99658203125</ele>
        <time>2026-01-03T12:31:02Z</time>
      </trkpt>
      <trkpt lat="24.913189522353928" lon="118.54280552635716">
        <ele>22.42388916015625</ele>
        <time>2026-01-03T12:31:14Z</time>
      </trkpt>
      <trkpt lat="24.9129216687448" lon="118.54285667180118">
        <ele>24.10369873046875</ele>
        <time>2026-01-03T12:31:23Z</time>
      </trkpt>
      <trkpt lat="24.912630912149098" lon="118.54295192796654">
        <ele>22.064697265625</ele>
        <time>2026-01-03T12:31:32Z</time>
      </trkpt>
      <trkpt lat="24.912293187335795" lon="118.54305921677799">
        <ele>19.69195556640625</ele>
        <time>2026-01-03T12:31:44Z</time>
      </trkpt>
      <trkpt lat="24.912013411500784" lon="118.54314645163439">
        <ele>21.8482666015625</ele>
        <time>2026-01-03T12:31:53Z</time>
      </trkpt>
      <trkpt lat="24.911736530867802" lon="118.54318456488447">
        <ele>17.42279052734375</ele>
        <time>2026-01-03T12:32:02Z</time>
      </trkpt>
      <trkpt lat="24.911445705213836" lon="118.54324774081108">
        <ele>18.1473388671875</ele>
        <time>2026-01-03T12:32:11Z</time>
      </trkpt>
      <trkpt lat="24.911133863239964" lon="118.5433018958334">
        <ele>21.40606689453125</ele>
        <time>2026-01-03T12:32:20Z</time>
      </trkpt>
      <trkpt lat="24.910811958940624" lon="118.54332597744879">
        <ele>20.989501953125</ele>
        <time>2026-01-03T12:32:29Z</time>
      </trkpt>
      <trkpt lat="24.910514063985566" lon="118.54335607216598">
        <ele>18.216796875</ele>
        <time>2026-01-03T12:32:38Z</time>
      </trkpt>
      <trkpt lat="24.91032013122292" lon="118.5433751325013">
        <ele>18.97344970703125</ele>
        <time>2026-01-03T12:32:44Z</time>
      </trkpt>
      <trkpt lat="24.910284957985414" lon="118.54329092774674">
        <ele>17.905517578125</ele>
        <time>2026-01-03T12:32:47Z</time>
      </trkpt>
      <trkpt lat="24.910320736381006" lon="118.54318867328251">
        <ele>17.98883056640625</ele>
        <time>2026-01-03T12:32:50Z</time>
      </trkpt>
      <trkpt lat="24.910300528585374" lon="118.54308942973402">
        <ele>16.33856201171875</ele>
        <time>2026-01-03T12:32:53Z</time>
      </trkpt>
      <trkpt lat="24.91030728897322" lon="118.54297715168032">
        <ele>16.1331787109375</ele>
        <time>2026-01-03T12:32:56Z</time>
      </trkpt>
      <trkpt lat="24.910404586834414" lon="118.5426543441262">
        <ele>13.5897216796875</ele>
        <time>2026-01-03T12:33:05Z</time>
      </trkpt>
      <trkpt lat="24.910432187893157" lon="118.54246988280042">
        <ele>18.9844970703125</ele>
        <time>2026-01-03T12:33:11Z</time>
      </trkpt>
    </trkseg>
  </trk>
</gpx>