<?xml version="1.0" encoding="UTF-8"?>
<gpx xmlns="http://www.topografix.com/GPX/1/1" xmlns:gpxtpx="http://www.garmin.com/xmlschemas/TrackPointExtension/v1" xmlns:xsi="http://www.w3.org/2001/XMLSchema-instance" xsi:schemaLocation="http://www.topografix.com/GPX/1/1 http://www.topografix.com/GPX/1/1/gpx.xsd" version="1.1" creator="gpx.py -- https://github.com/tkrajina/gpxpy">
  <trk>
    <name>gpx from keep</name>
    <type>Run</type>
    <trkseg>
      <trkpt lat="24.910702290784986" lon="118.53855793633919">
        <ele>9.926221692934632</ele>
        <time>2024-08-22T13:59:56Z</time>
      </trkpt>
      <trkpt lat="24.910482319640153" lon="118.53851877600522">
        <ele>9.394983381032944</ele>
        <time>2024-08-22T14:00:05Z</time>
      </trkpt>
      <trkpt lat="24.91021202750981" lon="118.53849216568624">
        <ele>8.765193538740277</ele>
        <time>2024-08-22T14:00:14Z</time>
      </trkpt>
      <trkpt lat="24.909935581853976" lon="118.53842739330135">
        <ele>9.340924958698452</ele>
        <time>2024-08-22T14:00:23Z</time>
      </trkpt>
      <trkpt lat="24.909844153327228" lon="118.53840224611247">
        <ele>8.821134248748422</ele>
        <time>2024-08-22T14:00:26Z</time>
      </trkpt>
      <trkpt lat="24.909580262215506" lon="118.53838574476865">
        <ele>8.257757139392197</ele>
        <time>2024-08-22T14:00:35Z</time>
      </trkpt>
      <trkpt lat="24.909276704531436" lon="118.53839985288411">
        <ele>7.419106888584793</ele>
        <time>2024-08-22T14:00:44Z</time>
      </trkpt>
      <trkpt lat="24.90921849710576" lon="118.53835781067632">
        <ele>8.141270376741886</ele>
        <time>2024-08-22T14:00:47Z</time>
      </trkpt>
      <trkpt lat="24.90922779859377" lon="118.53826450861378">
        <ele>8.864935548976064</ele>
        <time>2024-08-22T14:00:50Z</time>
      </trkpt>
      <trkpt lat="24.909302771880824" lon="118.53808084010903">
        <ele>8.487387075088918</ele>
        <time>2024-08-22T14:00:56Z</time>
      </trkpt>
      <trkpt lat="24.90931573923696" lon="118.53798380373362">
        <ele>7.866383922286332</ele>
        <time>2024-08-22T14:00:59Z</time>
      </trkpt>
      <trkpt lat="24.909397152381178" lon="118.53780477307137">
        <ele>8.12540627643466</ele>
        <time>2024-08-22T14:01:05Z</time>
      </trkpt>
      <trkpt lat="24.909423284278553" lon="118.53762214193567">
        <ele>9.282365857623518</ele>
        <time>2024-08-22T14:01:11Z</time>
      </trkpt>
      <trkpt lat="24.909549326299825" lon="118.53727318873955">
        <ele>9.90590279828757</ele>
        <time>2024-08-22T14:01:23Z</time>
      </trkpt>
      <trkpt lat="24.909570098031566" lon="118.53717769002782">
        <ele>10.00907539576292</ele>
        <time>2024-08-22T14:01:26Z</time>
      </trkpt>
      <trkpt lat="24.909551589475534" lon="118.5370831131133">
        <ele>10.353851594030857</ele>
        <time>2024-08-22T14:01:29Z</time>
      </trkpt>
      <trkpt lat="24.909500289113605" lon="118.53699164978624">
        <ele>10.09230428095907</ele>
        <time>2024-08-22T14:01:33Z</time>
      </trkpt>
      <trkpt lat="24.90955218100739" lon="118.5365872321">
        <ele>9.923925628885627</ele>
        <time>2024-08-22T14:01:45Z</time>
      </trkpt>
      <trkpt lat="24.909589817497196" lon="118.5363738716295">
        <ele>10.292807433754206</ele>
        <time>2024-08-22T14:01:52Z</time>
      </trkpt>
      <trkpt lat="24.909622795646193" lon="118.53606466997866">
        <ele>10.696273404173553</ele>
        <time>2024-08-22T14:02:01Z</time>
      </trkpt>
      <trkpt lat="24.909643902897322" lon="118.53567511417599">
        <ele>10.36409387551248</ele>
        <time>2024-08-22T14:02:13Z</time>
      </trkpt>
      <trkpt lat="24.90971060239136" lon="118.53529273206193">
        <ele>10.335666974075139</ele>
        <time>2024-08-22T14:02:25Z</time>
      </trkpt>
      <trkpt lat="24.909751115229238" lon="118.53493056063473">
        <ele>8.910577284172177</ele>
        <time>2024-08-22T14:02:37Z</time>
      </trkpt>
      <trkpt lat="24.909774080238204" lon="118.53484098365966">
        <ele>8.880874752998352</ele>
        <time>2024-08-22T14:02:40Z</time>
      </trkpt>
      <trkpt lat="24.909784036911088" lon="118.53465448388003">
        <ele>8.095028876326978</ele>
        <time>2024-08-22T14:02:46Z</time>
      </trkpt>
      <trkpt lat="24.909829246890272" lon="118.53449627260729">
        <ele>8.464049414731562</ele>
        <time>2024-08-22T14:02:52Z</time>
      </trkpt>
      <trkpt lat="24.909838974039253" lon="118.53440189179912">
        <ele>7.747121186926961</ele>
        <time>2024-08-22T14:02:55Z</time>
      </trkpt>
      <trkpt lat="24.90982425862176" lon="118.53429300366211">
        <ele>7.548122865147889</ele>
        <time>2024-08-22T14:02:58Z</time>
      </trkpt>
      <trkpt lat="24.909847406352007" lon="118.53408959471768">
        <ele>8.212935362011194</ele>
        <time>2024-08-22T14:03:04Z</time>
      </trkpt>
      <trkpt lat="24.909913748208748" lon="118.53394721249576">
        <ele>7.67078635469079</ele>
        <time>2024-08-22T14:03:10Z</time>
      </trkpt>
      <trkpt lat="24.90997712360822" lon="118.53391748069673">
        <ele>7.71401958912611</ele>
        <time>2024-08-22T14:03:13Z</time>
      </trkpt>
      <trkpt lat="24.910039565800087" lon="118.533858446322">
        <ele>7.401314574293792</ele>
        <time>2024-08-22T14:03:16Z</time>
      </trkpt>
      <trkpt lat="24.910310502041387" lon="118.53378069092525">
        <ele>9.591523137874901</ele>
        <time>2024-08-22T14:03:31Z</time>
      </trkpt>
      <trkpt lat="24.910405765656776" lon="118.53373993997074">
        <ele>9.821292135864496</ele>
        <time>2024-08-22T14:03:34Z</time>
      </trkpt>
      <trkpt lat="24.910523698614274" lon="118.5337136106307">
        <ele>10.07219484820962</ele>
        <time>2024-08-22T14:03:38Z</time>
      </trkpt>
      <trkpt lat="24.910898702422752" lon="118.53372517604315">
        <ele>10.274520056322217</ele>
        <time>2024-08-22T14:03:50Z</time>
      </trkpt>
      <trkpt lat="24.911127055529438" lon="118.53371747333418">
        <ele>10.563101552426815</ele>
        <time>2024-08-22T14:03:58Z</time>
      </trkpt>
      <trkpt lat="24.911427049652822" lon="118.53375412715944">
        <ele>10.439358222298324</ele>
        <time>2024-08-22T14:04:08Z</time>
      </trkpt>
      <trkpt lat="24.911590249169098" lon="118.53374163902018">
        <ele>10.222278733737767</ele>
        <time>2024-08-22T14:04:14Z</time>
      </trkpt>
      <trkpt lat="24.911673306133988" lon="118.53375045485744">
        <ele>10.247357533313334</ele>
        <time>2024-08-22T14:04:17Z</time>
      </trkpt>
      <trkpt lat="24.91193413053075" lon="118.5337168814378">
        <ele>10.540961344726384</ele>
        <time>2024-08-22T14:04:26Z</time>
      </trkpt>
      <trkpt lat="24.91220442897017" lon="118.53374027614535">
        <ele>10.500027905218303</ele>
        <time>2024-08-22T14:04:35Z</time>
      </trkpt>
      <trkpt lat="24.912529484028745" lon="118.53373451662625">
        <ele>10.767234067432582</ele>
        <time>2024-08-22T14:04:47Z</time>
      </trkpt>
      <trkpt lat="24.912770743620744" lon="118.53374536106848">
        <ele>10.175474933348596</ele>
        <time>2024-08-22T14:04:56Z</time>
      </trkpt>
      <trkpt lat="24.91285425697906" lon="118.53376617540776">
        <ele>10.248391424305737</ele>
        <time>2024-08-22T14:04:59Z</time>
      </trkpt>
      <trkpt lat="24.913000958734987" lon="118.53385283768606">
        <ele>9.929177597165108</ele>
        <time>2024-08-22T14:05:05Z</time>
      </trkpt>
      <trkpt lat="24.913318291038618" lon="118.53389560656541">
        <ele>10.321418955922127</ele>
        <time>2024-08-22T14:05:17Z</time>
      </trkpt>
      <trkpt lat="24.91366540753814" lon="118.53392869524443">
        <ele>10.274741552770138</ele>
        <time>2024-08-22T14:05:29Z</time>
      </trkpt>
      <trkpt lat="24.913986972081137" lon="118.53397086024746">
        <ele>10.110995832830667</ele>
        <time>2024-08-22T14:05:41Z</time>
      </trkpt>
      <trkpt lat="24.914321354611303" lon="118.53403240762027">
        <ele>10.333447946235538</ele>
        <time>2024-08-22T14:05:53Z</time>
      </trkpt>
      <trkpt lat="24.914641394270994" lon="118.53410664762629">
        <ele>11.924866848625243</ele>
        <time>2024-08-22T14:06:05Z</time>
      </trkpt>
      <trkpt lat="24.91494386154982" lon="118.53416250834668">
        <ele>12.483259180560708</ele>
        <time>2024-08-22T14:06:16Z</time>
      </trkpt>
      <trkpt lat="24.915269590644375" lon="118.53417956213698">
        <ele>12.618019881658256</ele>
        <time>2024-08-22T14:06:28Z</time>
      </trkpt>
      <trkpt lat="24.91534139004463" lon="118.53422098439381">
        <ele>12.50644130539149</ele>
        <time>2024-08-22T14:06:31Z</time>
      </trkpt>
      <trkpt lat="24.915362537517563" lon="118.53431578607682">
        <ele>11.483309745788574</ele>
        <time>2024-08-22T14:06:34Z</time>
      </trkpt>
      <trkpt lat="24.915337691214848" lon="118.53440671540191">
        <ele>11.594745572656393</ele>
        <time>2024-08-22T14:06:37Z</time>
      </trkpt>
      <trkpt lat="24.915209769461793" lon="118.53463995708792">
        <ele>11.50706245843321</ele>
        <time>2024-08-22T14:06:46Z</time>
      </trkpt>
      <trkpt lat="24.915088237252593" lon="118.5349823500806">
        <ele>11.667335552163422</ele>
        <time>2024-08-22T14:06:58Z</time>
      </trkpt>
      <trkpt lat="24.915011161601846" lon="118.53526151169989">
        <ele>12.586422337219119</ele>
        <time>2024-08-22T14:07:07Z</time>
      </trkpt>
      <trkpt lat="24.91497789834478" lon="118.53550737766751">
        <ele>12.98502242192626</ele>
        <time>2024-08-22T14:07:16Z</time>
      </trkpt>
      <trkpt lat="24.914993667300394" lon="118.535741877984">
        <ele>13.328821321949363</ele>
        <time>2024-08-22T14:07:25Z</time>
      </trkpt>
      <trkpt lat="24.91496098324921" lon="118.53602329704873">
        <ele>14.862008129246533</ele>
        <time>2024-08-22T14:07:34Z</time>
      </trkpt>
      <trkpt lat="24.914970429459153" lon="118.53639665270983">
        <ele>14.666633718647063</ele>
        <time>2024-08-22T14:07:46Z</time>
      </trkpt>
      <trkpt lat="24.915018527878598" lon="118.53678008865867">
        <ele>14.780383964069188</ele>
        <time>2024-08-22T14:07:58Z</time>
      </trkpt>
      <trkpt lat="24.91502315939577" lon="118.53691134879519">
        <ele>15.180626184679568</ele>
        <time>2024-08-22T14:08:02Z</time>
      </trkpt>
      <trkpt lat="24.915115375322703" lon="118.53727437134879">
        <ele>14.251664973795414</ele>
        <time>2024-08-22T14:08:14Z</time>
      </trkpt>
      <trkpt lat="24.91524401583537" lon="118.53758687143538">
        <ele>15.458516611717641</ele>
        <time>2024-08-22T14:08:26Z</time>
      </trkpt>
      <trkpt lat="24.915356924288755" lon="118.53780275602875">
        <ele>15.428134921938181</ele>
        <time>2024-08-22T14:08:35Z</time>
      </trkpt>
      <trkpt lat="24.915463481896882" lon="118.53813953094588">
        <ele>14.90534155163914</ele>
        <time>2024-08-22T14:08:47Z</time>
      </trkpt>
      <trkpt lat="24.915574316208577" lon="118.53846565979742">
        <ele>16.327670735307038</ele>
        <time>2024-08-22T14:08:59Z</time>
      </trkpt>
      <trkpt lat="24.91569014545334" lon="118.53882105124461">
        <ele>16.044932939112186</ele>
        <time>2024-08-22T14:09:11Z</time>
      </trkpt>
      <trkpt lat="24.915789485321035" lon="118.53920375421559">
        <ele>15.238064440898597</ele>
        <time>2024-08-22T14:09:23Z</time>
      </trkpt>
      <trkpt lat="24.91589177445497" lon="118.53946068459341">
        <ele>14.94203544780612</ele>
        <time>2024-08-22T14:09:32Z</time>
      </trkpt>
      <trkpt lat="24.915968768465543" lon="118.53982030924553">
        <ele>13.237120393663645</ele>
        <time>2024-08-22T14:09:44Z</time>
      </trkpt>
      <trkpt lat="24.915981179375528" lon="118.53990209434244">
        <ele>12.976090168580413</ele>
        <time>2024-08-22T14:09:47Z</time>
      </trkpt>
      <trkpt lat="24.916105043332465" lon="118.54018735257408">
        <ele>12.656923906877637</ele>
        <time>2024-08-22T14:09:57Z</time>
      </trkpt>
      <trkpt lat="24.916201738158865" lon="118.5405364729222">
        <ele>11.905345742590725</ele>
        <time>2024-08-22T14:10:09Z</time>
      </trkpt>
      <trkpt lat="24.916273767059256" lon="118.54078356790033">
        <ele>12.207868459634483</ele>
        <time>2024-08-22T14:10:17Z</time>
      </trkpt>
      <trkpt lat="24.916295911523434" lon="118.5410873234745">
        <ele>12.004472189582884</ele>
        <time>2024-08-22T14:10:27Z</time>
      </trkpt>
      <trkpt lat="24.916375930809636" lon="118.54139065987651">
        <ele>12.403435855172575</ele>
        <time>2024-08-22T14:10:36Z</time>
      </trkpt>
      <trkpt lat="24.916460564837752" lon="118.54175412523651">
        <ele>12.324139748699963</ele>
        <time>2024-08-22T14:10:48Z</time>
      </trkpt>
      <trkpt lat="24.916454620761474" lon="118.54184965284442">
        <ele>12.42231713887304</ele>
        <time>2024-08-22T14:10:51Z</time>
      </trkpt>
      <trkpt lat="24.916352423493905" lon="118.54197627499683">
        <ele>11.986373160034418</ele>
        <time>2024-08-22T14:10:57Z</time>
      </trkpt>
      <trkpt lat="24.916078164620664" lon="118.54202821483395">
        <ele>12.342415014281869</ele>
        <time>2024-08-22T14:11:06Z</time>
      </trkpt>
      <trkpt lat="24.915744673050202" lon="118.54213273096282">
        <ele>12.020738642662764</ele>
        <time>2024-08-22T14:11:18Z</time>
      </trkpt>
      <trkpt lat="24.91540757951106" lon="118.54223917039178">
        <ele>12.173181961290538</ele>
        <time>2024-08-22T14:11:30Z</time>
      </trkpt>
      <trkpt lat="24.91510140655954" lon="118.54232763201114">
        <ele>11.891683130525053</ele>
        <time>2024-08-22T14:11:42Z</time>
      </trkpt>
      <trkpt lat="24.914791634598455" lon="118.54239101611209">
        <ele>10.832896946929395</ele>
        <time>2024-08-22T14:11:54Z</time>
      </trkpt>
      <trkpt lat="24.914638358535893" lon="118.5424424417281">
        <ele>10.442771733738482</ele>
        <time>2024-08-22T14:12:00Z</time>
      </trkpt>
      <trkpt lat="24.914526871683965" lon="118.54249867946426">
        <ele>10.16535473242402</ele>
        <time>2024-08-22T14:12:04Z</time>
      </trkpt>
      <trkpt lat="24.91430062086309" lon="118.54251949798963">
        <ele>10.381253778934479</ele>
        <time>2024-08-22T14:12:12Z</time>
      </trkpt>
      <trkpt lat="24.91398342718981" lon="118.54263141118845">
        <ele>9.810044245794415</ele>
        <time>2024-08-22T14:12:24Z</time>
      </trkpt>
      <trkpt lat="24.913734895086122" lon="118.54269029755059">
        <ele>8.889367218129337</ele>
        <time>2024-08-22T14:12:33Z</time>
      </trkpt>
      <trkpt lat="24.913654672832177" lon="118.54272749379302">
        <ele>8.913440874777734</ele>
        <time>2024-08-22T14:12:36Z</time>
      </trkpt>
      <trkpt lat="24.913576600383454" lon="118.54274270039468">
        <ele>8.863034185022116</ele>
        <time>2024-08-22T14:12:39Z</time>
      </trkpt>
      <trkpt lat="24.913497433398874" lon="118.54278163157218">
        <ele>8.79743306338787</ele>
        <time>2024-08-22T14:12:42Z</time>
      </trkpt>
      <trkpt lat="24.91317040526903" lon="118.54283613702809">
        <ele>7.573596443980932</ele>
        <time>2024-08-22T14:12:54Z</time>
      </trkpt>
      <trkpt lat="24.912868361915965" lon="118.54291186008932">
        <ele>7.739603138528764</ele>
        <time>2024-08-22T14:13:06Z</time>
      </trkpt>
      <trkpt lat="24.912545218933083" lon="118.54301079326187">
        <ele>8.572652560658753</ele>
        <time>2024-08-22T14:13:18Z</time>
      </trkpt>
      <trkpt lat="24.912249579687643" lon="118.5431136027145">
        <ele>7.94301709998399</ele>
        <time>2024-08-22T14:13:30Z</time>
      </trkpt>
      <trkpt lat="24.911943620099127" lon="118.54319751783805">
        <ele>7.563259746879339</ele>
        <time>2024-08-22T14:13:42Z</time>
      </trkpt>
      <trkpt lat="24.9116207847479" lon="118.5432619641878">
        <ele>8.09471638686955</ele>
        <time>2024-08-22T14:13:54Z</time>
      </trkpt>
      <trkpt lat="24.91130874804197" lon="118.54331407556872">
        <ele>8.133583246730268</ele>
        <time>2024-08-22T14:14:06Z</time>
      </trkpt>
      <trkpt lat="24.911192383105302" lon="118.5433333680798">
        <ele>8.1268260916695</ele>
        <time>2024-08-22T14:14:10Z</time>
      </trkpt>
      <trkpt lat="24.91084855098968" lon="118.543359618309">
        <ele>7.602955200709403</ele>
        <time>2024-08-22T14:14:22Z</time>
      </trkpt>
      <trkpt lat="24.910679349470755" lon="118.54337955114738">
        <ele>7.473409499041736</ele>
        <time>2024-08-22T14:14:28Z</time>
      </trkpt>
      <trkpt lat="24.910446752745774" lon="118.54336853801172">
        <ele>7.64244044944644</ele>
        <time>2024-08-22T14:14:37Z</time>
      </trkpt>
      <trkpt lat="24.91017536534854" lon="118.54340787763573">
        <ele>7.3430465357378125</ele>
        <time>2024-08-22T14:14:46Z</time>
      </trkpt>
      <trkpt lat="24.90982543714535" lon="118.54341535781379">
        <ele>7.032874953001738</ele>
        <time>2024-08-22T14:14:58Z</time>
      </trkpt>
      <trkpt lat="24.909474588479398" lon="118.5434315087558">
        <ele>7.804883214645088</ele>
        <time>2024-08-22T14:15:10Z</time>
      </trkpt>
      <trkpt lat="24.909299594331987" lon="118.5434353479612">
        <ele>7.857193280942738</ele>
        <time>2024-08-22T14:15:16Z</time>
      </trkpt>
      <trkpt lat="24.909227831884373" lon="118.5434008743909">
        <ele>7.499258206225932</ele>
        <time>2024-08-22T14:15:19Z</time>
      </trkpt>
      <trkpt lat="24.909076089626204" lon="118.54338978374722">
        <ele>7.576512258499861</ele>
        <time>2024-08-22T14:15:25Z</time>
      </trkpt>
      <trkpt lat="24.90901381045365" lon="118.54334201644366">
        <ele>7.371868907473981</ele>
        <time>2024-08-22T14:15:28Z</time>
      </trkpt>
      <trkpt lat="24.90890317117899" lon="118.54343645484029">
        <ele>7.657745528966188</ele>
        <time>2024-08-22T14:15:34Z</time>
      </trkpt>
      <trkpt lat="24.908810932915525" lon="118.54344293918376">
        <ele>7.91923382692039</ele>
        <time>2024-08-22T14:15:37Z</time>
      </trkpt>
      <trkpt lat="24.908635354846435" lon="118.54342419693944">
        <ele>7.814250618219376</ele>
        <time>2024-08-22T14:15:43Z</time>
      </trkpt>
      <trkpt lat="24.908483922471458" lon="118.54343139513537">
        <ele>7.267821593210101</ele>
        <time>2024-08-22T14:15:49Z</time>
      </trkpt>
      <trkpt lat="24.90829708271339" lon="118.54340659477425">
        <ele>7.9585247822105885</ele>
        <time>2024-08-22T14:15:55Z</time>
      </trkpt>
      <trkpt lat="24.90799098217133" lon="118.54344992692579">
        <ele>7.314329848624766</ele>
        <time>2024-08-22T14:16:07Z</time>
      </trkpt>
      <trkpt lat="24.907921529961303" lon="118.5434711109955">
        <ele>7.8213095450773835</ele>
        <time>2024-08-22T14:16:10Z</time>
      </trkpt>
      <trkpt lat="24.907695622099663" lon="118.54348553113306">
        <ele>7.223936793394387</ele>
        <time>2024-08-22T14:16:18Z</time>
      </trkpt>
      <trkpt lat="24.907585347808972" lon="118.54344500071538">
        <ele>7.618148185312748</ele>
        <time>2024-08-22T14:16:22Z</time>
      </trkpt>
      <trkpt lat="24.907488398829862" lon="118.54337709125068">
        <ele>8.325352381914854</ele>
        <time>2024-08-22T14:16:26Z</time>
      </trkpt>
      <trkpt lat="24.90744106393058" lon="118.54330939685907">
        <ele>7.413814355619252</ele>
        <time>2024-08-22T14:16:29Z</time>
      </trkpt>
      <trkpt lat="24.90744832966785" lon="118.54322067344978">
        <ele>7.969605862163007</ele>
        <time>2024-08-22T14:16:32Z</time>
      </trkpt>
      <trkpt lat="24.907486314038113" lon="118.54313483545502">
        <ele>7.551735449582338</ele>
        <time>2024-08-22T14:16:35Z</time>
      </trkpt>
      <trkpt lat="24.907606455011557" lon="118.54279412826611">
        <ele>7.691236298531294</ele>
        <time>2024-08-22T14:16:47Z</time>
      </trkpt>
      <trkpt lat="24.907662078826043" lon="118.54273127053946">
        <ele>8.039072283543646</ele>
        <time>2024-08-22T14:16:50Z</time>
      </trkpt>
      <trkpt lat="24.907757505822428" lon="118.54243557397467">
        <ele>8.377556710503995</ele>
        <time>2024-08-22T14:17:02Z</time>
      </trkpt>
      <trkpt lat="24.907933909174144" lon="118.54208407790902">
        <ele>8.13142504543066</ele>
        <time>2024-08-22T14:17:14Z</time>
      </trkpt>
      <trkpt lat="24.90797628601262" lon="118.54201107435391">
        <ele>8.279979249462485</ele>
        <time>2024-08-22T14:17:17Z</time>
      </trkpt>
      <trkpt lat="24.9079873337626" lon="118.54192718596879">
        <ele>8.471802829764783</ele>
        <time>2024-08-22T14:17:20Z</time>
      </trkpt>
      <trkpt lat="24.908088841690457" lon="118.54168428943991">
        <ele>10.08672559633851</ele>
        <time>2024-08-22T14:17:32Z</time>
      </trkpt>
      <trkpt lat="24.908268159133193" lon="118.54149944705983">
        <ele>9.423594922758639</ele>
        <time>2024-08-22T14:17:41Z</time>
      </trkpt>
      <trkpt lat="24.908444777488466" lon="118.54123463280101">
        <ele>8.250086220912635</ele>
        <time>2024-08-22T14:17:50Z</time>
      </trkpt>
      <trkpt lat="24.90848260268184" lon="118.5410080806417">
        <ele>7.412141289561987</ele>
        <time>2024-08-22T14:17:56Z</time>
      </trkpt>
      <trkpt lat="24.908489779918042" lon="118.54083772776421">
        <ele>8.047862088307738</ele>
        <time>2024-08-22T14:18:02Z</time>
      </trkpt>
      <trkpt lat="24.908589132346894" lon="118.54052671344206">
        <ele>8.013898038305342</ele>
        <time>2024-08-22T14:18:14Z</time>
      </trkpt>
      <trkpt lat="24.908643934668895" lon="118.5404302439353">
        <ele>7.922699736431241</ele>
        <time>2024-08-22T14:18:17Z</time>
      </trkpt>
      <trkpt lat="24.908718057706363" lon="118.54015707445342">
        <ele>7.676801614463329</ele>
        <time>2024-08-22T14:18:25Z</time>
      </trkpt>
      <trkpt lat="24.90871329776575" lon="118.54004047081695">
        <ele>7.804125187918544</ele>
        <time>2024-08-22T14:18:29Z</time>
      </trkpt>
      <trkpt lat="24.90876840616228" lon="118.53980019125717">
        <ele>7.601494422182441</ele>
        <time>2024-08-22T14:18:36Z</time>
      </trkpt>
      <trkpt lat="24.908775037013875" lon="118.53962472962982">
        <ele>7.521292939782143</ele>
        <time>2024-08-22T14:18:42Z</time>
      </trkpt>
      <trkpt lat="24.908829376696943" lon="118.53954781874705">
        <ele>7.682965498417616</ele>
        <time>2024-08-22T14:18:45Z</time>
      </trkpt>
      <trkpt lat="24.908890484957016" lon="118.53924378713903">
        <ele>7.356776476837695</ele>
        <time>2024-08-22T14:18:57Z</time>
      </trkpt>
      <trkpt lat="24.90893451272052" lon="118.53918875786506">
        <ele>7.259770847856998</ele>
        <time>2024-08-22T14:19:00Z</time>
      </trkpt>
      <trkpt lat="24.909040836707547" lon="118.53884323224469">
        <ele>7.6379520539194345</ele>
        <time>2024-08-22T14:19:12Z</time>
      </trkpt>
      <trkpt lat="24.90907824139812" lon="118.53852146408704">
        <ele>7.671871045604348</ele>
        <time>2024-08-22T14:19:24Z</time>
      </trkpt>
      <trkpt lat="24.909112040746916" lon="118.53843026811646">
        <ele>7.6606703056022525</ele>
        <time>2024-08-22T14:19:27Z</time>
      </trkpt>
      <trkpt lat="24.909131818561097" lon="118.5382615371651">
        <ele>7.951416777446866</ele>
        <time>2024-08-22T14:19:33Z</time>
      </trkpt>
      <trkpt lat="24.909222321783563" lon="118.53795387799606">
        <ele>8.400604324415326</ele>
        <time>2024-08-22T14:19:45Z</time>
      </trkpt>
      <trkpt lat="24.909273088291343" lon="118.53778091342932">
        <ele>8.281060504727066</ele>
        <time>2024-08-22T14:19:51Z</time>
      </trkpt>
      <trkpt lat="24.909308390725418" lon="118.53758133628423">
        <ele>9.225543159991503</ele>
        <time>2024-08-22T14:19:57Z</time>
      </trkpt>
      <trkpt lat="24.90930088860177" lon="118.53734608167215">
        <ele>9.75230410695076</ele>
        <time>2024-08-22T14:20:06Z</time>
      </trkpt>
      <trkpt lat="24.90931741921665" lon="118.5372551158369">
        <ele>10.023269912227988</ele>
        <time>2024-08-22T14:20:09Z</time>
      </trkpt>
      <trkpt lat="24.90933182002864" lon="118.53705816428015">
        <ele>10.257039822638035</ele>
        <time>2024-08-22T14:20:15Z</time>
      </trkpt>
      <trkpt lat="24.90941605794776" lon="118.5367833707921">
        <ele>9.960813467390835</ele>
        <time>2024-08-22T14:20:24Z</time>
      </trkpt>
      <trkpt lat="24.90945070203992" lon="118.53655979023354">
        <ele>9.795064090751112</ele>
        <time>2024-08-22T14:20:32Z</time>
      </trkpt>
      <trkpt lat="24.90951491308632" lon="118.53638650812859">
        <ele>10.005729282274842</ele>
        <time>2024-08-22T14:20:39Z</time>
      </trkpt>
      <trkpt lat="24.9095285224911" lon="118.53621669235923">
        <ele>9.796201535500586</ele>
        <time>2024-08-22T14:20:45Z</time>
      </trkpt>
      <trkpt lat="24.909565991924687" lon="118.53613815018262">
        <ele>9.902781111188233</ele>
        <time>2024-08-22T14:20:48Z</time>
      </trkpt>
      <trkpt lat="24.909606002666166" lon="118.5357595100308">
        <ele>9.940095134079456</ele>
        <time>2024-08-22T14:21:00Z</time>
      </trkpt>
      <trkpt lat="24.90967910503371" lon="118.53539184407141">
        <ele>9.832830466330051</ele>
        <time>2024-08-22T14:21:12Z</time>
      </trkpt>
      <trkpt lat="24.909706266870895" lon="118.53502754366153">
        <ele>8.829390694387257</ele>
        <time>2024-08-22T14:21:24Z</time>
      </trkpt>
      <trkpt lat="24.909743263753832" lon="118.53478152334554">
        <ele>7.7125638192519546</ele>
        <time>2024-08-22T14:21:33Z</time>
      </trkpt>
      <trkpt lat="24.909734430292424" lon="118.53471381634373">
        <ele>7.553238577209413</ele>
        <time>2024-08-22T14:21:36Z</time>
      </trkpt>
      <trkpt lat="24.90974071677115" lon="118.53455892176619">
        <ele>7.056734188459814</ele>
        <time>2024-08-22T14:21:42Z</time>
      </trkpt>
      <trkpt lat="24.909785203031525" lon="118.53446006569794">
        <ele>7.378900413401425</ele>
        <time>2024-08-22T14:21:45Z</time>
      </trkpt>
      <trkpt lat="24.909820116856615" lon="118.53416147233804">
        <ele>7.029837175272405</ele>
        <time>2024-08-22T14:21:54Z</time>
      </trkpt>
      <trkpt lat="24.909854261720923" lon="118.5339942322921">
        <ele>7.2785172909498215</ele>
        <time>2024-08-22T14:22:00Z</time>
      </trkpt>
      <trkpt lat="24.909892338215077" lon="118.53391934685742">
        <ele>7.313910008408129</ele>
        <time>2024-08-22T14:22:03Z</time>
      </trkpt>
      <trkpt lat="24.90995414008387" lon="118.53386079829875">
        <ele>7.489409030415118</ele>
        <time>2024-08-22T14:22:06Z</time>
      </trkpt>
      <trkpt lat="24.91025019142286" lon="118.53374583566337">
        <ele>9.190285726450384</ele>
        <time>2024-08-22T14:22:18Z</time>
      </trkpt>
      <trkpt lat="24.910572738605953" lon="118.53363946819253">
        <ele>10.486606469377875</ele>
        <time>2024-08-22T14:22:30Z</time>
      </trkpt>
      <trkpt lat="24.91084504680942" lon="118.53367579682379">
        <ele>10.42200662009418</ele>
        <time>2024-08-22T14:22:40Z</time>
      </trkpt>
      <trkpt lat="24.910921223351803" lon="118.53368648571237">
        <ele>10.796020727604628</ele>
        <time>2024-08-22T14:22:43Z</time>
      </trkpt>
      <trkpt lat="24.911073321740595" lon="118.53366082335369">
        <ele>10.471700484864414</ele>
        <time>2024-08-22T14:22:49Z</time>
      </trkpt>
      <trkpt lat="24.91143587032609" lon="118.53369678504825">
        <ele>10.43582192901522</ele>
        <time>2024-08-22T14:23:01Z</time>
      </trkpt>
      <trkpt lat="24.91174557480256" lon="118.53372884469304">
        <ele>10.189293952658772</ele>
        <time>2024-08-22T14:23:13Z</time>
      </trkpt>
      <trkpt lat="24.912007372886446" lon="118.53373013179055">
        <ele>10.43277739919722</ele>
        <time>2024-08-22T14:23:22Z</time>
      </trkpt>
      <trkpt lat="24.912050727459626" lon="118.53371828857429">
        <ele>10.654813059605658</ele>
        <time>2024-08-22T14:23:25Z</time>
      </trkpt>
      <trkpt lat="24.912886593779383" lon="118.53384815153862">
        <ele>10.43222592677921</ele>
        <time>2024-08-22T14:24:55Z</time>
      </trkpt>
      <trkpt lat="24.913251217169204" lon="118.53387155751297">
        <ele>10.222567021846771</ele>
        <time>2024-08-22T14:25:13Z</time>
      </trkpt>
      <trkpt lat="24.91354370020069" lon="118.53391825204943">
        <ele>9.98989602457732</ele>
        <time>2024-08-22T14:25:22Z</time>
      </trkpt>
      <trkpt lat="24.913844328403073" lon="118.53393901002879">
        <ele>10.689911571331322</ele>
        <time>2024-08-22T14:25:31Z</time>
      </trkpt>
      <trkpt lat="24.914132794677876" lon="118.53398028022475">
        <ele>10.02064625453204</ele>
        <time>2024-08-22T14:25:40Z</time>
      </trkpt>
      <trkpt lat="24.914474183743323" lon="118.53405567218944">
        <ele>11.246884355321527</ele>
        <time>2024-08-22T14:25:52Z</time>
      </trkpt>
      <trkpt lat="24.914804424422048" lon="118.53411824051385">
        <ele>12.542579639703035</ele>
        <time>2024-08-22T14:26:04Z</time>
      </trkpt>
      <trkpt lat="24.914984683957204" lon="118.53415269479312">
        <ele>12.707611757330596</ele>
        <time>2024-08-22T14:26:10Z</time>
      </trkpt>
      <trkpt lat="24.915249441125066" lon="118.5341688978708">
        <ele>12.872451833449304</ele>
        <time>2024-08-22T14:26:19Z</time>
      </trkpt>
      <trkpt lat="24.91530624041161" lon="118.53423193108716">
        <ele>12.668675979599357</ele>
        <time>2024-08-22T14:26:22Z</time>
      </trkpt>
      <trkpt lat="24.915319995396878" lon="118.53432124449895">
        <ele>11.839470438659191</ele>
        <time>2024-08-22T14:26:25Z</time>
      </trkpt>
      <trkpt lat="24.915249902578854" lon="118.5345228553618">
        <ele>11.369021869264543</ele>
        <time>2024-08-22T14:26:31Z</time>
      </trkpt>
      <trkpt lat="24.91516846113022" lon="118.53470049546083">
        <ele>12.059897374361753</ele>
        <time>2024-08-22T14:26:37Z</time>
      </trkpt>
      <trkpt lat="24.91514886046633" lon="118.5347883557488">
        <ele>11.887815824709833</ele>
        <time>2024-08-22T14:26:40Z</time>
      </trkpt>
      <trkpt lat="24.915081703743414" lon="118.5349717365598">
        <ele>12.207813281565905</ele>
        <time>2024-08-22T14:26:46Z</time>
      </trkpt>
      <trkpt lat="24.915020834984663" lon="118.5353247720347">
        <ele>12.869779932312667</ele>
        <time>2024-08-22T14:26:58Z</time>
      </trkpt>
      <trkpt lat="24.914984729558995" lon="118.53559462274461">
        <ele>13.186990783549845</ele>
        <time>2024-08-22T14:27:07Z</time>
      </trkpt>
      <trkpt lat="24.91499191237706" lon="118.53568172359378">
        <ele>13.03936075232923</ele>
        <time>2024-08-22T14:27:10Z</time>
      </trkpt>
      <trkpt lat="24.914958327162932" lon="118.53586840173213">
        <ele>14.22326800506562</ele>
        <time>2024-08-22T14:27:16Z</time>
      </trkpt>
      <trkpt lat="24.91496252506446" lon="118.5361717718908">
        <ele>14.709361657500267</ele>
        <time>2024-08-22T14:27:25Z</time>
      </trkpt>
      <trkpt lat="24.91496058753683" lon="118.53625766044784">
        <ele>14.290270544588566</ele>
        <time>2024-08-22T14:27:28Z</time>
      </trkpt>
      <trkpt lat="24.91499110015226" lon="118.5366481002319">
        <ele>14.793802903033793</ele>
        <time>2024-08-22T14:27:40Z</time>
      </trkpt>
      <trkpt lat="24.915020414176023" lon="118.53671791029178">
        <ele>15.111018826253712</ele>
        <time>2024-08-22T14:27:43Z</time>
      </trkpt>
      <trkpt lat="24.915020414176023" lon="118.53671791029178">
        <ele>15.111018826253712</ele>
        <time>2024-08-22T14:27:43Z</time>
      </trkpt>
      <trkpt lat="24.915047911655478" lon="118.53681824054368">
        <ele>15.262868726626039</ele>
        <time>2024-08-22T14:27:50Z</time>
      </trkpt>
      <trkpt lat="24.915032772450523" lon="118.53696658934196">
        <ele>14.436407917179167</ele>
        <time>2024-08-22T14:27:56Z</time>
      </trkpt>
      <trkpt lat="24.915104139825313" lon="118.53724578350678">
        <ele>14.49550802167505</ele>
        <time>2024-08-22T14:28:05Z</time>
      </trkpt>
      <trkpt lat="24.915239989868816" lon="118.53756943614901">
        <ele>14.982166198082268</ele>
        <time>2024-08-22T14:28:17Z</time>
      </trkpt>
      <trkpt lat="24.915381607970563" lon="118.53790781516169">
        <ele>14.757213057950139</ele>
        <time>2024-08-22T14:28:29Z</time>
      </trkpt>
      <trkpt lat="24.915473585679777" lon="118.53819312527682">
        <ele>15.50269763264805</ele>
        <time>2024-08-22T14:28:38Z</time>
      </trkpt>
      <trkpt lat="24.915555123476615" lon="118.53836288775055">
        <ele>15.983856860548258</ele>
        <time>2024-08-22T14:28:44Z</time>
      </trkpt>
      <trkpt lat="24.915555123476615" lon="118.53836288775055">
        <ele>15.983856860548258</ele>
        <time>2024-08-22T14:28:44Z</time>
      </trkpt>
    </trkseg>
  </trk>
</gpx>