<?xml version="1.0" encoding="UTF-8"?>
<gpx xmlns="http://www.topografix.com/GPX/1/1" xmlns:gpxtpx="http://www.garmin.com/xmlschemas/TrackPointExtension/v1" xmlns:xsi="http://www.w3.org/2001/XMLSchema-instance" xsi:schemaLocation="http://www.topografix.com/GPX/1/1 http://www.topografix.com/GPX/1/1/gpx.xsd" version="1.1" creator="gpx.py -- https://github.com/tkrajina/gpxpy">
  <trk>
    <name>gpx from keep</name>
    <type>Run</type>
    <trkseg>
      <trkpt lat="24.91074180331774" lon="118.53852306760412">
        <ele>10.170335870854167</ele>
        <time>2024-07-04T13:57:56Z</time>
      </trkpt>
      <trkpt lat="24.91051057323517" lon="118.53848194509">
        <ele>10.091516306623816</ele>
        <time>2024-07-04T13:58:04Z</time>
      </trkpt>
      <trkpt lat="24.910320712509353" lon="118.53841693479552">
        <ele>10.15208655782044</ele>
        <time>2024-07-04T13:58:10Z</time>
      </trkpt>
      <trkpt lat="24.91011306157812" lon="118.5384157640086">
        <ele>9.392087547108531</ele>
        <time>2024-07-04T13:58:16Z</time>
      </trkpt>
      <trkpt lat="24.910000712875895" lon="118.53837901261166">
        <ele>9.169168455526233</ele>
        <time>2024-07-04T13:58:19Z</time>
      </trkpt>
      <trkpt lat="24.909724676598966" lon="118.53835773891615">
        <ele>7.413546805270016</ele>
        <time>2024-07-04T13:58:28Z</time>
      </trkpt>
      <trkpt lat="24.909356445727674" lon="118.53834492461274">
        <ele>6.314697993919253</ele>
        <time>2024-07-04T13:58:40Z</time>
      </trkpt>
      <trkpt lat="24.9092732175598" lon="118.53834962447914">
        <ele>5.601220185868442</ele>
        <time>2024-07-04T13:58:43Z</time>
      </trkpt>
      <trkpt lat="24.909225716238716" lon="118.53829211414137">
        <ele>6.540306420065463</ele>
        <time>2024-07-04T13:58:46Z</time>
      </trkpt>
      <trkpt lat="24.90930218734596" lon="118.53809069888933">
        <ele>7.935391292907298</ele>
        <time>2024-07-04T13:58:52Z</time>
      </trkpt>
      <trkpt lat="24.909391877274434" lon="118.53792081304849">
        <ele>8.192167078144848</ele>
        <time>2024-07-04T13:58:58Z</time>
      </trkpt>
      <trkpt lat="24.909461425412257" lon="118.53763214470487">
        <ele>9.37870426569134</ele>
        <time>2024-07-04T13:59:07Z</time>
      </trkpt>
      <trkpt lat="24.909477619398686" lon="118.53753170490575">
        <ele>9.621599884703755</ele>
        <time>2024-07-04T13:59:10Z</time>
      </trkpt>
      <trkpt lat="24.909582983479318" lon="118.53714802841925">
        <ele>9.594267862848938</ele>
        <time>2024-07-04T13:59:25Z</time>
      </trkpt>
      <trkpt lat="24.909516904544017" lon="118.53705566761866">
        <ele>10.396352286450565</ele>
        <time>2024-07-04T13:59:28Z</time>
      </trkpt>
      <trkpt lat="24.909486063212643" lon="118.53696853544659">
        <ele>9.786397714167833</ele>
        <time>2024-07-04T13:59:31Z</time>
      </trkpt>
      <trkpt lat="24.909539911293315" lon="118.53667033648526">
        <ele>9.685964199714363</ele>
        <time>2024-07-04T13:59:40Z</time>
      </trkpt>
      <trkpt lat="24.909605890783098" lon="118.53645910503813">
        <ele>9.901453883387148</ele>
        <time>2024-07-04T13:59:46Z</time>
      </trkpt>
      <trkpt lat="24.909612154701094" lon="118.53615782950398">
        <ele>10.32093434408307</ele>
        <time>2024-07-04T13:59:55Z</time>
      </trkpt>
      <trkpt lat="24.90964209145977" lon="118.53594671232942">
        <ele>9.690915359184146</ele>
        <time>2024-07-04T14:00:01Z</time>
      </trkpt>
      <trkpt lat="24.90967811331852" lon="118.53559456901084">
        <ele>9.705270568840206</ele>
        <time>2024-07-04T14:00:11Z</time>
      </trkpt>
      <trkpt lat="24.909721544309804" lon="118.53529226954207">
        <ele>10.457277681678534</ele>
        <time>2024-07-04T14:00:20Z</time>
      </trkpt>
      <trkpt lat="24.909757237468277" lon="118.53497709658886">
        <ele>8.780843606218696</ele>
        <time>2024-07-04T14:00:29Z</time>
      </trkpt>
      <trkpt lat="24.909774879465694" lon="118.53486437930057">
        <ele>8.379541467875242</ele>
        <time>2024-07-04T14:00:32Z</time>
      </trkpt>
      <trkpt lat="24.90984756875689" lon="118.53484823644988">
        <ele>8.50876074936241</ele>
        <time>2024-07-04T14:00:35Z</time>
      </trkpt>
      <trkpt lat="24.910149907732414" lon="118.5349699131041">
        <ele>8.678525857627392</ele>
        <time>2024-07-04T14:00:47Z</time>
      </trkpt>
      <trkpt lat="24.910400661856904" lon="118.53508834290221">
        <ele>9.43162994645536</ele>
        <time>2024-07-04T14:00:56Z</time>
      </trkpt>
      <trkpt lat="24.910588939154877" lon="118.53514893119102">
        <ele>10.458319930359721</ele>
        <time>2024-07-04T14:01:02Z</time>
      </trkpt>
      <trkpt lat="24.910924681932112" lon="118.53530536747122">
        <ele>9.947479449212551</ele>
        <time>2024-07-04T14:01:14Z</time>
      </trkpt>
      <trkpt lat="24.911249569386353" lon="118.53542124647322">
        <ele>9.717439295724034</ele>
        <time>2024-07-04T14:01:26Z</time>
      </trkpt>
      <trkpt lat="24.91140551475541" lon="118.53546210973835">
        <ele>10.383329070173204</ele>
        <time>2024-07-04T14:01:32Z</time>
      </trkpt>
      <trkpt lat="24.911521995417253" lon="118.5355128239515">
        <ele>10.002060424536467</ele>
        <time>2024-07-04T14:01:38Z</time>
      </trkpt>
      <trkpt lat="24.9117599501925" lon="118.53570691918796">
        <ele>9.659715075977147</ele>
        <time>2024-07-04T14:01:47Z</time>
      </trkpt>
      <trkpt lat="24.911855903104946" lon="118.53574924924614">
        <ele>9.96643516421318</ele>
        <time>2024-07-04T14:01:50Z</time>
      </trkpt>
      <trkpt lat="24.91204970745135" lon="118.5357838178995">
        <ele>9.923462206497788</ele>
        <time>2024-07-04T14:01:56Z</time>
      </trkpt>
      <trkpt lat="24.912136615335882" lon="118.53581879535842">
        <ele>10.030692092143</ele>
        <time>2024-07-04T14:01:59Z</time>
      </trkpt>
      <trkpt lat="24.912469642231123" lon="118.53600193569112">
        <ele>9.193808222189546</ele>
        <time>2024-07-04T14:02:12Z</time>
      </trkpt>
      <trkpt lat="24.912777494923784" lon="118.53612154689382">
        <ele>9.288466740399599</ele>
        <time>2024-07-04T14:02:24Z</time>
      </trkpt>
      <trkpt lat="24.912916627489583" lon="118.53618183364793">
        <ele>10.495706412941217</ele>
        <time>2024-07-04T14:02:30Z</time>
      </trkpt>
      <trkpt lat="24.912997854014854" lon="118.5361990038304">
        <ele>10.85754186566919</ele>
        <time>2024-07-04T14:02:33Z</time>
      </trkpt>
      <trkpt lat="24.913137398190283" lon="118.5362737974473">
        <ele>11.253345437347889</ele>
        <time>2024-07-04T14:02:39Z</time>
      </trkpt>
      <trkpt lat="24.913412579561932" lon="118.53639327225895">
        <ele>11.90287116728723</ele>
        <time>2024-07-04T14:02:48Z</time>
      </trkpt>
      <trkpt lat="24.913494081926768" lon="118.5364442847413">
        <ele>11.992248727940023</ele>
        <time>2024-07-04T14:02:51Z</time>
      </trkpt>
      <trkpt lat="24.913678160304258" lon="118.53649426679839">
        <ele>12.724304169416428</ele>
        <time>2024-07-04T14:02:57Z</time>
      </trkpt>
      <trkpt lat="24.91375882458911" lon="118.53657362040553">
        <ele>12.466189839877188</ele>
        <time>2024-07-04T14:03:00Z</time>
      </trkpt>
      <trkpt lat="24.91390706287375" lon="118.5366462757026">
        <ele>12.8223383333534</ele>
        <time>2024-07-04T14:03:06Z</time>
      </trkpt>
      <trkpt lat="24.914070402377174" lon="118.53671117959307">
        <ele>12.577766824513674</ele>
        <time>2024-07-04T14:03:12Z</time>
      </trkpt>
      <trkpt lat="24.914166295842733" lon="118.5367249431031">
        <ele>11.93660785164684</ele>
        <time>2024-07-04T14:03:15Z</time>
      </trkpt>
      <trkpt lat="24.914401107552013" lon="118.53682620468392">
        <ele>12.980022391304374</ele>
        <time>2024-07-04T14:03:24Z</time>
      </trkpt>
      <trkpt lat="24.91448371240092" lon="118.53683755444148">
        <ele>13.839661648496985</ele>
        <time>2024-07-04T14:03:27Z</time>
      </trkpt>
      <trkpt lat="24.914553797046604" lon="118.53687702627859">
        <ele>13.456219925545156</ele>
        <time>2024-07-04T14:03:30Z</time>
      </trkpt>
      <trkpt lat="24.914848078945845" lon="118.53696642394549">
        <ele>15.32552667427808</ele>
        <time>2024-07-04T14:03:42Z</time>
      </trkpt>
      <trkpt lat="24.914998000704827" lon="118.537023551278">
        <ele>15.814552006311715</ele>
        <time>2024-07-04T14:03:48Z</time>
      </trkpt>
      <trkpt lat="24.915070263624813" lon="118.53708045634917">
        <ele>14.945971172302961</ele>
        <time>2024-07-04T14:03:51Z</time>
      </trkpt>
      <trkpt lat="24.915234705644526" lon="118.53738505464774">
        <ele>14.101164672523737</ele>
        <time>2024-07-04T14:04:00Z</time>
      </trkpt>
      <trkpt lat="24.91539626335336" lon="118.53771690218989">
        <ele>15.112327392213047</ele>
        <time>2024-07-04T14:04:12Z</time>
      </trkpt>
      <trkpt lat="24.915514809529093" lon="118.53806054982259">
        <ele>15.171207531355321</ele>
        <time>2024-07-04T14:04:24Z</time>
      </trkpt>
      <trkpt lat="24.915621359281957" lon="118.53834352757038">
        <ele>16.04877209570259</ele>
        <time>2024-07-04T14:04:34Z</time>
      </trkpt>
      <trkpt lat="24.915697945618287" lon="118.53852043586247">
        <ele>16.826683222316206</ele>
        <time>2024-07-04T14:04:40Z</time>
      </trkpt>
      <trkpt lat="24.915789648635418" lon="118.53881149615779">
        <ele>15.864008142612875</ele>
        <time>2024-07-04T14:04:49Z</time>
      </trkpt>
      <trkpt lat="24.915888378480158" lon="118.53918578385095">
        <ele>14.615909547545016</ele>
        <time>2024-07-04T14:05:01Z</time>
      </trkpt>
      <trkpt lat="24.915964361304233" lon="118.53939190622044">
        <ele>14.053595727309585</ele>
        <time>2024-07-04T14:05:07Z</time>
      </trkpt>
      <trkpt lat="24.916021570773534" lon="118.5397750810977">
        <ele>12.210387032479048</ele>
        <time>2024-07-04T14:05:19Z</time>
      </trkpt>
      <trkpt lat="24.916039551044943" lon="118.53987145134539">
        <ele>11.616496124304831</ele>
        <time>2024-07-04T14:05:22Z</time>
      </trkpt>
      <trkpt lat="24.916145713589906" lon="118.54018246714139">
        <ele>12.628543526865542</ele>
        <time>2024-07-04T14:05:31Z</time>
      </trkpt>
      <trkpt lat="24.916254699454488" lon="118.54046351986814">
        <ele>11.967711629346013</ele>
        <time>2024-07-04T14:05:40Z</time>
      </trkpt>
      <trkpt lat="24.916351440899774" lon="118.54074727283596">
        <ele>11.946417013183236</ele>
        <time>2024-07-04T14:05:49Z</time>
      </trkpt>
      <trkpt lat="24.916373594788364" lon="118.54094544271352">
        <ele>12.794041806831956</ele>
        <time>2024-07-04T14:05:55Z</time>
      </trkpt>
      <trkpt lat="24.91641144963207" lon="118.54104376911374">
        <ele>13.080285914242268</ele>
        <time>2024-07-04T14:05:58Z</time>
      </trkpt>
      <trkpt lat="24.91644959893103" lon="118.54134759657663">
        <ele>13.06892756279558</ele>
        <time>2024-07-04T14:06:07Z</time>
      </trkpt>
      <trkpt lat="24.916466898567442" lon="118.54154476715998">
        <ele>12.663387450389564</ele>
        <time>2024-07-04T14:06:13Z</time>
      </trkpt>
      <trkpt lat="24.916490128177884" lon="118.54164986961759">
        <ele>13.205365433357656</ele>
        <time>2024-07-04T14:06:16Z</time>
      </trkpt>
      <trkpt lat="24.916490857730157" lon="118.54173880516694">
        <ele>12.674876153469086</ele>
        <time>2024-07-04T14:06:19Z</time>
      </trkpt>
      <trkpt lat="24.916454401958006" lon="118.54185628024408">
        <ele>12.11626885831356</ele>
        <time>2024-07-04T14:06:23Z</time>
      </trkpt>
      <trkpt lat="24.916178212149667" lon="118.54195749185948">
        <ele>11.647795052267611</ele>
        <time>2024-07-04T14:06:31Z</time>
      </trkpt>
      <trkpt lat="24.916060438084212" lon="118.54202398601397">
        <ele>12.330179175361991</ele>
        <time>2024-07-04T14:06:35Z</time>
      </trkpt>
      <trkpt lat="24.915784487986087" lon="118.54211551766338">
        <ele>12.497174779884517</ele>
        <time>2024-07-04T14:06:44Z</time>
      </trkpt>
      <trkpt lat="24.915508340097155" lon="118.54222981506119">
        <ele>11.923791138455272</ele>
        <time>2024-07-04T14:06:53Z</time>
      </trkpt>
      <trkpt lat="24.91531863712269" lon="118.54226739806231">
        <ele>12.441219558939338</ele>
        <time>2024-07-04T14:06:59Z</time>
      </trkpt>
      <trkpt lat="24.915231233775906" lon="118.54230073896805">
        <ele>12.706376511603594</ele>
        <time>2024-07-04T14:07:02Z</time>
      </trkpt>
      <trkpt lat="24.915069456283444" lon="118.5423423808948">
        <ele>12.694994732737541</ele>
        <time>2024-07-04T14:07:08Z</time>
      </trkpt>
      <trkpt lat="24.91499722931179" lon="118.542381889464">
        <ele>12.224761839024723</ele>
        <time>2024-07-04T14:07:11Z</time>
      </trkpt>
      <trkpt lat="24.91477753317634" lon="118.54244589248569">
        <ele>10.932179579511285</ele>
        <time>2024-07-04T14:07:20Z</time>
      </trkpt>
      <trkpt lat="24.914459354532482" lon="118.5425144393773">
        <ele>9.956264927983284</ele>
        <time>2024-07-04T14:07:32Z</time>
      </trkpt>
      <trkpt lat="24.914119580725174" lon="118.54258055357634">
        <ele>10.03718500956893</ele>
        <time>2024-07-04T14:07:44Z</time>
      </trkpt>
      <trkpt lat="24.913944968454064" lon="118.54260211782483">
        <ele>10.555514152161777</ele>
        <time>2024-07-04T14:07:50Z</time>
      </trkpt>
      <trkpt lat="24.91386284287186" lon="118.54263387452899">
        <ele>9.315370831638575</ele>
        <time>2024-07-04T14:07:53Z</time>
      </trkpt>
      <trkpt lat="24.913782768392323" lon="118.54269001884393">
        <ele>9.343469548970461</ele>
        <time>2024-07-04T14:07:56Z</time>
      </trkpt>
      <trkpt lat="24.913514283687917" lon="118.54275935045837">
        <ele>8.252065831795335</ele>
        <time>2024-07-04T14:08:05Z</time>
      </trkpt>
      <trkpt lat="24.913237428962365" lon="118.54279900843058">
        <ele>7.595230198465288</ele>
        <time>2024-07-04T14:08:14Z</time>
      </trkpt>
      <trkpt lat="24.91289200578018" lon="118.54284359817494">
        <ele>8.299325591884553</ele>
        <time>2024-07-04T14:08:26Z</time>
      </trkpt>
      <trkpt lat="24.912552453280224" lon="118.5429521338713">
        <ele>9.055070439353585</ele>
        <time>2024-07-04T14:08:38Z</time>
      </trkpt>
      <trkpt lat="24.912288025413314" lon="118.54303302445803">
        <ele>8.606132253073156</ele>
        <time>2024-07-04T14:08:48Z</time>
      </trkpt>
      <trkpt lat="24.91195898047235" lon="118.54311895485024">
        <ele>7.683774754405022</ele>
        <time>2024-07-04T14:09:00Z</time>
      </trkpt>
      <trkpt lat="24.91178491347665" lon="118.54316795995508">
        <ele>8.48395218886435</ele>
        <time>2024-07-04T14:09:06Z</time>
      </trkpt>
      <trkpt lat="24.91151238220434" lon="118.54320764989464">
        <ele>8.90681107249111</ele>
        <time>2024-07-04T14:09:15Z</time>
      </trkpt>
      <trkpt lat="24.911251126607453" lon="118.5432676142259">
        <ele>8.26641099806875</ele>
        <time>2024-07-04T14:09:24Z</time>
      </trkpt>
      <trkpt lat="24.911062026938193" lon="118.54328260167118">
        <ele>8.242660506628454</ele>
        <time>2024-07-04T14:09:30Z</time>
      </trkpt>
      <trkpt lat="24.91097362846634" lon="118.5433051459361">
        <ele>8.930827310308814</ele>
        <time>2024-07-04T14:09:33Z</time>
      </trkpt>
      <trkpt lat="24.910766440079723" lon="118.54331777219322">
        <ele>8.17386335413903</ele>
        <time>2024-07-04T14:09:39Z</time>
      </trkpt>
      <trkpt lat="24.910687889679103" lon="118.54330190786861">
        <ele>7.962850750423968</ele>
        <time>2024-07-04T14:09:42Z</time>
      </trkpt>
      <trkpt lat="24.910415031338232" lon="118.54332817063057">
        <ele>7.44920276850462</ele>
        <time>2024-07-04T14:09:51Z</time>
      </trkpt>
      <trkpt lat="24.91033217019402" lon="118.54333105670682">
        <ele>7.859909559600055</ele>
        <time>2024-07-04T14:09:54Z</time>
      </trkpt>
      <trkpt lat="24.910267149152904" lon="118.54329915089373">
        <ele>7.286377094686031</ele>
        <time>2024-07-04T14:09:57Z</time>
      </trkpt>
      <trkpt lat="24.910252222633964" lon="118.54301260712448">
        <ele>7.2205789387226105</ele>
        <time>2024-07-04T14:10:06Z</time>
      </trkpt>
      <trkpt lat="24.910280958426817" lon="118.54291490651714">
        <ele>7.127334506250918</ele>
        <time>2024-07-04T14:10:09Z</time>
      </trkpt>
      <trkpt lat="24.91033549940264" lon="118.54261461603335">
        <ele>8.238486804068089</ele>
        <time>2024-07-04T14:10:18Z</time>
      </trkpt>
      <trkpt lat="24.910355877008534" lon="118.54252508962861">
        <ele>7.892514047212899</ele>
        <time>2024-07-04T14:10:21Z</time>
      </trkpt>
      <trkpt lat="24.910320967361226" lon="118.54231620568115">
        <ele>8.276861953549087</ele>
        <time>2024-07-04T14:10:27Z</time>
      </trkpt>
      <trkpt lat="24.910342343543117" lon="118.54222127545547">
        <ele>8.257255437783897</ele>
        <time>2024-07-04T14:10:30Z</time>
      </trkpt>
      <trkpt lat="24.910344715730172" lon="118.5421057953207">
        <ele>7.789449388161302</ele>
        <time>2024-07-04T14:10:34Z</time>
      </trkpt>
      <trkpt lat="24.91036648839132" lon="118.54201331010982">
        <ele>7.664423333480954</ele>
        <time>2024-07-04T14:10:37Z</time>
      </trkpt>
      <trkpt lat="24.910405271060366" lon="118.5419370037629">
        <ele>7.72949134837836</ele>
        <time>2024-07-04T14:10:40Z</time>
      </trkpt>
      <trkpt lat="24.91039022158097" lon="118.5418505899066">
        <ele>8.04220987483859</ele>
        <time>2024-07-04T14:10:44Z</time>
      </trkpt>
      <trkpt lat="24.9103486570927" lon="118.54174203343165">
        <ele>7.62062655761838</ele>
        <time>2024-07-04T14:10:48Z</time>
      </trkpt>
      <trkpt lat="24.910270620470175" lon="118.54164768718574">
        <ele>7.772581700235605</ele>
        <time>2024-07-04T14:10:51Z</time>
      </trkpt>
      <trkpt lat="24.910227872764235" lon="118.54154994597465">
        <ele>7.525106637738645</ele>
        <time>2024-07-04T14:10:54Z</time>
      </trkpt>
      <trkpt lat="24.910205557683742" lon="118.54145410699543">
        <ele>7.916511771269143</ele>
        <time>2024-07-04T14:10:57Z</time>
      </trkpt>
      <trkpt lat="24.910202087905184" lon="118.54135692232775">
        <ele>7.728532542474568</ele>
        <time>2024-07-04T14:11:00Z</time>
      </trkpt>
      <trkpt lat="24.910230296923256" lon="118.54122296600349">
        <ele>7.469081236049533</ele>
        <time>2024-07-04T14:11:03Z</time>
      </trkpt>
      <trkpt lat="24.91023115482094" lon="118.54112005617141">
        <ele>7.712883389554918</ele>
        <time>2024-07-04T14:11:06Z</time>
      </trkpt>
      <trkpt lat="24.910342446609295" lon="118.54092830755921">
        <ele>8.180072440765798</ele>
        <time>2024-07-04T14:11:12Z</time>
      </trkpt>
      <trkpt lat="24.910430452468592" lon="118.54082001878331">
        <ele>7.490902788937092</ele>
        <time>2024-07-04T14:11:15Z</time>
      </trkpt>
      <trkpt lat="24.91054992695966" lon="118.54074507654587">
        <ele>8.32222578022629</ele>
        <time>2024-07-04T14:11:18Z</time>
      </trkpt>
      <trkpt lat="24.910648125426086" lon="118.54063431329624">
        <ele>8.219055886380374</ele>
        <time>2024-07-04T14:11:21Z</time>
      </trkpt>
      <trkpt lat="24.910773617120146" lon="118.54028108493914">
        <ele>7.754593972116709</ele>
        <time>2024-07-04T14:11:30Z</time>
      </trkpt>
      <trkpt lat="24.910809010880794" lon="118.54017510480247">
        <ele>8.607116141356528</ele>
        <time>2024-07-04T14:11:33Z</time>
      </trkpt>
      <trkpt lat="24.910854676368594" lon="118.54010810446216">
        <ele>8.712936904281378</ele>
        <time>2024-07-04T14:11:36Z</time>
      </trkpt>
      <trkpt lat="24.91100496439926" lon="118.53976533956715">
        <ele>7.331764374859631</ele>
        <time>2024-07-04T14:11:51Z</time>
      </trkpt>
      <trkpt lat="24.911121536997893" lon="118.53940459202133">
        <ele>7.609567837789655</ele>
        <time>2024-07-04T14:12:03Z</time>
      </trkpt>
      <trkpt lat="24.91117555907351" lon="118.53913064345909">
        <ele>7.141944480128586</ele>
        <time>2024-07-04T14:12:12Z</time>
      </trkpt>
      <trkpt lat="24.91122105579166" lon="118.53896676557774">
        <ele>7.783119276165962</ele>
        <time>2024-07-04T14:12:18Z</time>
      </trkpt>
      <trkpt lat="24.911240246068957" lon="118.53878099593217">
        <ele>8.311292806640267</ele>
        <time>2024-07-04T14:12:24Z</time>
      </trkpt>
      <trkpt lat="24.91118828267564" lon="118.53870671427724">
        <ele>9.472595964558423</ele>
        <time>2024-07-04T14:12:27Z</time>
      </trkpt>
      <trkpt lat="24.911112698260418" lon="118.53867173921003">
        <ele>9.521330118179321</ele>
        <time>2024-07-04T14:12:30Z</time>
      </trkpt>
      <trkpt lat="24.910816666173137" lon="118.53860740827645">
        <ele>9.52701061591506</ele>
        <time>2024-07-04T14:12:40Z</time>
      </trkpt>
      <trkpt lat="24.910460185503243" lon="118.5385034735911">
        <ele>9.7564119938761</ele>
        <time>2024-07-04T14:12:52Z</time>
      </trkpt>
      <trkpt lat="24.910269456817083" lon="118.53843003559675">
        <ele>9.553136776201427</ele>
        <time>2024-07-04T14:12:58Z</time>
      </trkpt>
      <trkpt lat="24.90997900887988" lon="118.53838093746344">
        <ele>10.161067827604711</ele>
        <time>2024-07-04T14:13:07Z</time>
      </trkpt>
      <trkpt lat="24.909796082256307" lon="118.53833919590248">
        <ele>8.818428791128099</ele>
        <time>2024-07-04T14:13:13Z</time>
      </trkpt>
      <trkpt lat="24.90969595076386" lon="118.53834484161241">
        <ele>8.628262504935265</ele>
        <time>2024-07-04T14:13:16Z</time>
      </trkpt>
    </trkseg>
  </trk>
</gpx>