<?xml version="1.0" encoding="UTF-8"?>
<gpx xmlns="http://www.topografix.com/GPX/1/1" xmlns:gpxtpx="http://www.garmin.com/xmlschemas/TrackPointExtension/v1" xmlns:xsi="http://www.w3.org/2001/XMLSchema-instance" xsi:schemaLocation="http://www.topografix.com/GPX/1/1 http://www.topografix.com/GPX/1/1/gpx.xsd" version="1.1" creator="gpx.py -- https://github.com/tkrajina/gpxpy">
  <trk>
    <name>gpx from keep</name>
    <type>Walk</type>
    <trkseg>
      <trkpt lat="24.91119175253348" lon="118.53738867255773">
        <ele>30.6695556640625</ele>
        <time>2025-12-27T10:38:51Z</time>
      </trkpt>
      <trkpt lat="24.91128075173711" lon="118.53739367980123">
        <ele>25.29986572265625</ele>
        <time>2025-12-27T10:39:06Z</time>
      </trkpt>
      <trkpt lat="24.91128290204122" lon="118.53745885437003">
        <ele>23.41351318359375</ele>
        <time>2025-12-27T10:39:12Z</time>
      </trkpt>
      <trkpt lat="24.911182607050076" lon="118.53775866311813">
        <ele>19.26922607421875</ele>
        <time>2025-12-27T10:39:33Z</time>
      </trkpt>
      <trkpt lat="24.911132968773792" lon="118.53791307827092">
        <ele>19.363037109375</ele>
        <time>2025-12-27T10:39:42Z</time>
      </trkpt>
      <trkpt lat="24.91099042532491" lon="118.53810359495945">
        <ele>21.94683837890625</ele>
        <time>2025-12-27T10:39:57Z</time>
      </trkpt>
      <trkpt lat="24.910954753629767" lon="118.53824497266785">
        <ele>22.14373779296875</ele>
        <time>2025-12-27T10:40:06Z</time>
      </trkpt>
      <trkpt lat="24.91088805359983" lon="118.5383723146651">
        <ele>18.57452392578125</ele>
        <time>2025-12-27T10:40:15Z</time>
      </trkpt>
      <trkpt lat="24.91083645820253" lon="118.53854677950436">
        <ele>22.88031005859375</ele>
        <time>2025-12-27T10:40:27Z</time>
      </trkpt>
      <trkpt lat="24.910869633704355" lon="118.53862598624488">
        <ele>23.57342529296875</ele>
        <time>2025-12-27T10:40:33Z</time>
      </trkpt>
      <trkpt lat="24.910995736884157" lon="118.53867911758212">
        <ele>20.2994384765625</ele>
        <time>2025-12-27T10:40:42Z</time>
      </trkpt>
      <trkpt lat="24.911166781376828" lon="118.53870918493533">
        <ele>18.4979248046875</ele>
        <time>2025-12-27T10:40:54Z</time>
      </trkpt>
      <trkpt lat="24.911207823453775" lon="118.53873023754504">
        <ele>17.15081787109375</ele>
        <time>2025-12-27T10:40:57Z</time>
      </trkpt>
      <trkpt lat="24.91122792755997" lon="118.53877736023087">
        <ele>15.9771728515625</ele>
        <time>2025-12-27T10:41:00Z</time>
      </trkpt>
      <trkpt lat="24.91119362433036" lon="118.53908316589569">
        <ele>18.5040283203125</ele>
        <time>2025-12-27T10:41:18Z</time>
      </trkpt>
      <trkpt lat="24.9111075032335" lon="118.5394681783644">
        <ele>16.8310546875</ele>
        <time>2025-12-27T10:41:42Z</time>
      </trkpt>
      <trkpt lat="24.91100823354071" lon="118.53978801723328">
        <ele>16.926025390625</ele>
        <time>2025-12-27T10:42:03Z</time>
      </trkpt>
      <trkpt lat="24.910977443839087" lon="118.5398802586117">
        <ele>16.48944091796875</ele>
        <time>2025-12-27T10:42:09Z</time>
      </trkpt>
      <trkpt lat="24.910937079187736" lon="118.54016299275979">
        <ele>17.551513671875</ele>
        <time>2025-12-27T10:42:27Z</time>
      </trkpt>
      <trkpt lat="24.910859827934726" lon="118.54049585532812">
        <ele>18.9366455078125</ele>
        <time>2025-12-27T10:42:48Z</time>
      </trkpt>
      <trkpt lat="24.910762606659265" lon="118.54084275101613">
        <ele>19.3126220703125</ele>
        <time>2025-12-27T10:43:09Z</time>
      </trkpt>
      <trkpt lat="24.91077181036874" lon="118.54093598853254">
        <ele>18.5277099609375</ele>
        <time>2025-12-27T10:43:15Z</time>
      </trkpt>
      <trkpt lat="24.910753004485905" lon="118.54102321233712">
        <ele>17.88861083984375</ele>
        <time>2025-12-27T10:43:21Z</time>
      </trkpt>
      <trkpt lat="24.910724541974695" lon="118.54126683424727">
        <ele>23.53668212890625</ele>
        <time>2025-12-27T10:43:36Z</time>
      </trkpt>
      <trkpt lat="24.910635243032452" lon="118.54158264072316">
        <ele>31.57354736328125</ele>
        <time>2025-12-27T10:43:54Z</time>
      </trkpt>
      <trkpt lat="24.910516890491923" lon="118.54187338234749">
        <ele>38.319580078125</ele>
        <time>2025-12-27T10:44:12Z</time>
      </trkpt>
      <trkpt lat="24.910496990915703" lon="118.54191849724413">
        <ele>37.80523681640625</ele>
        <time>2025-12-27T10:44:15Z</time>
      </trkpt>
      <trkpt lat="24.91049918354926" lon="118.54200772136254">
        <ele>35.47381591796875</ele>
        <time>2025-12-27T10:44:21Z</time>
      </trkpt>
      <trkpt lat="24.910432675036013" lon="118.54223128658634">
        <ele>33.0775146484375</ele>
        <time>2025-12-27T10:44:36Z</time>
      </trkpt>
      <trkpt lat="24.91037041779863" lon="118.5425731444281">
        <ele>33.47149658203125</ele>
        <time>2025-12-27T10:45:00Z</time>
      </trkpt>
      <trkpt lat="24.910367634848186" lon="118.5426743965535">
        <ele>32.60772705078125</ele>
        <time>2025-12-27T10:45:06Z</time>
      </trkpt>
      <trkpt lat="24.91026920038556" lon="118.54293304514562">
        <ele>26.30157470703125</ele>
        <time>2025-12-27T10:45:24Z</time>
      </trkpt>
      <trkpt lat="24.910282303111565" lon="118.54298216582141">
        <ele>24.372314453125</ele>
        <time>2025-12-27T10:45:27Z</time>
      </trkpt>
      <trkpt lat="24.910344424508665" lon="118.54304331273181">
        <ele>21.349365234375</ele>
        <time>2025-12-27T10:45:33Z</time>
      </trkpt>
      <trkpt lat="24.91034763695323" lon="118.54314356011555">
        <ele>21.4459228515625</ele>
        <time>2025-12-27T10:45:39Z</time>
      </trkpt>
      <trkpt lat="24.910303946856764" lon="118.54328691655193">
        <ele>24.1590576171875</ele>
        <time>2025-12-27T10:45:48Z</time>
      </trkpt>
      <trkpt lat="24.91032804745059" lon="118.54333603578426">
        <ele>24.67535400390625</ele>
        <time>2025-12-27T10:45:51Z</time>
      </trkpt>
      <trkpt lat="24.910450011405324" lon="118.54332700509804">
        <ele>25.241943359375</ele>
        <time>2025-12-27T10:46:00Z</time>
      </trkpt>
      <trkpt lat="24.91076502483905" lon="118.543354049774">
        <ele>21.73004150390625</ele>
        <time>2025-12-27T10:46:21Z</time>
      </trkpt>
      <trkpt lat="24.91081201194273" lon="118.5433510391071">
        <ele>21.446533203125</ele>
        <time>2025-12-27T10:46:24Z</time>
      </trkpt>
      <trkpt lat="24.910921153538037" lon="118.54342521388914">
        <ele>13.44207763671875</ele>
        <time>2025-12-27T10:46:42Z</time>
      </trkpt>
      <trkpt lat="24.910953925789002" lon="118.54379411534961">
        <ele>8.142913818359375</ele>
        <time>2025-12-27T10:47:06Z</time>
      </trkpt>
      <trkpt lat="24.910968127777252" lon="118.5438913516839">
        <ele>7.332183837890625</ele>
        <time>2025-12-27T10:47:12Z</time>
      </trkpt>
      <trkpt lat="24.91108277189258" lon="118.544207111819">
        <ele>2.515106201171875</ele>
        <time>2025-12-27T10:47:33Z</time>
      </trkpt>
      <trkpt lat="24.91121336453174" lon="118.54450081365226">
        <ele>6.003173828125</ele>
        <time>2025-12-27T10:47:54Z</time>
      </trkpt>
      <trkpt lat="24.911338016996734" lon="118.54482458471003">
        <ele>10.418121337890625</ele>
        <time>2025-12-27T10:48:18Z</time>
      </trkpt>
      <trkpt lat="24.911478601804877" lon="118.54511827861471">
        <ele>11.16473388671875</ele>
        <time>2025-12-27T10:48:39Z</time>
      </trkpt>
      <trkpt lat="24.911597217288524" lon="118.54542700633866">
        <ele>6.246429443359375</ele>
        <time>2025-12-27T10:49:00Z</time>
      </trkpt>
      <trkpt lat="24.911723797708763" lon="118.54572069409998">
        <ele>6.985748291015625</ele>
        <time>2025-12-27T10:49:21Z</time>
      </trkpt>
      <trkpt lat="24.911854398759754" lon="118.54602640640135">
        <ele>6.504364013671875</ele>
        <time>2025-12-27T10:49:42Z</time>
      </trkpt>
      <trkpt lat="24.911872588414457" lon="118.54612162905426">
        <ele>6.325653076171875</ele>
        <time>2025-12-27T10:49:48Z</time>
      </trkpt>
      <trkpt lat="24.91194596561342" lon="118.54631407537484">
        <ele>6.296478271484375</ele>
        <time>2025-12-27T10:50:00Z</time>
      </trkpt>
      <trkpt lat="24.91198203911891" lon="118.54635316437749">
        <ele>7.73492431640625</ele>
        <time>2025-12-27T10:50:03Z</time>
      </trkpt>
      <trkpt lat="24.912058336034754" lon="118.54650651747366">
        <ele>8.49755859375</ele>
        <time>2025-12-27T10:50:15Z</time>
      </trkpt>
      <trkpt lat="24.91217294655744" lon="118.54682023970523">
        <ele>10.734222412109375</ele>
        <time>2025-12-27T10:50:36Z</time>
      </trkpt>
      <trkpt lat="24.912332588867308" lon="118.54715500333928">
        <ele>13.21234130859375</ele>
        <time>2025-12-27T10:51:01Z</time>
      </trkpt>
      <trkpt lat="24.912463142371617" lon="118.54744466088623">
        <ele>14.799072265625</ele>
        <time>2025-12-27T10:51:22Z</time>
      </trkpt>
      <trkpt lat="24.91249031402168" lon="118.54753386359035">
        <ele>14.978515625</ele>
        <time>2025-12-27T10:51:28Z</time>
      </trkpt>
      <trkpt lat="24.91267187986788" lon="118.54783554046226">
        <ele>11.5635986328125</ele>
        <time>2025-12-27T10:51:52Z</time>
      </trkpt>
      <trkpt lat="24.912719022024984" lon="118.54791171067855">
        <ele>11.3311767578125</ele>
        <time>2025-12-27T10:51:58Z</time>
      </trkpt>
      <trkpt lat="24.912793115286927" lon="118.5479648263746">
        <ele>11.695343017578125</ele>
        <time>2025-12-27T10:52:04Z</time>
      </trkpt>
      <trkpt lat="24.912942480536525" lon="118.54816326641348">
        <ele>10.47528076171875</ele>
        <time>2025-12-27T10:52:19Z</time>
      </trkpt>
      <trkpt lat="24.9131828742662" lon="118.5483837482444">
        <ele>9.589447021484375</ele>
        <time>2025-12-27T10:52:40Z</time>
      </trkpt>
      <trkpt lat="24.913258941144253" lon="118.54842383338296">
        <ele>8.72625732421875</ele>
        <time>2025-12-27T10:52:46Z</time>
      </trkpt>
      <trkpt lat="24.91350428959851" lon="118.54862226294271">
        <ele>2.30010986328125</ele>
        <time>2025-12-27T10:53:07Z</time>
      </trkpt>
      <trkpt lat="24.91357937937949" lon="118.5486743747421">
        <ele>0.78564453125</ele>
        <time>2025-12-27T10:53:13Z</time>
      </trkpt>
      <trkpt lat="24.913919470568334" lon="118.5487465129461">
        <ele>7.511871337890625</ele>
        <time>2025-12-27T10:53:37Z</time>
      </trkpt>
      <trkpt lat="24.9140626101789" lon="118.54882968928872">
        <ele>10.783050537109375</ele>
        <time>2025-12-27T10:53:49Z</time>
      </trkpt>
      <trkpt lat="24.914113735516526" lon="118.54889884038107">
        <ele>11.42547607421875</ele>
        <time>2025-12-27T10:53:55Z</time>
      </trkpt>
      <trkpt lat="24.914067468327286" lon="118.54927969164537">
        <ele>11.31927490234375</ele>
        <time>2025-12-27T10:54:19Z</time>
      </trkpt>
      <trkpt lat="24.914048847228216" lon="118.54947813238522">
        <ele>9.973419189453125</ele>
        <time>2025-12-27T10:54:31Z</time>
      </trkpt>
      <trkpt lat="24.91402301192183" lon="118.54956332231862">
        <ele>11.870086669921875</ele>
        <time>2025-12-27T10:54:37Z</time>
      </trkpt>
      <trkpt lat="24.914017434011093" lon="118.5497868148267">
        <ele>11.6898193359375</ele>
        <time>2025-12-27T10:54:52Z</time>
      </trkpt>
      <trkpt lat="24.913987581331284" lon="118.54986298413284">
        <ele>12.305908203125</ele>
        <time>2025-12-27T10:54:58Z</time>
      </trkpt>
      <trkpt lat="24.91397719619959" lon="118.55019070156902">
        <ele>15.99267578125</ele>
        <time>2025-12-27T10:55:19Z</time>
      </trkpt>
      <trkpt lat="24.91399055073883" lon="118.55038211714783">
        <ele>16.050537109375</ele>
        <time>2025-12-27T10:55:31Z</time>
      </trkpt>
      <trkpt lat="24.9139667122254" lon="118.55046730365477">
        <ele>15.02325439453125</ele>
        <time>2025-12-27T10:55:37Z</time>
      </trkpt>
      <trkpt lat="24.913970880659022" lon="118.55055850091945">
        <ele>14.19403076171875</ele>
        <time>2025-12-27T10:55:43Z</time>
      </trkpt>
      <trkpt lat="24.913913578104612" lon="118.55093231091556">
        <ele>16.87347412109375</ele>
        <time>2025-12-27T10:56:07Z</time>
      </trkpt>
      <trkpt lat="24.9138441603642" lon="118.55124498530745">
        <ele>15.676025390625</ele>
        <time>2025-12-27T10:56:31Z</time>
      </trkpt>
      <trkpt lat="24.91380339621558" lon="118.55137125734271">
        <ele>15.9638671875</ele>
        <time>2025-12-27T10:56:40Z</time>
      </trkpt>
      <trkpt lat="24.913731688513902" lon="118.55152659253788">
        <ele>16.08740234375</ele>
        <time>2025-12-27T10:56:52Z</time>
      </trkpt>
      <trkpt lat="24.91367781413439" lon="118.55159173444459">
        <ele>17.80340576171875</ele>
        <time>2025-12-27T10:56:58Z</time>
      </trkpt>
      <trkpt lat="24.91344006853253" lon="118.55171400978101">
        <ele>20.742919921875</ele>
        <time>2025-12-27T10:57:16Z</time>
      </trkpt>
      <trkpt lat="24.91341515707938" lon="118.55176111104964">
        <ele>21.9659423828125</ele>
        <time>2025-12-27T10:57:19Z</time>
      </trkpt>
      <trkpt lat="24.91333830698666" lon="118.55183827925119">
        <ele>21.63336181640625</ele>
        <time>2025-12-27T10:57:28Z</time>
      </trkpt>
      <trkpt lat="24.913355414700348" lon="118.55189940690254">
        <ele>19.54144287109375</ele>
        <time>2025-12-27T10:58:31Z</time>
      </trkpt>
      <trkpt lat="24.913465730535695" lon="118.55208378688573">
        <ele>14.84808349609375</ele>
        <time>2025-12-27T10:58:55Z</time>
      </trkpt>
      <trkpt lat="24.91350797577439" lon="118.55222407790342">
        <ele>17.3343505859375</ele>
        <time>2025-12-27T10:59:07Z</time>
      </trkpt>
      <trkpt lat="24.913363326631913" lon="118.55240947505938">
        <ele>18.73968505859375</ele>
        <time>2025-12-27T10:59:25Z</time>
      </trkpt>
      <trkpt lat="24.913323624188195" lon="118.55257381972675">
        <ele>17.52056884765625</ele>
        <time>2025-12-27T10:59:37Z</time>
      </trkpt>
      <trkpt lat="24.91315815398941" lon="118.55286042463408">
        <ele>15.49481201171875</ele>
        <time>2025-12-27T11:00:01Z</time>
      </trkpt>
      <trkpt lat="24.912991673683564" lon="118.55314301776883">
        <ele>14.72265625</ele>
        <time>2025-12-27T11:00:25Z</time>
      </trkpt>
      <trkpt lat="24.91280218994938" lon="118.55342360488486">
        <ele>19.9932861328125</ele>
        <time>2025-12-27T11:00:49Z</time>
      </trkpt>
      <trkpt lat="24.912707405189554" lon="118.5535398482275">
        <ele>26.52294921875</ele>
        <time>2025-12-27T11:01:01Z</time>
      </trkpt>
      <trkpt lat="24.912540948394792" lon="118.55384046932052">
        <ele>35.08837890625</ele>
        <time>2025-12-27T11:01:25Z</time>
      </trkpt>
      <trkpt lat="24.912473199279525" lon="118.55398075709971">
        <ele>31.77447509765625</ele>
        <time>2025-12-27T11:01:37Z</time>
      </trkpt>
      <trkpt lat="24.91226165796203" lon="118.55423127509424">
        <ele>35.05078125</ele>
        <time>2025-12-27T11:02:01Z</time>
      </trkpt>
      <trkpt lat="24.91200800419115" lon="118.55441365734647">
        <ele>36.17132568359375</ele>
        <time>2025-12-27T11:02:25Z</time>
      </trkpt>
      <trkpt lat="24.911864123029268" lon="118.55447178322513">
        <ele>34.76654052734375</ele>
        <time>2025-12-27T11:02:37Z</time>
      </trkpt>
      <trkpt lat="24.911817228221935" lon="118.55452990222278">
        <ele>35.31915283203125</ele>
        <time>2025-12-27T11:02:43Z</time>
      </trkpt>
      <trkpt lat="24.91176245819154" lon="118.55466116688768">
        <ele>30.47930908203125</ele>
        <time>2025-12-27T11:02:55Z</time>
      </trkpt>
      <trkpt lat="24.91167351293193" lon="118.55468622275471">
        <ele>29.32257080078125</ele>
        <time>2025-12-27T11:03:10Z</time>
      </trkpt>
      <trkpt lat="24.911489673892795" lon="118.55476639434671">
        <ele>24.58349609375</ele>
        <time>2025-12-27T11:03:22Z</time>
      </trkpt>
      <trkpt lat="24.911423781043624" lon="118.5548245138947">
        <ele>23.85443115234375</ele>
        <time>2025-12-27T11:03:28Z</time>
      </trkpt>
      <trkpt lat="24.911389897087265" lon="118.55489064689614">
        <ele>22.92254638671875</ele>
        <time>2025-12-27T11:03:34Z</time>
      </trkpt>
      <trkpt lat="24.91137903330581" lon="118.55497080575077">
        <ele>22.5853271484375</ele>
        <time>2025-12-27T11:03:40Z</time>
      </trkpt>
      <trkpt lat="24.911387164943285" lon="118.55504996102783">
        <ele>22.134765625</ele>
        <time>2025-12-27T11:03:46Z</time>
      </trkpt>
      <trkpt lat="24.911313354644747" lon="118.5551571767752">
        <ele>16.1815185546875</ele>
        <time>2025-12-27T11:03:58Z</time>
      </trkpt>
      <trkpt lat="24.91124946394927" lon="118.55521729908955">
        <ele>17.3685302734375</ele>
        <time>2025-12-27T11:04:04Z</time>
      </trkpt>
      <trkpt lat="24.91103863862979" lon="118.55530448435475">
        <ele>19.26214599609375</ele>
        <time>2025-12-27T11:04:22Z</time>
      </trkpt>
      <trkpt lat="24.91090963989058" lon="118.55529447370758">
        <ele>25.17547607421875</ele>
        <time>2025-12-27T11:04:34Z</time>
      </trkpt>
      <trkpt lat="24.910970542891807" lon="118.55524136554675">
        <ele>23.5572509765625</ele>
        <time>2025-12-27T11:04:40Z</time>
      </trkpt>
      <trkpt lat="24.911169347888983" lon="118.5551411553032">
        <ele>20.930908203125</ele>
        <time>2025-12-27T11:04:58Z</time>
      </trkpt>
      <trkpt lat="24.911237385313463" lon="118.55516920563505">
        <ele>18.763427734375</ele>
        <time>2025-12-27T11:05:04Z</time>
      </trkpt>
      <trkpt lat="24.911351539985528" lon="118.55527139796251">
        <ele>16.85308837890625</ele>
        <time>2025-12-27T11:05:16Z</time>
      </trkpt>
      <trkpt lat="24.91140256961442" lon="118.55529343755121">
        <ele>16.9993896484375</ele>
        <time>2025-12-27T11:05:22Z</time>
      </trkpt>
      <trkpt lat="24.911403719522177" lon="118.55538361367951">
        <ele>18.72247314453125</ele>
        <time>2025-12-27T11:05:28Z</time>
      </trkpt>
      <trkpt lat="24.91136566649894" lon="118.55534854783761">
        <ele>17.636962890625</ele>
        <time>2025-12-27T11:05:49Z</time>
      </trkpt>
      <trkpt lat="24.911313635390112" lon="118.5553255064147">
        <ele>20.2056884765625</ele>
        <time>2025-12-27T11:06:07Z</time>
      </trkpt>
      <trkpt lat="24.911341529687203" lon="118.55526438492959">
        <ele>20.34783935546875</ele>
        <time>2025-12-27T11:06:13Z</time>
      </trkpt>
      <trkpt lat="24.91128355946888" lon="118.55527741444324">
        <ele>22.943603515625</ele>
        <time>2025-12-27T11:06:19Z</time>
      </trkpt>
      <trkpt lat="24.91130347649547" lon="118.55522931889925">
        <ele>24.9708251953125</ele>
        <time>2025-12-27T11:06:40Z</time>
      </trkpt>
      <trkpt lat="24.91129335742844" lon="118.55515717816253">
        <ele>25.6019287109375</ele>
        <time>2025-12-27T11:06:46Z</time>
      </trkpt>
      <trkpt lat="24.911328406120017" lon="118.5551892386216">
        <ele>25.34320068359375</ele>
        <time>2025-12-27T11:07:16Z</time>
      </trkpt>
      <trkpt lat="24.911389379221582" lon="118.55517821277809">
        <ele>21.4044189453125</ele>
        <time>2025-12-27T11:07:25Z</time>
      </trkpt>
      <trkpt lat="24.9113732977161" lon="118.55512811558194">
        <ele>21.508544921875</ele>
        <time>2025-12-27T11:07:31Z</time>
      </trkpt>
      <trkpt lat="24.911352503098918" lon="118.55524935474497">
        <ele>24.8804931640625</ele>
        <time>2025-12-27T11:07:55Z</time>
      </trkpt>
      <trkpt lat="24.911308547640527" lon="118.55527240290598">
        <ele>25.1949462890625</ele>
        <time>2025-12-27T11:08:43Z</time>
      </trkpt>
      <trkpt lat="24.911182506707146" lon="118.55523734299247">
        <ele>19.33782958984375</ele>
        <time>2025-12-27T11:08:55Z</time>
      </trkpt>
      <trkpt lat="24.911121536919072" lon="118.55525037273007">
        <ele>17.70556640625</ele>
        <time>2025-12-27T11:09:01Z</time>
      </trkpt>
      <trkpt lat="24.91111543241728" lon="118.5551872494675">
        <ele>19.63116455078125</ele>
        <time>2025-12-27T11:09:07Z</time>
      </trkpt>
      <trkpt lat="24.911147332521626" lon="118.55513013519328">
        <ele>19.9871826171875</ele>
        <time>2025-12-27T11:09:22Z</time>
      </trkpt>
      <trkpt lat="24.911121404804664" lon="118.55517121761223">
        <ele>29.1956787109375</ele>
        <time>2025-12-27T11:09:52Z</time>
      </trkpt>
      <trkpt lat="24.911147474800284" lon="118.55521530223831">
        <ele>24.6025390625</ele>
        <time>2025-12-27T11:10:25Z</time>
      </trkpt>
      <trkpt lat="24.911209497935616" lon="118.55523433523246">
        <ele>24.15374755859375</ele>
        <time>2025-12-27T11:10:31Z</time>
      </trkpt>
      <trkpt lat="24.911264565452534" lon="118.5552794196821">
        <ele>21.505126953125</ele>
        <time>2025-12-27T11:10:37Z</time>
      </trkpt>
      <trkpt lat="24.911292809873256" lon="118.55542870934006">
        <ele>18.72625732421875</ele>
        <time>2025-12-27T11:10:49Z</time>
      </trkpt>
      <trkpt lat="24.91126191891149" lon="118.55549183448181">
        <ele>14.26202392578125</ele>
        <time>2025-12-27T11:10:55Z</time>
      </trkpt>
      <trkpt lat="24.91117984223353" lon="118.55543873671249">
        <ele>6.835662841796875</ele>
        <time>2025-12-27T11:11:04Z</time>
      </trkpt>
      <trkpt lat="24.911133855287297" lon="118.55544274771566">
        <ele>1.656982421875</ele>
        <time>2025-12-27T11:11:10Z</time>
      </trkpt>
      <trkpt lat="24.91109182287246" lon="118.55541970569703">
        <ele>1.836761474609375</ele>
        <time>2025-12-27T11:11:25Z</time>
      </trkpt>
      <trkpt lat="24.91109218133518" lon="118.55563612672044">
        <ele>0.0</ele>
        <time>2025-12-27T11:20:55Z</time>
      </trkpt>
      <trkpt lat="24.911714532852457" lon="118.55529742374806">
        <ele>79.179443359375</ele>
        <time>2025-12-27T11:21:07Z</time>
      </trkpt>
      <trkpt lat="24.91161669486508" lon="118.55538660477198">
        <ele>55.79248046875</ele>
        <time>2025-12-27T11:21:13Z</time>
      </trkpt>
      <trkpt lat="24.911475825976357" lon="118.55545374547442">
        <ele>22.9569091796875</ele>
        <time>2025-12-27T11:21:16Z</time>
      </trkpt>
      <trkpt lat="24.91131992246492" lon="118.55549884411346">
        <ele>13.23907470703125</ele>
        <time>2025-12-27T11:21:19Z</time>
      </trkpt>
      <trkpt lat="24.911375866492207" lon="118.55546978364556">
        <ele>14.11285400390625</ele>
        <time>2025-12-27T11:21:25Z</time>
      </trkpt>
      <trkpt lat="24.91136877600118" lon="118.5554146767126">
        <ele>24.27239990234375</ele>
        <time>2025-12-27T11:21:34Z</time>
      </trkpt>
      <trkpt lat="24.911306669710612" lon="118.55534554605799">
        <ele>18.9600830078125</ele>
        <time>2025-12-27T11:21:40Z</time>
      </trkpt>
      <trkpt lat="24.911320564336226" lon="118.555283423639">
        <ele>18.86944580078125</ele>
        <time>2025-12-27T11:21:49Z</time>
      </trkpt>
      <trkpt lat="24.911359517159966" lon="118.5552583719136">
        <ele>22.8304443359375</ele>
        <time>2025-12-27T11:22:46Z</time>
      </trkpt>
      <trkpt lat="24.91134359952061" lon="118.55530646711716">
        <ele>20.3917236328125</ele>
        <time>2025-12-27T11:23:55Z</time>
      </trkpt>
      <trkpt lat="24.911348515350166" lon="118.55525636875377">
        <ele>21.62255859375</ele>
        <time>2025-12-27T11:24:46Z</time>
      </trkpt>
      <trkpt lat="24.91132058436623" lon="118.55529544715861">
        <ele>19.77166748046875</ele>
        <time>2025-12-27T11:26:13Z</time>
      </trkpt>
      <trkpt lat="24.91132868831486" lon="118.5553585699748">
        <ele>15.17584228515625</ele>
        <time>2025-12-27T11:26:37Z</time>
      </trkpt>
      <trkpt lat="24.911345577548566" lon="118.555293441505">
        <ele>16.7105712890625</ele>
        <time>2025-12-27T11:27:10Z</time>
      </trkpt>
      <trkpt lat="24.911364489732147" lon="118.55524234017902">
        <ele>21.71624755859375</ele>
        <time>2025-12-27T11:31:47Z</time>
      </trkpt>
      <trkpt lat="24.91136369344072" lon="118.55536457928733">
        <ele>19.94781494140625</ele>
        <time>2025-12-27T11:32:08Z</time>
      </trkpt>
      <trkpt lat="24.911322662482725" lon="118.55534253907565">
        <ele>20.079345703125</ele>
        <time>2025-12-27T11:33:05Z</time>
      </trkpt>
      <trkpt lat="24.9112855692077" lon="118.55528342606677">
        <ele>23.67303466796875</ele>
        <time>2025-12-27T11:33:59Z</time>
      </trkpt>
      <trkpt lat="24.9112664632553" lon="118.55521829987353">
        <ele>25.81396484375</ele>
        <time>2025-12-27T11:34:02Z</time>
      </trkpt>
      <trkpt lat="24.911296320162325" lon="118.55513513469285">
        <ele>27.637451171875</ele>
        <time>2025-12-27T11:34:08Z</time>
      </trkpt>
      <trkpt lat="24.91135514924899" lon="118.55503793959508">
        <ele>27.2176513671875</ele>
        <time>2025-12-27T11:34:17Z</time>
      </trkpt>
      <trkpt lat="24.91135996190431" lon="118.55492672015417">
        <ele>26.14398193359375</ele>
        <time>2025-12-27T11:34:32Z</time>
      </trkpt>
      <trkpt lat="24.911330868215504" lon="118.55486860746326">
        <ele>24.52294921875</ele>
        <time>2025-12-27T11:34:41Z</time>
      </trkpt>
      <trkpt lat="24.911333780067128" lon="118.55481650428935">
        <ele>24.0836181640625</ele>
        <time>2025-12-27T11:34:47Z</time>
      </trkpt>
      <trkpt lat="24.911420668284812" lon="118.55475738127979">
        <ele>22.32366943359375</ele>
        <time>2025-12-27T11:34:56Z</time>
      </trkpt>
      <trkpt lat="24.91158455749098" lon="118.55470526667659">
        <ele>21.81640625</ele>
        <time>2025-12-27T11:35:08Z</time>
      </trkpt>
      <trkpt lat="24.911650443281275" lon="118.55464313886159">
        <ele>22.09381103515625</ele>
        <time>2025-12-27T11:35:14Z</time>
      </trkpt>
      <trkpt lat="24.91166930489768" lon="118.55456297827335">
        <ele>22.7044677734375</ele>
        <time>2025-12-27T11:35:20Z</time>
      </trkpt>
      <trkpt lat="24.91154381442082" lon="118.55426439113462">
        <ele>22.3953857421875</ele>
        <time>2025-12-27T11:35:41Z</time>
      </trkpt>
      <trkpt lat="24.911428296608474" lon="118.55395277306641">
        <ele>22.99371337890625</ele>
        <time>2025-12-27T11:36:05Z</time>
      </trkpt>
      <trkpt lat="24.911310770012694" lon="118.55363814471339">
        <ele>24.55059814453125</ele>
        <time>2025-12-27T11:36:29Z</time>
      </trkpt>
      <trkpt lat="24.91123537333559" lon="118.55340367274734">
        <ele>26.7525634765625</ele>
        <time>2025-12-27T11:36:47Z</time>
      </trkpt>
      <trkpt lat="24.911147044661273" lon="118.55320827935255">
        <ele>23.5072021484375</ele>
        <time>2025-12-27T11:37:02Z</time>
      </trkpt>
      <trkpt lat="24.911123900539952" lon="118.55312410833564">
        <ele>22.64654541015625</ele>
        <time>2025-12-27T11:37:08Z</time>
      </trkpt>
      <trkpt lat="24.911157809741965" lon="118.5530750051407">
        <ele>21.43560791015625</ele>
        <time>2025-12-27T11:37:14Z</time>
      </trkpt>
      <trkpt lat="24.911167933028228" lon="118.55314615052059">
        <ele>20.5504150390625</ele>
        <time>2025-12-27T11:37:32Z</time>
      </trkpt>
      <trkpt lat="24.911106885348673" lon="118.55311408894538">
        <ele>20.85986328125</ele>
        <time>2025-12-27T11:37:50Z</time>
      </trkpt>
      <trkpt lat="24.91115288421495" lon="118.55311709192458">
        <ele>22.96905517578125</ele>
        <time>2025-12-27T11:41:05Z</time>
      </trkpt>
      <trkpt lat="24.91112178486966" lon="118.55305797263044">
        <ele>23.98236083984375</ele>
        <time>2025-12-27T11:42:08Z</time>
      </trkpt>
      <trkpt lat="24.911126613452378" lon="118.55296077228375">
        <ele>25.95556640625</ele>
        <time>2025-12-27T11:42:14Z</time>
      </trkpt>
      <trkpt lat="24.91111348830021" lon="118.55288862446326">
        <ele>27.63836669921875</ele>
        <time>2025-12-27T11:43:05Z</time>
      </trkpt>
      <trkpt lat="24.91099805300494" lon="118.55263310387568">
        <ele>25.19171142578125</ele>
        <time>2025-12-27T11:43:23Z</time>
      </trkpt>
      <trkpt lat="24.910973901786914" lon="118.55254592454953">
        <ele>22.97869873046875</ele>
        <time>2025-12-27T11:43:29Z</time>
      </trkpt>
      <trkpt lat="24.910792422156728" lon="118.55226234606306">
        <ele>25.45379638671875</ele>
        <time>2025-12-27T11:43:53Z</time>
      </trkpt>
      <trkpt lat="24.910684851638987" lon="118.55193566827354">
        <ele>21.30615234375</ele>
        <time>2025-12-27T11:44:17Z</time>
      </trkpt>
      <trkpt lat="24.910534310168366" lon="118.55162402065973">
        <ele>21.89447021484375</ele>
        <time>2025-12-27T11:44:41Z</time>
      </trkpt>
      <trkpt lat="24.910372682411243" lon="118.55126627127794">
        <ele>23.80096435546875</ele>
        <time>2025-12-27T11:45:05Z</time>
      </trkpt>
      <trkpt lat="24.91027428006937" lon="118.55103879159361">
        <ele>20.86614990234375</ele>
        <time>2025-12-27T11:45:23Z</time>
      </trkpt>
      <trkpt lat="24.910170706470257" lon="118.5507191113136">
        <ele>19.096435546875</ele>
        <time>2025-12-27T11:45:44Z</time>
      </trkpt>
      <trkpt lat="24.910039151454125" lon="118.55040945033373">
        <ele>20.60675048828125</ele>
        <time>2025-12-27T11:46:05Z</time>
      </trkpt>
      <trkpt lat="24.910015985137917" lon="118.55031825380992">
        <ele>19.73785400390625</ele>
        <time>2025-12-27T11:46:11Z</time>
      </trkpt>
      <trkpt lat="24.90984737421121" lon="118.54997852428791">
        <ele>21.73114013671875</ele>
        <time>2025-12-27T11:46:35Z</time>
      </trkpt>
      <trkpt lat="24.909706809807236" lon="118.54966785191505">
        <ele>26.9595947265625</ele>
        <time>2025-12-27T11:46:56Z</time>
      </trkpt>
      <trkpt lat="24.90958834508878" lon="118.54941329817187">
        <ele>26.2572021484375</ele>
        <time>2025-12-27T11:47:14Z</time>
      </trkpt>
      <trkpt lat="24.90956817870915" lon="118.54932410201077">
        <ele>26.6591796875</ele>
        <time>2025-12-27T11:47:20Z</time>
      </trkpt>
      <trkpt lat="24.909491884407284" lon="118.54916375129574">
        <ele>27.85650634765625</ele>
        <time>2025-12-27T11:47:32Z</time>
      </trkpt>
      <trkpt lat="24.909383298309308" lon="118.54884905700139">
        <ele>24.88323974609375</ele>
        <time>2025-12-27T11:47:53Z</time>
      </trkpt>
      <trkpt lat="24.90926570974424" lon="118.54853435916121">
        <ele>25.6719970703125</ele>
        <time>2025-12-27T11:48:14Z</time>
      </trkpt>
      <trkpt lat="24.909131042053904" lon="118.54817956758757">
        <ele>24.8433837890625</ele>
        <time>2025-12-27T11:48:38Z</time>
      </trkpt>
      <trkpt lat="24.909140851794135" lon="118.5480823465229">
        <ele>25.4610595703125</ele>
        <time>2025-12-27T11:48:44Z</time>
      </trkpt>
      <trkpt lat="24.909174700798047" lon="118.54800717350115">
        <ele>24.9156494140625</ele>
        <time>2025-12-27T11:48:50Z</time>
      </trkpt>
      <trkpt lat="24.909466339661435" lon="118.54784277921675">
        <ele>27.46710205078125</ele>
        <time>2025-12-27T11:49:14Z</time>
      </trkpt>
      <trkpt lat="24.909725979992814" lon="118.54767738373886">
        <ele>27.6212158203125</ele>
        <time>2025-12-27T11:49:35Z</time>
      </trkpt>
      <trkpt lat="24.909816890725626" lon="118.54763828804303">
        <ele>26.02801513671875</ele>
        <time>2025-12-27T11:49:41Z</time>
      </trkpt>
      <trkpt lat="24.909853822671757" lon="118.54760621209319">
        <ele>26.80096435546875</ele>
        <time>2025-12-27T11:49:44Z</time>
      </trkpt>
      <trkpt lat="24.909917542032698" lon="118.54746789071065">
        <ele>24.78936767578125</ele>
        <time>2025-12-27T11:49:53Z</time>
      </trkpt>
      <trkpt lat="24.910168171419038" lon="118.54729748175149">
        <ele>23.72003173828125</ele>
        <time>2025-12-27T11:50:14Z</time>
      </trkpt>
      <trkpt lat="24.910440808573934" lon="118.5471330839429">
        <ele>29.46826171875</ele>
        <time>2025-12-27T11:50:35Z</time>
      </trkpt>
      <trkpt lat="24.91070442209358" lon="118.54695665779853">
        <ele>26.2879638671875</ele>
        <time>2025-12-27T11:50:56Z</time>
      </trkpt>
      <trkpt lat="24.910900133752055" lon="118.54682533981367">
        <ele>26.3858642578125</ele>
        <time>2025-12-27T11:51:14Z</time>
      </trkpt>
      <trkpt lat="24.911131927737237" lon="118.5467381211632">
        <ele>31.82281494140625</ele>
        <time>2025-12-27T11:51:32Z</time>
      </trkpt>
      <trkpt lat="24.91130159386243" lon="118.54658274775183">
        <ele>23.10076904296875</ele>
        <time>2025-12-27T11:51:48Z</time>
      </trkpt>
      <trkpt lat="24.911613279526414" lon="118.5464474103212">
        <ele>30.77899169921875</ele>
        <time>2025-12-27T11:52:12Z</time>
      </trkpt>
      <trkpt lat="24.911776087931408" lon="118.54636320214979">
        <ele>33.28680419921875</ele>
        <time>2025-12-27T11:52:24Z</time>
      </trkpt>
      <trkpt lat="24.911848787624834" lon="118.5462188589598">
        <ele>34.22613525390625</ele>
        <time>2025-12-27T11:52:33Z</time>
      </trkpt>
      <trkpt lat="24.91186857078081" lon="118.54611260813617">
        <ele>32.4564208984375</ele>
        <time>2025-12-27T11:52:39Z</time>
      </trkpt>
      <trkpt lat="24.91186145647952" lon="118.54605547430354">
        <ele>28.29052734375</ele>
        <time>2025-12-27T11:52:42Z</time>
      </trkpt>
      <trkpt lat="24.91177708307075" lon="118.54586503145433">
        <ele>17.974365234375</ele>
        <time>2025-12-27T11:52:51Z</time>
      </trkpt>
      <trkpt lat="24.911680426503015" lon="118.54553525771165">
        <ele>21.06231689453125</ele>
        <time>2025-12-27T11:53:09Z</time>
      </trkpt>
      <trkpt lat="24.911539895332425" lon="118.54526562609023">
        <ele>18.4783935546875</ele>
        <time>2025-12-27T11:53:27Z</time>
      </trkpt>
      <trkpt lat="24.9114033032626" lon="118.54496792403643">
        <ele>18.2889404296875</ele>
        <time>2025-12-27T11:53:48Z</time>
      </trkpt>
      <trkpt lat="24.911360945542572" lon="118.54479150364473">
        <ele>19.7496337890625</ele>
        <time>2025-12-27T11:54:00Z</time>
      </trkpt>
      <trkpt lat="24.91125750594172" lon="118.54457198233577">
        <ele>20.259521484375</ele>
        <time>2025-12-27T11:54:18Z</time>
      </trkpt>
      <trkpt lat="24.911154839164716" lon="118.54424419676953">
        <ele>25.2701416015625</ele>
        <time>2025-12-27T11:54:39Z</time>
      </trkpt>
      <trkpt lat="24.911121626383647" lon="118.5441399460708">
        <ele>27.530029296875</ele>
        <time>2025-12-27T11:54:45Z</time>
      </trkpt>
      <trkpt lat="24.91099205299324" lon="118.54385726687686">
        <ele>25.089111328125</ele>
        <time>2025-12-27T11:55:03Z</time>
      </trkpt>
      <trkpt lat="24.910979873767236" lon="118.54377105721753">
        <ele>21.86053466796875</ele>
        <time>2025-12-27T11:55:09Z</time>
      </trkpt>
      <trkpt lat="24.911006705717682" lon="118.54369286417308">
        <ele>19.6513671875</ele>
        <time>2025-12-27T11:55:15Z</time>
      </trkpt>
      <trkpt lat="24.910996426475165" lon="118.54355953835076">
        <ele>17.242431640625</ele>
        <time>2025-12-27T11:55:24Z</time>
      </trkpt>
      <trkpt lat="24.910948293660834" lon="118.54349337939908">
        <ele>20.3258056640625</ele>
        <time>2025-12-27T11:55:30Z</time>
      </trkpt>
      <trkpt lat="24.91088118662139" lon="118.54343824868643">
        <ele>23.9722900390625</ele>
        <time>2025-12-27T11:55:36Z</time>
      </trkpt>
      <trkpt lat="24.9108460241693" lon="118.54335905646738">
        <ele>23.479736328125</ele>
        <time>2025-12-27T11:55:42Z</time>
      </trkpt>
      <trkpt lat="24.910775963948122" lon="118.54332597995314">
        <ele>23.94439697265625</ele>
        <time>2025-12-27T11:55:48Z</time>
      </trkpt>
      <trkpt lat="24.910491050226877" lon="118.54334805403958">
        <ele>26.20819091796875</ele>
        <time>2025-12-27T11:56:06Z</time>
      </trkpt>
      <trkpt lat="24.910294007646055" lon="118.54331498634592">
        <ele>26.256591796875</ele>
        <time>2025-12-27T11:56:18Z</time>
      </trkpt>
      <trkpt lat="24.910278899396975" lon="118.54326285903939">
        <ele>24.0877685546875</ele>
        <time>2025-12-27T11:56:21Z</time>
      </trkpt>
      <trkpt lat="24.910318743034814" lon="118.54319168083806">
        <ele>25.31878662109375</ele>
        <time>2025-12-27T11:56:27Z</time>
      </trkpt>
      <trkpt lat="24.910311252157" lon="118.54296010922845">
        <ele>21.27099609375</ele>
        <time>2025-12-27T11:56:42Z</time>
      </trkpt>
      <trkpt lat="24.910402428375043" lon="118.54258015967399">
        <ele>25.87890625</ele>
        <time>2025-12-27T11:57:06Z</time>
      </trkpt>
      <trkpt lat="24.91048170706796" lon="118.54224932833995">
        <ele>20.9990234375</ele>
        <time>2025-12-27T11:57:27Z</time>
      </trkpt>
      <trkpt lat="24.910482482336683" lon="118.54214506715398">
        <ele>19.20428466796875</ele>
        <time>2025-12-27T11:57:33Z</time>
      </trkpt>
      <trkpt lat="24.910544995086013" lon="118.54192350651057">
        <ele>22.9765625</ele>
        <time>2025-12-27T11:57:48Z</time>
      </trkpt>
      <trkpt lat="24.910584844130657" lon="118.5418563347153">
        <ele>22.7816162109375</ele>
        <time>2025-12-27T11:57:54Z</time>
      </trkpt>
      <trkpt lat="24.910644431355085" lon="118.54166986043856">
        <ele>17.84063720703125</ele>
        <time>2025-12-27T11:58:06Z</time>
      </trkpt>
      <trkpt lat="24.9107729531964" lon="118.54145831656693">
        <ele>15.13092041015625</ele>
        <time>2025-12-27T11:58:21Z</time>
      </trkpt>
      <trkpt lat="24.910853342046796" lon="118.54118361378822">
        <ele>18.6285400390625</ele>
        <time>2025-12-27T11:58:39Z</time>
      </trkpt>
      <trkpt lat="24.91086314525688" lon="118.54109438603304">
        <ele>15.595458984375</ele>
        <time>2025-12-27T11:58:45Z</time>
      </trkpt>
      <trkpt lat="24.91084141250273" lon="118.54075953270392">
        <ele>15.5606689453125</ele>
        <time>2025-12-27T11:59:03Z</time>
      </trkpt>
      <trkpt lat="24.91083520119213" lon="118.54066328665188">
        <ele>15.40191650390625</ele>
        <time>2025-12-27T11:59:09Z</time>
      </trkpt>
      <trkpt lat="24.91088637343141" lon="118.54029232984666">
        <ele>19.264404296875</ele>
        <time>2025-12-27T11:59:33Z</time>
      </trkpt>
      <trkpt lat="24.91097257201577" lon="118.5399374070139">
        <ele>19.71917724609375</ele>
        <time>2025-12-27T11:59:57Z</time>
      </trkpt>
      <trkpt lat="24.91107880860687" lon="118.53960253029624">
        <ele>21.2513427734375</ele>
        <time>2025-12-27T12:00:21Z</time>
      </trkpt>
      <trkpt lat="24.91112228489964" lon="118.53937192622764">
        <ele>19.50115966796875</ele>
        <time>2025-12-27T12:00:39Z</time>
      </trkpt>
      <trkpt lat="24.91110308453769" lon="118.53928169184276">
        <ele>20.69061279296875</ele>
        <time>2025-12-27T12:00:45Z</time>
      </trkpt>
      <trkpt lat="24.91113691269246" lon="118.53920749544646">
        <ele>17.7611083984375</ele>
        <time>2025-12-27T12:00:51Z</time>
      </trkpt>
      <trkpt lat="24.911131714424663" lon="118.53911926479566">
        <ele>18.19720458984375</ele>
        <time>2025-12-27T12:00:57Z</time>
      </trkpt>
      <trkpt lat="24.911226904962714" lon="118.5387673339075">
        <ele>21.07965087890625</ele>
        <time>2025-12-27T12:01:21Z</time>
      </trkpt>
      <trkpt lat="24.910913577451616" lon="118.53860392498932">
        <ele>21.8035888671875</ele>
        <time>2025-12-27T12:01:45Z</time>
      </trkpt>
      <trkpt lat="24.910853469522785" lon="118.53855279420453">
        <ele>22.15106201171875</ele>
        <time>2025-12-27T12:01:51Z</time>
      </trkpt>
      <trkpt lat="24.910859258724305" lon="118.53846055008205">
        <ele>25.17059326171875</ele>
        <time>2025-12-27T12:01:57Z</time>
      </trkpt>
      <trkpt lat="24.910988515089404" lon="118.5381426989496">
        <ele>24.5166015625</ele>
        <time>2025-12-27T12:02:21Z</time>
      </trkpt>
      <trkpt lat="24.911034072271658" lon="118.53795218928678">
        <ele>22.16998291015625</ele>
        <time>2025-12-27T12:02:33Z</time>
      </trkpt>
      <trkpt lat="24.91119330776376" lon="118.53762931685615">
        <ele>27.66058349609375</ele>
        <time>2025-12-27T12:02:57Z</time>
      </trkpt>
      <trkpt lat="24.91127288953856" lon="118.53745283894627">
        <ele>29.52862548828125</ele>
        <time>2025-12-27T12:03:09Z</time>
      </trkpt>
      <trkpt lat="24.911212735703636" lon="118.53738265495879">
        <ele>29.02099609375</ele>
        <time>2025-12-27T12:03:15Z</time>
      </trkpt>
      <trkpt lat="24.911134600458773" lon="118.53731949089317">
        <ele>29.7127685546875</ele>
        <time>2025-12-27T12:03:21Z</time>
      </trkpt>
      <trkpt lat="24.91114648507017" lon="118.53727035812508">
        <ele>28.3033447265625</ele>
        <time>2025-12-27T12:03:24Z</time>
      </trkpt>
      <trkpt lat="24.91114648507017" lon="118.53727035812508">
        <ele>28.3033447265625</ele>
        <time>2025-12-27T12:03:26Z</time>
      </trkpt>
    </trkseg>
  </trk>
</gpx>