<?xml version="1.0" encoding="UTF-8"?>
<gpx xmlns="http://www.topografix.com/GPX/1/1" xmlns:gpxtpx="http://www.garmin.com/xmlschemas/TrackPointExtension/v1" xmlns:xsi="http://www.w3.org/2001/XMLSchema-instance" xsi:schemaLocation="http://www.topografix.com/GPX/1/1 http://www.topografix.com/GPX/1/1/gpx.xsd" version="1.1" creator="gpx.py -- https://github.com/tkrajina/gpxpy">
  <trk>
    <name>gpx from keep</name>
    <type>Run</type>
    <trkseg>
      <trkpt lat="24.94528884031236" lon="118.57680521590092">
        <ele>32.85345458984375</ele>
        <time>2025-12-03T07:32:34Z</time>
      </trkpt>
      <trkpt lat="24.944923894474787" lon="118.57680824392335">
        <ele>34.12286376953125</ele>
        <time>2025-12-03T07:32:43Z</time>
      </trkpt>
      <trkpt lat="24.94458894362448" lon="118.57681026894943">
        <ele>35.39544677734375</ele>
        <time>2025-12-03T07:32:52Z</time>
      </trkpt>
      <trkpt lat="24.94436597461696" lon="118.57680928346575">
        <ele>36.49560546875</ele>
        <time>2025-12-03T07:32:58Z</time>
      </trkpt>
      <trkpt lat="24.944257010063996" lon="118.57683631580733">
        <ele>36.29864501953125</ele>
        <time>2025-12-03T07:33:01Z</time>
      </trkpt>
      <trkpt lat="24.944163072036925" lon="118.57690238277374">
        <ele>35.7783203125</ele>
        <time>2025-12-03T07:33:04Z</time>
      </trkpt>
      <trkpt lat="24.944095152780463" lon="118.57699947593994">
        <ele>35.43377685546875</ele>
        <time>2025-12-03T07:33:07Z</time>
      </trkpt>
      <trkpt lat="24.944066245689516" lon="118.5771215885321">
        <ele>35.13275146484375</ele>
        <time>2025-12-03T07:33:10Z</time>
      </trkpt>
      <trkpt lat="24.944070336110013" lon="118.57724770167823">
        <ele>34.09942626953125</ele>
        <time>2025-12-03T07:33:13Z</time>
      </trkpt>
      <trkpt lat="24.944108416694743" lon="118.57736780632581">
        <ele>33.6666259765625</ele>
        <time>2025-12-03T07:33:16Z</time>
      </trkpt>
      <trkpt lat="24.944175478325352" lon="118.57746789053195">
        <ele>33.072509765625</ele>
        <time>2025-12-03T07:33:19Z</time>
      </trkpt>
      <trkpt lat="24.944264515914345" lon="118.57753894714475">
        <ele>31.84027099609375</ele>
        <time>2025-12-03T07:33:22Z</time>
      </trkpt>
      <trkpt lat="24.944366530316326" lon="118.57757997621837">
        <ele>30.95556640625</ele>
        <time>2025-12-03T07:33:25Z</time>
      </trkpt>
      <trkpt lat="24.944685477878302" lon="118.57756994533447">
        <ele>29.31005859375</ele>
        <time>2025-12-03T07:33:34Z</time>
      </trkpt>
      <trkpt lat="24.944883445472406" lon="118.57756392634478">
        <ele>29.244140625</ele>
        <time>2025-12-03T07:33:40Z</time>
      </trkpt>
      <trkpt lat="24.945194373681634" lon="118.577524870419">
        <ele>29.05621337890625</ele>
        <time>2025-12-03T07:33:49Z</time>
      </trkpt>
      <trkpt lat="24.945297344877442" lon="118.57750484561895">
        <ele>29.2869873046875</ele>
        <time>2025-12-03T07:33:52Z</time>
      </trkpt>
      <trkpt lat="24.945393292932245" lon="118.57745079116191">
        <ele>29.77252197265625</ele>
        <time>2025-12-03T07:33:55Z</time>
      </trkpt>
      <trkpt lat="24.945471223447242" lon="118.5773687128778">
        <ele>29.934326171875</ele>
        <time>2025-12-03T07:33:58Z</time>
      </trkpt>
      <trkpt lat="24.94552013911516" lon="118.57726061297348">
        <ele>30.75750732421875</ele>
        <time>2025-12-03T07:34:01Z</time>
      </trkpt>
      <trkpt lat="24.94554205231" lon="118.57714450713375">
        <ele>32.02294921875</ele>
        <time>2025-12-03T07:34:04Z</time>
      </trkpt>
      <trkpt lat="24.945518970573907" lon="118.57702740282232">
        <ele>32.40594482421875</ele>
        <time>2025-12-03T07:34:07Z</time>
      </trkpt>
      <trkpt lat="24.945463904521347" lon="118.57692631465346">
        <ele>33.35064697265625</ele>
        <time>2025-12-03T07:34:10Z</time>
      </trkpt>
      <trkpt lat="24.945380854538964" lon="118.57684224351222">
        <ele>34.06890869140625</ele>
        <time>2025-12-03T07:34:13Z</time>
      </trkpt>
      <trkpt lat="24.945279829020016" lon="118.5767882008886">
        <ele>34.716796875</ele>
        <time>2025-12-03T07:34:16Z</time>
      </trkpt>
      <trkpt lat="24.945175831975654" lon="118.5767721933585">
        <ele>35.09228515625</ele>
        <time>2025-12-03T07:34:19Z</time>
      </trkpt>
      <trkpt lat="24.94488088950271" lon="118.57679323310693">
        <ele>35.5458984375</ele>
        <time>2025-12-03T07:34:28Z</time>
      </trkpt>
      <trkpt lat="24.944582933388276" lon="118.57679525557349">
        <ele>36.6400146484375</ele>
        <time>2025-12-03T07:34:37Z</time>
      </trkpt>
      <trkpt lat="24.944379966711143" lon="118.5768012751424">
        <ele>37.2239990234375</ele>
        <time>2025-12-03T07:34:43Z</time>
      </trkpt>
      <trkpt lat="24.94427999571899" lon="118.57682130044378">
        <ele>38.12420654296875</ele>
        <time>2025-12-03T07:34:46Z</time>
      </trkpt>
      <trkpt lat="24.94419205246894" lon="118.576881361553">
        <ele>38.25018310546875</ele>
        <time>2025-12-03T07:34:49Z</time>
      </trkpt>
      <trkpt lat="24.944122125540506" lon="118.57696744494103">
        <ele>38.1319580078125</ele>
        <time>2025-12-03T07:34:52Z</time>
      </trkpt>
      <trkpt lat="24.944076209415776" lon="118.57707354442067">
        <ele>37.14398193359375</ele>
        <time>2025-12-03T07:34:55Z</time>
      </trkpt>
      <trkpt lat="24.944059300210547" lon="118.5771956557271">
        <ele>35.88897705078125</ele>
        <time>2025-12-03T07:34:58Z</time>
      </trkpt>
      <trkpt lat="24.94407938650223" lon="118.57731976550903">
        <ele>35.181396484375</ele>
        <time>2025-12-03T07:35:01Z</time>
      </trkpt>
      <trkpt lat="24.944138448776034" lon="118.57741884962256">
        <ele>33.6893310546875</ele>
        <time>2025-12-03T07:35:04Z</time>
      </trkpt>
      <trkpt lat="24.94421649516879" lon="118.57749991601763">
        <ele>33.0504150390625</ele>
        <time>2025-12-03T07:35:07Z</time>
      </trkpt>
      <trkpt lat="24.944306516997795" lon="118.57754895305865">
        <ele>32.5335693359375</ele>
        <time>2025-12-03T07:35:10Z</time>
      </trkpt>
      <trkpt lat="24.944604483059766" lon="118.57756094301172">
        <ele>30.96014404296875</ele>
        <time>2025-12-03T07:35:19Z</time>
      </trkpt>
      <trkpt lat="24.94480745417239" lon="118.57756092896152">
        <ele>29.9591064453125</ele>
        <time>2025-12-03T07:35:25Z</time>
      </trkpt>
      <trkpt lat="24.945124392828564" lon="118.5775378867393">
        <ele>29.07366943359375</ele>
        <time>2025-12-03T07:35:34Z</time>
      </trkpt>
      <trkpt lat="24.9452203749279" lon="118.5775318747995">
        <ele>29.835693359375</ele>
        <time>2025-12-03T07:35:37Z</time>
      </trkpt>
      <trkpt lat="24.945317340615485" lon="118.57750284246644">
        <ele>30.8143310546875</ele>
        <time>2025-12-03T07:35:40Z</time>
      </trkpt>
      <trkpt lat="24.94540428568406" lon="118.5774427833047">
        <ele>31.0928955078125</ele>
        <time>2025-12-03T07:35:43Z</time>
      </trkpt>
      <trkpt lat="24.945477216166864" lon="118.57735970444224">
        <ele>31.12847900390625</ele>
        <time>2025-12-03T07:35:46Z</time>
      </trkpt>
      <trkpt lat="24.94552113609762" lon="118.57725660931841">
        <ele>32.01507568359375</ele>
        <time>2025-12-03T07:35:49Z</time>
      </trkpt>
      <trkpt lat="24.945533049970688" lon="118.57713950324504">
        <ele>33.281982421875</ele>
        <time>2025-12-03T07:35:52Z</time>
      </trkpt>
      <trkpt lat="24.9455109680659" lon="118.5770223988349">
        <ele>33.49188232421875</ele>
        <time>2025-12-03T07:35:55Z</time>
      </trkpt>
      <trkpt lat="24.945454899930713" lon="118.57691830796922">
        <ele>34.25933837890625</ele>
        <time>2025-12-03T07:35:58Z</time>
      </trkpt>
      <trkpt lat="24.945371852131554" lon="118.5768372395474">
        <ele>35.54620361328125</ele>
        <time>2025-12-03T07:36:01Z</time>
      </trkpt>
      <trkpt lat="24.945274828251556" lon="118.57678619939429">
        <ele>35.97467041015625</ele>
        <time>2025-12-03T07:36:04Z</time>
      </trkpt>
      <trkpt lat="24.945174830636468" lon="118.57677019158571">
        <ele>36.3695068359375</ele>
        <time>2025-12-03T07:36:07Z</time>
      </trkpt>
      <trkpt lat="24.944865894595996" lon="118.5767972378244">
        <ele>37.3662109375</ele>
        <time>2025-12-03T07:36:16Z</time>
      </trkpt>
      <trkpt lat="24.94456694527694" lon="118.57680826863404">
        <ele>38.0364990234375</ele>
        <time>2025-12-03T07:36:25Z</time>
      </trkpt>
      <trkpt lat="24.94436097606743" lon="118.5768102847309">
        <ele>39.45068359375</ele>
        <time>2025-12-03T07:36:31Z</time>
      </trkpt>
      <trkpt lat="24.944259003137187" lon="118.57682730740731">
        <ele>39.33795166015625</ele>
        <time>2025-12-03T07:36:34Z</time>
      </trkpt>
      <trkpt lat="24.944171058399714" lon="118.57688536666795">
        <ele>39.28179931640625</ele>
        <time>2025-12-03T07:36:37Z</time>
      </trkpt>
      <trkpt lat="24.944109133244076" lon="118.57697545312818">
        <ele>38.6160888671875</ele>
        <time>2025-12-03T07:36:40Z</time>
      </trkpt>
      <trkpt lat="24.944071215942873" lon="118.57708155201135">
        <ele>37.61370849609375</ele>
        <time>2025-12-03T07:36:43Z</time>
      </trkpt>
      <trkpt lat="24.94406029862489" lon="118.57719365385853">
        <ele>36.38275146484375</ele>
        <time>2025-12-03T07:36:46Z</time>
      </trkpt>
      <trkpt lat="24.944077378907473" lon="118.5773087558173">
        <ele>35.0670166015625</ele>
        <time>2025-12-03T07:36:49Z</time>
      </trkpt>
      <trkpt lat="24.94412744607078" lon="118.57741284505269">
        <ele>33.87799072265625</ele>
        <time>2025-12-03T07:36:52Z</time>
      </trkpt>
      <trkpt lat="24.94420349064523" lon="118.57749090895666">
        <ele>32.87884521484375</ele>
        <time>2025-12-03T07:36:55Z</time>
      </trkpt>
      <trkpt lat="24.94429151348485" lon="118.5775409470406">
        <ele>31.87371826171875</ele>
        <time>2025-12-03T07:36:58Z</time>
      </trkpt>
      <trkpt lat="24.944390513510932" lon="118.57756095782315">
        <ele>31.33319091796875</ele>
        <time>2025-12-03T07:37:01Z</time>
      </trkpt>
      <trkpt lat="24.94469246842157" lon="118.57755793427711">
        <ele>29.96246337890625</ele>
        <time>2025-12-03T07:37:10Z</time>
      </trkpt>
      <trkpt lat="24.944989412040968" lon="118.57753789608316">
        <ele>28.64959716796875</ele>
        <time>2025-12-03T07:37:19Z</time>
      </trkpt>
      <trkpt lat="24.945297351245017" lon="118.57751385357338">
        <ele>30.2484130859375</ele>
        <time>2025-12-03T07:37:28Z</time>
      </trkpt>
      <trkpt lat="24.9453903011681" lon="118.57746180112105">
        <ele>30.22747802734375</ele>
        <time>2025-12-03T07:37:31Z</time>
      </trkpt>
      <trkpt lat="24.94546622915468" lon="118.57737571945903">
        <ele>30.37701416015625</ele>
        <time>2025-12-03T07:37:34Z</time>
      </trkpt>
      <trkpt lat="24.94551714097948" lon="118.57726261497373">
        <ele>31.335205078125</ele>
        <time>2025-12-03T07:37:37Z</time>
      </trkpt>
      <trkpt lat="24.945534052724668" lon="118.57714350678526">
        <ele>31.89202880859375</ele>
        <time>2025-12-03T07:37:40Z</time>
      </trkpt>
      <trkpt lat="24.945510972441728" lon="118.57702840428415">
        <ele>32.8304443359375</ele>
        <time>2025-12-03T07:37:43Z</time>
      </trkpt>
      <trkpt lat="24.945461905539748" lon="118.57692731570506">
        <ele>33.05047607421875</ele>
        <time>2025-12-03T07:37:46Z</time>
      </trkpt>
      <trkpt lat="24.945387854280224" lon="118.57684324394509">
        <ele>33.83746337890625</ele>
        <time>2025-12-03T07:37:49Z</time>
      </trkpt>
      <trkpt lat="24.945290825234327" lon="118.57678519736652">
        <ele>34.59222412109375</ele>
        <time>2025-12-03T07:37:52Z</time>
      </trkpt>
      <trkpt lat="24.945181827417656" lon="118.57676718833777">
        <ele>35.21112060546875</ele>
        <time>2025-12-03T07:37:55Z</time>
      </trkpt>
      <trkpt lat="24.944872894339404" lon="118.57679823825953">
        <ele>36.6329345703125</ele>
        <time>2025-12-03T07:38:04Z</time>
      </trkpt>
      <trkpt lat="24.944570941751053" lon="118.5768042646802">
        <ele>37.92822265625</ele>
        <time>2025-12-03T07:38:13Z</time>
      </trkpt>
      <trkpt lat="24.94436497402019" lon="118.57680828261586">
        <ele>39.08013916015625</ele>
        <time>2025-12-03T07:38:19Z</time>
      </trkpt>
      <trkpt lat="24.94426800333298" lon="118.57682930862062">
        <ele>38.77032470703125</ele>
        <time>2025-12-03T07:38:22Z</time>
      </trkpt>
      <trkpt lat="24.944183061105196" lon="118.57689137132799">
        <ele>38.97784423828125</ele>
        <time>2025-12-03T07:38:25Z</time>
      </trkpt>
      <trkpt lat="24.94411613517399" lon="118.57697945628615">
        <ele>38.73724365234375</ele>
        <time>2025-12-03T07:38:28Z</time>
      </trkpt>
      <trkpt lat="24.944076218864826" lon="118.57708655619153">
        <ele>38.515625</ele>
        <time>2025-12-03T07:38:31Z</time>
      </trkpt>
      <trkpt lat="24.9440673062865" lon="118.57720566416715">
        <ele>37.4920654296875</ele>
        <time>2025-12-03T07:38:34Z</time>
      </trkpt>
      <trkpt lat="24.944086389801782" lon="118.57732577038391">
        <ele>36.62213134765625</ele>
        <time>2025-12-03T07:38:37Z</time>
      </trkpt>
      <trkpt lat="24.944138455889682" lon="118.57742885850388">
        <ele>35.8336181640625</ele>
        <time>2025-12-03T07:38:40Z</time>
      </trkpt>
      <trkpt lat="24.944211500127032" lon="118.57750592166859">
        <ele>35.01116943359375</ele>
        <time>2025-12-03T07:38:43Z</time>
      </trkpt>
      <trkpt lat="24.944301520531788" lon="118.57755295693163">
        <ele>33.37762451171875</ele>
        <time>2025-12-03T07:38:46Z</time>
      </trkpt>
      <trkpt lat="24.944398518717456" lon="118.57756996519842">
        <ele>32.833984375</ele>
        <time>2025-12-03T07:38:49Z</time>
      </trkpt>
      <trkpt lat="24.944709470938584" lon="118.57756493926888">
        <ele>31.3602294921875</ele>
        <time>2025-12-03T07:38:58Z</time>
      </trkpt>
      <trkpt lat="24.945019409183953" lon="118.57753989577142">
        <ele>29.67523193359375</ele>
        <time>2025-12-03T07:39:07Z</time>
      </trkpt>
      <trkpt lat="24.94531933749927" lon="118.577498838791">
        <ele>29.078857421875</ele>
        <time>2025-12-03T07:39:16Z</time>
      </trkpt>
      <trkpt lat="24.945407285967566" lon="118.57744378398422">
        <ele>29.5474853515625</ele>
        <time>2025-12-03T07:39:19Z</time>
      </trkpt>
      <trkpt lat="24.94547721688109" lon="118.57736070533359">
        <ele>29.2047119140625</ele>
        <time>2025-12-03T07:39:22Z</time>
      </trkpt>
      <trkpt lat="24.945523134375087" lon="118.57725460738676">
        <ele>30.17559814453125</ele>
        <time>2025-12-03T07:39:25Z</time>
      </trkpt>
      <trkpt lat="24.945534048379937" lon="118.5771375013708">
        <ele>30.76580810546875</ele>
        <time>2025-12-03T07:39:28Z</time>
      </trkpt>
      <trkpt lat="24.945510965147776" lon="118.57701839520107">
        <ele>31.62811279296875</ele>
        <time>2025-12-03T07:39:31Z</time>
      </trkpt>
      <trkpt lat="24.945457895832533" lon="118.57691330319294">
        <ele>32.40582275390625</ele>
        <time>2025-12-03T07:39:34Z</time>
      </trkpt>
      <trkpt lat="24.94537584787281" lon="118.57683223468148">
        <ele>33.39410400390625</ele>
        <time>2025-12-03T07:39:37Z</time>
      </trkpt>
      <trkpt lat="24.94526982526222" lon="118.5767811951385">
        <ele>34.74713134765625</ele>
        <time>2025-12-03T07:39:40Z</time>
      </trkpt>
      <trkpt lat="24.945157830833264" lon="118.57676718999902">
        <ele>35.60260009765625</ele>
        <time>2025-12-03T07:39:43Z</time>
      </trkpt>
      <trkpt lat="24.94484189431289" lon="118.57679223488651">
        <ele>37.37615966796875</ele>
        <time>2025-12-03T07:39:52Z</time>
      </trkpt>
      <trkpt lat="24.944524946818056" lon="118.57680226602541">
        <ele>38.1390380859375</ele>
        <time>2025-12-03T07:40:01Z</time>
      </trkpt>
      <trkpt lat="24.94431798514147" lon="118.57681429138296">
        <ele>38.64190673828125</ele>
        <time>2025-12-03T07:40:07Z</time>
      </trkpt>
      <trkpt lat="24.94422002933906" lon="118.57685533579601">
        <ele>39.496337890625</ele>
        <time>2025-12-03T07:40:10Z</time>
      </trkpt>
      <trkpt lat="24.944140100268253" lon="118.57693641542613">
        <ele>39.5115966796875</ele>
        <time>2025-12-03T07:40:13Z</time>
      </trkpt>
      <trkpt lat="24.9440881829595" lon="118.57703951276449">
        <ele>38.8765869140625</ele>
        <time>2025-12-03T07:40:16Z</time>
      </trkpt>
      <trkpt lat="24.94406227160531" lon="118.57715662039564">
        <ele>37.306396484375</ele>
        <time>2025-12-03T07:40:19Z</time>
      </trkpt>
      <trkpt lat="24.94407435853541" lon="118.57727973007975">
        <ele>36.01483154296875</ele>
        <time>2025-12-03T07:40:22Z</time>
      </trkpt>
      <trkpt lat="24.944118437380848" lon="118.57739883322907">
        <ele>35.55059814453125</ele>
        <time>2025-12-03T07:40:25Z</time>
      </trkpt>
      <trkpt lat="24.944186490230326" lon="118.57748690659385">
        <ele>33.38702392578125</ele>
        <time>2025-12-03T07:40:28Z</time>
      </trkpt>
      <trkpt lat="24.94427951660439" lon="118.5775429496355">
        <ele>32.58984375</ele>
        <time>2025-12-03T07:40:31Z</time>
      </trkpt>
      <trkpt lat="24.944387517463177" lon="118.57756596243627">
        <ele>31.1317138671875</ele>
        <time>2025-12-03T07:40:34Z</time>
      </trkpt>
      <trkpt lat="24.944746460031876" lon="118.57755692965821">
        <ele>29.22705078125</ele>
        <time>2025-12-03T07:40:43Z</time>
      </trkpt>
      <trkpt lat="24.945100399774702" lon="118.57754289281173">
        <ele>30.618408203125</ele>
        <time>2025-12-03T07:40:52Z</time>
      </trkpt>
      <trkpt lat="24.94521738029921" lon="118.57753888118474">
        <ele>29.8201904296875</ele>
        <time>2025-12-03T07:40:55Z</time>
      </trkpt>
      <trkpt lat="24.945339334652815" lon="118.57749883740671">
        <ele>29.95947265625</ele>
        <time>2025-12-03T07:40:58Z</time>
      </trkpt>
      <trkpt lat="24.94545424939908" lon="118.57740174342713">
        <ele>31.386474609375</ele>
        <time>2025-12-03T07:41:01Z</time>
      </trkpt>
      <trkpt lat="24.945534124897932" lon="118.57724359675905">
        <ele>32.35650634765625</ele>
        <time>2025-12-03T07:41:04Z</time>
      </trkpt>
      <trkpt lat="24.945537983901485" lon="118.57704942147333">
        <ele>33.0640869140625</ele>
        <time>2025-12-03T07:41:07Z</time>
      </trkpt>
      <trkpt lat="24.945475886659658" lon="118.57690429372029">
        <ele>34.3104248046875</ele>
        <time>2025-12-03T07:41:10Z</time>
      </trkpt>
      <trkpt lat="24.945475886659658" lon="118.57690429372029">
        <ele>34.3104248046875</ele>
        <time>2025-12-03T07:41:13Z</time>
      </trkpt>
    </trkseg>
  </trk>
</gpx>