<?xml version="1.0" encoding="UTF-8"?>
<gpx xmlns="http://www.topografix.com/GPX/1/1" xmlns:gpxtpx="http://www.garmin.com/xmlschemas/TrackPointExtension/v1" xmlns:xsi="http://www.w3.org/2001/XMLSchema-instance" xsi:schemaLocation="http://www.topografix.com/GPX/1/1 http://www.topografix.com/GPX/1/1/gpx.xsd" version="1.1" creator="gpx.py -- https://github.com/tkrajina/gpxpy">
  <trk>
    <name>gpx from keep</name>
    <type>Ride</type>
    <trkseg>
      <trkpt lat="24.90933906549582" lon="118.53818568099581">
        <ele>7.800073370337486</ele>
        <time>2024-11-14T13:49:02Z</time>
      </trkpt>
      <trkpt lat="24.909288341421178" lon="118.53825026855611">
        <ele>8.129039023071527</ele>
        <time>2024-11-14T13:49:10Z</time>
      </trkpt>
      <trkpt lat="24.909252876446786" lon="118.5383426847836">
        <ele>7.430573852732778</ele>
        <time>2024-11-14T13:49:14Z</time>
      </trkpt>
      <trkpt lat="24.90911399124522" lon="118.5385934242532">
        <ele>8.11491147428751</ele>
        <time>2024-11-14T13:49:24Z</time>
      </trkpt>
      <trkpt lat="24.909010862487403" lon="118.53895793775311">
        <ele>7.854736167006195</ele>
        <time>2024-11-14T13:49:38Z</time>
      </trkpt>
      <trkpt lat="24.909069495821267" lon="118.53914491842635">
        <ele>8.503346054814756</ele>
        <time>2024-11-14T13:49:46Z</time>
      </trkpt>
      <trkpt lat="24.909072234074756" lon="118.53935275205326">
        <ele>8.012349012307823</ele>
        <time>2024-11-14T13:49:50Z</time>
      </trkpt>
      <trkpt lat="24.909016404599466" lon="118.53957049282879">
        <ele>8.211740596219897</ele>
        <time>2024-11-14T13:49:58Z</time>
      </trkpt>
      <trkpt lat="24.908930455193676" lon="118.539855804184">
        <ele>7.762386546470225</ele>
        <time>2024-11-14T13:50:06Z</time>
      </trkpt>
      <trkpt lat="24.90886868890848" lon="118.53993459714096">
        <ele>8.296519716270268</ele>
        <time>2024-11-14T13:50:10Z</time>
      </trkpt>
      <trkpt lat="24.908814486544415" lon="118.54004042918189">
        <ele>8.714826202020049</ele>
        <time>2024-11-14T13:50:14Z</time>
      </trkpt>
      <trkpt lat="24.90876230130055" lon="118.5405480361556">
        <ele>8.614247592166066</ele>
        <time>2024-11-14T13:50:26Z</time>
      </trkpt>
      <trkpt lat="24.908697152427266" lon="118.54085510999252">
        <ele>8.19386921171099</ele>
        <time>2024-11-14T13:50:32Z</time>
      </trkpt>
      <trkpt lat="24.908706795398516" lon="118.54096847030792">
        <ele>8.164775201119483</ele>
        <time>2024-11-14T13:50:35Z</time>
      </trkpt>
      <trkpt lat="24.908540765170454" lon="118.541100415127">
        <ele>8.06034787837416</ele>
        <time>2024-11-14T13:50:41Z</time>
      </trkpt>
      <trkpt lat="24.90839582537075" lon="118.54118044732107">
        <ele>7.677756893448532</ele>
        <time>2024-11-14T13:50:45Z</time>
      </trkpt>
      <trkpt lat="24.90823709428859" lon="118.54142924821966">
        <ele>7.951912764459848</ele>
        <time>2024-11-14T13:50:54Z</time>
      </trkpt>
      <trkpt lat="24.90819493453606" lon="118.54160440738022">
        <ele>7.616437996737659</ele>
        <time>2024-11-14T13:50:58Z</time>
      </trkpt>
      <trkpt lat="24.908192901261877" lon="118.54171555209075">
        <ele>7.916054505854845</ele>
        <time>2024-11-14T13:51:00Z</time>
      </trkpt>
      <trkpt lat="24.908159497410395" lon="118.54181802288994">
        <ele>8.142571480944753</ele>
        <time>2024-11-14T13:51:02Z</time>
      </trkpt>
      <trkpt lat="24.90792987276742" lon="118.54225253913116">
        <ele>8.776660356670618</ele>
        <time>2024-11-14T13:51:13Z</time>
      </trkpt>
      <trkpt lat="24.907887917829072" lon="118.5423626070536">
        <ele>8.100144401192665</ele>
        <time>2024-11-14T13:51:16Z</time>
      </trkpt>
      <trkpt lat="24.907766700529784" lon="118.5425276551228">
        <ele>8.166895305737853</ele>
        <time>2024-11-14T13:51:23Z</time>
      </trkpt>
      <trkpt lat="24.90772258066731" lon="118.5428341469958">
        <ele>7.766694470308721</ele>
        <time>2024-11-14T13:51:34Z</time>
      </trkpt>
      <trkpt lat="24.907676453140944" lon="118.54290429228753">
        <ele>7.5769476108253</ele>
        <time>2024-11-14T13:51:38Z</time>
      </trkpt>
      <trkpt lat="24.90755860953625" lon="118.54328754909845">
        <ele>7.4960163393989205</ele>
        <time>2024-11-14T13:51:47Z</time>
      </trkpt>
      <trkpt lat="24.907543802154116" lon="118.54346193270543">
        <ele>7.79794639442116</ele>
        <time>2024-11-14T13:51:52Z</time>
      </trkpt>
      <trkpt lat="24.907494829649387" lon="118.5436034968199">
        <ele>7.99824130628258</ele>
        <time>2024-11-14T13:53:02Z</time>
      </trkpt>
      <trkpt lat="24.90749983306139" lon="118.54389006589805">
        <ele>7.979993371292949</ele>
        <time>2024-11-14T13:53:15Z</time>
      </trkpt>
      <trkpt lat="24.907513786255144" lon="118.54398391068926">
        <ele>7.838973959907889</ele>
        <time>2024-11-14T13:53:18Z</time>
      </trkpt>
      <trkpt lat="24.907497174929244" lon="118.54415023667404">
        <ele>7.6834190264344215</ele>
        <time>2024-11-14T13:53:22Z</time>
      </trkpt>
      <trkpt lat="24.907512877986196" lon="118.5442676386907">
        <ele>7.725813617929816</ele>
        <time>2024-11-14T13:53:25Z</time>
      </trkpt>
      <trkpt lat="24.907614735483104" lon="118.54450915751957">
        <ele>7.855354843661189</ele>
        <time>2024-11-14T13:53:31Z</time>
      </trkpt>
      <trkpt lat="24.907636050348934" lon="118.54464140923089">
        <ele>7.776141463778913</ele>
        <time>2024-11-14T13:53:37Z</time>
      </trkpt>
      <trkpt lat="24.907859787384236" lon="118.54514817848352">
        <ele>7.625069507397711</ele>
        <time>2024-11-14T13:53:47Z</time>
      </trkpt>
      <trkpt lat="24.90793687086155" lon="118.54536002829691">
        <ele>7.633951004594564</ele>
        <time>2024-11-14T13:53:51Z</time>
      </trkpt>
      <trkpt lat="24.90796056417142" lon="118.54547526769812">
        <ele>7.91492854245007</ele>
        <time>2024-11-14T13:53:53Z</time>
      </trkpt>
      <trkpt lat="24.908137148124" lon="118.54591267955287">
        <ele>8.450207628309727</ele>
        <time>2024-11-14T13:54:01Z</time>
      </trkpt>
      <trkpt lat="24.908270726207128" lon="118.54628598261407">
        <ele>8.692734653130174</ele>
        <time>2024-11-14T13:54:09Z</time>
      </trkpt>
      <trkpt lat="24.908464607193142" lon="118.54672473239431">
        <ele>7.98306742310524</ele>
        <time>2024-11-14T13:54:19Z</time>
      </trkpt>
      <trkpt lat="24.908630370674654" lon="118.5471712451945">
        <ele>8.412309893406928</ele>
        <time>2024-11-14T13:54:29Z</time>
      </trkpt>
      <trkpt lat="24.908794317604546" lon="118.54766689066516">
        <ele>7.847433495335281</ele>
        <time>2024-11-14T13:54:44Z</time>
      </trkpt>
      <trkpt lat="24.90898554148242" lon="118.54810842841995">
        <ele>7.502646530047059</ele>
        <time>2024-11-14T13:54:55Z</time>
      </trkpt>
      <trkpt lat="24.909026607860717" lon="118.54817833654887">
        <ele>8.37626712396741</ele>
        <time>2024-11-14T13:54:57Z</time>
      </trkpt>
      <trkpt lat="24.909054854290027" lon="118.54827255661074">
        <ele>7.468588358722627</ele>
        <time>2024-11-14T13:54:59Z</time>
      </trkpt>
      <trkpt lat="24.909248579172267" lon="118.54873660269763">
        <ele>7.99290029052645</ele>
        <time>2024-11-14T13:55:09Z</time>
      </trkpt>
      <trkpt lat="24.90931083744601" lon="118.54894406711527">
        <ele>8.107651526108384</ele>
        <time>2024-11-14T13:55:13Z</time>
      </trkpt>
      <trkpt lat="24.909424986069222" lon="118.54919567404637">
        <ele>8.098065277561545</ele>
        <time>2024-11-14T13:55:19Z</time>
      </trkpt>
      <trkpt lat="24.909515309021675" lon="118.54936378985812">
        <ele>8.205144410952926</ele>
        <time>2024-11-14T13:55:23Z</time>
      </trkpt>
      <trkpt lat="24.90958195413916" lon="118.54952596620552">
        <ele>7.785096445120871</ele>
        <time>2024-11-14T13:55:30Z</time>
      </trkpt>
      <trkpt lat="24.909621009486344" lon="118.54970456958007">
        <ele>7.874153900891542</ele>
        <time>2024-11-14T13:55:38Z</time>
      </trkpt>
      <trkpt lat="24.9096751714402" lon="118.54976133282456">
        <ele>7.495296097360551</ele>
        <time>2024-11-14T13:55:42Z</time>
      </trkpt>
      <trkpt lat="24.90976309382553" lon="118.54997009811478">
        <ele>7.867303544655442</ele>
        <time>2024-11-14T13:55:49Z</time>
      </trkpt>
      <trkpt lat="24.90978911417726" lon="118.55019206209334">
        <ele>8.118740557692945</ele>
        <time>2024-11-14T13:55:55Z</time>
      </trkpt>
      <trkpt lat="24.909996745571405" lon="118.55067815518576">
        <ele>7.949920509010553</ele>
        <time>2024-11-14T13:56:06Z</time>
      </trkpt>
      <trkpt lat="24.910128067501603" lon="118.55104263499469">
        <ele>8.46706971898675</ele>
        <time>2024-11-14T13:56:14Z</time>
      </trkpt>
      <trkpt lat="24.91017695143281" lon="118.55113871120032">
        <ele>7.915939619764686</ele>
        <time>2024-11-14T13:56:16Z</time>
      </trkpt>
      <trkpt lat="24.910265425928312" lon="118.55139351421961">
        <ele>7.7383822510018945</ele>
        <time>2024-11-14T13:56:22Z</time>
      </trkpt>
      <trkpt lat="24.910397318902245" lon="118.55163627040294">
        <ele>6.959222409874201</ele>
        <time>2024-11-14T13:56:29Z</time>
      </trkpt>
      <trkpt lat="24.910429029679204" lon="118.55174037775981">
        <ele>7.696276975795627</ele>
        <time>2024-11-14T13:56:32Z</time>
      </trkpt>
      <trkpt lat="24.91061958812196" lon="118.55211449551588">
        <ele>8.376758544705808</ele>
        <time>2024-11-14T13:56:40Z</time>
      </trkpt>
      <trkpt lat="24.910677215345483" lon="118.55219048953819">
        <ele>7.703830669634044</ele>
        <time>2024-11-14T13:56:42Z</time>
      </trkpt>
      <trkpt lat="24.910752731494135" lon="118.55240922967005">
        <ele>7.873573135584593</ele>
        <time>2024-11-14T13:56:47Z</time>
      </trkpt>
      <trkpt lat="24.910801056106312" lon="118.55250646589475">
        <ele>8.007595792412758</ele>
        <time>2024-11-14T13:56:50Z</time>
      </trkpt>
      <trkpt lat="24.91092762884352" lon="118.55261952210931">
        <ele>7.960457542911172</ele>
        <time>2024-11-14T13:56:56Z</time>
      </trkpt>
      <trkpt lat="24.910977461086848" lon="118.55269565496198">
        <ele>7.682371087372303</ele>
        <time>2024-11-14T13:56:59Z</time>
      </trkpt>
      <trkpt lat="24.91109029425102" lon="118.55302626259324">
        <ele>7.944911266677082</ele>
        <time>2024-11-14T13:57:11Z</time>
      </trkpt>
      <trkpt lat="24.911068796645424" lon="118.5531044162423">
        <ele>7.861410865560174</ele>
        <time>2024-11-14T13:57:14Z</time>
      </trkpt>
      <trkpt lat="24.91107802634495" lon="118.55321685750607">
        <ele>7.826834767125547</ele>
        <time>2024-11-14T13:57:17Z</time>
      </trkpt>
      <trkpt lat="24.911270731753977" lon="118.553661153477">
        <ele>7.564734948799014</ele>
        <time>2024-11-14T13:57:27Z</time>
      </trkpt>
      <trkpt lat="24.911451186869538" lon="118.55412480960555">
        <ele>7.692871329374611</ele>
        <time>2024-11-14T13:57:37Z</time>
      </trkpt>
      <trkpt lat="24.911533629763774" lon="118.55437565287687">
        <ele>8.195030364207923</ele>
        <time>2024-11-14T13:57:44Z</time>
      </trkpt>
      <trkpt lat="24.911640174043516" lon="118.55453135922521">
        <ele>7.865513663738966</ele>
        <time>2024-11-14T13:57:50Z</time>
      </trkpt>
      <trkpt lat="24.91167181120895" lon="118.55461504219821">
        <ele>8.185515788383782</ele>
        <time>2024-11-14T13:57:53Z</time>
      </trkpt>
      <trkpt lat="24.91166401232973" lon="118.55470763506537">
        <ele>7.8004135098308325</ele>
        <time>2024-11-14T13:57:58Z</time>
      </trkpt>
      <trkpt lat="24.911727408530684" lon="118.55476816680189">
        <ele>8.021907893009484</ele>
        <time>2024-11-14T13:58:04Z</time>
      </trkpt>
      <trkpt lat="24.911766368885196" lon="118.55485856145644">
        <ele>7.536459669470787</ele>
        <time>2024-11-14T13:58:08Z</time>
      </trkpt>
      <trkpt lat="24.9117508346936" lon="118.55494256703335">
        <ele>7.659924726001918</ele>
        <time>2024-11-14T13:58:13Z</time>
      </trkpt>
      <trkpt lat="24.911793279828096" lon="118.55502166255302">
        <ele>7.9653833033517</ele>
        <time>2024-11-14T13:58:17Z</time>
      </trkpt>
      <trkpt lat="24.911802712248814" lon="118.5551124779845">
        <ele>8.103495275601745</ele>
        <time>2024-11-14T13:58:20Z</time>
      </trkpt>
      <trkpt lat="24.911888896412137" lon="118.55531598438239">
        <ele>8.272912157699466</ele>
        <time>2024-11-14T13:58:26Z</time>
      </trkpt>
      <trkpt lat="24.911980731588656" lon="118.55547018176584">
        <ele>7.556009979918599</ele>
        <time>2024-11-14T13:58:30Z</time>
      </trkpt>
      <trkpt lat="24.912034809349517" lon="118.55564076439231">
        <ele>7.700185677967966</ele>
        <time>2024-11-14T13:58:34Z</time>
      </trkpt>
      <trkpt lat="24.91214161812264" lon="118.55591737642074">
        <ele>7.72429536562413</ele>
        <time>2024-11-14T13:58:40Z</time>
      </trkpt>
      <trkpt lat="24.912185545653912" lon="118.55599537776303">
        <ele>7.518450020812452</ele>
        <time>2024-11-14T13:58:42Z</time>
      </trkpt>
      <trkpt lat="24.912208998084022" lon="118.55608743750047">
        <ele>6.808624055236578</ele>
        <time>2024-11-14T13:58:44Z</time>
      </trkpt>
      <trkpt lat="24.912395313417935" lon="118.55655609978369">
        <ele>6.976510336622596</ele>
        <time>2024-11-14T13:58:54Z</time>
      </trkpt>
      <trkpt lat="24.9124078479498" lon="118.55664457147596">
        <ele>6.826362547464669</ele>
        <time>2024-11-14T13:58:56Z</time>
      </trkpt>
      <trkpt lat="24.912581893522987" lon="118.5570972012322">
        <ele>7.981457894667983</ele>
        <time>2024-11-14T13:59:06Z</time>
      </trkpt>
      <trkpt lat="24.912618357746645" lon="118.55719140841975">
        <ele>8.189521677792072</ele>
        <time>2024-11-14T13:59:08Z</time>
      </trkpt>
      <trkpt lat="24.912845465416908" lon="118.55750020157026">
        <ele>7.686934729106724</ele>
        <time>2024-11-14T13:59:16Z</time>
      </trkpt>
      <trkpt lat="24.912921093995205" lon="118.55755245813693">
        <ele>7.424964741803706</ele>
        <time>2024-11-14T13:59:18Z</time>
      </trkpt>
      <trkpt lat="24.913057040181904" lon="118.55790231600496">
        <ele>9.873885960318148</ele>
        <time>2024-11-14T13:59:27Z</time>
      </trkpt>
      <trkpt lat="24.913174324785526" lon="118.5582491360473">
        <ele>12.607942915521562</ele>
        <time>2024-11-14T13:59:42Z</time>
      </trkpt>
      <trkpt lat="24.913238212142325" lon="118.55831894219766">
        <ele>12.874398755840957</ele>
        <time>2024-11-14T13:59:46Z</time>
      </trkpt>
      <trkpt lat="24.91330014915831" lon="118.55836044793541">
        <ele>12.727685962803662</ele>
        <time>2024-11-14T13:59:51Z</time>
      </trkpt>
      <trkpt lat="24.91336225393801" lon="118.55843162059728">
        <ele>12.529953578487039</ele>
        <time>2024-11-14T13:59:55Z</time>
      </trkpt>
      <trkpt lat="24.913388504530634" lon="118.55852877708634">
        <ele>13.2830749489367</ele>
        <time>2024-11-14T13:59:58Z</time>
      </trkpt>
      <trkpt lat="24.913662928615942" lon="118.55899708345153">
        <ele>14.267681346274912</ele>
        <time>2024-11-14T14:00:14Z</time>
      </trkpt>
      <trkpt lat="24.91381330478991" lon="118.55927952645163">
        <ele>14.44774992018938</ele>
        <time>2024-11-14T14:00:22Z</time>
      </trkpt>
      <trkpt lat="24.913902633090146" lon="118.55934507434225">
        <ele>14.54948285408318</ele>
        <time>2024-11-14T14:00:24Z</time>
      </trkpt>
      <trkpt lat="24.913944331101483" lon="118.55946095254163">
        <ele>14.903365804813802</ele>
        <time>2024-11-14T14:00:26Z</time>
      </trkpt>
      <trkpt lat="24.91414293583983" lon="118.55969274177956">
        <ele>15.327932410873473</ele>
        <time>2024-11-14T14:00:33Z</time>
      </trkpt>
      <trkpt lat="24.91418475061215" lon="118.55977341191317">
        <ele>15.096640481613576</ele>
        <time>2024-11-14T14:00:35Z</time>
      </trkpt>
      <trkpt lat="24.9143810683334" lon="118.55999904649244">
        <ele>13.615718741901219</ele>
        <time>2024-11-14T14:00:41Z</time>
      </trkpt>
      <trkpt lat="24.91459280538528" lon="118.5603253793733">
        <ele>14.455610977485776</ele>
        <time>2024-11-14T14:00:50Z</time>
      </trkpt>
      <trkpt lat="24.914827148359183" lon="118.56035570149517">
        <ele>13.006343093700707</ele>
        <time>2024-11-14T14:00:59Z</time>
      </trkpt>
      <trkpt lat="24.9148838558115" lon="118.560469455654">
        <ele>12.95813543535769</ele>
        <time>2024-11-14T14:01:02Z</time>
      </trkpt>
      <trkpt lat="24.914825087847323" lon="118.56067737706448">
        <ele>12.432882720604539</ele>
        <time>2024-11-14T14:01:05Z</time>
      </trkpt>
      <trkpt lat="24.91486008822723" lon="118.56087868421064">
        <ele>11.233163584955037</ele>
        <time>2024-11-14T14:01:10Z</time>
      </trkpt>
      <trkpt lat="24.91512923297552" lon="118.56131422301173">
        <ele>4.819493553601205</ele>
        <time>2024-11-14T14:01:21Z</time>
      </trkpt>
      <trkpt lat="24.915414514324024" lon="118.56166516915926">
        <ele>2.7412866186350584</ele>
        <time>2024-11-14T14:01:31Z</time>
      </trkpt>
      <trkpt lat="24.915479166231492" lon="118.56172561723317">
        <ele>3.2145115695893764</ele>
        <time>2024-11-14T14:01:33Z</time>
      </trkpt>
      <trkpt lat="24.91552696751671" lon="118.56180718350018">
        <ele>2.4978134082630277</ele>
        <time>2024-11-14T14:01:35Z</time>
      </trkpt>
      <trkpt lat="24.915591551782924" lon="118.56186384227924">
        <ele>2.540069048292935</ele>
        <time>2024-11-14T14:01:37Z</time>
      </trkpt>
      <trkpt lat="24.915693136125135" lon="118.562048405618">
        <ele>3.090920158661902</ele>
        <time>2024-11-14T14:01:41Z</time>
      </trkpt>
      <trkpt lat="24.916008441416547" lon="118.5625043115101">
        <ele>3.4485551109537482</ele>
        <time>2024-11-14T14:01:53Z</time>
      </trkpt>
      <trkpt lat="24.916307892737827" lon="118.5629413971038">
        <ele>7.463567877188325</ele>
        <time>2024-11-14T14:02:05Z</time>
      </trkpt>
      <trkpt lat="24.916611910401752" lon="118.56335556937837">
        <ele>10.92064050026238</ele>
        <time>2024-11-14T14:02:17Z</time>
      </trkpt>
      <trkpt lat="24.916705369979283" lon="118.56349993198695">
        <ele>10.316556323319674</ele>
        <time>2024-11-14T14:02:21Z</time>
      </trkpt>
      <trkpt lat="24.91674659514963" lon="118.56360731643356">
        <ele>10.193880090489984</ele>
        <time>2024-11-14T14:02:24Z</time>
      </trkpt>
      <trkpt lat="24.916931032259214" lon="118.56390831900487">
        <ele>11.227497428655624</ele>
        <time>2024-11-14T14:02:33Z</time>
      </trkpt>
      <trkpt lat="24.916996790792687" lon="118.56395325124419">
        <ele>10.677951278164983</ele>
        <time>2024-11-14T14:02:37Z</time>
      </trkpt>
      <trkpt lat="24.91709924097594" lon="118.5640739638103">
        <ele>10.803886274807155</ele>
        <time>2024-11-14T14:02:43Z</time>
      </trkpt>
      <trkpt lat="24.91716969377533" lon="118.56410926219495">
        <ele>10.677328933030367</ele>
        <time>2024-11-14T14:02:49Z</time>
      </trkpt>
      <trkpt lat="24.917227750077757" lon="118.56417411681754">
        <ele>10.845401273109019</ele>
        <time>2024-11-14T14:02:51Z</time>
      </trkpt>
      <trkpt lat="24.91738491147602" lon="118.56440829066605">
        <ele>10.448669917881489</ele>
        <time>2024-11-14T14:02:57Z</time>
      </trkpt>
      <trkpt lat="24.917467247384064" lon="118.56458788013595">
        <ele>9.879539902321994</ele>
        <time>2024-11-14T14:03:02Z</time>
      </trkpt>
      <trkpt lat="24.91751407193125" lon="118.56465437786572">
        <ele>10.112893343903124</ele>
        <time>2024-11-14T14:03:05Z</time>
      </trkpt>
      <trkpt lat="24.917466574706985" lon="118.56471675752373">
        <ele>11.326217585243285</ele>
        <time>2024-11-14T14:03:14Z</time>
      </trkpt>
      <trkpt lat="24.917469641538823" lon="118.56474130576026">
        <ele>10.806176486425102</ele>
        <time>2024-11-14T14:03:16Z</time>
      </trkpt>
    </trkseg>
  </trk>
</gpx>