<?xml version="1.0" encoding="UTF-8"?>
<gpx xmlns="http://www.topografix.com/GPX/1/1" xmlns:gpxtpx="http://www.garmin.com/xmlschemas/TrackPointExtension/v1" xmlns:xsi="http://www.w3.org/2001/XMLSchema-instance" xsi:schemaLocation="http://www.topografix.com/GPX/1/1 http://www.topografix.com/GPX/1/1/gpx.xsd" version="1.1" creator="gpx.py -- https://github.com/tkrajina/gpxpy">
  <trk>
    <name>gpx from keep</name>
    <type>Run</type>
    <trkseg>
      <trkpt lat="24.91127312530772" lon="118.5374561117923">
        <ele>10.420094250701368</ele>
        <time>2025-06-26T13:11:30Z</time>
      </trkpt>
      <trkpt lat="24.911196086278363" lon="118.537547217893">
        <ele>10.180554140359163</ele>
        <time>2025-06-26T13:11:36Z</time>
      </trkpt>
      <trkpt lat="24.911040335623145" lon="118.53788929378216">
        <ele>10.111950200982392</ele>
        <time>2025-06-26T13:11:48Z</time>
      </trkpt>
      <trkpt lat="24.910873922466823" lon="118.5382409669782">
        <ele>9.84052267856896</ele>
        <time>2025-06-26T13:12:00Z</time>
      </trkpt>
      <trkpt lat="24.910756015345324" lon="118.53849786565233">
        <ele>10.15591031126678</ele>
        <time>2025-06-26T13:12:09Z</time>
      </trkpt>
      <trkpt lat="24.91076783696734" lon="118.53859519696493">
        <ele>10.098909710533917</ele>
        <time>2025-06-26T13:12:12Z</time>
      </trkpt>
      <trkpt lat="24.910843060694074" lon="118.53865501686377">
        <ele>10.200670710764825</ele>
        <time>2025-06-26T13:12:15Z</time>
      </trkpt>
      <trkpt lat="24.911084041150275" lon="118.53874344918893">
        <ele>9.112720890901983</ele>
        <time>2025-06-26T13:12:24Z</time>
      </trkpt>
      <trkpt lat="24.911149118518306" lon="118.53878977859952">
        <ele>8.978431718423963</ele>
        <time>2025-06-26T13:12:27Z</time>
      </trkpt>
      <trkpt lat="24.911117938140286" lon="118.539093018441">
        <ele>8.129608269780874</ele>
        <time>2025-06-26T13:12:36Z</time>
      </trkpt>
      <trkpt lat="24.911021499165642" lon="118.539464840339">
        <ele>7.7508649211376905</ele>
        <time>2025-06-26T13:12:48Z</time>
      </trkpt>
      <trkpt lat="24.910947558570566" lon="118.53974602358544">
        <ele>8.184540291316807</ele>
        <time>2025-06-26T13:12:57Z</time>
      </trkpt>
      <trkpt lat="24.91088168289183" lon="118.53991703536526">
        <ele>8.19439262431115</ele>
        <time>2025-06-26T13:13:03Z</time>
      </trkpt>
      <trkpt lat="24.910816863835244" lon="118.54020657224622">
        <ele>8.018279771320522</ele>
        <time>2025-06-26T13:13:13Z</time>
      </trkpt>
      <trkpt lat="24.91078299696542" lon="118.54028326521588">
        <ele>7.224813708104193</ele>
        <time>2025-06-26T13:13:16Z</time>
      </trkpt>
      <trkpt lat="24.910778025758127" lon="118.54037618516618">
        <ele>7.773164823651314</ele>
        <time>2025-06-26T13:13:19Z</time>
      </trkpt>
      <trkpt lat="24.910722883615247" lon="118.54056582969581">
        <ele>8.12608078867197</ele>
        <time>2025-06-26T13:13:25Z</time>
      </trkpt>
      <trkpt lat="24.910671927356635" lon="118.54093542858594">
        <ele>7.656001444905996</ele>
        <time>2025-06-26T13:13:37Z</time>
      </trkpt>
      <trkpt lat="24.910610929459814" lon="118.54123122050639">
        <ele>7.829779393970966</ele>
        <time>2025-06-26T13:13:46Z</time>
      </trkpt>
      <trkpt lat="24.910432462650586" lon="118.54152864489144">
        <ele>7.816874259151518</ele>
        <time>2025-06-26T13:13:55Z</time>
      </trkpt>
      <trkpt lat="24.91021148307223" lon="118.54182763470178">
        <ele>7.714403894729912</ele>
        <time>2025-06-26T13:14:04Z</time>
      </trkpt>
      <trkpt lat="24.910165628169253" lon="118.54191898565877">
        <ele>7.997128440998495</ele>
        <time>2025-06-26T13:14:07Z</time>
      </trkpt>
      <trkpt lat="24.910197600866248" lon="118.5420842678224">
        <ele>7.889457586221397</ele>
        <time>2025-06-26T13:14:13Z</time>
      </trkpt>
      <trkpt lat="24.910249935883265" lon="118.54227832208194">
        <ele>8.843710565939546</ele>
        <time>2025-06-26T13:14:19Z</time>
      </trkpt>
      <trkpt lat="24.910257036591993" lon="118.54237374398986">
        <ele>8.521430408582091</ele>
        <time>2025-06-26T13:14:22Z</time>
      </trkpt>
      <trkpt lat="24.91021392244772" lon="118.54254361737223">
        <ele>7.97365724761039</ele>
        <time>2025-06-26T13:14:28Z</time>
      </trkpt>
      <trkpt lat="24.91021032487934" lon="118.54284440711761">
        <ele>8.039645080454648</ele>
        <time>2025-06-26T13:14:37Z</time>
      </trkpt>
      <trkpt lat="24.910173118418403" lon="118.54302680314893">
        <ele>8.62485062610358</ele>
        <time>2025-06-26T13:14:43Z</time>
      </trkpt>
      <trkpt lat="24.910182872276145" lon="118.54311615669371">
        <ele>8.52125571668148</ele>
        <time>2025-06-26T13:14:46Z</time>
      </trkpt>
      <trkpt lat="24.910223204323074" lon="118.54319369083152">
        <ele>8.457102696411312</ele>
        <time>2025-06-26T13:14:49Z</time>
      </trkpt>
      <trkpt lat="24.910233967140808" lon="118.54327192233846">
        <ele>8.257493937388062</ele>
        <time>2025-06-26T13:14:52Z</time>
      </trkpt>
      <trkpt lat="24.91019540095818" lon="118.54335412486675">
        <ele>8.247034281492233</ele>
        <time>2025-06-26T13:14:55Z</time>
      </trkpt>
      <trkpt lat="24.910257999144882" lon="118.54337476538129">
        <ele>8.323007173836231</ele>
        <time>2025-06-26T13:14:58Z</time>
      </trkpt>
      <trkpt lat="24.910569301681246" lon="118.54333477330134">
        <ele>7.930496475659311</ele>
        <time>2025-06-26T13:15:10Z</time>
      </trkpt>
      <trkpt lat="24.910761933568224" lon="118.54331332517134">
        <ele>7.757732091471553</ele>
        <time>2025-06-26T13:15:16Z</time>
      </trkpt>
      <trkpt lat="24.910881076367744" lon="118.54332089669015">
        <ele>8.332226722501218</ele>
        <time>2025-06-26T13:15:20Z</time>
      </trkpt>
      <trkpt lat="24.910967402801308" lon="118.54329412395961">
        <ele>8.602386191487312</ele>
        <time>2025-06-26T13:15:24Z</time>
      </trkpt>
      <trkpt lat="24.91130297375923" lon="118.54324962126825">
        <ele>8.627571779303253</ele>
        <time>2025-06-26T13:15:36Z</time>
      </trkpt>
      <trkpt lat="24.911668290132003" lon="118.54317272187467">
        <ele>9.34027944598347</ele>
        <time>2025-06-26T13:15:48Z</time>
      </trkpt>
      <trkpt lat="24.911843710680646" lon="118.54312352711148">
        <ele>8.59664805047214</ele>
        <time>2025-06-26T13:15:54Z</time>
      </trkpt>
      <trkpt lat="24.91213437462458" lon="118.54309060525053">
        <ele>8.08171066455543</ele>
        <time>2025-06-26T13:16:03Z</time>
      </trkpt>
      <trkpt lat="24.912404310227316" lon="118.54300637297115">
        <ele>7.964700476266444</ele>
        <time>2025-06-26T13:16:12Z</time>
      </trkpt>
      <trkpt lat="24.912676320315676" lon="118.54292644166772">
        <ele>8.04166510514915</ele>
        <time>2025-06-26T13:16:21Z</time>
      </trkpt>
      <trkpt lat="24.912951803450273" lon="118.54284881411266">
        <ele>8.43988733831793</ele>
        <time>2025-06-26T13:16:30Z</time>
      </trkpt>
      <trkpt lat="24.91323448439154" lon="118.54280049494261">
        <ele>7.6547642992809415</ele>
        <time>2025-06-26T13:16:39Z</time>
      </trkpt>
      <trkpt lat="24.91349890859611" lon="118.54275077356036">
        <ele>8.346481148153543</ele>
        <time>2025-06-26T13:16:48Z</time>
      </trkpt>
      <trkpt lat="24.913815433058716" lon="118.54265034821582">
        <ele>8.366361728869379</ele>
        <time>2025-06-26T13:17:00Z</time>
      </trkpt>
      <trkpt lat="24.91389416005398" lon="118.54263650637647">
        <ele>9.052345402538776</ele>
        <time>2025-06-26T13:17:03Z</time>
      </trkpt>
      <trkpt lat="24.91396652382736" lon="118.54269011667213">
        <ele>8.755682177841663</ele>
        <time>2025-06-26T13:17:06Z</time>
      </trkpt>
      <trkpt lat="24.91398817973558" lon="118.54298978782614">
        <ele>8.500821490772069</ele>
        <time>2025-06-26T13:17:15Z</time>
      </trkpt>
      <trkpt lat="24.91415932183292" lon="118.54287722673867">
        <ele>8.977914428338408</ele>
        <time>2025-06-26T13:17:25Z</time>
      </trkpt>
      <trkpt lat="24.91425345049474" lon="118.54283596071876">
        <ele>9.803076852113008</ele>
        <time>2025-06-26T13:17:29Z</time>
      </trkpt>
      <trkpt lat="24.914366217710516" lon="118.54281066765263">
        <ele>9.83976345602423</ele>
        <time>2025-06-26T13:17:33Z</time>
      </trkpt>
      <trkpt lat="24.914496116536675" lon="118.54281358707746">
        <ele>10.121123786084354</ele>
        <time>2025-06-26T13:17:37Z</time>
      </trkpt>
      <trkpt lat="24.914847647731523" lon="118.54275368364699">
        <ele>9.800637921318412</ele>
        <time>2025-06-26T13:17:47Z</time>
      </trkpt>
      <trkpt lat="24.915041575015223" lon="118.5427263617485">
        <ele>10.139970259740949</ele>
        <time>2025-06-26T13:17:53Z</time>
      </trkpt>
      <trkpt lat="24.915317327821267" lon="118.54263853044841">
        <ele>11.548068617470562</ele>
        <time>2025-06-26T13:18:02Z</time>
      </trkpt>
      <trkpt lat="24.915660003603225" lon="118.54255609409414">
        <ele>12.225935695692897</ele>
        <time>2025-06-26T13:18:14Z</time>
      </trkpt>
      <trkpt lat="24.916017101855633" lon="118.54246785989993">
        <ele>12.410922016948462</ele>
        <time>2025-06-26T13:18:26Z</time>
      </trkpt>
      <trkpt lat="24.916266584942058" lon="118.54241122543974">
        <ele>12.241046948358417</ele>
        <time>2025-06-26T13:18:35Z</time>
      </trkpt>
      <trkpt lat="24.91635370435148" lon="118.54237612596678">
        <ele>12.433606768026948</ele>
        <time>2025-06-26T13:18:38Z</time>
      </trkpt>
      <trkpt lat="24.916608557462688" lon="118.54241928632223">
        <ele>13.167427798733115</ele>
        <time>2025-06-26T13:18:47Z</time>
      </trkpt>
      <trkpt lat="24.916885549609088" lon="118.54232318009102">
        <ele>12.182340011000633</ele>
        <time>2025-06-26T13:18:56Z</time>
      </trkpt>
      <trkpt lat="24.916973399051987" lon="118.54229143312487">
        <ele>11.840957323089242</ele>
        <time>2025-06-26T13:18:59Z</time>
      </trkpt>
      <trkpt lat="24.91705194590834" lon="118.54223599617939">
        <ele>10.56026416644454</ele>
        <time>2025-06-26T13:19:02Z</time>
      </trkpt>
      <trkpt lat="24.917399298405112" lon="118.54217410244573">
        <ele>10.704544107429683</ele>
        <time>2025-06-26T13:19:14Z</time>
      </trkpt>
      <trkpt lat="24.917676176295913" lon="118.54215561931203">
        <ele>12.148737560026348</ele>
        <time>2025-06-26T13:19:23Z</time>
      </trkpt>
      <trkpt lat="24.91797565726842" lon="118.54209413047369">
        <ele>12.147290211170912</ele>
        <time>2025-06-26T13:19:34Z</time>
      </trkpt>
      <trkpt lat="24.918318187438956" lon="118.54211380641442">
        <ele>12.57225504424423</ele>
        <time>2025-06-26T13:19:45Z</time>
      </trkpt>
      <trkpt lat="24.91867892366517" lon="118.54209013946216">
        <ele>13.20761694945395</ele>
        <time>2025-06-26T13:19:57Z</time>
      </trkpt>
      <trkpt lat="24.91895641205465" lon="118.54210241832341">
        <ele>14.405159831047058</ele>
        <time>2025-06-26T13:20:06Z</time>
      </trkpt>
      <trkpt lat="24.919159348057548" lon="118.5421093277333">
        <ele>14.675027611665428</ele>
        <time>2025-06-26T13:20:12Z</time>
      </trkpt>
      <trkpt lat="24.9193323300202" lon="118.542138827965">
        <ele>15.131351255811751</ele>
        <time>2025-06-26T13:20:18Z</time>
      </trkpt>
      <trkpt lat="24.919683786802448" lon="118.54213041600514">
        <ele>14.779557003639638</ele>
        <time>2025-06-26T13:20:30Z</time>
      </trkpt>
      <trkpt lat="24.919888070232002" lon="118.54212814534306">
        <ele>14.49565377086401</ele>
        <time>2025-06-26T13:20:39Z</time>
      </trkpt>
      <trkpt lat="24.9202347779989" lon="118.5421485047928">
        <ele>12.724906125105917</ele>
        <time>2025-06-26T13:20:51Z</time>
      </trkpt>
      <trkpt lat="24.920534966043085" lon="118.54214424439813">
        <ele>12.953606109134853</ele>
        <time>2025-06-26T13:21:00Z</time>
      </trkpt>
      <trkpt lat="24.920733228938506" lon="118.54213549802675">
        <ele>13.389603473246098</ele>
        <time>2025-06-26T13:21:06Z</time>
      </trkpt>
      <trkpt lat="24.921065866707362" lon="118.5421308831267">
        <ele>14.500415431335568</ele>
        <time>2025-06-26T13:21:18Z</time>
      </trkpt>
      <trkpt lat="24.92141733360469" lon="118.54214336783454">
        <ele>15.368182553909719</ele>
        <time>2025-06-26T13:21:30Z</time>
      </trkpt>
      <trkpt lat="24.92176231604599" lon="118.542180148482">
        <ele>16.902841768227518</ele>
        <time>2025-06-26T13:21:42Z</time>
      </trkpt>
      <trkpt lat="24.92209810138435" lon="118.54225467612056">
        <ele>17.979100699536502</ele>
        <time>2025-06-26T13:21:54Z</time>
      </trkpt>
      <trkpt lat="24.922439853336826" lon="118.54228697248082">
        <ele>19.482840380631387</ele>
        <time>2025-06-26T13:22:06Z</time>
      </trkpt>
      <trkpt lat="24.922771887409283" lon="118.54237779720616">
        <ele>20.615955505520105</ele>
        <time>2025-06-26T13:22:18Z</time>
      </trkpt>
      <trkpt lat="24.923034348832466" lon="118.54249013085281">
        <ele>21.632827501744032</ele>
        <time>2025-06-26T13:22:27Z</time>
      </trkpt>
      <trkpt lat="24.923381684957203" lon="118.54258785733951">
        <ele>22.522435132414103</ele>
        <time>2025-06-26T13:22:39Z</time>
      </trkpt>
      <trkpt lat="24.92366956855725" lon="118.54275270125763">
        <ele>23.82943822722882</ele>
        <time>2025-06-26T13:22:51Z</time>
      </trkpt>
      <trkpt lat="24.92397847735125" lon="118.54294513937457">
        <ele>27.596077733673155</ele>
        <time>2025-06-26T13:23:03Z</time>
      </trkpt>
      <trkpt lat="24.924283061951424" lon="118.54313715955689">
        <ele>28.15688841789961</ele>
        <time>2025-06-26T13:23:15Z</time>
      </trkpt>
      <trkpt lat="24.92451488985451" lon="118.5433032413718">
        <ele>26.982888262718916</ele>
        <time>2025-06-26T13:23:24Z</time>
      </trkpt>
      <trkpt lat="24.924814883796042" lon="118.54355310082789">
        <ele>25.778222150169313</ele>
        <time>2025-06-26T13:23:37Z</time>
      </trkpt>
      <trkpt lat="24.925076599014652" lon="118.5438239737518">
        <ele>23.38927257247269</ele>
        <time>2025-06-26T13:23:49Z</time>
      </trkpt>
      <trkpt lat="24.925268178982126" lon="118.54403974042346">
        <ele>21.74539060983807</ele>
        <time>2025-06-26T13:23:58Z</time>
      </trkpt>
      <trkpt lat="24.925442216771852" lon="118.54427018801375">
        <ele>19.688407267443836</ele>
        <time>2025-06-26T13:24:07Z</time>
      </trkpt>
      <trkpt lat="24.925496791822162" lon="118.54435964729814">
        <ele>19.61004392337054</ele>
        <time>2025-06-26T13:24:10Z</time>
      </trkpt>
      <trkpt lat="24.92556137675832" lon="118.54442364457998">
        <ele>17.723615661263466</ele>
        <time>2025-06-26T13:24:13Z</time>
      </trkpt>
      <trkpt lat="24.92571489128221" lon="118.54468204166912">
        <ele>17.14637935347855</ele>
        <time>2025-06-26T13:24:22Z</time>
      </trkpt>
      <trkpt lat="24.925869670898088" lon="118.54492715637421">
        <ele>16.651047213934362</ele>
        <time>2025-06-26T13:24:31Z</time>
      </trkpt>
      <trkpt lat="24.926014868447496" lon="118.54518224334882">
        <ele>16.5572111280635</ele>
        <time>2025-06-26T13:24:40Z</time>
      </trkpt>
      <trkpt lat="24.926165310400858" lon="118.54543265471865">
        <ele>14.209776174277067</ele>
        <time>2025-06-26T13:24:49Z</time>
      </trkpt>
      <trkpt lat="24.926384262640692" lon="118.54575701690958">
        <ele>13.385477613657713</ele>
        <time>2025-06-26T13:25:01Z</time>
      </trkpt>
      <trkpt lat="24.926531855831904" lon="118.54602912091157">
        <ele>12.255274250172079</ele>
        <time>2025-06-26T13:25:10Z</time>
      </trkpt>
      <trkpt lat="24.92670607340203" lon="118.54633869071387">
        <ele>12.134113188832998</ele>
        <time>2025-06-26T13:25:22Z</time>
      </trkpt>
      <trkpt lat="24.926798697291535" lon="118.54654715203539">
        <ele>12.340456678532064</ele>
        <time>2025-06-26T13:25:31Z</time>
      </trkpt>
      <trkpt lat="24.926843866280148" lon="118.54660990645861">
        <ele>13.227713413536549</ele>
        <time>2025-06-26T13:25:34Z</time>
      </trkpt>
      <trkpt lat="24.92691329497771" lon="118.54657653901742">
        <ele>11.563296768814325</ele>
        <time>2025-06-26T13:25:37Z</time>
      </trkpt>
      <trkpt lat="24.926921553597097" lon="118.5466572127004">
        <ele>10.711069128476083</ele>
        <time>2025-06-26T13:25:51Z</time>
      </trkpt>
      <trkpt lat="24.927043425551354" lon="118.54659933972337">
        <ele>10.248685736209154</ele>
        <time>2025-06-26T13:25:57Z</time>
      </trkpt>
      <trkpt lat="24.927137796713087" lon="118.54650796092345">
        <ele>10.338445972651243</ele>
        <time>2025-06-26T13:26:00Z</time>
      </trkpt>
      <trkpt lat="24.92714486202521" lon="118.54639114631848">
        <ele>10.392341676168144</ele>
        <time>2025-06-26T13:26:03Z</time>
      </trkpt>
      <trkpt lat="24.927030975268927" lon="118.5462270000956">
        <ele>11.509521826170385</ele>
        <time>2025-06-26T13:26:09Z</time>
      </trkpt>
      <trkpt lat="24.92686794004979" lon="118.54590401130812">
        <ele>12.97683943528682</ele>
        <time>2025-06-26T13:26:21Z</time>
      </trkpt>
      <trkpt lat="24.926690691780337" lon="118.54556697789917">
        <ele>14.011475001461804</ele>
        <time>2025-06-26T13:26:33Z</time>
      </trkpt>
      <trkpt lat="24.9265033610176" lon="118.54526271285457">
        <ele>15.461704195477068</ele>
        <time>2025-06-26T13:26:45Z</time>
      </trkpt>
      <trkpt lat="24.926378495245746" lon="118.545029442983">
        <ele>16.266967313364148</ele>
        <time>2025-06-26T13:26:54Z</time>
      </trkpt>
      <trkpt lat="24.92617784184963" lon="118.54471528627897">
        <ele>18.178934175521135</ele>
        <time>2025-06-26T13:27:06Z</time>
      </trkpt>
      <trkpt lat="24.925995082605073" lon="118.54438872915428">
        <ele>18.160726039670408</ele>
        <time>2025-06-26T13:27:18Z</time>
      </trkpt>
      <trkpt lat="24.925788464342403" lon="118.54408780563422">
        <ele>19.441160693764687</ele>
        <time>2025-06-26T13:27:30Z</time>
      </trkpt>
      <trkpt lat="24.92562688611697" lon="118.54385051752233">
        <ele>20.322679940611124</ele>
        <time>2025-06-26T13:27:39Z</time>
      </trkpt>
      <trkpt lat="24.925497142944007" lon="118.54373251855182">
        <ele>22.752963548526168</ele>
        <time>2025-06-26T13:27:45Z</time>
      </trkpt>
      <trkpt lat="24.925404638757197" lon="118.5435652291045">
        <ele>24.091611405834556</ele>
        <time>2025-06-26T13:27:51Z</time>
      </trkpt>
      <trkpt lat="24.92538774455559" lon="118.54348514618279">
        <ele>25.011010717600584</ele>
        <time>2025-06-26T13:27:54Z</time>
      </trkpt>
      <trkpt lat="24.92532975148402" lon="118.54343834494574">
        <ele>25.082699376158416</ele>
        <time>2025-06-26T13:27:57Z</time>
      </trkpt>
      <trkpt lat="24.925248166788997" lon="118.54341602664108">
        <ele>24.825534585863352</ele>
        <time>2025-06-26T13:28:00Z</time>
      </trkpt>
      <trkpt lat="24.925001968137373" lon="118.54319149373345">
        <ele>27.186681226827204</ele>
        <time>2025-06-26T13:28:12Z</time>
      </trkpt>
      <trkpt lat="24.924730965040492" lon="118.54297234241513">
        <ele>30.388798732310534</ele>
        <time>2025-06-26T13:28:24Z</time>
      </trkpt>
      <trkpt lat="24.924484912169845" lon="118.54280405320065">
        <ele>31.165864911861718</ele>
        <time>2025-06-26T13:28:34Z</time>
      </trkpt>
      <trkpt lat="24.92426016189703" lon="118.54265105538335">
        <ele>32.27986694127321</ele>
        <time>2025-06-26T13:28:43Z</time>
      </trkpt>
      <trkpt lat="24.924164263115195" lon="118.54260590371202">
        <ele>31.888494866900146</ele>
        <time>2025-06-26T13:28:46Z</time>
      </trkpt>
      <trkpt lat="24.923846111886252" lon="118.54240115696425">
        <ele>29.93529841862619</ele>
        <time>2025-06-26T13:28:58Z</time>
      </trkpt>
      <trkpt lat="24.923603435096112" lon="118.54228664884113">
        <ele>27.608773468993604</ele>
        <time>2025-06-26T13:29:07Z</time>
      </trkpt>
      <trkpt lat="24.923440822599783" lon="118.54219162130968">
        <ele>25.284398660063744</ele>
        <time>2025-06-26T13:29:13Z</time>
      </trkpt>
      <trkpt lat="24.923162119868028" lon="118.54208673276696">
        <ele>22.522695443592966</ele>
        <time>2025-06-26T13:29:22Z</time>
      </trkpt>
      <trkpt lat="24.92293877757483" lon="118.54200904624001">
        <ele>21.16216016188264</ele>
        <time>2025-06-26T13:29:31Z</time>
      </trkpt>
      <trkpt lat="24.922670377792336" lon="118.54190492739373">
        <ele>20.957064801827073</ele>
        <time>2025-06-26T13:29:40Z</time>
      </trkpt>
      <trkpt lat="24.92248520229112" lon="118.5418342657927">
        <ele>20.05394507665187</ele>
        <time>2025-06-26T13:29:46Z</time>
      </trkpt>
      <trkpt lat="24.92220427755282" lon="118.54178766147449">
        <ele>18.86147006507963</ele>
        <time>2025-06-26T13:29:55Z</time>
      </trkpt>
      <trkpt lat="24.92195179932812" lon="118.54173212526236">
        <ele>18.41064050141722</ele>
        <time>2025-06-26T13:30:04Z</time>
      </trkpt>
      <trkpt lat="24.921641194409396" lon="118.5417327278021">
        <ele>16.491326888091862</ele>
        <time>2025-06-26T13:30:13Z</time>
      </trkpt>
      <trkpt lat="24.921350415528156" lon="118.54171938207931">
        <ele>16.164080762304366</ele>
        <time>2025-06-26T13:30:22Z</time>
      </trkpt>
      <trkpt lat="24.92107101601175" lon="118.54169626875989">
        <ele>14.32642540615052</ele>
        <time>2025-06-26T13:30:31Z</time>
      </trkpt>
      <trkpt lat="24.92079662380402" lon="118.54171286606227">
        <ele>14.475007828325033</ele>
        <time>2025-06-26T13:30:40Z</time>
      </trkpt>
      <trkpt lat="24.9207226969" lon="118.54168611626093">
        <ele>14.931947770528495</ele>
        <time>2025-06-26T13:30:43Z</time>
      </trkpt>
      <trkpt lat="24.92055281456783" lon="118.54159689056594">
        <ele>13.734016252681613</ele>
        <time>2025-06-26T13:30:49Z</time>
      </trkpt>
      <trkpt lat="24.92037677812531" lon="118.54160780332379">
        <ele>14.499935042113066</ele>
        <time>2025-06-26T13:30:55Z</time>
      </trkpt>
      <trkpt lat="24.920302766924475" lon="118.54166550329813">
        <ele>13.914272788912058</ele>
        <time>2025-06-26T13:30:58Z</time>
      </trkpt>
      <trkpt lat="24.920225381340458" lon="118.5416984776133">
        <ele>13.82402549404651</ele>
        <time>2025-06-26T13:31:01Z</time>
      </trkpt>
      <trkpt lat="24.919894854644056" lon="118.54169476510094">
        <ele>14.125751446932554</ele>
        <time>2025-06-26T13:31:13Z</time>
      </trkpt>
      <trkpt lat="24.919603825532437" lon="118.54169042414124">
        <ele>14.18405897077173</ele>
        <time>2025-06-26T13:31:22Z</time>
      </trkpt>
      <trkpt lat="24.919305825106626" lon="118.54173867880792">
        <ele>15.235421851277351</ele>
        <time>2025-06-26T13:31:31Z</time>
      </trkpt>
      <trkpt lat="24.918998436458732" lon="118.5417464747986">
        <ele>14.55218137614429</ele>
        <time>2025-06-26T13:31:40Z</time>
      </trkpt>
      <trkpt lat="24.918717662022857" lon="118.5417336948597">
        <ele>13.194350864738226</ele>
        <time>2025-06-26T13:31:49Z</time>
      </trkpt>
      <trkpt lat="24.91844037545565" lon="118.54171830290572">
        <ele>12.168386863544583</ele>
        <time>2025-06-26T13:31:58Z</time>
      </trkpt>
      <trkpt lat="24.918148094441793" lon="118.54172619858501">
        <ele>11.499665699899197</ele>
        <time>2025-06-26T13:32:07Z</time>
      </trkpt>
      <trkpt lat="24.917778879354497" lon="118.54173440538479">
        <ele>9.847926633432508</ele>
        <time>2025-06-26T13:32:19Z</time>
      </trkpt>
      <trkpt lat="24.917489411186562" lon="118.54174372895875">
        <ele>10.592042340897024</ele>
        <time>2025-06-26T13:32:28Z</time>
      </trkpt>
      <trkpt lat="24.917177484388336" lon="118.54176698433211">
        <ele>10.369901774451137</ele>
        <time>2025-06-26T13:32:37Z</time>
      </trkpt>
      <trkpt lat="24.916847897915734" lon="118.54173814331087">
        <ele>10.333845946006477</ele>
        <time>2025-06-26T13:32:46Z</time>
      </trkpt>
      <trkpt lat="24.916534395897994" lon="118.54180760634908">
        <ele>11.691815541125834</ele>
        <time>2025-06-26T13:32:55Z</time>
      </trkpt>
      <trkpt lat="24.916229758109996" lon="118.54191924312528">
        <ele>11.999144398607314</ele>
        <time>2025-06-26T13:33:04Z</time>
      </trkpt>
      <trkpt lat="24.916037189093338" lon="118.54198544209349">
        <ele>11.980280824005604</ele>
        <time>2025-06-26T13:33:10Z</time>
      </trkpt>
      <trkpt lat="24.915854956801624" lon="118.54208083391464">
        <ele>12.200840740464628</ele>
        <time>2025-06-26T13:33:16Z</time>
      </trkpt>
      <trkpt lat="24.915578434204246" lon="118.54215348972117">
        <ele>12.656830284744501</ele>
        <time>2025-06-26T13:33:25Z</time>
      </trkpt>
      <trkpt lat="24.91538801669124" lon="118.54226193665416">
        <ele>12.93065604288131</ele>
        <time>2025-06-26T13:33:31Z</time>
      </trkpt>
      <trkpt lat="24.915216185521896" lon="118.54230923430644">
        <ele>13.132213219068944</ele>
        <time>2025-06-26T13:33:37Z</time>
      </trkpt>
      <trkpt lat="24.915052606813152" lon="118.54237646882768">
        <ele>12.465314003638923</ele>
        <time>2025-06-26T13:33:43Z</time>
      </trkpt>
      <trkpt lat="24.914732305294702" lon="118.54245304475837">
        <ele>11.090836237184703</ele>
        <time>2025-06-26T13:33:55Z</time>
      </trkpt>
      <trkpt lat="24.914469409563885" lon="118.5424906606704">
        <ele>10.519643045030534</ele>
        <time>2025-06-26T13:34:04Z</time>
      </trkpt>
      <trkpt lat="24.91428592902809" lon="118.54250419689588">
        <ele>10.386188699863851</ele>
        <time>2025-06-26T13:34:10Z</time>
      </trkpt>
      <trkpt lat="24.914005143569213" lon="118.54262090480967">
        <ele>10.540470955893397</ele>
        <time>2025-06-26T13:34:19Z</time>
      </trkpt>
      <trkpt lat="24.91369575290377" lon="118.54272159641152">
        <ele>9.743704492226243</ele>
        <time>2025-06-26T13:34:28Z</time>
      </trkpt>
      <trkpt lat="24.913506742290117" lon="118.54278888605536">
        <ele>8.850313918665051</ele>
        <time>2025-06-26T13:34:34Z</time>
      </trkpt>
      <trkpt lat="24.91318529770543" lon="118.54281663341102">
        <ele>8.342986404895782</ele>
        <time>2025-06-26T13:34:43Z</time>
      </trkpt>
      <trkpt lat="24.912896884252884" lon="118.54287209306985">
        <ele>7.804164978675544</ele>
        <time>2025-06-26T13:34:52Z</time>
      </trkpt>
      <trkpt lat="24.912605666192224" lon="118.54296874877569">
        <ele>8.786147398874164</ele>
        <time>2025-06-26T13:35:01Z</time>
      </trkpt>
      <trkpt lat="24.912507366638007" lon="118.54300779164015">
        <ele>8.641326919198036</ele>
        <time>2025-06-26T13:35:04Z</time>
      </trkpt>
      <trkpt lat="24.912233199730135" lon="118.54306579996062">
        <ele>8.386273551732302</ele>
        <time>2025-06-26T13:35:13Z</time>
      </trkpt>
      <trkpt lat="24.911952556740204" lon="118.543130101903">
        <ele>8.060434616170824</ele>
        <time>2025-06-26T13:35:22Z</time>
      </trkpt>
      <trkpt lat="24.91162956479978" lon="118.54319776560153">
        <ele>8.532264791429043</ele>
        <time>2025-06-26T13:35:34Z</time>
      </trkpt>
      <trkpt lat="24.911332996148417" lon="118.54324710700132">
        <ele>8.58113447856158</ele>
        <time>2025-06-26T13:35:43Z</time>
      </trkpt>
      <trkpt lat="24.91102202046187" lon="118.54328822391938">
        <ele>7.849698395468295</ele>
        <time>2025-06-26T13:35:52Z</time>
      </trkpt>
      <trkpt lat="24.910698932774206" lon="118.543300535163">
        <ele>8.546957806684077</ele>
        <time>2025-06-26T13:36:01Z</time>
      </trkpt>
      <trkpt lat="24.910388039996562" lon="118.54332891149433">
        <ele>7.7662593787536025</ele>
        <time>2025-06-26T13:36:10Z</time>
      </trkpt>
      <trkpt lat="24.91028821783084" lon="118.54330725112936">
        <ele>7.759976488538086</ele>
        <time>2025-06-26T13:36:13Z</time>
      </trkpt>
      <trkpt lat="24.910257799967287" lon="118.54305604179432">
        <ele>7.115798373706639</ele>
        <time>2025-06-26T13:36:22Z</time>
      </trkpt>
      <trkpt lat="24.910294434732815" lon="118.5427545581628">
        <ele>7.220604506321251</ele>
        <time>2025-06-26T13:36:31Z</time>
      </trkpt>
      <trkpt lat="24.91031845565207" lon="118.54266788770708">
        <ele>7.519540181383491</ele>
        <time>2025-06-26T13:36:34Z</time>
      </trkpt>
      <trkpt lat="24.91037920846812" lon="118.54245247193678">
        <ele>8.187879423610866</ele>
        <time>2025-06-26T13:36:48Z</time>
      </trkpt>
      <trkpt lat="24.91034186277779" lon="118.54213648559507">
        <ele>7.57862944714725</ele>
        <time>2025-06-26T13:37:00Z</time>
      </trkpt>
      <trkpt lat="24.91033527704559" lon="118.54199019342275">
        <ele>8.10834816750139</ele>
        <time>2025-06-26T13:37:06Z</time>
      </trkpt>
    </trkseg>
  </trk>
</gpx>